<?xml version='1.0' encoding='UTF-8' ?><gpx version="1.1" creator="HikingTrailHK" xsi:schemaLocation="http://www.topografix.com/GPX/1/1 http://www.topografix.com/GPX/1/1/gpx.xsd https://hikingtrailhk.appspot.com/xml/gpxextensions/v1 https://hikingtrailhk.appspot.com/xml/gpxextensions/v1/gpxextensions.xsd" xmlns="http://www.topografix.com/GPX/1/1" xmlns:h="https://hikingtrailhk.appspot.com/xml/gpxextensions/v1" xmlns:xsi="http://www.w3.org/2001/XMLSchema-instance"><metadata><name>2015-5-27 香港仔水塘--貝璐道</name><desc></desc><extensions><h:categoryid>nature_trail</h:categoryid></extensions></metadata><trk><trkseg><trkpt lat="22.25134145336352" lon="114.15653529063084" /><trkpt lat="22.25144078125" lon="114.15661879638672" /><trkpt lat="22.25157578125" lon="114.15675579638672" /><trkpt lat="22.25186178125" lon="114.15709079638673" /><trkpt lat="22.25222778125" lon="114.15762579638672" /><trkpt lat="22.25264378125" lon="114.15814379638672" /><trkpt lat="22.25293778125" lon="114.15848679638673" /><trkpt lat="22.25298978125" lon="114.15852679638672" /><trkpt lat="22.25304578125" lon="114.15856479638671" /><trkpt lat="22.25309578125" lon="114.15858479638672" /><trkpt lat="22.25312978125" lon="114.15868379638673" /><trkpt lat="22.25342078125" lon="114.15914079638672" /><trkpt lat="22.25350978125" lon="114.15949179638672" /><trkpt lat="22.25370978125" lon="114.16035579638672" /><trkpt lat="22.25375578125" lon="114.16049379638672" /><trkpt lat="22.25359378125" lon="114.16059879638672" /><trkpt lat="22.25296678125" lon="114.16092879638671" /><trkpt lat="22.25267778125" lon="114.16103079638673" /><trkpt lat="22.25253678125" lon="114.16108579638671" /><trkpt lat="22.25243478125" lon="114.16116879638672" /><trkpt lat="22.25240778125" lon="114.16123379638672" /><trkpt lat="22.25235778125" lon="114.16127779638671" /><trkpt lat="22.25222178125" lon="114.16137279638671" /><trkpt lat="22.25211178125" lon="114.16144479638672" /><trkpt lat="22.25199078125" lon="114.16154979638672" /><trkpt lat="22.25183878125" lon="114.16164379638671" /><trkpt lat="22.25178478125" lon="114.16171379638672" /><trkpt lat="22.25175678125" lon="114.16176979638672" /><trkpt lat="22.25167778125" lon="114.16180479638672" /><trkpt lat="22.25153078125" lon="114.16182879638671" /><trkpt lat="22.25148678125" lon="114.16186079638672" /><trkpt lat="22.25140478125" lon="114.16202479638672" /><trkpt lat="22.25133278125" lon="114.16209479638673" /><trkpt lat="22.25126078125" lon="114.16223979638671" /><trkpt lat="22.25124678125" lon="114.16237979638672" /><trkpt lat="22.25122178125" lon="114.16241979638671" /><trkpt lat="22.25112978125" lon="114.16242079638671" /><trkpt lat="22.25109778125" lon="114.16245979638671" /><trkpt lat="22.25108478125" lon="114.16248879638673" /><trkpt lat="22.25101878125" lon="114.16253979638672" /><trkpt lat="22.25093278125" lon="114.16270879638672" /><trkpt lat="22.25098778125" lon="114.16297479638672" /><trkpt lat="22.25099978125" lon="114.16316479638672" /><trkpt lat="22.25111678125" lon="114.16336279638672" /><trkpt lat="22.25112578125" lon="114.16354479638672" /><trkpt lat="22.25107578125" lon="114.16368779638672" /><trkpt lat="22.25107178125" lon="114.16375579638672" /><trkpt lat="22.25112978125" lon="114.16374379638673" /><trkpt lat="22.25117978125" lon="114.16372879638672" /><trkpt lat="22.25156078125" lon="114.16381979638672" /><trkpt lat="22.25183878125" lon="114.16420879638672" /><trkpt lat="22.25205678125" lon="114.16421679638673" /><trkpt lat="22.25230978125" lon="114.16439179638672" /><trkpt lat="22.25285878125" lon="114.16445879638673" /><trkpt lat="22.25300278125" lon="114.16433079638672" /><trkpt lat="22.25356078125" lon="114.16420679638672" /><trkpt lat="22.25365878125" lon="114.16411179638672" /><trkpt lat="22.25369078125" lon="114.16411179638672" /><trkpt lat="22.25372978125" lon="114.16424679638672" /><trkpt lat="22.25384178125" lon="114.16419979638673" /><trkpt lat="22.25403678125" lon="114.16437379638671" /><trkpt lat="22.25404578125" lon="114.16479479638672" /><trkpt lat="22.25426478125" lon="114.16512379638672" /><trkpt lat="22.25425878125" lon="114.16630879638672" /><trkpt lat="22.25421778125" lon="114.16672679638671" /><trkpt lat="22.25431378125" lon="114.16690379638672" /><trkpt lat="22.25447578125" lon="114.16679379638671" /><trkpt lat="22.25456778125" lon="114.16665879638671" /><trkpt lat="22.25472178125" lon="114.16640379638672" /><trkpt lat="22.25486278125" lon="114.16631079638672" /><trkpt lat="22.25498178125" lon="114.16632079638671" /><trkpt lat="22.25504278125" lon="114.16646579638672" /><trkpt lat="22.25512178125" lon="114.16646679638671" /><trkpt lat="22.25519378125" lon="114.16646379638672" /><trkpt lat="22.25528278125" lon="114.16653479638671" /><trkpt lat="22.25533378125" lon="114.16658879638672" /><trkpt lat="22.25539778125" lon="114.16662079638672" /><trkpt lat="22.25546778125" lon="114.16663679638671" /><trkpt lat="22.25550978125" lon="114.16655679638671" /><trkpt lat="22.25553378125" lon="114.16628479638672" /><trkpt lat="22.25562278125" lon="114.16610579638672" /><trkpt lat="22.25568278125" lon="114.16604879638672" /><trkpt lat="22.25570578125" lon="114.16602579638672" /><trkpt lat="22.25579478125" lon="114.16601279638672" /><trkpt lat="22.25591678125" lon="114.16605479638672" /><trkpt lat="22.25599178125" lon="114.16566879638673" /><trkpt lat="22.25612578125" lon="114.16527879638672" /><trkpt lat="22.25624878125" lon="114.16494079638672" /><trkpt lat="22.25635478125" lon="114.16465179638672" /><trkpt lat="22.25640378125" lon="114.16422179638671" /><trkpt lat="22.25639378125" lon="114.16403579638671" /><trkpt lat="22.25637378125" lon="114.16383679638672" /><trkpt lat="22.25635978125" lon="114.16369879638673" /><trkpt lat="22.25634478125" lon="114.16356079638672" /><trkpt lat="22.25632478125" lon="114.16338079638672" /><trkpt lat="22.25643478125" lon="114.16334279638671" /><trkpt lat="22.256470781250002" lon="114.16336279638672" /><trkpt lat="22.25695878125" lon="114.16328079638672" /><trkpt lat="22.25732478125" lon="114.16322279638672" /><trkpt lat="22.25742178125" lon="114.16322779638672" /><trkpt lat="22.25745678125" lon="114.16321979638671" /><trkpt lat="22.25750978125" lon="114.16320679638672" /><trkpt lat="22.25773978125" lon="114.16317179638672" /><trkpt lat="22.25781678125" lon="114.16317079638672" /><trkpt lat="22.25795678125" lon="114.16324679638672" /><trkpt lat="22.25807578125" lon="114.16330279638672" /><trkpt lat="22.25831478125" lon="114.16333779638671" /><trkpt lat="22.25843778125" lon="114.16333679638672" /><trkpt lat="22.25859678125" lon="114.16335979638671" /><trkpt lat="22.25875978125" lon="114.16337879638672" /><trkpt lat="22.25882178125" lon="114.16340579638671" /><trkpt lat="22.25885678125" lon="114.16340679638672" /><trkpt lat="22.25892778125" lon="114.16342479638672" /><trkpt lat="22.25899978125" lon="114.16337579638672" /><trkpt lat="22.25903178125" lon="114.16329279638671" /><trkpt lat="22.25905478125" lon="114.16312179638672" /><trkpt lat="22.25910578125" lon="114.16302979638672" /><trkpt lat="22.25913078125" lon="114.16294579638672" /><trkpt lat="22.25916278125" lon="114.16278779638672" /><trkpt lat="22.25915578125" lon="114.16268079638672" /><trkpt lat="22.25928278125" lon="114.16253779638672" /><trkpt lat="22.25939278125" lon="114.16245979638671" /><trkpt lat="22.25947178125" lon="114.16241179638672" /><trkpt lat="22.25971278125" lon="114.16236579638672" /><trkpt lat="22.25989178125" lon="114.16226979638672" /><trkpt lat="22.26013978125" lon="114.16231979638673" /><trkpt lat="22.26027678125" lon="114.16236579638672" /><trkpt lat="22.26051378125" lon="114.16232879638672" /><trkpt lat="22.26050878125" lon="114.16218979638671" /><trkpt lat="22.26055178125" lon="114.16186979638672" /><trkpt lat="22.26068378125" lon="114.16168379638673" /><trkpt lat="22.26078378125" lon="114.16163479638672" /><trkpt lat="22.26100278125" lon="114.16168279638671" /><trkpt lat="22.26108478125" lon="114.16154479638672" /><trkpt lat="22.26130678125" lon="114.16144779638672" /><trkpt lat="22.26153178125" lon="114.16142179638672" /><trkpt lat="22.26161478125" lon="114.16151379638671" /><trkpt lat="22.26162578125" lon="114.16171279638672" /><trkpt lat="22.26188778125" lon="114.16185279638673" /><trkpt lat="22.26214278125" lon="114.16187579638672" /><trkpt lat="22.26218678125" lon="114.16179579638671" /><trkpt lat="22.26227678125" lon="114.16166779638672" /><trkpt lat="22.26229178125" lon="114.16145079638672" /><trkpt lat="22.26223178125" lon="114.16145279638671" /><trkpt lat="22.26214878125" lon="114.16141579638672" /><trkpt lat="22.26220678125" lon="114.16077679638671" /><trkpt lat="22.26241178125" lon="114.16055879638672" /><trkpt lat="22.26258178125" lon="114.16042379638672" /><trkpt lat="22.26274478125" lon="114.16038879638671" /><trkpt lat="22.26300778125" lon="114.16035379638672" /><trkpt lat="22.26310478125" lon="114.16027579638671" /><trkpt lat="22.26324178125" lon="114.16021779638672" /><trkpt lat="22.26334678125" lon="114.16017479638671" /><trkpt lat="22.26341578125" lon="114.15996479638672" /><trkpt lat="22.26341278125" lon="114.15991979638672" /><trkpt lat="22.26340778125" lon="114.15985779638672" /><trkpt lat="22.26331678125" lon="114.15982479638672" /><trkpt lat="22.26314578125" lon="114.15989179638672" /><trkpt lat="22.26296178125" lon="114.15989479638672" /><trkpt lat="22.26286078125" lon="114.15960379638672" /><trkpt lat="22.26226378125" lon="114.15957279638671" /><trkpt lat="22.26182378125" lon="114.15954079638672" /><trkpt lat="22.26174878125" lon="114.15944079638672" /><trkpt lat="22.26171478125" lon="114.15919479638671" /><trkpt lat="22.26165478125" lon="114.15916379638672" /><trkpt lat="22.26122578125" lon="114.15930179638671" /><trkpt lat="22.26054378125" lon="114.15932679638672" /><trkpt lat="22.26027578125" lon="114.15957079638672" /><trkpt lat="22.26020478125" lon="114.15960779638672" /><trkpt lat="22.25981778125" lon="114.15957379638672" /><trkpt lat="22.25970778125" lon="114.15967979638671" /><trkpt lat="22.25961978125" lon="114.15981379638671" /><trkpt lat="22.25953778125" lon="114.15981279638672" /><trkpt lat="22.25920378125" lon="114.15940979638673" /><trkpt lat="22.25909178125" lon="114.15938079638671" /><trkpt lat="22.25889278125" lon="114.15936979638671" /><trkpt lat="22.25880978125" lon="114.15927379638671" /><trkpt lat="22.25872378125" lon="114.15920179638672" /><trkpt lat="22.25855078125" lon="114.15936579638672" /><trkpt lat="22.25840678125" lon="114.15936579638672" /><trkpt lat="22.25836178125" lon="114.15956179638673" /><trkpt lat="22.25824778125" lon="114.15967779638672" /><trkpt lat="22.25813178125" lon="114.15974179638673" /><trkpt lat="22.25794678125" lon="114.15965579638672" /><trkpt lat="22.25783978125" lon="114.15951679638673" /><trkpt lat="22.25766878125" lon="114.15941079638672" /><trkpt lat="22.25753078125" lon="114.15948279638671" /><trkpt lat="22.25742078125" lon="114.15960779638672" /><trkpt lat="22.25714878125" lon="114.15952379638672" /><trkpt lat="22.25689278125" lon="114.15936979638671" /><trkpt lat="22.25686478125" lon="114.15917479638672" /><trkpt lat="22.25666378125" lon="114.15899279638671" /><trkpt lat="22.25644478125" lon="114.15893379638672" /><trkpt lat="22.25612878125" lon="114.15862779638672" /><trkpt lat="22.25608378125" lon="114.15845179638671" /><trkpt lat="22.25596078125" lon="114.15835779638672" /><trkpt lat="22.25572978125" lon="114.15835379638672" /><trkpt lat="22.25557978125" lon="114.15818279638673" /><trkpt lat="22.25543378125" lon="114.15799179638672" /><trkpt lat="22.25529178125" lon="114.15777079638671" /><trkpt lat="22.25514678125" lon="114.15787879638673" /><trkpt lat="22.25495578125" lon="114.15792879638671" /><trkpt lat="22.25490378125" lon="114.15787679638672" /><trkpt lat="22.25479978125" lon="114.15719879638672" /><trkpt lat="22.25469078125" lon="114.15669979638672" /><trkpt lat="22.25461178125" lon="114.15658179638672" /><trkpt lat="22.25445378125" lon="114.15652079638672" /><trkpt lat="22.25414278125" lon="114.15665579638672" /><trkpt lat="22.25369078125" lon="114.15674779638672" /><trkpt lat="22.25361278125" lon="114.15664179638672" /><trkpt lat="22.25364078125" lon="114.15642379638672" /><trkpt lat="22.25380778125" lon="114.15628279638672" /><trkpt lat="22.25389378125" lon="114.15602479638672" /><trkpt lat="22.25382778125" lon="114.15578879638672" /><trkpt lat="22.25369378125" lon="114.15565479638671" /><trkpt lat="22.25360378125" lon="114.15556979638671" /><trkpt lat="22.25360078125" lon="114.15549879638672" /><trkpt lat="22.25362978125" lon="114.15541979638672" /><trkpt lat="22.25394078125" lon="114.15526479638672" /><trkpt lat="22.25424078125" lon="114.15505279638671" /><trkpt lat="22.25454978125" lon="114.15453079638672" /><trkpt lat="22.25474378125" lon="114.15448879638672" /><trkpt lat="22.25507978125" lon="114.15440579638671" /><trkpt lat="22.25522378125" lon="114.15448279638672" /><trkpt lat="22.25528278125" lon="114.15471979638671" /><trkpt lat="22.25537678125" lon="114.15484079638672" /><trkpt lat="22.25565078125" lon="114.15485679638672" /><trkpt lat="22.25581478125" lon="114.15503479638672" /><trkpt lat="22.25577778125" lon="114.15538379638672" /><trkpt lat="22.25587378125" lon="114.15553179638673" /><trkpt lat="22.25606178125" lon="114.15562379638672" /><trkpt lat="22.25621578125" lon="114.15583779638672" /><trkpt lat="22.25626078125" lon="114.15627479638673" /><trkpt lat="22.25642078125" lon="114.15640479638672" /><trkpt lat="22.25646678125" lon="114.15661879638672" /><trkpt lat="22.25680978125" lon="114.15665779638672" /><trkpt lat="22.25731478125" lon="114.15613679638672" /><trkpt lat="22.25757178125" lon="114.15608779638671" /><trkpt lat="22.25771078125" lon="114.15621279638673" /><trkpt lat="22.25782078125" lon="114.15640879638671" /><trkpt lat="22.25802778125" lon="114.15652879638672" /><trkpt lat="22.25814578125" lon="114.15673279638672" /><trkpt lat="22.25843878125" lon="114.15693379638672" /><trkpt lat="22.25856478125" lon="114.15720179638672" /><trkpt lat="22.25887278125" lon="114.15716279638671" /><trkpt lat="22.25901778125" lon="114.15720079638672" /><trkpt lat="22.25899978125" lon="114.15745579638671" /><trkpt lat="22.25921978125" lon="114.15768979638672" /><trkpt lat="22.25935078125" lon="114.15753379638672" /><trkpt lat="22.25962278125" lon="114.15758279638672" /><trkpt lat="22.25968678125" lon="114.15781979638672" /><trkpt lat="22.25987678125" lon="114.15798979638672" /><trkpt lat="22.25991078125" lon="114.15809379638672" /><trkpt lat="22.25996078125" lon="114.15809679638672" /><trkpt lat="22.26009078125" lon="114.15789879638672" /><trkpt lat="22.26007078125" lon="114.15741579638672" /><trkpt lat="22.26010978125" lon="114.15726479638671" /><trkpt lat="22.26039078125" lon="114.15698679638672" /><trkpt lat="22.26052978125" lon="114.15699079638672" /><trkpt lat="22.26055078125" lon="114.15694979638671" /><trkpt lat="22.26037278125" lon="114.15644579638672" /><trkpt lat="22.26040778125" lon="114.15614879638672" /><trkpt lat="22.26049278125" lon="114.15600179638672" /><trkpt lat="22.26038678125" lon="114.15585579638672" /><trkpt lat="22.26038578125" lon="114.15572979638672" /><trkpt lat="22.26046378125" lon="114.15550479638672" /><trkpt lat="22.26070778125" lon="114.15544779638672" /><trkpt lat="22.26085778125" lon="114.15530979638672" /><trkpt lat="22.26080778125" lon="114.15525579638673" /><trkpt lat="22.26088078125" lon="114.15506079638672" /><trkpt lat="22.26078978125" lon="114.15466279638672" /><trkpt lat="22.26082078125" lon="114.15440879638672" /><trkpt lat="22.26068578125" lon="114.15436279638672" /><trkpt lat="22.26045778125" lon="114.15455079638672" /><trkpt lat="22.25980278125" lon="114.15477979638672" /><trkpt lat="22.25948178125" lon="114.15476079638673" /><trkpt lat="22.25926578125" lon="114.15483279638671" /><trkpt lat="22.25907778125" lon="114.15482679638671" /><trkpt lat="22.25898878125" lon="114.15474379638673" /><trkpt lat="22.25879678125" lon="114.15450779638672" /><trkpt lat="22.25879878125" lon="114.15465979638672" /><trkpt lat="22.25889878125" lon="114.15495979638672" /><trkpt lat="22.25894978125" lon="114.15501979638672" /><trkpt lat="22.25899178125" lon="114.15504879638672" /><trkpt lat="22.25903978125" lon="114.15505979638672" /><trkpt lat="22.25909978125" lon="114.15506679638672" /><trkpt lat="22.25919978125" lon="114.15507579638673" /><trkpt lat="22.25921978125" lon="114.15507979638672" /><trkpt lat="22.25931078125" lon="114.15510979638672" /><trkpt lat="22.25932878125" lon="114.15512179638672" /><trkpt lat="22.25933578125" lon="114.15513979638672" /><trkpt lat="22.25932678125" lon="114.15515679638672" /><trkpt lat="22.25929978125" lon="114.15516779638672" /><trkpt lat="22.25921978125" lon="114.15518279638673" /><trkpt lat="22.25911978125" lon="114.15519379638671" /><trkpt lat="22.25901978125" lon="114.15520079638672" /><trkpt lat="22.25891978125" lon="114.15520179638672" /><trkpt lat="22.25881978125" lon="114.15519779638672" /><trkpt lat="22.25876978125" lon="114.15518779638671" /><trkpt lat="22.25874978125" lon="114.15518179638671" /><trkpt lat="22.25871078125" lon="114.15516379638672" /><trkpt lat="22.25868978125" lon="114.15515779638672" /><trkpt lat="22.25865978125" lon="114.15515479638673" /><trkpt lat="22.25862878125" lon="114.15515979638671" /><trkpt lat="22.25859978125" lon="114.15516979638672" /><trkpt lat="22.25856078125" lon="114.15518979638672" /><trkpt lat="22.25850978125" lon="114.15520779638672" /><trkpt lat="22.25840978125" lon="114.15522979638672" /><trkpt lat="22.25830978125" lon="114.15524379638671" /><trkpt lat="22.25822978125" lon="114.15525079638672" /><trkpt lat="22.25816978125" lon="114.15525079638672" /><trkpt lat="22.25811978125" lon="114.15524979638671" /><trkpt lat="22.25807978125" lon="114.15524079638672" /><trkpt lat="22.25803978125" lon="114.15522079638671" /><trkpt lat="22.25770078125" lon="114.15506779638672" /><trkpt lat="22.25754078125" lon="114.15483679638672" /><trkpt lat="22.25727378125" lon="114.15469179638671" /><trkpt lat="22.25717178125" lon="114.15458279638672" /><trkpt lat="22.25705978125" lon="114.15446079638672" /><trkpt lat="22.25682178125" lon="114.15429579638672" /><trkpt lat="22.25675478125" lon="114.15427479638672" /><trkpt lat="22.25671178125" lon="114.15425879638671" /><trkpt lat="22.25663178125" lon="114.15422979638672" /><trkpt lat="22.25660478125" lon="114.15425879638671" /><trkpt lat="22.25657478125" lon="114.15430679638672" /><trkpt lat="22.25655178125" lon="114.15434579638672" /><trkpt lat="22.25653078125" lon="114.15435479638671" /><trkpt lat="22.25649778125" lon="114.15434579638672" /><trkpt lat="22.25639078125" lon="114.15428779638673" /><trkpt lat="22.25630878125" lon="114.15427379638672" /><trkpt lat="22.25623078125" lon="114.15425879638671" /><trkpt lat="22.25617778125" lon="114.15422979638672" /><trkpt lat="22.25615078125" lon="114.15420079638672" /><trkpt lat="22.25613178125" lon="114.15415479638672" /><trkpt lat="22.25608678125" lon="114.15403679638672" /><trkpt lat="22.25607078125" lon="114.15399879638672" /><trkpt lat="22.25604378125" lon="114.15396979638672" /><trkpt lat="22.25596378125" lon="114.15391179638672" /><trkpt lat="22.25590978125" lon="114.15388279638672" /><trkpt lat="22.25582578125" lon="114.15384879638673" /><trkpt lat="22.25577478125" lon="114.15379679638671" /><trkpt lat="22.25572078125" lon="114.15373379638672" /><trkpt lat="22.25568678125" lon="114.15360079638671" /><trkpt lat="22.25555178125" lon="114.15350979638671" /><trkpt lat="22.25513478125" lon="114.15341479638671" /><trkpt lat="22.25493878125" lon="114.15338579638671" /><trkpt lat="22.25460178125" lon="114.15314679638672" /><trkpt lat="22.25447478125" lon="114.15316679638671" /><trkpt lat="22.25422878125" lon="114.15332779638672" /><trkpt lat="22.25377978125" lon="114.15365179638673" /><trkpt lat="22.25363878125" lon="114.15381179638672" /><trkpt lat="22.25356178125" lon="114.15384579638672" /><trkpt lat="22.25335978125" lon="114.15375379638672" /><trkpt lat="22.25312278125" lon="114.15356379638672" /><trkpt lat="22.25232978125" lon="114.15287079638672" /><trkpt lat="22.25202878125" lon="114.15244979638672" /><trkpt lat="22.25189778125" lon="114.15234379638672" /><trkpt lat="22.25156978125" lon="114.15218979638672" /><trkpt lat="22.251393781250002" lon="114.15194679638672" /><trkpt lat="22.25107078125" lon="114.15177279638672" /><trkpt lat="22.25098078125" lon="114.15176379638672" /><trkpt lat="22.25089878125" lon="114.15182779638671" /><trkpt lat="22.25091878125" lon="114.15199679638671" /><trkpt lat="22.25105578125" lon="114.15240479638672" /><trkpt lat="22.25101778125" lon="114.15264879638671" /><trkpt lat="22.25092578125" lon="114.15284479638672" /><trkpt lat="22.25069478125" lon="114.15307479638672" /><trkpt lat="22.25067478125" lon="114.15333179638672" /><trkpt lat="22.25061078125" lon="114.15364479638671" /><trkpt lat="22.25064678125" lon="114.15367879638671" /><trkpt lat="22.25083678125" lon="114.15401079638671" /><trkpt lat="22.25092778125" lon="114.15421979638671" /><trkpt lat="22.25096278125" lon="114.15444579638672" /><trkpt lat="22.25095578125" lon="114.15465079638672" /><trkpt lat="22.25089278125" lon="114.15481679638673" /><trkpt lat="22.25080378125" lon="114.15502379638671" /><trkpt lat="22.25078378125" lon="114.15525079638672" /><trkpt lat="22.25078478125" lon="114.15535679638671" /><trkpt lat="22.25080678125" lon="114.15545779638671" /><trkpt lat="22.25084178125" lon="114.15555379638671" /><trkpt lat="22.25086578125" lon="114.15562479638672" /><trkpt lat="22.25086978125" lon="114.15571179638673" /><trkpt lat="22.25084878125" lon="114.15578779638672" /><trkpt lat="22.25079478125" lon="114.15584979638672" /><trkpt lat="22.25075178125" lon="114.15591879638671" /><trkpt lat="22.25057878125" lon="114.15623079638672" /><trkpt lat="22.25053978125" lon="114.15642679638673" /><trkpt lat="22.25076378125" lon="114.15644379638672" /><trkpt lat="22.25106478125" lon="114.15643279638672" /><trkpt lat="22.25115778125" lon="114.15644179638672" /><trkpt lat="22.25123678125" lon="114.15646879638672" /><trkpt lat="22.25132778125" lon="114.15652379638672" /><trkpt lat="22.25134145336352" lon="114.15653529063084" /></trkseg></trk></gpx>