<?xml version='1.0' encoding='UTF-8' ?><gpx version="1.1" creator="HikingTrailHK" xsi:schemaLocation="http://www.topografix.com/GPX/1/1 http://www.topografix.com/GPX/1/1/gpx.xsd https://hikingtrailhk.appspot.com/xml/gpxextensions/v1 https://hikingtrailhk.appspot.com/xml/gpxextensions/v1/gpxextensions.xsd" xmlns="http://www.topografix.com/GPX/1/1" xmlns:h="https://hikingtrailhk.appspot.com/xml/gpxextensions/v1" xmlns:xsi="http://www.w3.org/2001/XMLSchema-instance"><metadata><name>2015-1-1 伯公坳--昂坪</name><desc></desc><extensions><h:categoryid>scenery_route</h:categoryid></extensions></metadata><trk><trkseg><trkpt lat="22.24817394849434" lon="113.94313888499451" /><trkpt lat="22.24822578125" lon="113.94307779638672" /><trkpt lat="22.24831278125" lon="113.94298579638672" /><trkpt lat="22.24851278125" lon="113.94282579638671" /><trkpt lat="22.24848778125" lon="113.94279079638672" /><trkpt lat="22.24836078125" lon="113.94286779638672" /><trkpt lat="22.248229206090432" lon="113.94299661124309" /><trkpt lat="22.24831578125" lon="113.94285879638672" /><trkpt lat="22.24838478125" lon="113.94272179638672" /><trkpt lat="22.24832478125" lon="113.94244779638672" /><trkpt lat="22.24824478125" lon="113.94208679638672" /><trkpt lat="22.24822078125" lon="113.94177779638672" /><trkpt lat="22.24832478125" lon="113.94140079638672" /><trkpt lat="22.24806178125" lon="113.94098879638672" /><trkpt lat="22.24798278125" lon="113.94060179638672" /><trkpt lat="22.24800678125" lon="113.94004379638672" /><trkpt lat="22.24786378125" lon="113.93951179638672" /><trkpt lat="22.24732378125" lon="113.93891179638672" /><trkpt lat="22.24738678125" lon="113.93839679638671" /><trkpt lat="22.24724378125" lon="113.93800179638671" /><trkpt lat="22.24718178125" lon="113.93785379638672" /><trkpt lat="22.24704878125" lon="113.93781979638672" /><trkpt lat="22.24675778125" lon="113.93766379638672" /><trkpt lat="22.24648578125" lon="113.93760779638671" /><trkpt lat="22.24635378125" lon="113.93738379638671" /><trkpt lat="22.24586178125" lon="113.93686879638672" /><trkpt lat="22.24570278125" lon="113.93661079638672" /><trkpt lat="22.24590978125" lon="113.93623779638672" /><trkpt lat="22.24622678125" lon="113.93576779638671" /><trkpt lat="22.24661078125" lon="113.93542979638671" /><trkpt lat="22.24669978125" lon="113.93510779638672" /><trkpt lat="22.24713278125" lon="113.93429379638673" /><trkpt lat="22.24724378125" lon="113.93420179638672" /><trkpt lat="22.24742178125" lon="113.93422179638672" /><trkpt lat="22.24766478125" lon="113.93405379638672" /><trkpt lat="22.24798978125" lon="113.93374479638672" /><trkpt lat="22.24804778125" lon="113.93367979638671" /><trkpt lat="22.24801778125" lon="113.93355779638672" /><trkpt lat="22.24808378125" lon="113.93346479638672" /><trkpt lat="22.24805078125" lon="113.93329879638672" /><trkpt lat="22.24804878125" lon="113.93313279638672" /><trkpt lat="22.24819678125" lon="113.93291579638672" /><trkpt lat="22.24814778125" lon="113.93263879638671" /><trkpt lat="22.24884978125" lon="113.93179379638671" /><trkpt lat="22.24891178125" lon="113.93098879638671" /><trkpt lat="22.24886278125" lon="113.93078379638672" /><trkpt lat="22.24877678125" lon="113.93043079638672" /><trkpt lat="22.24889278125" lon="113.93003679638672" /><trkpt lat="22.24898678125" lon="113.92983979638672" /><trkpt lat="22.24890778125" lon="113.92939479638672" /><trkpt lat="22.24890678125" lon="113.92892079638672" /><trkpt lat="22.24902978125" lon="113.92861579638672" /><trkpt lat="22.24934378125" lon="113.92837479638672" /><trkpt lat="22.24944178125" lon="113.92816579638672" /><trkpt lat="22.24944878125" lon="113.92813579638671" /><trkpt lat="22.24945478125" lon="113.92811079638672" /><trkpt lat="22.24948678125" lon="113.92808179638672" /><trkpt lat="22.24950878125" lon="113.92802979638672" /><trkpt lat="22.24947978125" lon="113.92799579638672" /><trkpt lat="22.24947378125" lon="113.92794379638671" /><trkpt lat="22.24946178125" lon="113.92790079638672" /><trkpt lat="22.24934378125" lon="113.92779379638672" /><trkpt lat="22.24930478125" lon="113.92766979638672" /><trkpt lat="22.24918478125" lon="113.92759079638672" /><trkpt lat="22.24917878125" lon="113.92754579638672" /><trkpt lat="22.24922178125" lon="113.92742879638672" /><trkpt lat="22.24920978125" lon="113.92730379638672" /><trkpt lat="22.24921078125" lon="113.92722779638672" /><trkpt lat="22.24917478125" lon="113.92712879638673" /><trkpt lat="22.24917478125" lon="113.92709979638671" /><trkpt lat="22.24913678125" lon="113.92685879638672" /><trkpt lat="22.24907078125" lon="113.92678279638672" /><trkpt lat="22.24896678125" lon="113.92660979638671" /><trkpt lat="22.24890478125" lon="113.92640679638671" /><trkpt lat="22.24889778125" lon="113.92622079638672" /><trkpt lat="22.24892578125" lon="113.92612479638672" /><trkpt lat="22.24891978125" lon="113.92606979638671" /><trkpt lat="22.24888378125" lon="113.92602779638672" /><trkpt lat="22.24888178125" lon="113.92597979638671" /><trkpt lat="22.24888978125" lon="113.92591979638672" /><trkpt lat="22.24886478125" lon="113.92572579638671" /><trkpt lat="22.24886178125" lon="113.92570379638671" /><trkpt lat="22.24888578125" lon="113.92561979638671" /><trkpt lat="22.24887878125" lon="113.92548279638672" /><trkpt lat="22.24892678125" lon="113.92539779638672" /><trkpt lat="22.24889178125" lon="113.92533779638671" /><trkpt lat="22.24890378125" lon="113.92530779638672" /><trkpt lat="22.24886378125" lon="113.92522079638672" /><trkpt lat="22.24887278125" lon="113.92513579638671" /><trkpt lat="22.24887878125" lon="113.92493879638671" /><trkpt lat="22.24886278125" lon="113.92489279638671" /><trkpt lat="22.24886378125" lon="113.92484979638672" /><trkpt lat="22.24889778125" lon="113.92482079638671" /><trkpt lat="22.24891278125" lon="113.92464779638672" /><trkpt lat="22.24894878125" lon="113.92449979638671" /><trkpt lat="22.24897978125" lon="113.92442479638672" /><trkpt lat="22.24898078125" lon="113.92432179638672" /><trkpt lat="22.24900378125" lon="113.92426879638671" /><trkpt lat="22.24898378125" lon="113.92422879638671" /><trkpt lat="22.24898878125" lon="113.92419679638672" /><trkpt lat="22.24900078125" lon="113.92412479638672" /><trkpt lat="22.24892878125" lon="113.92403079638672" /><trkpt lat="22.24889078125" lon="113.92396779638672" /><trkpt lat="22.24886378125" lon="113.92393579638671" /><trkpt lat="22.24888878125" lon="113.92386879638671" /><trkpt lat="22.24890378125" lon="113.92374279638672" /><trkpt lat="22.24893678125" lon="113.92364879638671" /><trkpt lat="22.24891378125" lon="113.92357479638672" /><trkpt lat="22.24892078125" lon="113.92349179638671" /><trkpt lat="22.24887578125" lon="113.92342279638672" /><trkpt lat="22.24884678125" lon="113.92331179638671" /><trkpt lat="22.24885078125" lon="113.92318379638672" /><trkpt lat="22.24889678125" lon="113.92301779638672" /><trkpt lat="22.24886578125" lon="113.92295779638673" /><trkpt lat="22.24886078125" lon="113.92277079638671" /><trkpt lat="22.24886578125" lon="113.92262079638672" /><trkpt lat="22.24887378125" lon="113.92253779638672" /><trkpt lat="22.24885778125" lon="113.92247879638671" /><trkpt lat="22.24884278125" lon="113.92241379638672" /><trkpt lat="22.24883678125" lon="113.92236979638672" /><trkpt lat="22.24883578125" lon="113.92232879638672" /><trkpt lat="22.24881778125" lon="113.92228479638672" /><trkpt lat="22.24878078125" lon="113.92220979638672" /><trkpt lat="22.24875778125" lon="113.92213379638672" /><trkpt lat="22.24875578125" lon="113.92205979638672" /><trkpt lat="22.24876978125" lon="113.92199379638672" /><trkpt lat="22.24880578125" lon="113.92187279638672" /><trkpt lat="22.24882078125" lon="113.92177079638672" /><trkpt lat="22.24883578125" lon="113.92171579638672" /><trkpt lat="22.24886478125" lon="113.92168179638672" /><trkpt lat="22.24882678125" lon="113.92165779638673" /><trkpt lat="22.24885578125" lon="113.92161979638672" /><trkpt lat="22.24884478125" lon="113.92159579638673" /><trkpt lat="22.24884678125" lon="113.92157879638673" /><trkpt lat="22.24884878125" lon="113.92156379638672" /><trkpt lat="22.24883578125" lon="113.92152279638672" /><trkpt lat="22.24884178125" lon="113.92149879638671" /><trkpt lat="22.24885178125" lon="113.92148479638672" /><trkpt lat="22.24885478125" lon="113.92146679638672" /><trkpt lat="22.24887278125" lon="113.92144279638671" /><trkpt lat="22.24887178125" lon="113.92141879638672" /><trkpt lat="22.24888378125" lon="113.92139879638673" /><trkpt lat="22.24889278125" lon="113.92137079638673" /><trkpt lat="22.24895078125" lon="113.92130179638671" /><trkpt lat="22.24898478125" lon="113.92128079638672" /><trkpt lat="22.24902578125" lon="113.92125579638672" /><trkpt lat="22.24905278125" lon="113.92124279638672" /><trkpt lat="22.24907578125" lon="113.92124179638672" /><trkpt lat="22.24908978125" lon="113.92122379638671" /><trkpt lat="22.24908178125" lon="113.92119179638672" /><trkpt lat="22.24906478125" lon="113.92117079638672" /><trkpt lat="22.24905378125" lon="113.92115779638672" /><trkpt lat="22.24906978125" lon="113.92111979638672" /><trkpt lat="22.24909578125" lon="113.92108879638671" /><trkpt lat="22.24908378125" lon="113.92106279638672" /><trkpt lat="22.24908178125" lon="113.92104579638672" /><trkpt lat="22.24910078125" lon="113.92102779638672" /><trkpt lat="22.24911778125" lon="113.92100679638672" /><trkpt lat="22.24911578125" lon="113.92098979638672" /><trkpt lat="22.24910378125" lon="113.92097579638671" /><trkpt lat="22.24910678125" lon="113.92095679638672" /><trkpt lat="22.24910078125" lon="113.92093979638672" /><trkpt lat="22.24910678125" lon="113.92091879638672" /><trkpt lat="22.24911478125" lon="113.92090879638671" /><trkpt lat="22.24911178125" lon="113.92088679638672" /><trkpt lat="22.24912678125" lon="113.92086179638672" /><trkpt lat="22.24914878125" lon="113.92084079638671" /><trkpt lat="22.24914878125" lon="113.92082079638672" /><trkpt lat="22.24915578125" lon="113.92078379638671" /><trkpt lat="22.24917178125" lon="113.92077279638671" /><trkpt lat="22.24918678125" lon="113.92074979638672" /><trkpt lat="22.24918278125" lon="113.92070679638672" /><trkpt lat="22.24917678125" lon="113.92066679638671" /><trkpt lat="22.24918678125" lon="113.92060579638672" /><trkpt lat="22.24919278125" lon="113.92053379638672" /><trkpt lat="22.24922778125" lon="113.92049579638672" /><trkpt lat="22.24922578125" lon="113.92046079638672" /><trkpt lat="22.24922878125" lon="113.92041979638672" /><trkpt lat="22.24923778125" lon="113.92039679638673" /><trkpt lat="22.24924478125" lon="113.92035379638672" /><trkpt lat="22.24925178125" lon="113.92031679638671" /><trkpt lat="22.24923978125" lon="113.92028279638672" /><trkpt lat="22.24924778125" lon="113.92023579638672" /><trkpt lat="22.24923978125" lon="113.92018879638673" /><trkpt lat="22.24923578125" lon="113.92014379638672" /><trkpt lat="22.24924378125" lon="113.92007379638672" /><trkpt lat="22.24916678125" lon="113.92009179638671" /><trkpt lat="22.24911478125" lon="113.92007679638672" /><trkpt lat="22.24909378125" lon="113.92000579638672" /><trkpt lat="22.24902178125" lon="113.91998979638672" /><trkpt lat="22.24894678125" lon="113.91993879638672" /><trkpt lat="22.24878778125" lon="113.91984379638671" /><trkpt lat="22.24870278125" lon="113.91982879638672" /><trkpt lat="22.24858478125" lon="113.91978479638672" /><trkpt lat="22.24847878125" lon="113.91976779638672" /><trkpt lat="22.24835678125" lon="113.91979279638672" /><trkpt lat="22.24818978125" lon="113.91968979638672" /><trkpt lat="22.24810978125" lon="113.91967979638672" /><trkpt lat="22.24800778125" lon="113.91961979638671" /><trkpt lat="22.24796778125" lon="113.91959079638671" /><trkpt lat="22.24795878125" lon="113.91951979638672" /><trkpt lat="22.24787478125" lon="113.91943679638672" /><trkpt lat="22.24780978125" lon="113.91923879638672" /><trkpt lat="22.24768578125" lon="113.91902079638672" /><trkpt lat="22.24763678125" lon="113.91899679638672" /><trkpt lat="22.24759278125" lon="113.91902179638672" /><trkpt lat="22.24750978125" lon="113.91893079638672" /><trkpt lat="22.24733078125" lon="113.91866379638672" /><trkpt lat="22.24723578125" lon="113.91856379638672" /><trkpt lat="22.24715878125" lon="113.91843379638672" /><trkpt lat="22.24707378125" lon="113.91834279638672" /><trkpt lat="22.24702278125" lon="113.91832879638672" /><trkpt lat="22.24691578125" lon="113.91816079638672" /><trkpt lat="22.24683878125" lon="113.91814579638672" /><trkpt lat="22.24675878125" lon="113.91810479638671" /><trkpt lat="22.24677178125" lon="113.91807079638671" /><trkpt lat="22.24677178125" lon="113.91793779638672" /><trkpt lat="22.24672678125" lon="113.91782579638672" /><trkpt lat="22.24672178125" lon="113.91777479638672" /><trkpt lat="22.24676178125" lon="113.91761279638672" /><trkpt lat="22.24679178125" lon="113.91743979638672" /><trkpt lat="22.24682678125" lon="113.91733879638672" /><trkpt lat="22.24691178125" lon="113.91725479638671" /><trkpt lat="22.24694978125" lon="113.91707279638672" /><trkpt lat="22.24702178125" lon="113.91698179638672" /><trkpt lat="22.24745978125" lon="113.91638079638672" /><trkpt lat="22.24744578125" lon="113.91627279638672" /><trkpt lat="22.24737378125" lon="113.91617579638672" /><trkpt lat="22.24745778125" lon="113.91611979638672" /><trkpt lat="22.24739478125" lon="113.91602579638672" /><trkpt lat="22.24748578125" lon="113.91600679638672" /><trkpt lat="22.24744878125" lon="113.91592979638672" /><trkpt lat="22.24756178125" lon="113.91592279638672" /><trkpt lat="22.24758478125" lon="113.91590479638671" /><trkpt lat="22.24755078125" lon="113.91585579638672" /><trkpt lat="22.24755678125" lon="113.91579379638672" /><trkpt lat="22.24761778125" lon="113.91578079638671" /><trkpt lat="22.24774178125" lon="113.91575979638672" /><trkpt lat="22.24787378125" lon="113.91575679638672" /><trkpt lat="22.24796678125" lon="113.91568679638672" /><trkpt lat="22.24806278125" lon="113.91567579638672" /><trkpt lat="22.24811278125" lon="113.91567079638672" /><trkpt lat="22.24812878125" lon="113.91566879638673" /><trkpt lat="22.24817078125" lon="113.91563779638672" /><trkpt lat="22.24827978125" lon="113.91551279638672" /><trkpt lat="22.24829878125" lon="113.91538679638671" /><trkpt lat="22.24839678125" lon="113.91532379638672" /><trkpt lat="22.24846178125" lon="113.91525179638671" /><trkpt lat="22.24849378125" lon="113.91514879638672" /><trkpt lat="22.24848678125" lon="113.91491279638672" /><trkpt lat="22.24854378125" lon="113.91475079638671" /><trkpt lat="22.24855278125" lon="113.91464979638671" /><trkpt lat="22.24855678125" lon="113.91458979638672" /><trkpt lat="22.24855678125" lon="113.91452579638671" /><trkpt lat="22.24858578125" lon="113.91445079638672" /><trkpt lat="22.24867178125" lon="113.91444479638672" /><trkpt lat="22.24872578125" lon="113.91440279638672" /><trkpt lat="22.24877778125" lon="113.91435979638672" /><trkpt lat="22.24884178125" lon="113.91430379638672" /><trkpt lat="22.24892378125" lon="113.91418979638672" /><trkpt lat="22.24901178125" lon="113.91409379638672" /><trkpt lat="22.24906378125" lon="113.91399079638671" /><trkpt lat="22.24912978125" lon="113.91390379638672" /><trkpt lat="22.24929378125" lon="113.91390379638672" /><trkpt lat="22.24965878125" lon="113.91386979638672" /><trkpt lat="22.24985678125" lon="113.91382979638672" /><trkpt lat="22.25001378125" lon="113.91376279638672" /><trkpt lat="22.25018178125" lon="113.91371579638673" /><trkpt lat="22.25026378125" lon="113.91369379638672" /><trkpt lat="22.25045878125" lon="113.91354379638672" /><trkpt lat="22.25056078125" lon="113.91350879638672" /><trkpt lat="22.25063378125" lon="113.91344779638672" /><trkpt lat="22.25104478125" lon="113.91327679638673" /><trkpt lat="22.25125478125" lon="113.91331679638672" /><trkpt lat="22.25137878125" lon="113.91330579638672" /><trkpt lat="22.25152878125" lon="113.91339879638672" /><trkpt lat="22.25162678125" lon="113.91335779638672" /><trkpt lat="22.25170178125" lon="113.91333079638672" /><trkpt lat="22.25180978125" lon="113.91331979638672" /><trkpt lat="22.25193878125" lon="113.91330679638672" /><trkpt lat="22.25199278125" lon="113.91330179638672" /><trkpt lat="22.25211578125" lon="113.91323379638672" /><trkpt lat="22.25214078125" lon="113.91314879638672" /><trkpt lat="22.25214178125" lon="113.91308079638672" /><trkpt lat="22.25208278125" lon="113.91298879638671" /><trkpt lat="22.25205978125" lon="113.91289279638671" /><trkpt lat="22.25207678125" lon="113.91273779638672" /><trkpt lat="22.25209378125" lon="113.91269979638672" /><trkpt lat="22.25215178125" lon="113.91265879638672" /><trkpt lat="22.25220378125" lon="113.91263179638672" /><trkpt lat="22.25223778125" lon="113.91261779638671" /><trkpt lat="22.25227978125" lon="113.91259179638672" /><trkpt lat="22.25236878125" lon="113.91254279638672" /><trkpt lat="22.25241978125" lon="113.91249979638673" /><trkpt lat="22.25251878125" lon="113.91243179638671" /><trkpt lat="22.25266178125" lon="113.91232579638672" /><trkpt lat="22.25265878125" lon="113.91232079638672" /><trkpt lat="22.25265478125" lon="113.91231679638672" /><trkpt lat="22.25263578125" lon="113.91228479638671" /><trkpt lat="22.25268478125" lon="113.91221479638672" /><trkpt lat="22.25271278125" lon="113.91216979638672" /><trkpt lat="22.25275978125" lon="113.91209879638672" /><trkpt lat="22.25312178125" lon="113.91178879638672" /><trkpt lat="22.25331778125" lon="113.91165179638672" /><trkpt lat="22.25339278125" lon="113.91157179638672" /><trkpt lat="22.25346478125" lon="113.91147179638672" /><trkpt lat="22.25354678125" lon="113.91136879638672" /><trkpt lat="22.25359978125" lon="113.91122679638671" /><trkpt lat="22.25370678125" lon="113.91087979638672" /><trkpt lat="22.25383778125" lon="113.91032979638672" /><trkpt lat="22.25378378125" lon="113.91003879638671" /><trkpt lat="22.25383878125" lon="113.90999279638672" /><trkpt lat="22.25392578125" lon="113.90982279638672" /><trkpt lat="22.25398378125" lon="113.90965179638673" /><trkpt lat="22.25402478125" lon="113.90956079638671" /><trkpt lat="22.25407478125" lon="113.90948179638671" /><trkpt lat="22.25406578125" lon="113.90944279638671" /><trkpt lat="22.25401578125" lon="113.90922979638673" /><trkpt lat="22.25395978125" lon="113.90902679638671" /><trkpt lat="22.25390178125" lon="113.90881479638672" /><trkpt lat="22.25389678125" lon="113.90871679638671" /><trkpt lat="22.25387378125" lon="113.90858579638672" /><trkpt lat="22.25381278125" lon="113.90845879638672" /><trkpt lat="22.25378178125" lon="113.90837979638673" /><trkpt lat="22.25382578125" lon="113.90832579638672" /><trkpt lat="22.25388278125" lon="113.90828079638672" /><trkpt lat="22.25399778125" lon="113.90824479638673" /><trkpt lat="22.25410278125" lon="113.90820379638672" /><trkpt lat="22.25422978125" lon="113.90813379638672" /><trkpt lat="22.25430278125" lon="113.90807279638672" /><trkpt lat="22.25436978125" lon="113.90799779638672" /><trkpt lat="22.25442678125" lon="113.90794679638672" /><trkpt lat="22.25445278125" lon="113.90774979638672" /><trkpt lat="22.25445978125" lon="113.90758779638672" /><trkpt lat="22.25443078125" lon="113.90737879638672" /><trkpt lat="22.25441678125" lon="113.90716679638672" /><trkpt lat="22.25439678125" lon="113.90692579638672" /><trkpt lat="22.25441378125" lon="113.90673979638672" /><trkpt lat="22.25443278125" lon="113.90661279638672" /><trkpt lat="22.25452078125" lon="113.90642279638672" /><trkpt lat="22.25456578125" lon="113.90641879638672" /><trkpt lat="22.25474978125" lon="113.90629579638671" /><trkpt lat="22.25481278125" lon="113.90625379638672" /><trkpt lat="22.25486978125" lon="113.90619079638672" /><trkpt lat="22.25499778125" lon="113.90604779638672" /><trkpt lat="22.25511378125" lon="113.90587479638671" /><trkpt lat="22.25515978125" lon="113.90573479638672" /><trkpt lat="22.25519878125" lon="113.90555379638671" /><trkpt lat="22.25520978125" lon="113.90546079638672" /><trkpt lat="22.25521578125" lon="113.90538079638672" /><trkpt lat="22.25520378125" lon="113.90518879638672" /><trkpt lat="22.25521378125" lon="113.90500579638672" /><trkpt lat="22.25522778125" lon="113.90480879638672" /><trkpt lat="22.25523778125" lon="113.90465879638671" /><trkpt lat="22.25525478125" lon="113.90449179638672" /><trkpt lat="22.25530378125" lon="113.90447179638672" /><trkpt lat="22.25533578125" lon="113.90442879638672" /><trkpt lat="22.25534278125" lon="113.90436479638672" /><trkpt lat="22.25532278125" lon="113.90431879638672" /><trkpt lat="22.25528578125" lon="113.90428879638672" /><trkpt lat="22.25541078125" lon="113.90420779638671" /><trkpt lat="22.25543378125" lon="113.90394279638672" /><trkpt lat="22.25544478125" lon="113.90370079638672" /><trkpt lat="22.25544678125" lon="113.90340279638671" /><trkpt lat="22.25542378125" lon="113.90330579638672" /><trkpt lat="22.25532978125" lon="113.90307179638671" /><trkpt lat="22.25521778125" lon="113.90288079638673" /><trkpt lat="22.25510778125" lon="113.90275679638673" /><trkpt lat="22.25501478125" lon="113.90265979638671" /><trkpt lat="22.255101556483236" lon="113.90261417229874" /></trkseg></trk></gpx>