<?xml version='1.0' encoding='UTF-8' ?><gpx version="1.1" creator="HikingTrailHK" xsi:schemaLocation="http://www.topografix.com/GPX/1/1 http://www.topografix.com/GPX/1/1/gpx.xsd" xmlns="http://www.topografix.com/GPX/1/1" xmlns:xsi="http://www.w3.org/2001/XMLSchema-instance"><metadata><name>九華徑 @ 2025-12-18 10:04:18</name><desc></desc></metadata><wpt lat="22.34549833333333" lon="114.13665999999999"><ele>11.399999999999999</ele><time>2025-12-18T02:32:49Z</time><name>古井</name></wpt><wpt lat="22.34456" lon="114.13549833333333"><ele>4.3</ele><time>2025-12-18T02:58:52Z</time><name>紅磚屋</name></wpt><wpt lat="22.34415166666667" lon="114.13566999999999"><ele>4.0</ele><time>2025-12-18T03:00:05Z</time><name>路德小學 復活堂</name></wpt><wpt lat="22.346719212514614" lon="114.13483196262644"><name>天台精舍</name></wpt><wpt lat="22.345503428990426" lon="114.13633532657957"><name>饒公祠</name></wpt><wpt lat="22.345492362464796" lon="114.13622359427376"><name>曾氏家祠</name></wpt><wpt lat="22.34472269268133" lon="114.13724572052172"><name>養正家塾</name></wpt><trk><trkseg><trkpt lat="22.343881666666668" lon="114.13675833333333"><ele>0.7</ele><time>2025-12-18T02:04:18Z</time></trkpt><trkpt lat="22.343876666666667" lon="114.13678499999999"><ele>0.9999999999999998</ele><time>2025-12-18T02:04:20Z</time></trkpt><trkpt lat="22.34387333333333" lon="114.13681"><ele>1.2</ele><time>2025-12-18T02:04:22Z</time></trkpt><trkpt lat="22.34387166666667" lon="114.13683666666665"><ele>1.5999999999999999</ele><time>2025-12-18T02:04:24Z</time></trkpt><trkpt lat="22.34387" lon="114.13686000000001"><ele>2.0999999999999996</ele><time>2025-12-18T02:04:26Z</time></trkpt><trkpt lat="22.34386833333333" lon="114.13688333333333"><ele>2.4000000000000004</ele><time>2025-12-18T02:04:28Z</time></trkpt><trkpt lat="22.343866666666667" lon="114.13691166666668"><ele>3.1000000000000005</ele><time>2025-12-18T02:04:31Z</time></trkpt><trkpt lat="22.343864999999997" lon="114.136935"><ele>3.4000000000000004</ele><time>2025-12-18T02:04:33Z</time></trkpt><trkpt lat="22.343863333333335" lon="114.13695666666666"><ele>3.5</ele><time>2025-12-18T02:04:35Z</time></trkpt><trkpt lat="22.343860000000003" lon="114.13698500000001"><ele>3.4000000000000004</ele><time>2025-12-18T02:04:38Z</time></trkpt><trkpt lat="22.343858333333333" lon="114.13701"><ele>3.4000000000000004</ele><time>2025-12-18T02:04:40Z</time></trkpt><trkpt lat="22.343855" lon="114.13704166666666"><ele>4.1000000000000005</ele><time>2025-12-18T02:04:43Z</time></trkpt><trkpt lat="22.343853333333332" lon="114.13706833333332"><ele>4.5</ele><time>2025-12-18T02:04:45Z</time></trkpt><trkpt lat="22.34385166666667" lon="114.13709166666668"><ele>4.8</ele><time>2025-12-18T02:04:47Z</time></trkpt><trkpt lat="22.343848333333334" lon="114.13711833333333"><ele>5.1000000000000005</ele><time>2025-12-18T02:04:49Z</time></trkpt><trkpt lat="22.343843333333332" lon="114.13714833333333"><ele>6.5</ele><time>2025-12-18T02:04:53Z</time></trkpt><trkpt lat="22.34383833333333" lon="114.13717666666668"><ele>6.6000000000000005</ele><time>2025-12-18T02:04:55Z</time></trkpt><trkpt lat="22.343833333333336" lon="114.13720666666669"><ele>6.8</ele><time>2025-12-18T02:04:58Z</time></trkpt><trkpt lat="22.343830000000004" lon="114.13723166666665"><ele>6.6000000000000005</ele><time>2025-12-18T02:05:01Z</time></trkpt><trkpt lat="22.343825" lon="114.13725833333335"><ele>6.8999999999999995</ele><time>2025-12-18T02:05:04Z</time></trkpt><trkpt lat="22.343818333333335" lon="114.137285"><ele>6.8999999999999995</ele><time>2025-12-18T02:05:08Z</time></trkpt><trkpt lat="22.343813333333333" lon="114.13731333333332"><ele>5.6000000000000005</ele><time>2025-12-18T02:05:11Z</time></trkpt><trkpt lat="22.34380666666667" lon="114.13734666666666"><ele>5.6000000000000005</ele><time>2025-12-18T02:05:13Z</time></trkpt><trkpt lat="22.343801666666664" lon="114.137375"><ele>6.2</ele><time>2025-12-18T02:05:15Z</time></trkpt><trkpt lat="22.34379666666667" lon="114.13740166666666"><ele>6.7</ele><time>2025-12-18T02:05:17Z</time></trkpt><trkpt lat="22.34379" lon="114.13742333333333"><ele>6.8</ele><time>2025-12-18T02:05:19Z</time></trkpt><trkpt lat="22.34380666666667" lon="114.13740666666666"><ele>6.2</ele><time>2025-12-18T02:05:31Z</time></trkpt><trkpt lat="22.34381166666667" lon="114.13738166666666"><ele>6.2</ele><time>2025-12-18T02:05:33Z</time></trkpt><trkpt lat="22.34380833333333" lon="114.13736166666668"><ele>6.8999999999999995</ele><time>2025-12-18T02:05:38Z</time></trkpt><trkpt lat="22.34380833333333" lon="114.13734166666667"><ele>7.6000000000000005</ele><time>2025-12-18T02:05:42Z</time></trkpt><trkpt lat="22.34380833333333" lon="114.13731166666666"><ele>9.7</ele><time>2025-12-18T02:05:49Z</time></trkpt><trkpt lat="22.34381166666667" lon="114.13729"><ele>10.0</ele><time>2025-12-18T02:05:53Z</time></trkpt><trkpt lat="22.34382833333333" lon="114.13727833333333"><ele>10.399999999999999</ele><time>2025-12-18T02:05:55Z</time></trkpt><trkpt lat="22.343833333333336" lon="114.13725500000001"><ele>10.6</ele><time>2025-12-18T02:05:57Z</time></trkpt><trkpt lat="22.34383833333333" lon="114.13722333333332"><ele>11.399999999999999</ele><time>2025-12-18T02:06:02Z</time></trkpt><trkpt lat="22.343845" lon="114.13718500000002"><ele>11.799999999999999</ele><time>2025-12-18T02:06:04Z</time></trkpt><trkpt lat="22.343848333333334" lon="114.13716333333332"><ele>12.7</ele><time>2025-12-18T02:06:06Z</time></trkpt><trkpt lat="22.343878333333336" lon="114.13717999999999"><ele>14.7</ele><time>2025-12-18T02:06:10Z</time></trkpt><trkpt lat="22.343898333333332" lon="114.13718833333333"><ele>14.299999999999999</ele><time>2025-12-18T02:06:11Z</time></trkpt><trkpt lat="22.34392666666667" lon="114.13719833333334"><ele>13.899999999999999</ele><time>2025-12-18T02:06:13Z</time></trkpt><trkpt lat="22.343950000000003" lon="114.13719999999999"><ele>13.799999999999999</ele><time>2025-12-18T02:06:15Z</time></trkpt><trkpt lat="22.34397" lon="114.13720833333333"><ele>12.2</ele><time>2025-12-18T02:06:17Z</time></trkpt><trkpt lat="22.34399" lon="114.13721166666667"><ele>10.299999999999999</ele><time>2025-12-18T02:06:20Z</time></trkpt><trkpt lat="22.344005" lon="114.13722666666666"><ele>8.6</ele><time>2025-12-18T02:06:29Z</time></trkpt><trkpt lat="22.34399" lon="114.13725166666667"><ele>8.7</ele><time>2025-12-18T02:06:36Z</time></trkpt><trkpt lat="22.34397666666667" lon="114.13727500000002"><ele>9.1</ele><time>2025-12-18T02:06:38Z</time></trkpt><trkpt lat="22.34396" lon="114.13728666666665"><ele>9.0</ele><time>2025-12-18T02:06:40Z</time></trkpt><trkpt lat="22.343948333333334" lon="114.13731833333334"><ele>10.5</ele><time>2025-12-18T02:06:48Z</time></trkpt><trkpt lat="22.343923333333336" lon="114.13732166666665"><ele>10.899999999999999</ele><time>2025-12-18T02:06:50Z</time></trkpt><trkpt lat="22.343909999999997" lon="114.13733500000002"><ele>11.6</ele><time>2025-12-18T02:06:53Z</time></trkpt><trkpt lat="22.343923333333336" lon="114.13731333333332"><ele>11.899999999999999</ele><time>2025-12-18T02:07:03Z</time></trkpt><trkpt lat="22.343935000000002" lon="114.137285"><ele>11.399999999999999</ele><time>2025-12-18T02:07:07Z</time></trkpt><trkpt lat="22.343951666666666" lon="114.13725166666667"><ele>11.399999999999999</ele><time>2025-12-18T02:07:09Z</time></trkpt><trkpt lat="22.343966666666667" lon="114.13722666666666"><ele>10.2</ele><time>2025-12-18T02:07:11Z</time></trkpt><trkpt lat="22.343981666666664" lon="114.13721500000001"><ele>8.2</ele><time>2025-12-18T02:07:13Z</time></trkpt><trkpt lat="22.34400333333333" lon="114.13722000000001"><ele>7.3999999999999995</ele><time>2025-12-18T02:07:16Z</time></trkpt><trkpt lat="22.344028333333334" lon="114.13723666666668"><ele>6.0</ele><time>2025-12-18T02:07:18Z</time></trkpt><trkpt lat="22.344055000000004" lon="114.13723999999999"><ele>4.8</ele><time>2025-12-18T02:07:20Z</time></trkpt><trkpt lat="22.344074999999997" lon="114.13723"><ele>4.3</ele><time>2025-12-18T02:07:22Z</time></trkpt><trkpt lat="22.344096666666662" lon="114.137225"><ele>5.3</ele><time>2025-12-18T02:07:24Z</time></trkpt><trkpt lat="22.344116666666665" lon="114.13723499999999"><ele>7.6000000000000005</ele><time>2025-12-18T02:07:29Z</time></trkpt><trkpt lat="22.344136666666667" lon="114.13723833333333"><ele>8.0</ele><time>2025-12-18T02:07:31Z</time></trkpt><trkpt lat="22.344160000000002" lon="114.13723833333333"><ele>9.5</ele><time>2025-12-18T02:07:34Z</time></trkpt><trkpt lat="22.344171666666664" lon="114.13722166666666"><ele>10.5</ele><time>2025-12-18T02:07:37Z</time></trkpt><trkpt lat="22.34419666666667" lon="114.137225"><ele>10.299999999999999</ele><time>2025-12-18T02:07:47Z</time></trkpt><trkpt lat="22.344218333333334" lon="114.13722166666666"><ele>9.799999999999999</ele><time>2025-12-18T02:07:50Z</time></trkpt><trkpt lat="22.344236666666667" lon="114.13721500000001"><ele>9.1</ele><time>2025-12-18T02:07:53Z</time></trkpt><trkpt lat="22.344248333333333" lon="114.13719999999999"><ele>9.399999999999999</ele><time>2025-12-18T02:07:55Z</time></trkpt><trkpt lat="22.344271666666668" lon="114.137195"><ele>8.399999999999999</ele><time>2025-12-18T02:07:58Z</time></trkpt><trkpt lat="22.344253333333334" lon="114.13720833333333"><ele>7.2</ele><time>2025-12-18T02:08:05Z</time></trkpt><trkpt lat="22.344275" lon="114.13721833333332"><ele>7.7</ele><time>2025-12-18T02:08:27Z</time></trkpt><trkpt lat="22.34430166666667" lon="114.13722000000001"><ele>7.3</ele><time>2025-12-18T02:08:30Z</time></trkpt><trkpt lat="22.344326666666667" lon="114.13721500000001"><ele>7.2</ele><time>2025-12-18T02:08:32Z</time></trkpt><trkpt lat="22.344350000000002" lon="114.13721833333332"><ele>7.3999999999999995</ele><time>2025-12-18T02:08:35Z</time></trkpt><trkpt lat="22.344365" lon="114.13723333333334"><ele>7.000000000000001</ele><time>2025-12-18T02:08:38Z</time></trkpt><trkpt lat="22.344396666666665" lon="114.13724666666667"><ele>7.8</ele><time>2025-12-18T02:08:49Z</time></trkpt><trkpt lat="22.344448333333336" lon="114.13724166666667"><ele>6.4</ele><time>2025-12-18T02:09:09Z</time></trkpt><trkpt lat="22.34446666666667" lon="114.13723333333334"><ele>5.8</ele><time>2025-12-18T02:09:11Z</time></trkpt><trkpt lat="22.344485000000002" lon="114.13723333333334"><ele>5.3</ele><time>2025-12-18T02:09:13Z</time></trkpt><trkpt lat="22.344505000000005" lon="114.13723499999999"><ele>5.0</ele><time>2025-12-18T02:09:15Z</time></trkpt><trkpt lat="22.344524999999997" lon="114.13723333333334"><ele>4.9</ele><time>2025-12-18T02:09:17Z</time></trkpt><trkpt lat="22.344546666666663" lon="114.13723166666665"><ele>4.3</ele><time>2025-12-18T02:09:20Z</time></trkpt><trkpt lat="22.344568333333335" lon="114.13723"><ele>3.9000000000000004</ele><time>2025-12-18T02:09:22Z</time></trkpt><trkpt lat="22.344586666666668" lon="114.13723499999999"><ele>3.5</ele><time>2025-12-18T02:09:24Z</time></trkpt><trkpt lat="22.344606666666664" lon="114.13723333333334"><ele>3.3</ele><time>2025-12-18T02:09:28Z</time></trkpt><trkpt lat="22.344628333333336" lon="114.13722833333334"><ele>3.3</ele><time>2025-12-18T02:09:30Z</time></trkpt><trkpt lat="22.344643333333337" lon="114.13721333333334"><ele>3.4000000000000004</ele><time>2025-12-18T02:09:32Z</time></trkpt><trkpt lat="22.34466166666667" lon="114.137205"><ele>3.7</ele><time>2025-12-18T02:09:34Z</time></trkpt><trkpt lat="22.34468" lon="114.137205"><ele>4.0</ele><time>2025-12-18T02:09:36Z</time></trkpt><trkpt lat="22.344710000000003" lon="114.13719166666667"><ele>4.8</ele><time>2025-12-18T02:09:39Z</time></trkpt><trkpt lat="22.344726666666663" lon="114.137205"><ele>5.0</ele><time>2025-12-18T02:09:44Z</time></trkpt><trkpt lat="22.34472333333333" lon="114.137225"><ele>4.8</ele><time>2025-12-18T02:09:50Z</time></trkpt><trkpt lat="22.34472" lon="114.13724500000002"><ele>7.1000000000000005</ele><time>2025-12-18T02:10:11Z</time></trkpt><trkpt lat="22.344755000000003" lon="114.13721833333332"><ele>7.6000000000000005</ele><time>2025-12-18T02:10:39Z</time></trkpt><trkpt lat="22.344773333333332" lon="114.13719999999999"><ele>7.7</ele><time>2025-12-18T02:10:43Z</time></trkpt><trkpt lat="22.344789999999996" lon="114.13718333333333"><ele>7.8</ele><time>2025-12-18T02:10:46Z</time></trkpt><trkpt lat="22.344800000000003" lon="114.13716000000001"><ele>8.0</ele><time>2025-12-18T02:10:49Z</time></trkpt><trkpt lat="22.344815" lon="114.13714833333333"><ele>8.299999999999999</ele><time>2025-12-18T02:10:51Z</time></trkpt><trkpt lat="22.344828333333332" lon="114.13713166666666"><ele>8.399999999999999</ele><time>2025-12-18T02:10:53Z</time></trkpt><trkpt lat="22.344839999999998" lon="114.13711333333335"><ele>8.6</ele><time>2025-12-18T02:10:59Z</time></trkpt><trkpt lat="22.34485833333333" lon="114.137105"><ele>8.799999999999999</ele><time>2025-12-18T02:11:02Z</time></trkpt><trkpt lat="22.344878333333334" lon="114.137105"><ele>8.799999999999999</ele><time>2025-12-18T02:11:04Z</time></trkpt><trkpt lat="22.3449" lon="114.13710999999999"><ele>9.0</ele><time>2025-12-18T02:11:06Z</time></trkpt><trkpt lat="22.344918333333332" lon="114.13710666666665"><ele>9.2</ele><time>2025-12-18T02:11:08Z</time></trkpt><trkpt lat="22.344939999999998" lon="114.13711333333335"><ele>9.5</ele><time>2025-12-18T02:11:11Z</time></trkpt><trkpt lat="22.34496" lon="114.13712166666667"><ele>9.5</ele><time>2025-12-18T02:11:15Z</time></trkpt><trkpt lat="22.344988333333337" lon="114.13712500000001"><ele>8.799999999999999</ele><time>2025-12-18T02:11:24Z</time></trkpt><trkpt lat="22.344998333333333" lon="114.13708999999999"><ele>9.6</ele><time>2025-12-18T02:12:48Z</time></trkpt><trkpt lat="22.345016666666666" lon="114.13708333333334"><ele>9.7</ele><time>2025-12-18T02:12:54Z</time></trkpt><trkpt lat="22.345041666666663" lon="114.137115"><ele>9.399999999999999</ele><time>2025-12-18T02:12:56Z</time></trkpt><trkpt lat="22.345056666666665" lon="114.13713333333332"><ele>9.2</ele><time>2025-12-18T02:12:57Z</time></trkpt><trkpt lat="22.345085" lon="114.13713833333334"><ele>8.799999999999999</ele><time>2025-12-18T02:12:59Z</time></trkpt><trkpt lat="22.345116666666666" lon="114.13714666666668"><ele>8.5</ele><time>2025-12-18T02:13:01Z</time></trkpt><trkpt lat="22.34514166666667" lon="114.13715500000002"><ele>8.2</ele><time>2025-12-18T02:13:03Z</time></trkpt><trkpt lat="22.345145000000002" lon="114.137175"><ele>7.8</ele><time>2025-12-18T02:13:07Z</time></trkpt><trkpt lat="22.34513666666667" lon="114.13719333333331"><ele>7.7</ele><time>2025-12-18T02:13:10Z</time></trkpt><trkpt lat="22.345125" lon="114.13721"><ele>7.8999999999999995</ele><time>2025-12-18T02:13:14Z</time></trkpt><trkpt lat="22.345113333333334" lon="114.13722666666666"><ele>7.8999999999999995</ele><time>2025-12-18T02:13:16Z</time></trkpt><trkpt lat="22.345115000000003" lon="114.13725000000001"><ele>8.2</ele><time>2025-12-18T02:13:19Z</time></trkpt><trkpt lat="22.345106666666666" lon="114.13726833333334"><ele>8.6</ele><time>2025-12-18T02:13:23Z</time></trkpt><trkpt lat="22.345104999999997" lon="114.13729"><ele>9.2</ele><time>2025-12-18T02:13:26Z</time></trkpt><trkpt lat="22.34509333333333" lon="114.13730666666667"><ele>9.5</ele><time>2025-12-18T02:13:28Z</time></trkpt><trkpt lat="22.34506666666667" lon="114.13730833333332"><ele>9.799999999999999</ele><time>2025-12-18T02:13:31Z</time></trkpt><trkpt lat="22.345031666666667" lon="114.13729833333333"><ele>9.399999999999999</ele><time>2025-12-18T02:13:33Z</time></trkpt><trkpt lat="22.345010000000002" lon="114.13729666666669"><ele>9.2</ele><time>2025-12-18T02:13:35Z</time></trkpt><trkpt lat="22.34499166666667" lon="114.13730500000001"><ele>9.299999999999999</ele><time>2025-12-18T02:13:37Z</time></trkpt><trkpt lat="22.344969999999996" lon="114.13731000000001"><ele>9.5</ele><time>2025-12-18T02:13:40Z</time></trkpt><trkpt lat="22.344954999999995" lon="114.13732333333334"><ele>11.2</ele><time>2025-12-18T02:13:46Z</time></trkpt><trkpt lat="22.344953333333333" lon="114.13734500000001"><ele>11.799999999999999</ele><time>2025-12-18T02:13:51Z</time></trkpt><trkpt lat="22.344938333333335" lon="114.13735666666668"><ele>12.5</ele><time>2025-12-18T02:13:55Z</time></trkpt><trkpt lat="22.344929999999998" lon="114.13739166666667"><ele>12.5</ele><time>2025-12-18T02:14:03Z</time></trkpt><trkpt lat="22.34491166666667" lon="114.13739500000001"><ele>13.0</ele><time>2025-12-18T02:14:12Z</time></trkpt><trkpt lat="22.344890000000003" lon="114.13743333333332"><ele>13.0</ele><time>2025-12-18T02:14:24Z</time></trkpt><trkpt lat="22.344875000000002" lon="114.13744833333334"><ele>13.0</ele><time>2025-12-18T02:14:27Z</time></trkpt><trkpt lat="22.344863333333333" lon="114.13746833333335"><ele>13.0</ele><time>2025-12-18T02:14:29Z</time></trkpt><trkpt lat="22.344884999999998" lon="114.13746833333335"><ele>13.799999999999999</ele><time>2025-12-18T02:14:37Z</time></trkpt><trkpt lat="22.344905" lon="114.13745333333333"><ele>13.7</ele><time>2025-12-18T02:14:39Z</time></trkpt><trkpt lat="22.344918333333332" lon="114.13743333333332"><ele>13.299999999999999</ele><time>2025-12-18T02:14:41Z</time></trkpt><trkpt lat="22.344913333333338" lon="114.137405"><ele>12.899999999999999</ele><time>2025-12-18T02:14:43Z</time></trkpt><trkpt lat="22.344923333333334" lon="114.13737833333334"><ele>12.6</ele><time>2025-12-18T02:14:46Z</time></trkpt><trkpt lat="22.344923333333334" lon="114.13735833333334"><ele>12.399999999999999</ele><time>2025-12-18T02:14:48Z</time></trkpt><trkpt lat="22.344923333333334" lon="114.13732666666668"><ele>12.2</ele><time>2025-12-18T02:14:53Z</time></trkpt><trkpt lat="22.344929999999998" lon="114.13730500000001"><ele>12.1</ele><time>2025-12-18T02:14:56Z</time></trkpt><trkpt lat="22.34491166666667" lon="114.13732833333333"><ele>11.799999999999999</ele><time>2025-12-18T02:15:00Z</time></trkpt><trkpt lat="22.344893333333335" lon="114.13734833333335"><ele>11.799999999999999</ele><time>2025-12-18T02:15:01Z</time></trkpt><trkpt lat="22.34487" lon="114.13737166666667"><ele>11.7</ele><time>2025-12-18T02:15:02Z</time></trkpt><trkpt lat="22.344843333333333" lon="114.13738666666669"><ele>11.6</ele><time>2025-12-18T02:15:04Z</time></trkpt><trkpt lat="22.344821666666668" lon="114.13741"><ele>11.6</ele><time>2025-12-18T02:15:05Z</time></trkpt><trkpt lat="22.344804999999997" lon="114.13742166666667"><ele>11.5</ele><time>2025-12-18T02:15:06Z</time></trkpt><trkpt lat="22.344785" lon="114.13745833333333"><ele>11.1</ele><time>2025-12-18T02:15:13Z</time></trkpt><trkpt lat="22.34476833333333" lon="114.13747333333335"><ele>11.1</ele><time>2025-12-18T02:15:14Z</time></trkpt><trkpt lat="22.344753333333333" lon="114.137495"><ele>11.0</ele><time>2025-12-18T02:15:17Z</time></trkpt><trkpt lat="22.344771666666663" lon="114.13751499999998"><ele>11.0</ele><time>2025-12-18T02:15:19Z</time></trkpt><trkpt lat="22.344791666666666" lon="114.13750999999999"><ele>11.2</ele><time>2025-12-18T02:15:20Z</time></trkpt><trkpt lat="22.344821666666668" lon="114.1375"><ele>11.5</ele><time>2025-12-18T02:15:22Z</time></trkpt><trkpt lat="22.34481166666667" lon="114.137475"><ele>10.899999999999999</ele><time>2025-12-18T02:15:31Z</time></trkpt><trkpt lat="22.34483" lon="114.13744"><ele>10.5</ele><time>2025-12-18T02:15:33Z</time></trkpt><trkpt lat="22.344843333333333" lon="114.13742666666667"><ele>9.899999999999999</ele><time>2025-12-18T02:15:37Z</time></trkpt><trkpt lat="22.344851666666667" lon="114.13740833333334"><ele>10.0</ele><time>2025-12-18T02:15:42Z</time></trkpt><trkpt lat="22.344879999999996" lon="114.13738"><ele>9.799999999999999</ele><time>2025-12-18T02:15:51Z</time></trkpt><trkpt lat="22.3449" lon="114.137385"><ele>9.299999999999999</ele><time>2025-12-18T02:15:54Z</time></trkpt><trkpt lat="22.344920000000002" lon="114.13736500000002"><ele>8.399999999999999</ele><time>2025-12-18T02:15:57Z</time></trkpt><trkpt lat="22.344938333333335" lon="114.13735833333334"><ele>8.6</ele><time>2025-12-18T02:16:00Z</time></trkpt><trkpt lat="22.344951666666663" lon="114.13734500000001"><ele>8.6</ele><time>2025-12-18T02:16:04Z</time></trkpt><trkpt lat="22.344958333333338" lon="114.13732499999999"><ele>8.299999999999999</ele><time>2025-12-18T02:16:08Z</time></trkpt><trkpt lat="22.344981666666666" lon="114.13732333333334"><ele>7.8999999999999995</ele><time>2025-12-18T02:16:11Z</time></trkpt><trkpt lat="22.345008333333332" lon="114.13731166666666"><ele>7.500000000000001</ele><time>2025-12-18T02:16:14Z</time></trkpt><trkpt lat="22.345026666666666" lon="114.13730166666667"><ele>7.2</ele><time>2025-12-18T02:16:16Z</time></trkpt><trkpt lat="22.345044999999995" lon="114.13729666666669"><ele>6.4</ele><time>2025-12-18T02:16:18Z</time></trkpt><trkpt lat="22.34506333333333" lon="114.13727500000002"><ele>5.7</ele><time>2025-12-18T02:16:22Z</time></trkpt><trkpt lat="22.345076666666667" lon="114.13726"><ele>5.2</ele><time>2025-12-18T02:16:24Z</time></trkpt><trkpt lat="22.345086666666663" lon="114.13723999999999"><ele>4.8</ele><time>2025-12-18T02:16:27Z</time></trkpt><trkpt lat="22.34509166666667" lon="114.13721500000001"><ele>4.5</ele><time>2025-12-18T02:16:30Z</time></trkpt><trkpt lat="22.345098333333333" lon="114.13719166666667"><ele>4.6000000000000005</ele><time>2025-12-18T02:16:33Z</time></trkpt><trkpt lat="22.34510833333333" lon="114.137175"><ele>5.1000000000000005</ele><time>2025-12-18T02:16:36Z</time></trkpt><trkpt lat="22.345131666666664" lon="114.13716500000001"><ele>5.5</ele><time>2025-12-18T02:16:39Z</time></trkpt><trkpt lat="22.345149999999997" lon="114.13716000000001"><ele>5.5</ele><time>2025-12-18T02:16:42Z</time></trkpt><trkpt lat="22.345164999999998" lon="114.13714333333334"><ele>5.5</ele><time>2025-12-18T02:16:48Z</time></trkpt><trkpt lat="22.3452" lon="114.13714333333334"><ele>6.2</ele><time>2025-12-18T02:17:11Z</time></trkpt><trkpt lat="22.34521666666667" lon="114.13715333333333"><ele>5.7</ele><time>2025-12-18T02:17:14Z</time></trkpt><trkpt lat="22.345235000000002" lon="114.13718333333333"><ele>5.2</ele><time>2025-12-18T02:17:21Z</time></trkpt><trkpt lat="22.34522666666667" lon="114.13715500000002"><ele>5.2</ele><time>2025-12-18T02:17:24Z</time></trkpt><trkpt lat="22.34522666666667" lon="114.13713166666666"><ele>5.3</ele><time>2025-12-18T02:17:26Z</time></trkpt><trkpt lat="22.345223333333333" lon="114.13715166666667"><ele>4.8</ele><time>2025-12-18T02:17:33Z</time></trkpt><trkpt lat="22.34521833333333" lon="114.13717833333334"><ele>4.8</ele><time>2025-12-18T02:17:35Z</time></trkpt><trkpt lat="22.34521833333333" lon="114.13724666666667"><ele>1.8</ele><time>2025-12-18T02:18:01Z</time></trkpt><trkpt lat="22.34522833333333" lon="114.13723"><ele>3.2</ele><time>2025-12-18T02:18:14Z</time></trkpt><trkpt lat="22.345224999999996" lon="114.13721"><ele>4.4</ele><time>2025-12-18T02:18:18Z</time></trkpt><trkpt lat="22.34522833333333" lon="114.13719"><ele>5.0</ele><time>2025-12-18T02:18:22Z</time></trkpt><trkpt lat="22.345265" lon="114.13718833333333"><ele>8.2</ele><time>2025-12-18T02:18:51Z</time></trkpt><trkpt lat="22.34529166666667" lon="114.13717666666668"><ele>8.0</ele><time>2025-12-18T02:18:53Z</time></trkpt><trkpt lat="22.34531833333333" lon="114.13717"><ele>8.1</ele><time>2025-12-18T02:18:55Z</time></trkpt><trkpt lat="22.345340000000004" lon="114.13717"><ele>8.0</ele><time>2025-12-18T02:18:57Z</time></trkpt><trkpt lat="22.34536333333333" lon="114.13716666666666"><ele>7.7</ele><time>2025-12-18T02:19:00Z</time></trkpt><trkpt lat="22.345376666666667" lon="114.13718333333333"><ele>7.2</ele><time>2025-12-18T02:19:09Z</time></trkpt><trkpt lat="22.34539333333333" lon="114.13722333333332"><ele>8.1</ele><time>2025-12-18T02:19:21Z</time></trkpt><trkpt lat="22.345381666666672" lon="114.13727666666666"><ele>8.299999999999999</ele><time>2025-12-18T02:19:35Z</time></trkpt><trkpt lat="22.345370000000003" lon="114.13729166666666"><ele>8.299999999999999</ele><time>2025-12-18T02:19:37Z</time></trkpt><trkpt lat="22.345346666666668" lon="114.13730333333334"><ele>8.7</ele><time>2025-12-18T02:19:40Z</time></trkpt><trkpt lat="22.34536333333333" lon="114.13731333333332"><ele>8.799999999999999</ele><time>2025-12-18T02:19:48Z</time></trkpt><trkpt lat="22.34536666666667" lon="114.13729333333335"><ele>8.399999999999999</ele><time>2025-12-18T02:19:50Z</time></trkpt><trkpt lat="22.34534833333333" lon="114.13728833333334"><ele>8.7</ele><time>2025-12-18T02:19:55Z</time></trkpt><trkpt lat="22.34536333333333" lon="114.13725666666666"><ele>9.1</ele><time>2025-12-18T02:20:04Z</time></trkpt><trkpt lat="22.34538" lon="114.13723833333333"><ele>8.6</ele><time>2025-12-18T02:20:06Z</time></trkpt><trkpt lat="22.345391666666668" lon="114.13721833333332"><ele>8.299999999999999</ele><time>2025-12-18T02:20:08Z</time></trkpt><trkpt lat="22.345395" lon="114.137195"><ele>8.5</ele><time>2025-12-18T02:20:11Z</time></trkpt><trkpt lat="22.345425" lon="114.13723"><ele>14.2</ele><time>2025-12-18T02:20:49Z</time></trkpt><trkpt lat="22.345443333333332" lon="114.13722333333332"><ele>14.2</ele><time>2025-12-18T02:20:52Z</time></trkpt><trkpt lat="22.345466666666667" lon="114.13721500000001"><ele>14.1</ele><time>2025-12-18T02:20:54Z</time></trkpt><trkpt lat="22.34549" lon="114.13720666666669"><ele>14.0</ele><time>2025-12-18T02:20:56Z</time></trkpt><trkpt lat="22.345509999999997" lon="114.13720333333335"><ele>13.899999999999999</ele><time>2025-12-18T02:20:58Z</time></trkpt><trkpt lat="22.34552833333333" lon="114.13719833333334"><ele>13.799999999999999</ele><time>2025-12-18T02:21:00Z</time></trkpt><trkpt lat="22.34554666666667" lon="114.13719666666665"><ele>13.5</ele><time>2025-12-18T02:21:03Z</time></trkpt><trkpt lat="22.34557" lon="114.13720666666669"><ele>13.0</ele><time>2025-12-18T02:21:06Z</time></trkpt><trkpt lat="22.34559" lon="114.13721"><ele>12.6</ele><time>2025-12-18T02:21:08Z</time></trkpt><trkpt lat="22.345608333333335" lon="114.13721"><ele>12.5</ele><time>2025-12-18T02:21:10Z</time></trkpt><trkpt lat="22.345628333333334" lon="114.13720666666669"><ele>12.6</ele><time>2025-12-18T02:21:16Z</time></trkpt><trkpt lat="22.34565" lon="114.13722833333334"><ele>13.299999999999999</ele><time>2025-12-18T02:22:06Z</time></trkpt><trkpt lat="22.34566166666667" lon="114.13721166666667"><ele>14.2</ele><time>2025-12-18T02:22:17Z</time></trkpt><trkpt lat="22.345656666666667" lon="114.13718500000002"><ele>14.7</ele><time>2025-12-18T02:22:22Z</time></trkpt><trkpt lat="22.345643333333335" lon="114.13719833333334"><ele>14.899999999999999</ele><time>2025-12-18T02:22:30Z</time></trkpt><trkpt lat="22.345674999999996" lon="114.13716500000001"><ele>15.2</ele><time>2025-12-18T02:22:49Z</time></trkpt><trkpt lat="22.345686666666666" lon="114.13714999999999"><ele>14.7</ele><time>2025-12-18T02:22:55Z</time></trkpt><trkpt lat="22.345683333333334" lon="114.13712166666667"><ele>14.2</ele><time>2025-12-18T02:23:03Z</time></trkpt><trkpt lat="22.34567666666667" lon="114.13710166666667"><ele>14.0</ele><time>2025-12-18T02:23:07Z</time></trkpt><trkpt lat="22.345671666666664" lon="114.13706666666667"><ele>15.0</ele><time>2025-12-18T02:23:25Z</time></trkpt><trkpt lat="22.345671666666664" lon="114.137045"><ele>15.399999999999999</ele><time>2025-12-18T02:23:29Z</time></trkpt><trkpt lat="22.345683333333334" lon="114.13702666666669"><ele>16.5</ele><time>2025-12-18T02:23:40Z</time></trkpt><trkpt lat="22.34566166666667" lon="114.13698666666666"><ele>17.3</ele><time>2025-12-18T02:24:01Z</time></trkpt><trkpt lat="22.345673333333334" lon="114.13696333333334"><ele>15.8</ele><time>2025-12-18T02:24:04Z</time></trkpt><trkpt lat="22.345686666666666" lon="114.13694833333332"><ele>15.2</ele><time>2025-12-18T02:24:06Z</time></trkpt><trkpt lat="22.345691666666667" lon="114.13692666666665"><ele>14.899999999999999</ele><time>2025-12-18T02:24:09Z</time></trkpt><trkpt lat="22.34569333333333" lon="114.136905"><ele>15.7</ele><time>2025-12-18T02:24:12Z</time></trkpt><trkpt lat="22.345674999999996" lon="114.13689666666666"><ele>15.599999999999998</ele><time>2025-12-18T02:24:16Z</time></trkpt><trkpt lat="22.345656666666667" lon="114.13688833333332"><ele>15.899999999999999</ele><time>2025-12-18T02:24:18Z</time></trkpt><trkpt lat="22.345629999999996" lon="114.13686833333334"><ele>16.0</ele><time>2025-12-18T02:24:21Z</time></trkpt><trkpt lat="22.345605" lon="114.13685333333333"><ele>16.099999999999998</ele><time>2025-12-18T02:24:24Z</time></trkpt><trkpt lat="22.34559" lon="114.13683666666665"><ele>16.9</ele><time>2025-12-18T02:24:26Z</time></trkpt><trkpt lat="22.345610000000004" lon="114.13683"><ele>15.0</ele><time>2025-12-18T02:24:32Z</time></trkpt><trkpt lat="22.345608333333335" lon="114.13686000000001"><ele>13.7</ele><time>2025-12-18T02:25:13Z</time></trkpt><trkpt lat="22.345608333333335" lon="114.136835"><ele>13.899999999999999</ele><time>2025-12-18T02:25:16Z</time></trkpt><trkpt lat="22.34560333333333" lon="114.13681333333334"><ele>14.5</ele><time>2025-12-18T02:25:19Z</time></trkpt><trkpt lat="22.345596666666665" lon="114.13678999999999"><ele>14.8</ele><time>2025-12-18T02:25:22Z</time></trkpt><trkpt lat="22.345613333333336" lon="114.13681999999999"><ele>14.299999999999999</ele><time>2025-12-18T02:25:41Z</time></trkpt><trkpt lat="22.345644999999998" lon="114.13684166666665"><ele>13.5</ele><time>2025-12-18T02:26:11Z</time></trkpt><trkpt lat="22.34566333333333" lon="114.136845"><ele>13.7</ele><time>2025-12-18T02:26:14Z</time></trkpt><trkpt lat="22.345673333333334" lon="114.13682833333333"><ele>13.7</ele><time>2025-12-18T02:26:17Z</time></trkpt><trkpt lat="22.345674999999996" lon="114.13680500000001"><ele>13.799999999999999</ele><time>2025-12-18T02:26:24Z</time></trkpt><trkpt lat="22.345686666666666" lon="114.13678499999999"><ele>14.1</ele><time>2025-12-18T02:26:29Z</time></trkpt><trkpt lat="22.34570666666667" lon="114.13678"><ele>14.299999999999999</ele><time>2025-12-18T02:26:32Z</time></trkpt><trkpt lat="22.345725" lon="114.13678166666665"><ele>14.299999999999999</ele><time>2025-12-18T02:26:35Z</time></trkpt><trkpt lat="22.34574" lon="114.13680000000001"><ele>14.5</ele><time>2025-12-18T02:26:38Z</time></trkpt><trkpt lat="22.345758333333333" lon="114.13680166666667"><ele>14.8</ele><time>2025-12-18T02:26:40Z</time></trkpt><trkpt lat="22.345768333333332" lon="114.13678499999999"><ele>15.8</ele><time>2025-12-18T02:26:45Z</time></trkpt><trkpt lat="22.345831666666662" lon="114.13678999999999"><ele>18.4</ele><time>2025-12-18T02:27:37Z</time></trkpt><trkpt lat="22.345838333333337" lon="114.13677166666666"><ele>18.4</ele><time>2025-12-18T02:27:41Z</time></trkpt><trkpt lat="22.345878333333335" lon="114.13675833333333"><ele>18.4</ele><time>2025-12-18T02:27:49Z</time></trkpt><trkpt lat="22.345898333333334" lon="114.13673833333333"><ele>18.2</ele><time>2025-12-18T02:27:52Z</time></trkpt><trkpt lat="22.345913333333336" lon="114.13672333333334"><ele>18.099999999999998</ele><time>2025-12-18T02:27:54Z</time></trkpt><trkpt lat="22.345936666666663" lon="114.13671500000001"><ele>18.0</ele><time>2025-12-18T02:27:56Z</time></trkpt><trkpt lat="22.345959999999998" lon="114.13672"><ele>17.9</ele><time>2025-12-18T02:27:58Z</time></trkpt><trkpt lat="22.345988333333334" lon="114.13672"><ele>17.8</ele><time>2025-12-18T02:28:00Z</time></trkpt><trkpt lat="22.34599166666667" lon="114.13674333333331"><ele>17.7</ele><time>2025-12-18T02:28:03Z</time></trkpt><trkpt lat="22.345996666666665" lon="114.13676666666667"><ele>17.599999999999998</ele><time>2025-12-18T02:28:06Z</time></trkpt><trkpt lat="22.34601" lon="114.13679833333332"><ele>19.4</ele><time>2025-12-18T02:28:36Z</time></trkpt><trkpt lat="22.346006666666668" lon="114.13677666666666"><ele>19.9</ele><time>2025-12-18T02:28:41Z</time></trkpt><trkpt lat="22.346003333333336" lon="114.136755"><ele>20.5</ele><time>2025-12-18T02:28:47Z</time></trkpt><trkpt lat="22.345986666666665" lon="114.13673666666666"><ele>20.7</ele><time>2025-12-18T02:28:50Z</time></trkpt><trkpt lat="22.345956666666666" lon="114.13672833333334"><ele>20.599999999999998</ele><time>2025-12-18T02:28:52Z</time></trkpt><trkpt lat="22.345935" lon="114.13674"><ele>20.7</ele><time>2025-12-18T02:28:53Z</time></trkpt><trkpt lat="22.345916666666668" lon="114.13674666666665"><ele>20.5</ele><time>2025-12-18T02:28:55Z</time></trkpt><trkpt lat="22.345895000000002" lon="114.13672666666668"><ele>20.7</ele><time>2025-12-18T02:28:58Z</time></trkpt><trkpt lat="22.345863333333334" lon="114.13674666666665"><ele>19.7</ele><time>2025-12-18T02:29:14Z</time></trkpt><trkpt lat="22.345875" lon="114.13676333333333"><ele>18.9</ele><time>2025-12-18T02:29:21Z</time></trkpt><trkpt lat="22.345868333333335" lon="114.13678833333333"><ele>18.7</ele><time>2025-12-18T02:29:25Z</time></trkpt><trkpt lat="22.34590166666667" lon="114.13686666666666"><ele>18.7</ele><time>2025-12-18T02:29:38Z</time></trkpt><trkpt lat="22.345906666666664" lon="114.13689166666667"><ele>18.9</ele><time>2025-12-18T02:29:41Z</time></trkpt><trkpt lat="22.34588666666667" lon="114.13691833333333"><ele>18.8</ele><time>2025-12-18T02:29:54Z</time></trkpt><trkpt lat="22.345895000000002" lon="114.1369"><ele>18.9</ele><time>2025-12-18T02:30:12Z</time></trkpt><trkpt lat="22.345885" lon="114.13687999999999"><ele>19.4</ele><time>2025-12-18T02:30:18Z</time></trkpt><trkpt lat="22.345858333333332" lon="114.136865"><ele>20.3</ele><time>2025-12-18T02:30:21Z</time></trkpt><trkpt lat="22.34584" lon="114.13686166666666"><ele>20.3</ele><time>2025-12-18T02:30:22Z</time></trkpt><trkpt lat="22.345821666666666" lon="114.13685833333332"><ele>20.599999999999998</ele><time>2025-12-18T02:30:23Z</time></trkpt><trkpt lat="22.345793333333337" lon="114.13684666666668"><ele>21.3</ele><time>2025-12-18T02:30:25Z</time></trkpt><trkpt lat="22.345788333333335" lon="114.13682333333333"><ele>20.5</ele><time>2025-12-18T02:30:27Z</time></trkpt><trkpt lat="22.34576666666667" lon="114.13682166666668"><ele>21.5</ele><time>2025-12-18T02:30:30Z</time></trkpt><trkpt lat="22.345748333333336" lon="114.13682500000002"><ele>22.9</ele><time>2025-12-18T02:30:34Z</time></trkpt><trkpt lat="22.345728333333334" lon="114.136835"><ele>22.4</ele><time>2025-12-18T02:30:39Z</time></trkpt><trkpt lat="22.34571" lon="114.13683166666667"><ele>20.099999999999998</ele><time>2025-12-18T02:30:44Z</time></trkpt><trkpt lat="22.345686666666666" lon="114.136775"><ele>18.9</ele><time>2025-12-18T02:30:54Z</time></trkpt><trkpt lat="22.34566" lon="114.13678666666668"><ele>18.4</ele><time>2025-12-18T02:31:02Z</time></trkpt><trkpt lat="22.345644999999998" lon="114.13681333333334"><ele>18.4</ele><time>2025-12-18T02:31:04Z</time></trkpt><trkpt lat="22.345621666666663" lon="114.13682666666666"><ele>18.099999999999998</ele><time>2025-12-18T02:31:07Z</time></trkpt><trkpt lat="22.345610000000004" lon="114.13684333333335"><ele>18.099999999999998</ele><time>2025-12-18T02:31:09Z</time></trkpt><trkpt lat="22.345595000000003" lon="114.13686166666666"><ele>17.9</ele><time>2025-12-18T02:31:12Z</time></trkpt><trkpt lat="22.34557" lon="114.13686833333334"><ele>17.599999999999998</ele><time>2025-12-18T02:31:15Z</time></trkpt><trkpt lat="22.345551666666665" lon="114.13685833333332"><ele>17.599999999999998</ele><time>2025-12-18T02:31:18Z</time></trkpt><trkpt lat="22.345536666666664" lon="114.136845"><ele>17.0</ele><time>2025-12-18T02:31:23Z</time></trkpt><trkpt lat="22.34555833333333" lon="114.13685500000001"><ele>16.3</ele><time>2025-12-18T02:31:33Z</time></trkpt><trkpt lat="22.345561666666672" lon="114.13683333333331"><ele>14.8</ele><time>2025-12-18T02:31:46Z</time></trkpt><trkpt lat="22.345545" lon="114.13682333333333"><ele>14.5</ele><time>2025-12-18T02:31:51Z</time></trkpt><trkpt lat="22.345550000000003" lon="114.13680000000001"><ele>14.2</ele><time>2025-12-18T02:31:54Z</time></trkpt><trkpt lat="22.345545" lon="114.13678"><ele>13.299999999999999</ele><time>2025-12-18T02:31:58Z</time></trkpt><trkpt lat="22.34554166666667" lon="114.13675666666668"><ele>12.6</ele><time>2025-12-18T02:32:00Z</time></trkpt><trkpt lat="22.34554333333333" lon="114.13673666666666"><ele>11.6</ele><time>2025-12-18T02:32:03Z</time></trkpt><trkpt lat="22.345550000000003" lon="114.13670166666667"><ele>9.899999999999999</ele><time>2025-12-18T02:32:19Z</time></trkpt><trkpt lat="22.34556" lon="114.13668333333332"><ele>9.6</ele><time>2025-12-18T02:32:23Z</time></trkpt><trkpt lat="22.345551666666665" lon="114.13665999999999"><ele>9.899999999999999</ele><time>2025-12-18T02:32:33Z</time></trkpt><trkpt lat="22.345509999999997" lon="114.13665166666667"><ele>10.399999999999999</ele><time>2025-12-18T02:32:40Z</time></trkpt><trkpt lat="22.345491666666664" lon="114.13667"><ele>12.5</ele><time>2025-12-18T02:32:52Z</time></trkpt><trkpt lat="22.345481666666668" lon="114.13665166666667"><ele>13.299999999999999</ele><time>2025-12-18T02:32:57Z</time></trkpt><trkpt lat="22.345481666666668" lon="114.13663166666666"><ele>13.6</ele><time>2025-12-18T02:33:01Z</time></trkpt><trkpt lat="22.345471666666672" lon="114.13659833333334"><ele>14.2</ele><time>2025-12-18T02:33:10Z</time></trkpt><trkpt lat="22.34546833333333" lon="114.136575"><ele>14.299999999999999</ele><time>2025-12-18T02:33:12Z</time></trkpt><trkpt lat="22.345466666666667" lon="114.13655500000002"><ele>14.399999999999999</ele><time>2025-12-18T02:33:14Z</time></trkpt><trkpt lat="22.345476666666666" lon="114.13653666666666"><ele>13.1</ele><time>2025-12-18T02:33:21Z</time></trkpt><trkpt lat="22.345481666666668" lon="114.136505"><ele>12.5</ele><time>2025-12-18T02:33:29Z</time></trkpt><trkpt lat="22.345476666666666" lon="114.13647999999999"><ele>11.6</ele><time>2025-12-18T02:33:33Z</time></trkpt><trkpt lat="22.345471666666672" lon="114.13645833333334"><ele>10.799999999999999</ele><time>2025-12-18T02:33:37Z</time></trkpt><trkpt lat="22.345460000000003" lon="114.13647999999999"><ele>9.799999999999999</ele><time>2025-12-18T02:33:42Z</time></trkpt><trkpt lat="22.34545166666667" lon="114.13642166666665"><ele>7.8</ele><time>2025-12-18T02:33:57Z</time></trkpt><trkpt lat="22.34545166666667" lon="114.13639833333333"><ele>7.7</ele><time>2025-12-18T02:34:00Z</time></trkpt><trkpt lat="22.345448333333334" lon="114.13637833333333"><ele>7.500000000000001</ele><time>2025-12-18T02:34:02Z</time></trkpt><trkpt lat="22.34543833333333" lon="114.13636"><ele>7.3</ele><time>2025-12-18T02:34:10Z</time></trkpt><trkpt lat="22.34542333333333" lon="114.13633166666665"><ele>5.7</ele><time>2025-12-18T02:34:52Z</time></trkpt><trkpt lat="22.345428333333334" lon="114.13631"><ele>5.4</ele><time>2025-12-18T02:34:55Z</time></trkpt><trkpt lat="22.345425" lon="114.13629"><ele>4.7</ele><time>2025-12-18T02:34:59Z</time></trkpt><trkpt lat="22.345415000000003" lon="114.13625666666667"><ele>3.6000000000000005</ele><time>2025-12-18T02:35:09Z</time></trkpt><trkpt lat="22.345421666666667" lon="114.13628833333333"><ele>3.1000000000000005</ele><time>2025-12-18T02:35:14Z</time></trkpt><trkpt lat="22.345428333333334" lon="114.13630666666668"><ele>3.0</ele><time>2025-12-18T02:35:16Z</time></trkpt><trkpt lat="22.34543833333333" lon="114.13633166666665"><ele>3.2</ele><time>2025-12-18T02:35:19Z</time></trkpt><trkpt lat="22.34544" lon="114.13635166666667"><ele>3.5</ele><time>2025-12-18T02:35:22Z</time></trkpt><trkpt lat="22.345431666666666" lon="114.13636999999999"><ele>2.3</ele><time>2025-12-18T02:35:54Z</time></trkpt><trkpt lat="22.34545166666667" lon="114.13636333333334"><ele>2.3</ele><time>2025-12-18T02:35:58Z</time></trkpt><trkpt lat="22.345426666666672" lon="114.13631666666667"><ele>2.3</ele><time>2025-12-18T02:36:14Z</time></trkpt><trkpt lat="22.345419999999997" lon="114.13629833333334"><ele>1.9999999999999998</ele><time>2025-12-18T02:36:16Z</time></trkpt><trkpt lat="22.345413333333333" lon="114.136275"><ele>1.8</ele><time>2025-12-18T02:36:18Z</time></trkpt><trkpt lat="22.34541" lon="114.13624499999999"><ele>1.4999999999999998</ele><time>2025-12-18T02:36:21Z</time></trkpt><trkpt lat="22.34540666666667" lon="114.13622500000001"><ele>1.2</ele><time>2025-12-18T02:36:23Z</time></trkpt><trkpt lat="22.34540666666667" lon="114.13619500000001"><ele>0.8</ele><time>2025-12-18T02:36:25Z</time></trkpt><trkpt lat="22.345404999999996" lon="114.13617500000001"><ele>0.9999999999999998</ele><time>2025-12-18T02:36:27Z</time></trkpt><trkpt lat="22.345404999999996" lon="114.13615166666665"><ele>4.7</ele><time>2025-12-18T02:36:55Z</time></trkpt><trkpt lat="22.34541166666667" lon="114.13613166666667"><ele>4.9</ele><time>2025-12-18T02:36:58Z</time></trkpt><trkpt lat="22.345416666666665" lon="114.13610500000001"><ele>5.0</ele><time>2025-12-18T02:37:02Z</time></trkpt><trkpt lat="22.34542333333333" lon="114.13608166666667"><ele>5.0</ele><time>2025-12-18T02:37:04Z</time></trkpt><trkpt lat="22.345425" lon="114.13606166666665"><ele>5.0</ele><time>2025-12-18T02:37:05Z</time></trkpt><trkpt lat="22.345425" lon="114.136025"><ele>5.0</ele><time>2025-12-18T02:37:07Z</time></trkpt><trkpt lat="22.345443333333332" lon="114.13601166666668"><ele>5.4</ele><time>2025-12-18T02:37:10Z</time></trkpt><trkpt lat="22.34547" lon="114.136005"><ele>5.7</ele><time>2025-12-18T02:37:13Z</time></trkpt><trkpt lat="22.345494999999996" lon="114.13600333333333"><ele>5.9</ele><time>2025-12-18T02:37:16Z</time></trkpt><trkpt lat="22.345511666666667" lon="114.13599166666667"><ele>6.0</ele><time>2025-12-18T02:37:18Z</time></trkpt><trkpt lat="22.34553166666667" lon="114.13599"><ele>6.2</ele><time>2025-12-18T02:37:21Z</time></trkpt><trkpt lat="22.345550000000003" lon="114.13599166666667"><ele>6.3</ele><time>2025-12-18T02:37:23Z</time></trkpt><trkpt lat="22.34557333333333" lon="114.13599666666666"><ele>6.3</ele><time>2025-12-18T02:37:25Z</time></trkpt><trkpt lat="22.345595000000003" lon="114.136005"><ele>6.4</ele><time>2025-12-18T02:37:27Z</time></trkpt><trkpt lat="22.345626666666664" lon="114.13600166666666"><ele>6.3</ele><time>2025-12-18T02:37:30Z</time></trkpt><trkpt lat="22.34565166666666" lon="114.13599666666666"><ele>6.4</ele><time>2025-12-18T02:37:32Z</time></trkpt><trkpt lat="22.345670000000002" lon="114.13599"><ele>6.5</ele><time>2025-12-18T02:37:33Z</time></trkpt><trkpt lat="22.34569333333333" lon="114.13598500000002"><ele>6.6000000000000005</ele><time>2025-12-18T02:37:35Z</time></trkpt><trkpt lat="22.345719999999996" lon="114.13597166666665"><ele>6.8999999999999995</ele><time>2025-12-18T02:37:37Z</time></trkpt><trkpt lat="22.345743333333335" lon="114.13595166666667"><ele>7.3999999999999995</ele><time>2025-12-18T02:37:39Z</time></trkpt><trkpt lat="22.34577" lon="114.13594499999999"><ele>7.1000000000000005</ele><time>2025-12-18T02:37:42Z</time></trkpt><trkpt lat="22.345791666666667" lon="114.13594166666665"><ele>7.000000000000001</ele><time>2025-12-18T02:37:44Z</time></trkpt><trkpt lat="22.34581166666667" lon="114.13593833333334"><ele>6.8999999999999995</ele><time>2025-12-18T02:37:46Z</time></trkpt><trkpt lat="22.345831666666662" lon="114.13593166666666"><ele>7.1000000000000005</ele><time>2025-12-18T02:37:48Z</time></trkpt><trkpt lat="22.345848333333333" lon="114.13592333333332"><ele>7.7</ele><time>2025-12-18T02:37:50Z</time></trkpt><trkpt lat="22.345871666666667" lon="114.135915"><ele>8.5</ele><time>2025-12-18T02:37:53Z</time></trkpt><trkpt lat="22.345898333333334" lon="114.13590333333335"><ele>8.1</ele><time>2025-12-18T02:37:56Z</time></trkpt><trkpt lat="22.34591833333333" lon="114.13588333333334"><ele>8.1</ele><time>2025-12-18T02:37:58Z</time></trkpt><trkpt lat="22.34593333333333" lon="114.13586333333333"><ele>8.2</ele><time>2025-12-18T02:38:00Z</time></trkpt><trkpt lat="22.345950000000002" lon="114.135845"><ele>8.299999999999999</ele><time>2025-12-18T02:38:02Z</time></trkpt><trkpt lat="22.345959999999998" lon="114.135825"><ele>8.7</ele><time>2025-12-18T02:38:04Z</time></trkpt><trkpt lat="22.345968333333335" lon="114.13580333333333"><ele>8.799999999999999</ele><time>2025-12-18T02:38:06Z</time></trkpt><trkpt lat="22.345983333333333" lon="114.13577833333332"><ele>8.7</ele><time>2025-12-18T02:38:09Z</time></trkpt><trkpt lat="22.345996666666665" lon="114.13575666666665"><ele>8.799999999999999</ele><time>2025-12-18T02:38:11Z</time></trkpt><trkpt lat="22.346001666666666" lon="114.13573333333333"><ele>8.6</ele><time>2025-12-18T02:38:13Z</time></trkpt><trkpt lat="22.346016666666667" lon="114.13571333333333"><ele>8.399999999999999</ele><time>2025-12-18T02:38:16Z</time></trkpt><trkpt lat="22.34603666666667" lon="114.13569666666666"><ele>8.299999999999999</ele><time>2025-12-18T02:38:19Z</time></trkpt><trkpt lat="22.346061666666667" lon="114.13569666666666"><ele>8.2</ele><time>2025-12-18T02:38:22Z</time></trkpt><trkpt lat="22.346083333333333" lon="114.1357"><ele>8.5</ele><time>2025-12-18T02:38:26Z</time></trkpt><trkpt lat="22.346104999999998" lon="114.13570499999999"><ele>8.299999999999999</ele><time>2025-12-18T02:38:33Z</time></trkpt><trkpt lat="22.346123333333335" lon="114.13569333333335"><ele>8.0</ele><time>2025-12-18T02:38:35Z</time></trkpt><trkpt lat="22.34614" lon="114.13568166666667"><ele>8.299999999999999</ele><time>2025-12-18T02:38:37Z</time></trkpt><trkpt lat="22.34616" lon="114.13567833333333"><ele>8.5</ele><time>2025-12-18T02:38:39Z</time></trkpt><trkpt lat="22.346178333333334" lon="114.13567166666665"><ele>8.399999999999999</ele><time>2025-12-18T02:38:41Z</time></trkpt><trkpt lat="22.3462" lon="114.13566666666665"><ele>8.799999999999999</ele><time>2025-12-18T02:38:44Z</time></trkpt><trkpt lat="22.346224999999997" lon="114.13566"><ele>9.399999999999999</ele><time>2025-12-18T02:38:47Z</time></trkpt><trkpt lat="22.34624666666667" lon="114.13565166666667"><ele>9.899999999999999</ele><time>2025-12-18T02:38:50Z</time></trkpt><trkpt lat="22.346266666666665" lon="114.13564333333333"><ele>10.1</ele><time>2025-12-18T02:38:53Z</time></trkpt><trkpt lat="22.346288333333337" lon="114.13562333333333"><ele>10.399999999999999</ele><time>2025-12-18T02:38:56Z</time></trkpt><trkpt lat="22.346295" lon="114.13560166666666"><ele>11.2</ele><time>2025-12-18T02:38:59Z</time></trkpt><trkpt lat="22.346301666666665" lon="114.135575"><ele>11.399999999999999</ele><time>2025-12-18T02:39:02Z</time></trkpt><trkpt lat="22.346303333333335" lon="114.13554666666666"><ele>11.5</ele><time>2025-12-18T02:39:05Z</time></trkpt><trkpt lat="22.34629166666667" lon="114.13552666666668"><ele>12.1</ele><time>2025-12-18T02:39:08Z</time></trkpt><trkpt lat="22.346275" lon="114.135515"><ele>12.2</ele><time>2025-12-18T02:39:10Z</time></trkpt><trkpt lat="22.346258333333335" lon="114.13548999999999"><ele>12.299999999999999</ele><time>2025-12-18T02:39:12Z</time></trkpt><trkpt lat="22.34625" lon="114.13546833333334"><ele>12.7</ele><time>2025-12-18T02:39:14Z</time></trkpt><trkpt lat="22.346253333333333" lon="114.13544500000002"><ele>13.2</ele><time>2025-12-18T02:39:19Z</time></trkpt><trkpt lat="22.346269999999997" lon="114.13545833333335"><ele>11.899999999999999</ele><time>2025-12-18T02:39:52Z</time></trkpt><trkpt lat="22.346288333333337" lon="114.13545833333335"><ele>12.1</ele><time>2025-12-18T02:39:56Z</time></trkpt><trkpt lat="22.346268333333335" lon="114.135465"><ele>11.2</ele><time>2025-12-18T02:40:46Z</time></trkpt><trkpt lat="22.346254999999996" lon="114.135485"><ele>10.899999999999999</ele><time>2025-12-18T02:40:48Z</time></trkpt><trkpt lat="22.346241666666668" lon="114.13550166666667"><ele>11.1</ele><time>2025-12-18T02:41:00Z</time></trkpt><trkpt lat="22.346224999999997" lon="114.135515"><ele>11.299999999999999</ele><time>2025-12-18T02:41:06Z</time></trkpt><trkpt lat="22.346239999999998" lon="114.13553166666667"><ele>11.299999999999999</ele><time>2025-12-18T02:41:12Z</time></trkpt><trkpt lat="22.346253333333333" lon="114.13554500000001"><ele>11.5</ele><time>2025-12-18T02:41:15Z</time></trkpt><trkpt lat="22.34623" lon="114.13548666666665"><ele>10.1</ele><time>2025-12-18T02:42:15Z</time></trkpt><trkpt lat="22.346191666666662" lon="114.13543833333333"><ele>8.1</ele><time>2025-12-18T02:42:34Z</time></trkpt><trkpt lat="22.346145" lon="114.13545333333334"><ele>9.5</ele><time>2025-12-18T02:43:16Z</time></trkpt><trkpt lat="22.346124999999997" lon="114.13546833333334"><ele>9.5</ele><time>2025-12-18T02:43:19Z</time></trkpt><trkpt lat="22.3461" lon="114.13547500000001"><ele>9.399999999999999</ele><time>2025-12-18T02:43:22Z</time></trkpt><trkpt lat="22.346079999999997" lon="114.13548166666666"><ele>9.299999999999999</ele><time>2025-12-18T02:43:24Z</time></trkpt><trkpt lat="22.346060000000005" lon="114.13548166666666"><ele>9.2</ele><time>2025-12-18T02:43:28Z</time></trkpt><trkpt lat="22.346041666666665" lon="114.13546166666666"><ele>8.7</ele><time>2025-12-18T02:43:32Z</time></trkpt><trkpt lat="22.346028333333333" lon="114.13544333333333"><ele>8.899999999999999</ele><time>2025-12-18T02:43:34Z</time></trkpt><trkpt lat="22.346013333333335" lon="114.13542333333335"><ele>9.1</ele><time>2025-12-18T02:43:36Z</time></trkpt><trkpt lat="22.346000000000004" lon="114.13540666666668"><ele>9.2</ele><time>2025-12-18T02:43:38Z</time></trkpt><trkpt lat="22.345985000000002" lon="114.13538333333332"><ele>9.399999999999999</ele><time>2025-12-18T02:43:40Z</time></trkpt><trkpt lat="22.345965" lon="114.13536500000001"><ele>9.6</ele><time>2025-12-18T02:43:42Z</time></trkpt><trkpt lat="22.345943333333334" lon="114.13534333333334"><ele>9.899999999999999</ele><time>2025-12-18T02:43:44Z</time></trkpt><trkpt lat="22.345925000000005" lon="114.13533666666666"><ele>10.399999999999999</ele><time>2025-12-18T02:43:46Z</time></trkpt><trkpt lat="22.34590166666667" lon="114.13534333333334"><ele>10.7</ele><time>2025-12-18T02:43:48Z</time></trkpt><trkpt lat="22.345883333333337" lon="114.13534499999999"><ele>11.2</ele><time>2025-12-18T02:43:50Z</time></trkpt><trkpt lat="22.345861666666664" lon="114.13534333333334"><ele>11.799999999999999</ele><time>2025-12-18T02:43:52Z</time></trkpt><trkpt lat="22.345845" lon="114.13532666666667"><ele>12.1</ele><time>2025-12-18T02:43:55Z</time></trkpt><trkpt lat="22.34584" lon="114.13530666666665"><ele>12.0</ele><time>2025-12-18T02:43:58Z</time></trkpt><trkpt lat="22.345853333333334" lon="114.13529166666667"><ele>12.1</ele><time>2025-12-18T02:44:00Z</time></trkpt><trkpt lat="22.345865000000003" lon="114.13527666666666"><ele>12.2</ele><time>2025-12-18T02:44:02Z</time></trkpt><trkpt lat="22.345885" lon="114.13526500000002"><ele>12.5</ele><time>2025-12-18T02:44:05Z</time></trkpt><trkpt lat="22.345910000000003" lon="114.13526666666667"><ele>12.6</ele><time>2025-12-18T02:44:07Z</time></trkpt><trkpt lat="22.34593166666667" lon="114.13527500000001"><ele>13.0</ele><time>2025-12-18T02:44:09Z</time></trkpt><trkpt lat="22.345955000000004" lon="114.13528"><ele>13.2</ele><time>2025-12-18T02:44:11Z</time></trkpt><trkpt lat="22.34597666666667" lon="114.13527333333334"><ele>13.1</ele><time>2025-12-18T02:44:13Z</time></trkpt><trkpt lat="22.345996666666665" lon="114.13526500000002"><ele>13.0</ele><time>2025-12-18T02:44:15Z</time></trkpt><trkpt lat="22.346015000000005" lon="114.13526166666666"><ele>13.2</ele><time>2025-12-18T02:44:17Z</time></trkpt><trkpt lat="22.346034999999997" lon="114.13525666666668"><ele>13.1</ele><time>2025-12-18T02:44:19Z</time></trkpt><trkpt lat="22.34605333333333" lon="114.13525166666668"><ele>13.299999999999999</ele><time>2025-12-18T02:44:21Z</time></trkpt><trkpt lat="22.346075000000003" lon="114.13524666666666"><ele>13.2</ele><time>2025-12-18T02:44:24Z</time></trkpt><trkpt lat="22.346095" lon="114.13524833333334"><ele>12.6</ele><time>2025-12-18T02:44:26Z</time></trkpt><trkpt lat="22.34611333333333" lon="114.13524666666666"><ele>12.2</ele><time>2025-12-18T02:44:28Z</time></trkpt><trkpt lat="22.346124999999997" lon="114.13523166666667"><ele>11.0</ele><time>2025-12-18T02:44:32Z</time></trkpt><trkpt lat="22.346141666666668" lon="114.13522166666668"><ele>10.799999999999999</ele><time>2025-12-18T02:44:34Z</time></trkpt><trkpt lat="22.346163333333333" lon="114.13521333333334"><ele>10.399999999999999</ele><time>2025-12-18T02:44:39Z</time></trkpt><trkpt lat="22.346181666666666" lon="114.13520833333332"><ele>10.0</ele><time>2025-12-18T02:44:41Z</time></trkpt><trkpt lat="22.34620333333333" lon="114.13520166666667"><ele>9.799999999999999</ele><time>2025-12-18T02:44:44Z</time></trkpt><trkpt lat="22.346223333333334" lon="114.135195"><ele>9.399999999999999</ele><time>2025-12-18T02:44:46Z</time></trkpt><trkpt lat="22.34624833333333" lon="114.135195"><ele>9.6</ele><time>2025-12-18T02:44:48Z</time></trkpt><trkpt lat="22.346275" lon="114.13518833333335"><ele>9.399999999999999</ele><time>2025-12-18T02:44:50Z</time></trkpt><trkpt lat="22.346301666666665" lon="114.13518166666667"><ele>9.1</ele><time>2025-12-18T02:44:52Z</time></trkpt><trkpt lat="22.346321666666668" lon="114.13517500000002"><ele>9.1</ele><time>2025-12-18T02:44:54Z</time></trkpt><trkpt lat="22.346343333333333" lon="114.13517666666667"><ele>8.799999999999999</ele><time>2025-12-18T02:44:56Z</time></trkpt><trkpt lat="22.346365" lon="114.13517666666667"><ele>8.399999999999999</ele><time>2025-12-18T02:44:58Z</time></trkpt><trkpt lat="22.346391666666666" lon="114.13517166666666"><ele>8.7</ele><time>2025-12-18T02:45:01Z</time></trkpt><trkpt lat="22.34641166666667" lon="114.13515666666666"><ele>8.399999999999999</ele><time>2025-12-18T02:45:04Z</time></trkpt><trkpt lat="22.34643" lon="114.13514666666667"><ele>8.1</ele><time>2025-12-18T02:45:06Z</time></trkpt><trkpt lat="22.346448333333335" lon="114.13514333333333"><ele>7.8999999999999995</ele><time>2025-12-18T02:45:08Z</time></trkpt><trkpt lat="22.346468333333338" lon="114.13513166666668"><ele>7.7</ele><time>2025-12-18T02:45:10Z</time></trkpt><trkpt lat="22.346484999999998" lon="114.13511333333332"><ele>7.8</ele><time>2025-12-18T02:45:13Z</time></trkpt><trkpt lat="22.34650166666667" lon="114.13509666666666"><ele>7.7</ele><time>2025-12-18T02:45:15Z</time></trkpt><trkpt lat="22.346505" lon="114.13507333333334"><ele>7.7</ele><time>2025-12-18T02:45:21Z</time></trkpt><trkpt lat="22.346521666666664" lon="114.13500166666667"><ele>11.0</ele><time>2025-12-18T02:45:47Z</time></trkpt><trkpt lat="22.34651666666667" lon="114.13498"><ele>11.399999999999999</ele><time>2025-12-18T02:45:50Z</time></trkpt><trkpt lat="22.34651" lon="114.13496166666667"><ele>11.299999999999999</ele><time>2025-12-18T02:45:53Z</time></trkpt><trkpt lat="22.346494999999997" lon="114.13494166666666"><ele>12.1</ele><time>2025-12-18T02:46:00Z</time></trkpt><trkpt lat="22.34647" lon="114.13491666666665"><ele>15.0</ele><time>2025-12-18T02:46:10Z</time></trkpt><trkpt lat="22.34646" lon="114.13489999999999"><ele>16.9</ele><time>2025-12-18T02:46:16Z</time></trkpt><trkpt lat="22.346523333333334" lon="114.13491166666667"><ele>19.0</ele><time>2025-12-18T02:47:04Z</time></trkpt><trkpt lat="22.34651666666667" lon="114.13493333333332"><ele>18.8</ele><time>2025-12-18T02:47:24Z</time></trkpt><trkpt lat="22.346508333333336" lon="114.13495333333334"><ele>18.9</ele><time>2025-12-18T02:47:29Z</time></trkpt><trkpt lat="22.346494999999997" lon="114.13496833333332"><ele>19.0</ele><time>2025-12-18T02:47:32Z</time></trkpt><trkpt lat="22.346476666666664" lon="114.13495833333333"><ele>19.0</ele><time>2025-12-18T02:47:35Z</time></trkpt><trkpt lat="22.346463333333336" lon="114.134945"><ele>19.0</ele><time>2025-12-18T02:47:38Z</time></trkpt><trkpt lat="22.346484999999998" lon="114.13492833333333"><ele>18.0</ele><time>2025-12-18T02:47:49Z</time></trkpt><trkpt lat="22.346523333333334" lon="114.13490666666667"><ele>18.099999999999998</ele><time>2025-12-18T02:48:01Z</time></trkpt><trkpt lat="22.346539999999997" lon="114.13489333333334"><ele>18.0</ele><time>2025-12-18T02:48:04Z</time></trkpt><trkpt lat="22.346556666666668" lon="114.13488333333335"><ele>17.9</ele><time>2025-12-18T02:48:06Z</time></trkpt><trkpt lat="22.34657666666667" lon="114.13487666666667"><ele>17.8</ele><time>2025-12-18T02:48:14Z</time></trkpt><trkpt lat="22.346596666666663" lon="114.13488000000001"><ele>17.8</ele><time>2025-12-18T02:48:17Z</time></trkpt><trkpt lat="22.346616666666666" lon="114.13487666666667"><ele>17.8</ele><time>2025-12-18T02:48:19Z</time></trkpt><trkpt lat="22.34663833333333" lon="114.13486999999999"><ele>17.9</ele><time>2025-12-18T02:48:21Z</time></trkpt><trkpt lat="22.346656666666664" lon="114.13486999999999"><ele>17.7</ele><time>2025-12-18T02:48:23Z</time></trkpt><trkpt lat="22.34668166666667" lon="114.13486333333334"><ele>17.5</ele><time>2025-12-18T02:48:26Z</time></trkpt><trkpt lat="22.346700000000002" lon="114.13485166666666"><ele>17.099999999999998</ele><time>2025-12-18T02:48:29Z</time></trkpt><trkpt lat="22.346731666666663" lon="114.134835"><ele>17.2</ele><time>2025-12-18T02:48:52Z</time></trkpt><trkpt lat="22.346749999999997" lon="114.13482333333334"><ele>17.3</ele><time>2025-12-18T02:48:55Z</time></trkpt><trkpt lat="22.346764999999998" lon="114.13480999999999"><ele>17.2</ele><time>2025-12-18T02:48:57Z</time></trkpt><trkpt lat="22.34678333333333" lon="114.13479666666666"><ele>17.099999999999998</ele><time>2025-12-18T02:48:59Z</time></trkpt><trkpt lat="22.346805000000003" lon="114.13478333333333"><ele>17.2</ele><time>2025-12-18T02:49:01Z</time></trkpt><trkpt lat="22.34681833333333" lon="114.13476999999999"><ele>17.3</ele><time>2025-12-18T02:49:04Z</time></trkpt><trkpt lat="22.346836666666665" lon="114.13475833333332"><ele>16.9</ele><time>2025-12-18T02:49:09Z</time></trkpt><trkpt lat="22.346848333333334" lon="114.13474166666668"><ele>17.0</ele><time>2025-12-18T02:49:12Z</time></trkpt><trkpt lat="22.34685833333333" lon="114.13471999999999"><ele>16.7</ele><time>2025-12-18T02:49:15Z</time></trkpt><trkpt lat="22.346836666666665" lon="114.13473833333335"><ele>17.099999999999998</ele><time>2025-12-18T02:49:40Z</time></trkpt><trkpt lat="22.34681666666667" lon="114.13474999999998"><ele>17.0</ele><time>2025-12-18T02:49:43Z</time></trkpt><trkpt lat="22.34680166666667" lon="114.13476833333334"><ele>16.9</ele><time>2025-12-18T02:49:46Z</time></trkpt><trkpt lat="22.346790000000002" lon="114.13478666666667"><ele>16.8</ele><time>2025-12-18T02:49:48Z</time></trkpt><trkpt lat="22.346775" lon="114.13480833333332"><ele>16.7</ele><time>2025-12-18T02:49:51Z</time></trkpt><trkpt lat="22.346751666666666" lon="114.13481333333333"><ele>16.5</ele><time>2025-12-18T02:49:56Z</time></trkpt><trkpt lat="22.34674" lon="114.13483"><ele>16.8</ele><time>2025-12-18T02:50:20Z</time></trkpt><trkpt lat="22.34673" lon="114.13485666666665"><ele>16.599999999999998</ele><time>2025-12-18T02:50:23Z</time></trkpt><trkpt lat="22.34654666666667" lon="114.13457666666666"><ele>9.799999999999999</ele><time>2025-12-18T02:50:47Z</time></trkpt><trkpt lat="22.346563333333332" lon="114.13462666666668"><ele>9.799999999999999</ele><time>2025-12-18T02:50:48Z</time></trkpt><trkpt lat="22.346578333333333" lon="114.13465"><ele>9.799999999999999</ele><time>2025-12-18T02:50:49Z</time></trkpt><trkpt lat="22.346595" lon="114.13467999999999"><ele>9.799999999999999</ele><time>2025-12-18T02:50:50Z</time></trkpt><trkpt lat="22.34662166666667" lon="114.13469666666667"><ele>9.899999999999999</ele><time>2025-12-18T02:50:52Z</time></trkpt><trkpt lat="22.34662166666667" lon="114.13472500000002"><ele>10.0</ele><time>2025-12-18T02:50:53Z</time></trkpt><trkpt lat="22.346603333333338" lon="114.13471833333332"><ele>10.2</ele><time>2025-12-18T02:50:55Z</time></trkpt><trkpt lat="22.346586666666667" lon="114.13475833333332"><ele>10.7</ele><time>2025-12-18T02:50:58Z</time></trkpt><trkpt lat="22.346586666666667" lon="114.13478333333333"><ele>11.1</ele><time>2025-12-18T02:51:05Z</time></trkpt><trkpt lat="22.346596666666663" lon="114.13481333333333"><ele>12.0</ele><time>2025-12-18T02:51:13Z</time></trkpt><trkpt lat="22.346608333333332" lon="114.13483"><ele>12.0</ele><time>2025-12-18T02:51:15Z</time></trkpt><trkpt lat="22.346605" lon="114.13485666666665"><ele>11.799999999999999</ele><time>2025-12-18T02:51:17Z</time></trkpt><trkpt lat="22.34660666666667" lon="114.13488333333335"><ele>11.7</ele><time>2025-12-18T02:51:19Z</time></trkpt><trkpt lat="22.34659333333333" lon="114.13490500000002"><ele>11.7</ele><time>2025-12-18T02:51:21Z</time></trkpt><trkpt lat="22.346566666666664" lon="114.13489666666668"><ele>11.6</ele><time>2025-12-18T02:51:23Z</time></trkpt><trkpt lat="22.346553333333336" lon="114.13487166666667"><ele>11.399999999999999</ele><time>2025-12-18T02:51:28Z</time></trkpt><trkpt lat="22.34702333333333" lon="114.13489833333333"><ele>9.899999999999999</ele><time>2025-12-18T02:51:51Z</time></trkpt><trkpt lat="22.346973333333334" lon="114.13487166666667"><ele>9.7</ele><time>2025-12-18T02:51:52Z</time></trkpt><trkpt lat="22.34691" lon="114.13483166666668"><ele>8.899999999999999</ele><time>2025-12-18T02:51:53Z</time></trkpt><trkpt lat="22.346868333333337" lon="114.13482166666667"><ele>8.7</ele><time>2025-12-18T02:51:54Z</time></trkpt><trkpt lat="22.346850000000003" lon="114.13481833333331"><ele>7.7</ele><time>2025-12-18T02:51:56Z</time></trkpt><trkpt lat="22.346803333333334" lon="114.13480333333334"><ele>7.7</ele><time>2025-12-18T02:51:57Z</time></trkpt><trkpt lat="22.34678166666667" lon="114.13478833333332"><ele>7.500000000000001</ele><time>2025-12-18T02:51:59Z</time></trkpt><trkpt lat="22.346761666666666" lon="114.13477833333333"><ele>7.3</ele><time>2025-12-18T02:52:01Z</time></trkpt><trkpt lat="22.34672666666667" lon="114.13476666666665"><ele>7.3999999999999995</ele><time>2025-12-18T02:52:03Z</time></trkpt><trkpt lat="22.346698333333332" lon="114.13474833333333"><ele>7.3999999999999995</ele><time>2025-12-18T02:52:04Z</time></trkpt><trkpt lat="22.346664999999998" lon="114.13471999999999"><ele>6.7</ele><time>2025-12-18T02:52:06Z</time></trkpt><trkpt lat="22.34664666666667" lon="114.13470000000001"><ele>6.2</ele><time>2025-12-18T02:52:07Z</time></trkpt><trkpt lat="22.34664833333333" lon="114.13472833333331"><ele>6.5</ele><time>2025-12-18T02:52:08Z</time></trkpt><trkpt lat="22.346658333333334" lon="114.13476833333334"><ele>6.7</ele><time>2025-12-18T02:52:10Z</time></trkpt><trkpt lat="22.34665" lon="114.13478833333332"><ele>6.7</ele><time>2025-12-18T02:52:16Z</time></trkpt><trkpt lat="22.34665" lon="114.13480999999999"><ele>6.4</ele><time>2025-12-18T02:52:18Z</time></trkpt><trkpt lat="22.34664666666667" lon="114.13483"><ele>6.8</ele><time>2025-12-18T02:52:22Z</time></trkpt><trkpt lat="22.346655000000002" lon="114.134855"><ele>7.8</ele><time>2025-12-18T02:52:27Z</time></trkpt><trkpt lat="22.346661666666666" lon="114.13487500000001"><ele>8.2</ele><time>2025-12-18T02:52:29Z</time></trkpt><trkpt lat="22.346659999999996" lon="114.13489666666668"><ele>8.7</ele><time>2025-12-18T02:52:31Z</time></trkpt><trkpt lat="22.346643333333336" lon="114.13490666666667"><ele>9.2</ele><time>2025-12-18T02:52:33Z</time></trkpt><trkpt lat="22.34660166666667" lon="114.13488166666666"><ele>15.0</ele><time>2025-12-18T02:53:06Z</time></trkpt><trkpt lat="22.346558333333338" lon="114.13491166666667"><ele>15.3</ele><time>2025-12-18T02:53:17Z</time></trkpt><trkpt lat="22.34656" lon="114.13494333333334"><ele>15.599999999999998</ele><time>2025-12-18T02:53:19Z</time></trkpt><trkpt lat="22.346565000000002" lon="114.13496833333332"><ele>16.0</ele><time>2025-12-18T02:53:23Z</time></trkpt><trkpt lat="22.346580000000003" lon="114.13498166666668"><ele>16.0</ele><time>2025-12-18T02:53:24Z</time></trkpt><trkpt lat="22.346595" lon="114.135"><ele>16.0</ele><time>2025-12-18T02:53:26Z</time></trkpt><trkpt lat="22.346613333333334" lon="114.13500833333335"><ele>16.0</ele><time>2025-12-18T02:53:28Z</time></trkpt><trkpt lat="22.34663666666667" lon="114.13502333333332"><ele>16.0</ele><time>2025-12-18T02:53:30Z</time></trkpt><trkpt lat="22.34661833333333" lon="114.13501333333333"><ele>15.599999999999998</ele><time>2025-12-18T02:53:35Z</time></trkpt><trkpt lat="22.34659" lon="114.13499666666667"><ele>15.399999999999999</ele><time>2025-12-18T02:53:37Z</time></trkpt><trkpt lat="22.346573333333335" lon="114.13498666666668"><ele>15.599999999999998</ele><time>2025-12-18T02:53:39Z</time></trkpt><trkpt lat="22.346555" lon="114.13497333333335"><ele>15.899999999999999</ele><time>2025-12-18T02:53:41Z</time></trkpt><trkpt lat="22.346536666666665" lon="114.13495666666668"><ele>16.3</ele><time>2025-12-18T02:53:43Z</time></trkpt><trkpt lat="22.346518333333332" lon="114.13494333333334"><ele>16.9</ele><time>2025-12-18T02:53:45Z</time></trkpt><trkpt lat="22.346493333333335" lon="114.13491333333334"><ele>18.3</ele><time>2025-12-18T02:53:56Z</time></trkpt><trkpt lat="22.346476666666664" lon="114.13493666666666"><ele>17.0</ele><time>2025-12-18T02:54:23Z</time></trkpt><trkpt lat="22.346488333333333" lon="114.13495999999999"><ele>16.599999999999998</ele><time>2025-12-18T02:54:31Z</time></trkpt><trkpt lat="22.346493333333335" lon="114.13498166666668"><ele>16.7</ele><time>2025-12-18T02:54:33Z</time></trkpt><trkpt lat="22.346496666666667" lon="114.13500166666667"><ele>16.8</ele><time>2025-12-18T02:54:37Z</time></trkpt><trkpt lat="22.346491666666665" lon="114.13502500000001"><ele>16.7</ele><time>2025-12-18T02:54:40Z</time></trkpt><trkpt lat="22.346476666666664" lon="114.13503999999999"><ele>16.7</ele><time>2025-12-18T02:54:43Z</time></trkpt><trkpt lat="22.34645666666667" lon="114.13505666666667"><ele>16.599999999999998</ele><time>2025-12-18T02:54:46Z</time></trkpt><trkpt lat="22.346439999999998" lon="114.13507499999999"><ele>16.5</ele><time>2025-12-18T02:54:48Z</time></trkpt><trkpt lat="22.34642" lon="114.13510166666669"><ele>16.3</ele><time>2025-12-18T02:54:50Z</time></trkpt><trkpt lat="22.346400000000003" lon="114.13512"><ele>16.0</ele><time>2025-12-18T02:54:52Z</time></trkpt><trkpt lat="22.346376666666668" lon="114.13513999999999"><ele>15.7</ele><time>2025-12-18T02:54:54Z</time></trkpt><trkpt lat="22.346361666666667" lon="114.13515166666666"><ele>15.599999999999998</ele><time>2025-12-18T02:54:55Z</time></trkpt><trkpt lat="22.346338333333332" lon="114.13516666666668"><ele>15.0</ele><time>2025-12-18T02:54:57Z</time></trkpt><trkpt lat="22.346308333333333" lon="114.13517166666666"><ele>14.399999999999999</ele><time>2025-12-18T02:54:59Z</time></trkpt><trkpt lat="22.346284999999998" lon="114.13517500000002"><ele>13.5</ele><time>2025-12-18T02:55:01Z</time></trkpt><trkpt lat="22.346259999999997" lon="114.13518166666667"><ele>12.1</ele><time>2025-12-18T02:55:03Z</time></trkpt><trkpt lat="22.346235" lon="114.13519"><ele>11.7</ele><time>2025-12-18T02:55:05Z</time></trkpt><trkpt lat="22.346208333333333" lon="114.13520333333332"><ele>11.1</ele><time>2025-12-18T02:55:07Z</time></trkpt><trkpt lat="22.346185" lon="114.13521999999999"><ele>10.899999999999999</ele><time>2025-12-18T02:55:09Z</time></trkpt><trkpt lat="22.346166666666665" lon="114.13523166666667"><ele>10.6</ele><time>2025-12-18T02:55:11Z</time></trkpt><trkpt lat="22.346146666666662" lon="114.13523666666667"><ele>10.0</ele><time>2025-12-18T02:55:13Z</time></trkpt><trkpt lat="22.346124999999997" lon="114.13524166666666"><ele>9.399999999999999</ele><time>2025-12-18T02:55:20Z</time></trkpt><trkpt lat="22.346106666666667" lon="114.13524833333334"><ele>9.1</ele><time>2025-12-18T02:55:22Z</time></trkpt><trkpt lat="22.346085000000002" lon="114.13525999999999"><ele>9.299999999999999</ele><time>2025-12-18T02:55:24Z</time></trkpt><trkpt lat="22.346063333333337" lon="114.13527500000001"><ele>9.7</ele><time>2025-12-18T02:55:26Z</time></trkpt><trkpt lat="22.346034999999997" lon="114.13528833333334"><ele>10.1</ele><time>2025-12-18T02:55:28Z</time></trkpt><trkpt lat="22.34600833333333" lon="114.13529833333332"><ele>10.1</ele><time>2025-12-18T02:55:30Z</time></trkpt><trkpt lat="22.34597666666667" lon="114.13530166666666"><ele>10.5</ele><time>2025-12-18T02:55:32Z</time></trkpt><trkpt lat="22.345951666666664" lon="114.13531166666668"><ele>10.799999999999999</ele><time>2025-12-18T02:55:34Z</time></trkpt><trkpt lat="22.345926666666667" lon="114.13531499999999"><ele>11.1</ele><time>2025-12-18T02:55:36Z</time></trkpt><trkpt lat="22.345899999999997" lon="114.13532333333333"><ele>11.799999999999999</ele><time>2025-12-18T02:55:38Z</time></trkpt><trkpt lat="22.345876666666662" lon="114.135335"><ele>12.399999999999999</ele><time>2025-12-18T02:55:40Z</time></trkpt><trkpt lat="22.345860000000002" lon="114.13534833333333"><ele>12.399999999999999</ele><time>2025-12-18T02:55:42Z</time></trkpt><trkpt lat="22.345861666666664" lon="114.13537166666669"><ele>12.799999999999999</ele><time>2025-12-18T02:55:45Z</time></trkpt><trkpt lat="22.34584333333333" lon="114.13538166666667"><ele>12.7</ele><time>2025-12-18T02:55:47Z</time></trkpt><trkpt lat="22.345818333333334" lon="114.13539333333334"><ele>12.899999999999999</ele><time>2025-12-18T02:55:49Z</time></trkpt><trkpt lat="22.345795" lon="114.13540333333334"><ele>13.1</ele><time>2025-12-18T02:55:51Z</time></trkpt><trkpt lat="22.345775000000003" lon="114.13540333333334"><ele>13.2</ele><time>2025-12-18T02:55:53Z</time></trkpt><trkpt lat="22.345756666666663" lon="114.13540499999999"><ele>12.799999999999999</ele><time>2025-12-18T02:55:55Z</time></trkpt><trkpt lat="22.34573833333333" lon="114.13539666666665"><ele>12.6</ele><time>2025-12-18T02:55:57Z</time></trkpt><trkpt lat="22.345715000000002" lon="114.13538833333332"><ele>12.399999999999999</ele><time>2025-12-18T02:55:59Z</time></trkpt><trkpt lat="22.345689999999998" lon="114.13538333333332"><ele>12.0</ele><time>2025-12-18T02:56:01Z</time></trkpt><trkpt lat="22.34566333333333" lon="114.13537833333334"><ele>11.7</ele><time>2025-12-18T02:56:03Z</time></trkpt><trkpt lat="22.345641666666666" lon="114.13537333333333"><ele>11.5</ele><time>2025-12-18T02:56:05Z</time></trkpt><trkpt lat="22.345621666666663" lon="114.13537"><ele>11.5</ele><time>2025-12-18T02:56:07Z</time></trkpt><trkpt lat="22.345595000000003" lon="114.13536666666666"><ele>11.399999999999999</ele><time>2025-12-18T02:56:09Z</time></trkpt><trkpt lat="22.345566666666667" lon="114.13536166666667"><ele>11.399999999999999</ele><time>2025-12-18T02:56:11Z</time></trkpt><trkpt lat="22.345538333333334" lon="114.13535666666667"><ele>11.399999999999999</ele><time>2025-12-18T02:56:13Z</time></trkpt><trkpt lat="22.345520000000004" lon="114.13535333333333"><ele>11.5</ele><time>2025-12-18T02:56:14Z</time></trkpt><trkpt lat="22.34549666666667" lon="114.13534999999999"><ele>11.399999999999999</ele><time>2025-12-18T02:56:16Z</time></trkpt><trkpt lat="22.345473333333334" lon="114.13534499999999"><ele>11.0</ele><time>2025-12-18T02:56:19Z</time></trkpt><trkpt lat="22.345446666666664" lon="114.13534166666668"><ele>10.899999999999999</ele><time>2025-12-18T02:56:21Z</time></trkpt><trkpt lat="22.345419999999997" lon="114.13533833333334"><ele>11.299999999999999</ele><time>2025-12-18T02:56:23Z</time></trkpt><trkpt lat="22.3454" lon="114.13533666666666"><ele>11.1</ele><time>2025-12-18T02:56:25Z</time></trkpt><trkpt lat="22.345381666666672" lon="114.13533666666666"><ele>11.1</ele><time>2025-12-18T02:56:27Z</time></trkpt><trkpt lat="22.34536166666667" lon="114.13533666666666"><ele>11.399999999999999</ele><time>2025-12-18T02:56:30Z</time></trkpt><trkpt lat="22.345329999999997" lon="114.135335"><ele>11.799999999999999</ele><time>2025-12-18T02:56:32Z</time></trkpt><trkpt lat="22.34530833333333" lon="114.13533333333335"><ele>11.2</ele><time>2025-12-18T02:56:35Z</time></trkpt><trkpt lat="22.34528833333333" lon="114.13533166666666"><ele>11.0</ele><time>2025-12-18T02:56:37Z</time></trkpt><trkpt lat="22.345253333333336" lon="114.13532833333332"><ele>10.899999999999999</ele><time>2025-12-18T02:56:39Z</time></trkpt><trkpt lat="22.34523166666667" lon="114.13532500000001"><ele>10.899999999999999</ele><time>2025-12-18T02:56:41Z</time></trkpt><trkpt lat="22.345206666666666" lon="114.13532500000001"><ele>10.299999999999999</ele><time>2025-12-18T02:56:43Z</time></trkpt><trkpt lat="22.34518333333333" lon="114.13532333333333"><ele>9.6</ele><time>2025-12-18T02:56:46Z</time></trkpt><trkpt lat="22.345160000000003" lon="114.13532333333333"><ele>9.2</ele><time>2025-12-18T02:56:49Z</time></trkpt><trkpt lat="22.345133333333333" lon="114.13532166666667"><ele>8.6</ele><time>2025-12-18T02:56:52Z</time></trkpt><trkpt lat="22.345101666666665" lon="114.13531833333333"><ele>7.6000000000000005</ele><time>2025-12-18T02:56:57Z</time></trkpt><trkpt lat="22.345070000000003" lon="114.13531666666668"><ele>7.2</ele><time>2025-12-18T02:56:59Z</time></trkpt><trkpt lat="22.345043333333333" lon="114.13533166666666"><ele>6.3</ele><time>2025-12-18T02:57:02Z</time></trkpt><trkpt lat="22.345016666666666" lon="114.13535166666666"><ele>5.6000000000000005</ele><time>2025-12-18T02:57:04Z</time></trkpt><trkpt lat="22.344981666666666" lon="114.13535666666667"><ele>4.6000000000000005</ele><time>2025-12-18T02:57:06Z</time></trkpt><trkpt lat="22.34496166666667" lon="114.13536"><ele>4.0</ele><time>2025-12-18T02:57:07Z</time></trkpt><trkpt lat="22.344945" lon="114.135375"><ele>3.2</ele><time>2025-12-18T02:57:09Z</time></trkpt><trkpt lat="22.344928333333336" lon="114.13538666666666"><ele>2.9000000000000004</ele><time>2025-12-18T02:57:11Z</time></trkpt><trkpt lat="22.34490333333333" lon="114.13541333333333"><ele>2.2</ele><time>2025-12-18T02:57:13Z</time></trkpt><trkpt lat="22.344884999999998" lon="114.13541833333332"><ele>1.9000000000000001</ele><time>2025-12-18T02:57:15Z</time></trkpt><trkpt lat="22.344866666666668" lon="114.13542833333334"><ele>1.5999999999999999</ele><time>2025-12-18T02:57:19Z</time></trkpt><trkpt lat="22.34483" lon="114.13547333333332"><ele>3.8</ele><time>2025-12-18T02:57:33Z</time></trkpt><trkpt lat="22.344848333333335" lon="114.135465"><ele>3.5</ele><time>2025-12-18T02:57:36Z</time></trkpt><trkpt lat="22.344808333333336" lon="114.13545333333334"><ele>2.7</ele><time>2025-12-18T02:58:02Z</time></trkpt><trkpt lat="22.34481" lon="114.13547333333332"><ele>2.9000000000000004</ele><time>2025-12-18T02:58:05Z</time></trkpt><trkpt lat="22.344788333333334" lon="114.13548666666665"><ele>3.0</ele><time>2025-12-18T02:58:11Z</time></trkpt><trkpt lat="22.34476666666667" lon="114.13548833333334"><ele>3.1000000000000005</ele><time>2025-12-18T02:58:14Z</time></trkpt><trkpt lat="22.344728333333332" lon="114.13547666666666"><ele>3.8</ele><time>2025-12-18T02:58:19Z</time></trkpt><trkpt lat="22.344708333333333" lon="114.13547833333332"><ele>4.5</ele><time>2025-12-18T02:58:21Z</time></trkpt><trkpt lat="22.344684999999995" lon="114.13548333333334"><ele>5.1000000000000005</ele><time>2025-12-18T02:58:25Z</time></trkpt><trkpt lat="22.344665000000003" lon="114.13548666666665"><ele>5.2</ele><time>2025-12-18T02:58:27Z</time></trkpt><trkpt lat="22.34464666666667" lon="114.13548833333334"><ele>5.4</ele><time>2025-12-18T02:58:29Z</time></trkpt><trkpt lat="22.344618333333333" lon="114.13549333333334"><ele>5.7</ele><time>2025-12-18T02:58:31Z</time></trkpt><trkpt lat="22.344598333333337" lon="114.13549666666668"><ele>5.7</ele><time>2025-12-18T02:58:33Z</time></trkpt><trkpt lat="22.344578333333335" lon="114.13549666666668"><ele>3.8</ele><time>2025-12-18T02:58:39Z</time></trkpt><trkpt lat="22.34456" lon="114.13549833333333"><ele>4.3</ele><time>2025-12-18T02:58:45Z</time></trkpt><trkpt lat="22.34454333333333" lon="114.13551333333335"><ele>5.5</ele><time>2025-12-18T02:58:58Z</time></trkpt><trkpt lat="22.344515" lon="114.13551666666666"><ele>5.4</ele><time>2025-12-18T02:59:01Z</time></trkpt><trkpt lat="22.344491666666666" lon="114.13552166666665"><ele>5.5</ele><time>2025-12-18T02:59:03Z</time></trkpt><trkpt lat="22.344465" lon="114.13552666666668"><ele>5.5</ele><time>2025-12-18T02:59:05Z</time></trkpt><trkpt lat="22.344440000000002" lon="114.13553166666667"><ele>5.5</ele><time>2025-12-18T02:59:07Z</time></trkpt><trkpt lat="22.34440833333333" lon="114.13554"><ele>5.5</ele><time>2025-12-18T02:59:09Z</time></trkpt><trkpt lat="22.344373333333337" lon="114.13555166666666"><ele>5.7</ele><time>2025-12-18T02:59:11Z</time></trkpt><trkpt lat="22.344343333333335" lon="114.13556166666667"><ele>5.9</ele><time>2025-12-18T02:59:14Z</time></trkpt><trkpt lat="22.344313333333336" lon="114.13557166666666"><ele>5.7</ele><time>2025-12-18T02:59:17Z</time></trkpt><trkpt lat="22.344296666666665" lon="114.13555999999998"><ele>6.2</ele><time>2025-12-18T02:59:23Z</time></trkpt><trkpt lat="22.344275" lon="114.13557333333334"><ele>6.2</ele><time>2025-12-18T02:59:35Z</time></trkpt><trkpt lat="22.34425666666667" lon="114.13557833333334"><ele>6.2</ele><time>2025-12-18T02:59:38Z</time></trkpt><trkpt lat="22.34424" lon="114.13558666666668"><ele>5.8</ele><time>2025-12-18T02:59:41Z</time></trkpt><trkpt lat="22.344221666666666" lon="114.13559666666667"><ele>5.3</ele><time>2025-12-18T02:59:43Z</time></trkpt><trkpt lat="22.344205000000002" lon="114.135605"><ele>4.7</ele><time>2025-12-18T02:59:45Z</time></trkpt><trkpt lat="22.344186666666662" lon="114.13561666666668"><ele>4.3</ele><time>2025-12-18T02:59:47Z</time></trkpt><trkpt lat="22.344171666666664" lon="114.13563"><ele>3.8</ele><time>2025-12-18T02:59:49Z</time></trkpt><trkpt lat="22.344156666666663" lon="114.13564166666666"><ele>3.1000000000000005</ele><time>2025-12-18T02:59:51Z</time></trkpt><trkpt lat="22.34415" lon="114.13566"><ele>3.4000000000000004</ele><time>2025-12-18T02:59:57Z</time></trkpt><trkpt lat="22.344146666666667" lon="114.13569000000001"><ele>4.7</ele><time>2025-12-18T03:00:11Z</time></trkpt><trkpt lat="22.344126666666664" lon="114.13569333333335"><ele>4.9</ele><time>2025-12-18T03:00:14Z</time></trkpt><trkpt lat="22.344101666666667" lon="114.13568833333332"><ele>4.9</ele><time>2025-12-18T03:00:18Z</time></trkpt><trkpt lat="22.34408" lon="114.13569000000001"><ele>4.2</ele><time>2025-12-18T03:00:22Z</time></trkpt><trkpt lat="22.344083333333334" lon="114.135665"><ele>2.7</ele><time>2025-12-18T03:00:29Z</time></trkpt><trkpt lat="22.344056666666667" lon="114.13565666666666"><ele>1.9999999999999998</ele><time>2025-12-18T03:00:57Z</time></trkpt><trkpt lat="22.344038333333334" lon="114.13566833333334"><ele>1.9999999999999998</ele><time>2025-12-18T03:00:59Z</time></trkpt><trkpt lat="22.34402" lon="114.13567833333333"><ele>1.9000000000000001</ele><time>2025-12-18T03:01:01Z</time></trkpt><trkpt lat="22.34405" lon="114.13568666666667"><ele>3.1000000000000005</ele><time>2025-12-18T03:01:27Z</time></trkpt><trkpt lat="22.344001666666667" lon="114.13575"><ele>5.1000000000000005</ele><time>2025-12-18T03:02:08Z</time></trkpt><trkpt lat="22.343984999999996" lon="114.13576166666665"><ele>5.4</ele><time>2025-12-18T03:02:10Z</time></trkpt><trkpt lat="22.343966666666667" lon="114.13577166666667"><ele>5.5</ele><time>2025-12-18T03:02:12Z</time></trkpt><trkpt lat="22.343948333333334" lon="114.13578166666666"><ele>5.6000000000000005</ele><time>2025-12-18T03:02:14Z</time></trkpt><trkpt lat="22.34392833333333" lon="114.13579166666665"><ele>5.8</ele><time>2025-12-18T03:02:16Z</time></trkpt><trkpt lat="22.343906666666665" lon="114.13580166666667"><ele>5.8</ele><time>2025-12-18T03:02:18Z</time></trkpt><trkpt lat="22.343888333333332" lon="114.13581166666667"><ele>5.8</ele><time>2025-12-18T03:02:20Z</time></trkpt><trkpt lat="22.34387166666667" lon="114.13582"><ele>5.8</ele><time>2025-12-18T03:02:22Z</time></trkpt><trkpt lat="22.343885" lon="114.13580666666667"><ele>5.8</ele><time>2025-12-18T03:02:30Z</time></trkpt><trkpt lat="22.343843333333332" lon="114.13580833333332"><ele>6.7</ele><time>2025-12-18T03:02:54Z</time></trkpt><trkpt lat="22.343825" lon="114.135825"><ele>6.8999999999999995</ele><time>2025-12-18T03:02:57Z</time></trkpt><trkpt lat="22.343804999999996" lon="114.13584166666666"><ele>6.8</ele><time>2025-12-18T03:03:00Z</time></trkpt><trkpt lat="22.343785000000004" lon="114.13584"><ele>6.6000000000000005</ele><time>2025-12-18T03:03:03Z</time></trkpt><trkpt lat="22.34376666666667" lon="114.13583333333332"><ele>6.4</ele><time>2025-12-18T03:03:05Z</time></trkpt><trkpt lat="22.343743333333336" lon="114.13582999999998"><ele>6.3</ele><time>2025-12-18T03:03:08Z</time></trkpt><trkpt lat="22.343725000000003" lon="114.13583166666668"><ele>6.2</ele><time>2025-12-18T03:03:10Z</time></trkpt><trkpt lat="22.343705" lon="114.13583333333332"><ele>6.1000000000000005</ele><time>2025-12-18T03:03:12Z</time></trkpt><trkpt lat="22.343684999999997" lon="114.13581333333335"><ele>5.8</ele><time>2025-12-18T03:03:15Z</time></trkpt><trkpt lat="22.34367166666667" lon="114.13579166666665"><ele>5.5</ele><time>2025-12-18T03:03:17Z</time></trkpt><trkpt lat="22.34366166666667" lon="114.13576833333333"><ele>5.2</ele><time>2025-12-18T03:03:21Z</time></trkpt><trkpt lat="22.343663333333332" lon="114.13574500000001"><ele>5.4</ele><time>2025-12-18T03:03:24Z</time></trkpt><trkpt lat="22.343681666666665" lon="114.13572166666667"><ele>5.3</ele><time>2025-12-18T03:03:26Z</time></trkpt><trkpt lat="22.34369166666667" lon="114.13570166666665"><ele>5.1000000000000005</ele><time>2025-12-18T03:03:28Z</time></trkpt><trkpt lat="22.343698333333336" lon="114.13568166666667"><ele>4.8</ele><time>2025-12-18T03:03:30Z</time></trkpt><trkpt lat="22.34370666666667" lon="114.13566"><ele>4.6000000000000005</ele><time>2025-12-18T03:03:32Z</time></trkpt><trkpt lat="22.343714999999996" lon="114.13564166666666"><ele>4.5</ele><time>2025-12-18T03:03:34Z</time></trkpt><trkpt lat="22.343728333333335" lon="114.13560000000001"><ele>6.6000000000000005</ele><time>2025-12-18T03:03:59Z</time></trkpt><trkpt lat="22.34371833333333" lon="114.13554833333335"><ele>6.5</ele><time>2025-12-18T03:04:07Z</time></trkpt><trkpt lat="22.34371666666667" lon="114.13552833333333"><ele>6.4</ele><time>2025-12-18T03:04:09Z</time></trkpt><trkpt lat="22.343713333333334" lon="114.13550833333332"><ele>6.3</ele><time>2025-12-18T03:04:12Z</time></trkpt><trkpt lat="22.34370666666667" lon="114.13548333333334"><ele>6.4</ele><time>2025-12-18T03:04:16Z</time></trkpt><trkpt lat="22.343696666666666" lon="114.13546166666666"><ele>6.4</ele><time>2025-12-18T03:04:18Z</time></trkpt><trkpt lat="22.34370333333333" lon="114.13542833333334"><ele>6.5</ele><time>2025-12-18T03:04:21Z</time></trkpt><trkpt lat="22.34371" lon="114.13541"><ele>6.6000000000000005</ele><time>2025-12-18T03:04:24Z</time></trkpt><trkpt lat="22.34368833333333" lon="114.135375"><ele>10.2</ele><time>2025-12-18T03:05:03Z</time></trkpt><trkpt lat="22.343695000000004" lon="114.13535166666666"><ele>10.1</ele><time>2025-12-18T03:05:05Z</time></trkpt><trkpt lat="22.34370666666667" lon="114.13532833333332"><ele>9.6</ele><time>2025-12-18T03:05:08Z</time></trkpt><trkpt lat="22.343726666666665" lon="114.13531499999999"><ele>9.0</ele><time>2025-12-18T03:05:11Z</time></trkpt><trkpt lat="22.343745" lon="114.13530999999999"><ele>8.899999999999999</ele><time>2025-12-18T03:05:13Z</time></trkpt><trkpt lat="22.343770000000003" lon="114.1353"><ele>8.899999999999999</ele><time>2025-12-18T03:05:16Z</time></trkpt><trkpt lat="22.343788333333336" lon="114.13529500000001"><ele>8.7</ele><time>2025-12-18T03:05:18Z</time></trkpt><trkpt lat="22.34380666666667" lon="114.13529500000001"><ele>8.7</ele><time>2025-12-18T03:05:20Z</time></trkpt><trkpt lat="22.34382666666667" lon="114.13529666666666"><ele>8.799999999999999</ele><time>2025-12-18T03:05:23Z</time></trkpt><trkpt lat="22.343846666666664" lon="114.13528666666667"><ele>9.799999999999999</ele><time>2025-12-18T03:05:35Z</time></trkpt><trkpt lat="22.343863333333335" lon="114.13527666666666"><ele>9.899999999999999</ele><time>2025-12-18T03:05:37Z</time></trkpt><trkpt lat="22.34388666666667" lon="114.13527500000001"><ele>9.5</ele><time>2025-12-18T03:05:40Z</time></trkpt><trkpt lat="22.343909999999997" lon="114.1353"><ele>8.899999999999999</ele><time>2025-12-18T03:06:01Z</time></trkpt><trkpt lat="22.34392833333333" lon="114.13531333333334"><ele>9.0</ele><time>2025-12-18T03:06:04Z</time></trkpt><trkpt lat="22.343966666666667" lon="114.13531666666668"><ele>10.5</ele><time>2025-12-18T03:06:26Z</time></trkpt><trkpt lat="22.343984999999996" lon="114.13531666666668"><ele>10.5</ele><time>2025-12-18T03:06:29Z</time></trkpt><trkpt lat="22.34394666666667" lon="114.13530999999999"><ele>11.899999999999999</ele><time>2025-12-18T03:06:52Z</time></trkpt><trkpt lat="22.343925" lon="114.13530166666666"><ele>11.899999999999999</ele><time>2025-12-18T03:06:54Z</time></trkpt><trkpt lat="22.343903333333333" lon="114.13529500000001"><ele>11.6</ele><time>2025-12-18T03:06:57Z</time></trkpt><trkpt lat="22.343885" lon="114.13529666666666"><ele>11.2</ele><time>2025-12-18T03:07:00Z</time></trkpt><trkpt lat="22.343860000000003" lon="114.13529833333332"><ele>11.1</ele><time>2025-12-18T03:07:02Z</time></trkpt><trkpt lat="22.34384166666667" lon="114.13530333333334"><ele>11.0</ele><time>2025-12-18T03:07:04Z</time></trkpt><trkpt lat="22.34382333333333" lon="114.13532166666667"><ele>11.299999999999999</ele><time>2025-12-18T03:07:07Z</time></trkpt><trkpt lat="22.343803333333334" lon="114.13533333333335"><ele>11.299999999999999</ele><time>2025-12-18T03:07:09Z</time></trkpt><trkpt lat="22.34377833333333" lon="114.13533833333334"><ele>10.899999999999999</ele><time>2025-12-18T03:07:11Z</time></trkpt><trkpt lat="22.343755" lon="114.13534333333334"><ele>10.5</ele><time>2025-12-18T03:07:13Z</time></trkpt><trkpt lat="22.343741666666666" lon="114.13535666666667"><ele>10.5</ele><time>2025-12-18T03:07:15Z</time></trkpt><trkpt lat="22.343723333333333" lon="114.13537166666669"><ele>10.299999999999999</ele><time>2025-12-18T03:07:18Z</time></trkpt><trkpt lat="22.343711666666664" lon="114.13539666666665"><ele>10.299999999999999</ele><time>2025-12-18T03:07:21Z</time></trkpt><trkpt lat="22.34370333333333" lon="114.13542333333335"><ele>10.299999999999999</ele><time>2025-12-18T03:07:23Z</time></trkpt><trkpt lat="22.343695000000004" lon="114.13544833333331"><ele>10.399999999999999</ele><time>2025-12-18T03:07:25Z</time></trkpt><trkpt lat="22.343698333333336" lon="114.13547500000001"><ele>9.6</ele><time>2025-12-18T03:07:28Z</time></trkpt><trkpt lat="22.343698333333336" lon="114.13549499999999"><ele>9.1</ele><time>2025-12-18T03:07:31Z</time></trkpt><trkpt lat="22.34369333333333" lon="114.13551666666666"><ele>7.8</ele><time>2025-12-18T03:07:35Z</time></trkpt><trkpt lat="22.343705" lon="114.13554"><ele>7.3999999999999995</ele><time>2025-12-18T03:07:37Z</time></trkpt><trkpt lat="22.343708333333332" lon="114.13556333333332"><ele>7.500000000000001</ele><time>2025-12-18T03:07:39Z</time></trkpt><trkpt lat="22.34371666666667" lon="114.13558499999999"><ele>7.6000000000000005</ele><time>2025-12-18T03:07:41Z</time></trkpt><trkpt lat="22.343723333333333" lon="114.13561333333334"><ele>7.2</ele><time>2025-12-18T03:07:44Z</time></trkpt><trkpt lat="22.343735" lon="114.13563166666667"><ele>7.3</ele><time>2025-12-18T03:07:47Z</time></trkpt><trkpt lat="22.3438" lon="114.13562333333333"><ele>6.8999999999999995</ele><time>2025-12-18T03:07:58Z</time></trkpt><trkpt lat="22.34378166666667" lon="114.135645"><ele>7.2</ele><time>2025-12-18T03:08:10Z</time></trkpt><trkpt lat="22.343768333333333" lon="114.13562666666667"><ele>6.8999999999999995</ele><time>2025-12-18T03:08:13Z</time></trkpt><trkpt lat="22.34378166666667" lon="114.13561333333334"><ele>6.8</ele><time>2025-12-18T03:08:17Z</time></trkpt><trkpt lat="22.34381166666667" lon="114.13560833333334"><ele>6.8</ele><time>2025-12-18T03:08:28Z</time></trkpt><trkpt lat="22.34381" lon="114.13558833333333"><ele>6.5</ele><time>2025-12-18T03:08:32Z</time></trkpt><trkpt lat="22.343801666666664" lon="114.13556666666666"><ele>6.6000000000000005</ele><time>2025-12-18T03:08:36Z</time></trkpt><trkpt lat="22.34379" lon="114.13555166666666"><ele>8.1</ele><time>2025-12-18T03:08:44Z</time></trkpt><trkpt lat="22.34380833333333" lon="114.13555166666666"><ele>9.299999999999999</ele><time>2025-12-18T03:08:50Z</time></trkpt><trkpt lat="22.343818333333335" lon="114.135575"><ele>9.799999999999999</ele><time>2025-12-18T03:08:53Z</time></trkpt><trkpt lat="22.343819999999997" lon="114.13559500000001"><ele>10.399999999999999</ele><time>2025-12-18T03:08:59Z</time></trkpt><trkpt lat="22.343833333333336" lon="114.13562500000002"><ele>10.399999999999999</ele><time>2025-12-18T03:09:05Z</time></trkpt><trkpt lat="22.343853333333332" lon="114.13562166666667"><ele>10.899999999999999</ele><time>2025-12-18T03:09:09Z</time></trkpt><trkpt lat="22.343878333333336" lon="114.13561499999999"><ele>10.799999999999999</ele><time>2025-12-18T03:09:19Z</time></trkpt><trkpt lat="22.343881666666668" lon="114.13558333333334"><ele>11.6</ele><time>2025-12-18T03:09:26Z</time></trkpt><trkpt lat="22.343876666666667" lon="114.13555999999998"><ele>11.5</ele><time>2025-12-18T03:09:30Z</time></trkpt><trkpt lat="22.343848333333334" lon="114.13557"><ele>15.8</ele><time>2025-12-18T03:10:08Z</time></trkpt><trkpt lat="22.343830000000004" lon="114.13557166666666"><ele>16.0</ele><time>2025-12-18T03:10:10Z</time></trkpt><trkpt lat="22.343815000000003" lon="114.13558499999999"><ele>16.7</ele><time>2025-12-18T03:10:12Z</time></trkpt><trkpt lat="22.343804999999996" lon="114.13561166666665"><ele>17.7</ele><time>2025-12-18T03:10:15Z</time></trkpt><trkpt lat="22.34379333333333" lon="114.13563166666667"><ele>18.7</ele><time>2025-12-18T03:10:18Z</time></trkpt><trkpt lat="22.34378" lon="114.13564666666667"><ele>19.099999999999998</ele><time>2025-12-18T03:10:21Z</time></trkpt><trkpt lat="22.343788333333336" lon="114.13562500000002"><ele>20.099999999999998</ele><time>2025-12-18T03:10:29Z</time></trkpt><trkpt lat="22.34376166666667" lon="114.13562333333333"><ele>19.7</ele><time>2025-12-18T03:10:35Z</time></trkpt><trkpt lat="22.34371833333333" lon="114.13563"><ele>19.9</ele><time>2025-12-18T03:10:40Z</time></trkpt><trkpt lat="22.34370333333333" lon="114.13564666666667"><ele>20.3</ele><time>2025-12-18T03:10:42Z</time></trkpt><trkpt lat="22.34369" lon="114.13566666666665"><ele>20.099999999999998</ele><time>2025-12-18T03:10:44Z</time></trkpt><trkpt lat="22.343686666666667" lon="114.13569333333335"><ele>19.9</ele><time>2025-12-18T03:10:46Z</time></trkpt><trkpt lat="22.34367166666667" lon="114.13570833333333"><ele>19.2</ele><time>2025-12-18T03:10:54Z</time></trkpt><trkpt lat="22.343656666666668" lon="114.13572833333335"><ele>18.3</ele><time>2025-12-18T03:10:57Z</time></trkpt><trkpt lat="22.343655" lon="114.13575666666665"><ele>17.0</ele><time>2025-12-18T03:10:59Z</time></trkpt><trkpt lat="22.343665" lon="114.13577333333333"><ele>15.7</ele><time>2025-12-18T03:11:01Z</time></trkpt><trkpt lat="22.34367666666667" lon="114.13579666666668"><ele>13.1</ele><time>2025-12-18T03:11:04Z</time></trkpt><trkpt lat="22.343680000000003" lon="114.13581833333335"><ele>11.1</ele><time>2025-12-18T03:11:06Z</time></trkpt><trkpt lat="22.34369166666667" lon="114.13584"><ele>9.399999999999999</ele><time>2025-12-18T03:11:09Z</time></trkpt><trkpt lat="22.343698333333336" lon="114.13586"><ele>8.5</ele><time>2025-12-18T03:11:11Z</time></trkpt><trkpt lat="22.34370666666667" lon="114.13588166666665"><ele>7.7</ele><time>2025-12-18T03:11:13Z</time></trkpt><trkpt lat="22.343708333333332" lon="114.13590333333335"><ele>7.1000000000000005</ele><time>2025-12-18T03:11:15Z</time></trkpt><trkpt lat="22.343711666666664" lon="114.13593"><ele>5.8</ele><time>2025-12-18T03:11:18Z</time></trkpt><trkpt lat="22.343713333333334" lon="114.13595166666667"><ele>5.2</ele><time>2025-12-18T03:11:20Z</time></trkpt><trkpt lat="22.343713333333334" lon="114.13598333333333"><ele>4.5</ele><time>2025-12-18T03:11:23Z</time></trkpt><trkpt lat="22.34372166666667" lon="114.13600166666666"><ele>2.9000000000000004</ele><time>2025-12-18T03:11:29Z</time></trkpt><trkpt lat="22.34373666666667" lon="114.13602"><ele>2.5999999999999996</ele><time>2025-12-18T03:11:33Z</time></trkpt><trkpt lat="22.34375166666667" lon="114.13603333333334"><ele>2.0999999999999996</ele><time>2025-12-18T03:11:35Z</time></trkpt><trkpt lat="22.34376166666667" lon="114.13605333333335"><ele>3.6000000000000005</ele><time>2025-12-18T03:11:44Z</time></trkpt><trkpt lat="22.343771666666665" lon="114.13608666666666"><ele>2.9000000000000004</ele><time>2025-12-18T03:11:46Z</time></trkpt><trkpt lat="22.34378" lon="114.13611"><ele>3.1000000000000005</ele><time>2025-12-18T03:11:48Z</time></trkpt><trkpt lat="22.343788333333336" lon="114.13613500000001"><ele>3.1000000000000005</ele><time>2025-12-18T03:11:50Z</time></trkpt><trkpt lat="22.34376666666667" lon="114.13614666666666"><ele>3.1000000000000005</ele><time>2025-12-18T03:11:54Z</time></trkpt><trkpt lat="22.34373833333333" lon="114.13615333333334"><ele>3.0</ele><time>2025-12-18T03:11:56Z</time></trkpt><trkpt lat="22.34372" lon="114.13615166666665"><ele>2.9000000000000004</ele><time>2025-12-18T03:11:57Z</time></trkpt><trkpt lat="22.343698333333336" lon="114.13615166666665"><ele>2.8</ele><time>2025-12-18T03:11:58Z</time></trkpt><trkpt lat="22.343666666666664" lon="114.13614166666666"><ele>2.8</ele><time>2025-12-18T03:12:00Z</time></trkpt><trkpt lat="22.343646666666668" lon="114.13612166666665"><ele>2.5999999999999996</ele><time>2025-12-18T03:12:02Z</time></trkpt><trkpt lat="22.343636666666665" lon="114.13610333333332"><ele>2.7</ele><time>2025-12-18T03:12:04Z</time></trkpt><trkpt lat="22.34362833333333" lon="114.13608333333335"><ele>3.0</ele><time>2025-12-18T03:12:06Z</time></trkpt><trkpt lat="22.343609999999998" lon="114.13607500000002"><ele>3.4000000000000004</ele><time>2025-12-18T03:12:09Z</time></trkpt></trkseg></trk></gpx>