<?xml version='1.0' encoding='UTF-8' ?><gpx version="1.1" creator="HikingTrailHK" xsi:schemaLocation="http://www.topografix.com/GPX/1/1 http://www.topografix.com/GPX/1/1/gpx.xsd https://hikingtrailhk.appspot.com/xml/gpxextensions/v1 https://hikingtrailhk.appspot.com/xml/gpxextensions/v1/gpxextensions.xsd" xmlns="http://www.topografix.com/GPX/1/1" xmlns:h="https://hikingtrailhk.appspot.com/xml/gpxextensions/v1" xmlns:xsi="http://www.w3.org/2001/XMLSchema-instance"><metadata><name>九龍水塘至城門水塘 @ 2015-12-11</name><desc></desc><extensions><h:categoryid>scenery_route</h:categoryid></extensions></metadata><trk><trkseg><trkpt lat="22.35525827994756" lon="114.15828220967109" /><trkpt lat="22.35490278125" lon="114.15809579638672" /><trkpt lat="22.35499378125" lon="114.15808379638672" /><trkpt lat="22.35507478125" lon="114.15807179638672" /><trkpt lat="22.35517478125" lon="114.15810579638672" /><trkpt lat="22.35526078125" lon="114.15815979638671" /><trkpt lat="22.35534678125" lon="114.15821879638672" /><trkpt lat="22.35544278125" lon="114.15829179638672" /><trkpt lat="22.35555478125" lon="114.15835679638671" /><trkpt lat="22.35568478125" lon="114.15837579638672" /><trkpt lat="22.35579478125" lon="114.15828679638672" /><trkpt lat="22.35592578125" lon="114.15816079638672" /><trkpt lat="22.35612678125" lon="114.15810479638672" /><trkpt lat="22.35627678125" lon="114.15815579638672" /><trkpt lat="22.35639678125" lon="114.15820879638672" /><trkpt lat="22.35648078125" lon="114.15827879638672" /><trkpt lat="22.35657278125" lon="114.15835879638672" /><trkpt lat="22.35664478125" lon="114.15843379638672" /><trkpt lat="22.35672578125" lon="114.15849979638672" /><trkpt lat="22.35679578125" lon="114.15857779638672" /><trkpt lat="22.35686978125" lon="114.15865779638672" /><trkpt lat="22.35696978125" lon="114.15871079638671" /><trkpt lat="22.35709878125" lon="114.15876279638672" /><trkpt lat="22.35721078125" lon="114.15881179638671" /><trkpt lat="22.35730778125" lon="114.15886079638672" /><trkpt lat="22.35739578125" lon="114.15893079638671" /><trkpt lat="22.35747178125" lon="114.15898479638672" /><trkpt lat="22.35737878125" lon="114.15883579638673" /><trkpt lat="22.35731478125" lon="114.15870479638671" /><trkpt lat="22.35716278125" lon="114.15854779638671" /><trkpt lat="22.35714878125" lon="114.15842279638672" /><trkpt lat="22.35742778125" lon="114.15831179638671" /><trkpt lat="22.35766778125" lon="114.15829279638672" /><trkpt lat="22.35787978125" lon="114.15835079638671" /><trkpt lat="22.35806178125" lon="114.15830879638672" /><trkpt lat="22.35824878125" lon="114.15824479638673" /><trkpt lat="22.35840678125" lon="114.15819779638672" /><trkpt lat="22.35856078125" lon="114.15816879638672" /><trkpt lat="22.35876678125" lon="114.15811879638672" /><trkpt lat="22.35890778125" lon="114.15806879638671" /><trkpt lat="22.35914178125" lon="114.15805179638672" /><trkpt lat="22.35927578125" lon="114.15799379638672" /><trkpt lat="22.35938778125" lon="114.15790879638672" /><trkpt lat="22.35949178125" lon="114.15781979638672" /><trkpt lat="22.35958578125" lon="114.15773779638671" /><trkpt lat="22.35969978125" lon="114.15743579638672" /><trkpt lat="22.35978178125" lon="114.15722979638672" /><trkpt lat="22.35978578125" lon="114.15704079638672" /><trkpt lat="22.35973278125" lon="114.15685679638672" /><trkpt lat="22.35960478125" lon="114.15681579638672" /><trkpt lat="22.35945578125" lon="114.15671179638672" /><trkpt lat="22.35931078125" lon="114.15663279638672" /><trkpt lat="22.35920678125" lon="114.15664579638671" /><trkpt lat="22.35914678125" lon="114.15674379638672" /><trkpt lat="22.35901978125" lon="114.15677079638672" /><trkpt lat="22.35890178125" lon="114.15677379638672" /><trkpt lat="22.35875578125" lon="114.15675779638671" /><trkpt lat="22.35871978125" lon="114.15661279638672" /><trkpt lat="22.35873978125" lon="114.15645979638671" /><trkpt lat="22.35876878125" lon="114.15627379638671" /><trkpt lat="22.35875778125" lon="114.15610779638672" /><trkpt lat="22.35872178125" lon="114.15596879638672" /><trkpt lat="22.35880478125" lon="114.15575179638672" /><trkpt lat="22.35890978125" lon="114.15559579638672" /><trkpt lat="22.35885178125" lon="114.15550579638672" /><trkpt lat="22.35885578125" lon="114.15531079638671" /><trkpt lat="22.35883378125" lon="114.15517179638672" /><trkpt lat="22.35878978125" lon="114.15502279638672" /><trkpt lat="22.35874178125" lon="114.15484179638672" /><trkpt lat="22.35891578125" lon="114.15473079638672" /><trkpt lat="22.35907878125" lon="114.15462979638671" /><trkpt lat="22.35905378125" lon="114.15456479638672" /><trkpt lat="22.35892878125" lon="114.15450579638672" /><trkpt lat="22.35884578125" lon="114.15440079638672" /><trkpt lat="22.35873978125" lon="114.15431679638672" /><trkpt lat="22.35863978125" lon="114.15425779638672" /><trkpt lat="22.35855978125" lon="114.15417179638672" /><trkpt lat="22.35847278125" lon="114.15407079638672" /><trkpt lat="22.35841778125" lon="114.15394979638671" /><trkpt lat="22.35832378125" lon="114.15388279638672" /><trkpt lat="22.35827078125" lon="114.15377879638672" /><trkpt lat="22.35832978125" lon="114.15369579638671" /><trkpt lat="22.35842578125" lon="114.15364179638672" /><trkpt lat="22.35852378125" lon="114.15357879638673" /><trkpt lat="22.35862078125" lon="114.15350579638672" /><trkpt lat="22.35858778125" lon="114.15338479638672" /><trkpt lat="22.35856178125" lon="114.15325379638672" /><trkpt lat="22.35857078125" lon="114.15314079638672" /><trkpt lat="22.35865278125" lon="114.15306579638671" /><trkpt lat="22.35874378125" lon="114.15296479638671" /><trkpt lat="22.35862878125" lon="114.15287179638672" /><trkpt lat="22.35855678125" lon="114.15277079638672" /><trkpt lat="22.35853578125" lon="114.15264779638672" /><trkpt lat="22.35853778125" lon="114.15252879638672" /><trkpt lat="22.35843878125" lon="114.15255379638671" /><trkpt lat="22.35832578125" lon="114.15253379638672" /><trkpt lat="22.35824978125" lon="114.15246279638671" /><trkpt lat="22.35820378125" lon="114.15235879638672" /><trkpt lat="22.35808678125" lon="114.15231579638672" /><trkpt lat="22.35799578125" lon="114.15224479638673" /><trkpt lat="22.35800078125" lon="114.15211279638672" /><trkpt lat="22.35803678125" lon="114.15195179638673" /><trkpt lat="22.35799178125" lon="114.15183579638672" /><trkpt lat="22.35795278125" lon="114.15171379638672" /><trkpt lat="22.35792678125" lon="114.15164079638672" /><trkpt lat="22.35818778125" lon="114.15171279638672" /><trkpt lat="22.35831478125" lon="114.15188979638671" /><trkpt lat="22.35836778125" lon="114.15199079638671" /><trkpt lat="22.35850278125" lon="114.15210079638672" /><trkpt lat="22.35864778125" lon="114.15216979638672" /><trkpt lat="22.35877778125" lon="114.15217279638672" /><trkpt lat="22.35889078125" lon="114.15215979638671" /><trkpt lat="22.35900878125" lon="114.15213679638671" /><trkpt lat="22.35916778125" lon="114.15216079638672" /><trkpt lat="22.35928878125" lon="114.15209679638672" /><trkpt lat="22.35944078125" lon="114.15205979638672" /><trkpt lat="22.35957678125" lon="114.15210979638672" /><trkpt lat="22.35973578125" lon="114.15197879638671" /><trkpt lat="22.35982878125" lon="114.15191479638672" /><trkpt lat="22.35993978125" lon="114.15192079638672" /><trkpt lat="22.36005378125" lon="114.15195279638672" /><trkpt lat="22.36011578125" lon="114.15207379638672" /><trkpt lat="22.36020078125" lon="114.15212879638672" /><trkpt lat="22.36031478125" lon="114.15223379638672" /><trkpt lat="22.36038278125" lon="114.15234979638672" /><trkpt lat="22.36052478125" lon="114.15244079638671" /><trkpt lat="22.36065878125" lon="114.15249079638672" /><trkpt lat="22.36079478125" lon="114.15253279638672" /><trkpt lat="22.36091178125" lon="114.15250779638671" /><trkpt lat="22.36105078125" lon="114.15251479638673" /><trkpt lat="22.36118178125" lon="114.15256879638672" /><trkpt lat="22.36131978125" lon="114.15256579638672" /><trkpt lat="22.36140378125" lon="114.15261379638672" /><trkpt lat="22.36143978125" lon="114.15269979638671" /><trkpt lat="22.36151078125" lon="114.15271479638672" /><trkpt lat="22.36171178125" lon="114.15274179638672" /><trkpt lat="22.36180978125" lon="114.15269379638671" /><trkpt lat="22.36192378125" lon="114.15264379638671" /><trkpt lat="22.36203178125" lon="114.15263279638671" /><trkpt lat="22.36214178125" lon="114.15269479638673" /><trkpt lat="22.36231178125" lon="114.15278979638671" /><trkpt lat="22.36267878125" lon="114.15270879638672" /><trkpt lat="22.36280378125" lon="114.15271079638671" /><trkpt lat="22.36303978125" lon="114.15255279638671" /><trkpt lat="22.36305878125" lon="114.15240779638673" /><trkpt lat="22.36307978125" lon="114.15214579638672" /><trkpt lat="22.36317978125" lon="114.15209379638672" /><trkpt lat="22.363443781249998" lon="114.15216179638672" /><trkpt lat="22.36369878125" lon="114.15219779638672" /><trkpt lat="22.36390778125" lon="114.15220379638671" /><trkpt lat="22.36394278125" lon="114.15203379638672" /><trkpt lat="22.36403178125" lon="114.15193479638671" /><trkpt lat="22.36414078125" lon="114.15190579638671" /><trkpt lat="22.36419578125" lon="114.15187679638672" /><trkpt lat="22.36424978125" lon="114.15177279638672" /><trkpt lat="22.36424478125" lon="114.15159979638672" /><trkpt lat="22.36437378125" lon="114.15149279638672" /><trkpt lat="22.36457278125" lon="114.15142579638672" /><trkpt lat="22.36479378125" lon="114.15143579638672" /><trkpt lat="22.36483278125" lon="114.15154479638672" /><trkpt lat="22.36483678125" lon="114.15168979638672" /><trkpt lat="22.36492778125" lon="114.15173579638672" /><trkpt lat="22.36506278125" lon="114.15160779638671" /><trkpt lat="22.36519678125" lon="114.15166679638672" /><trkpt lat="22.36529878125" lon="114.15159379638672" /><trkpt lat="22.36534278125" lon="114.15142579638672" /><trkpt lat="22.36540078125" lon="114.15121879638671" /><trkpt lat="22.36546078125" lon="114.15107179638672" /><trkpt lat="22.36560278125" lon="114.15103079638672" /><trkpt lat="22.36564278125" lon="114.15083879638672" /><trkpt lat="22.36565378125" lon="114.15095179638672" /><trkpt lat="22.36566678125" lon="114.15108479638671" /><trkpt lat="22.36570178125" lon="114.15132679638671" /><trkpt lat="22.36573778125" lon="114.15137579638672" /><trkpt lat="22.36578078125" lon="114.15140079638672" /><trkpt lat="22.36588078125" lon="114.15142079638672" /><trkpt lat="22.36598178125" lon="114.15143579638672" /><trkpt lat="22.36607778125" lon="114.15144979638671" /><trkpt lat="22.36624878125" lon="114.15144779638672" /><trkpt lat="22.36640478125" lon="114.15141179638672" /><trkpt lat="22.36651878125" lon="114.15137479638672" /><trkpt lat="22.36671678125" lon="114.15121279638672" /><trkpt lat="22.36680378125" lon="114.15120779638671" /><trkpt lat="22.36704878125" lon="114.15121579638672" /><trkpt lat="22.36709278125" lon="114.15117379638671" /><trkpt lat="22.36714078125" lon="114.15123279638672" /><trkpt lat="22.36738978125" lon="114.15111879638673" /><trkpt lat="22.36748078125" lon="114.15107479638672" /><trkpt lat="22.36769378125" lon="114.15097479638672" /><trkpt lat="22.36785278125" lon="114.15099879638672" /><trkpt lat="22.36795378125" lon="114.15099579638672" /><trkpt lat="22.36806778125" lon="114.15098779638672" /><trkpt lat="22.36816078125" lon="114.15097679638671" /><trkpt lat="22.36827478125" lon="114.15093679638672" /><trkpt lat="22.36838478125" lon="114.15087679638673" /><trkpt lat="22.36849378125" lon="114.15081979638671" /><trkpt lat="22.36859378125" lon="114.15074279638672" /><trkpt lat="22.36868578125" lon="114.15069079638671" /><trkpt lat="22.36879778125" lon="114.15067779638672" /><trkpt lat="22.36884378125" lon="114.15065879638672" /><trkpt lat="22.36887478125" lon="114.15066179638671" /><trkpt lat="22.36893078125" lon="114.15065079638671" /><trkpt lat="22.36900178125" lon="114.15057679638672" /><trkpt lat="22.36903078125" lon="114.15044279638671" /><trkpt lat="22.36913678125" lon="114.15038579638671" /><trkpt lat="22.36922078125" lon="114.15031079638672" /><trkpt lat="22.36928978125" lon="114.15021179638671" /><trkpt lat="22.36938878125" lon="114.15017079638672" /><trkpt lat="22.36948578125" lon="114.15013779638672" /><trkpt lat="22.36958678125" lon="114.15008779638671" /><trkpt lat="22.36968578125" lon="114.15003879638672" /><trkpt lat="22.36982378125" lon="114.15006679638672" /><trkpt lat="22.36991878125" lon="114.15002879638672" /><trkpt lat="22.36997778125" lon="114.14993279638672" /><trkpt lat="22.37005478125" lon="114.14980079638671" /><trkpt lat="22.37013078125" lon="114.14970079638672" /><trkpt lat="22.37022478125" lon="114.14962179638673" /><trkpt lat="22.37028278125" lon="114.14959379638672" /><trkpt lat="22.37036278125" lon="114.14953079638671" /><trkpt lat="22.37049378125" lon="114.14940879638672" /><trkpt lat="22.37056178125" lon="114.14922079638671" /><trkpt lat="22.37055478125" lon="114.14911379638671" /><trkpt lat="22.37055978125" lon="114.14903579638671" /><trkpt lat="22.37057678125" lon="114.14895079638671" /><trkpt lat="22.37065778125" lon="114.14905579638672" /><trkpt lat="22.37069978125" lon="114.14918479638672" /><trkpt lat="22.37075178125" lon="114.14924079638672" /><trkpt lat="22.37082978125" lon="114.14925879638672" /><trkpt lat="22.37092178125" lon="114.14927079638672" /><trkpt lat="22.37091178125" lon="114.14937879638671" /><trkpt lat="22.37078478125" lon="114.14952979638672" /><trkpt lat="22.37078478125" lon="114.14963579638672" /><trkpt lat="22.37076778125" lon="114.14974579638672" /><trkpt lat="22.37069678125" lon="114.14983379638672" /><trkpt lat="22.37061478125" lon="114.14984779638672" /><trkpt lat="22.37053478125" lon="114.14984679638673" /><trkpt lat="22.37051678125" lon="114.14992079638672" /><trkpt lat="22.37052878125" lon="114.15004679638672" /><trkpt lat="22.37057178125" lon="114.15027479638673" /><trkpt lat="22.37060878125" lon="114.15021379638672" /><trkpt lat="22.37067478125" lon="114.15013879638671" /><trkpt lat="22.37071778125" lon="114.15003679638671" /><trkpt lat="22.37079178125" lon="114.14997379638672" /><trkpt lat="22.37084078125" lon="114.14991679638672" /><trkpt lat="22.37105478125" lon="114.14978479638673" /><trkpt lat="22.37116278125" lon="114.14964479638672" /><trkpt lat="22.37125578125" lon="114.14955779638672" /><trkpt lat="22.37133178125" lon="114.14948279638672" /><trkpt lat="22.37149678125" lon="114.14938679638672" /><trkpt lat="22.37158678125" lon="114.14928279638671" /><trkpt lat="22.37170478125" lon="114.14895279638672" /><trkpt lat="22.37179678125" lon="114.14884679638672" /><trkpt lat="22.37188078125" lon="114.14880079638672" /><trkpt lat="22.37196578125" lon="114.14877279638672" /><trkpt lat="22.37212378125" lon="114.14871679638672" /><trkpt lat="22.37220978125" lon="114.14871379638672" /><trkpt lat="22.37233978125" lon="114.14879379638671" /><trkpt lat="22.37244078125" lon="114.14876179638672" /><trkpt lat="22.37254178125" lon="114.14865879638671" /><trkpt lat="22.37264078125" lon="114.14861179638672" /><trkpt lat="22.37280978125" lon="114.14867379638672" /><trkpt lat="22.37293378125" lon="114.14871879638672" /><trkpt lat="22.37301178125" lon="114.14869279638671" /><trkpt lat="22.37310578125" lon="114.14851279638673" /><trkpt lat="22.37324178125" lon="114.14845579638671" /><trkpt lat="22.37333978125" lon="114.14847779638671" /><trkpt lat="22.37343878125" lon="114.14851979638672" /><trkpt lat="22.37353478125" lon="114.14863079638671" /><trkpt lat="22.37360378125" lon="114.14867679638672" /><trkpt lat="22.37374978125" lon="114.14872179638672" /><trkpt lat="22.37390178125" lon="114.14873979638672" /><trkpt lat="22.37400978125" lon="114.14872479638672" /><trkpt lat="22.37415878125" lon="114.14874879638671" /><trkpt lat="22.37430678125" lon="114.14876179638672" /><trkpt lat="22.37437878125" lon="114.14876379638672" /><trkpt lat="22.37456278125" lon="114.14872479638672" /><trkpt lat="22.37467178125" lon="114.14868379638672" /><trkpt lat="22.37477378125" lon="114.14862979638671" /><trkpt lat="22.37481678125" lon="114.14852379638671" /><trkpt lat="22.37485478125" lon="114.14841479638672" /><trkpt lat="22.37484278125" lon="114.14828479638672" /><trkpt lat="22.37498178125" lon="114.14820979638672" /><trkpt lat="22.37511878125" lon="114.14830379638671" /><trkpt lat="22.37524478125" lon="114.14834679638672" /><trkpt lat="22.37531878125" lon="114.14841779638672" /><trkpt lat="22.37542178125" lon="114.14847079638672" /><trkpt lat="22.37549778125" lon="114.14853579638672" /><trkpt lat="22.37561478125" lon="114.14854879638672" /><trkpt lat="22.37566378125" lon="114.14846079638671" /><trkpt lat="22.37573978125" lon="114.14834579638672" /><trkpt lat="22.37578578125" lon="114.14820279638671" /><trkpt lat="22.37592078125" lon="114.14803079638672" /><trkpt lat="22.37600978125" lon="114.14790879638672" /><trkpt lat="22.37615378125" lon="114.14782679638672" /><trkpt lat="22.37620878125" lon="114.14777579638672" /><trkpt lat="22.37624978125" lon="114.14775179638671" /><trkpt lat="22.37628578125" lon="114.14775679638672" /><trkpt lat="22.37637878125" lon="114.14792979638672" /><trkpt lat="22.37637278125" lon="114.14810279638672" /><trkpt lat="22.37636378125" lon="114.14831479638671" /><trkpt lat="22.37642378125" lon="114.14840979638672" /><trkpt lat="22.37654678125" lon="114.14842679638672" /><trkpt lat="22.37662678125" lon="114.14845879638672" /><trkpt lat="22.37672578125" lon="114.14860479638672" /><trkpt lat="22.37678978125" lon="114.14861879638671" /><trkpt lat="22.37691278125" lon="114.14850979638672" /><trkpt lat="22.37707278125" lon="114.14851479638672" /><trkpt lat="22.37717778125" lon="114.14854179638672" /><trkpt lat="22.37731378125" lon="114.14852979638673" /><trkpt lat="22.37748278125" lon="114.14863779638672" /><trkpt lat="22.37756078125" lon="114.14865779638671" /><trkpt lat="22.37771378125" lon="114.14865879638671" /><trkpt lat="22.37791478125" lon="114.14877779638672" /><trkpt lat="22.37802278125" lon="114.14889179638672" /><trkpt lat="22.37809678125" lon="114.14882379638672" /><trkpt lat="22.37819678125" lon="114.14879879638671" /><trkpt lat="22.37824078125" lon="114.14878379638672" /><trkpt lat="22.37825578125" lon="114.14877579638672" /><trkpt lat="22.37829378125" lon="114.14858979638672" /><trkpt lat="22.37828478125" lon="114.14847279638671" /><trkpt lat="22.37830078125" lon="114.14834479638672" /><trkpt lat="22.37832778125" lon="114.14822879638672" /><trkpt lat="22.37836878125" lon="114.14813479638671" /><trkpt lat="22.37846878125" lon="114.14806079638672" /><trkpt lat="22.37852978125" lon="114.14797979638672" /><trkpt lat="22.37859578125" lon="114.14789879638671" /><trkpt lat="22.37868178125" lon="114.14780379638673" /><trkpt lat="22.37875078125" lon="114.14771879638671" /><trkpt lat="22.37881978125" lon="114.14763679638672" /><trkpt lat="22.37887878125" lon="114.14758479638672" /><trkpt lat="22.37884278125" lon="114.14752179638671" /><trkpt lat="22.37875578125" lon="114.14721979638672" /><trkpt lat="22.37867078125" lon="114.14711379638672" /><trkpt lat="22.37848978125" lon="114.14692979638671" /><trkpt lat="22.37826778125" lon="114.14676479638672" /><trkpt lat="22.37814378125" lon="114.14662179638673" /><trkpt lat="22.37797078125" lon="114.14635879638672" /><trkpt lat="22.37792778125" lon="114.14629479638671" /><trkpt lat="22.37791478125" lon="114.14626079638671" /><trkpt lat="22.37791178125" lon="114.14622179638671" /><trkpt lat="22.37792978125" lon="114.14616579638673" /><trkpt lat="22.37828178125" lon="114.14596079638672" /><trkpt lat="22.37849678125" lon="114.14557679638672" /><trkpt lat="22.37864578125" lon="114.14530779638672" /><trkpt lat="22.37853878125" lon="114.14477879638672" /><trkpt lat="22.37845278125" lon="114.14464479638671" /><trkpt lat="22.37817178125" lon="114.14450079638672" /><trkpt lat="22.37813478125" lon="114.14447079638671" /><trkpt lat="22.37810978125" lon="114.14443379638672" /><trkpt lat="22.37809578125" lon="114.14439379638672" /><trkpt lat="22.37809078125" lon="114.14435479638672" /><trkpt lat="22.37809278125" lon="114.14431079638672" /><trkpt lat="22.37821278125" lon="114.14357479638672" /><trkpt lat="22.37822778125" lon="114.14352579638673" /><trkpt lat="22.37825178125" lon="114.14348579638671" /><trkpt lat="22.37828578125" lon="114.14346179638672" /><trkpt lat="22.37832578125" lon="114.14345279638673" /><trkpt lat="22.37837378125" lon="114.14344779638672" /><trkpt lat="22.37852378125" lon="114.14345979638672" /><trkpt lat="22.37869178125" lon="114.14341679638672" /><trkpt lat="22.37885778125" lon="114.14341579638672" /><trkpt lat="22.37899778125" lon="114.14340579638672" /><trkpt lat="22.37930978125" lon="114.14357679638672" /><trkpt lat="22.37936978125" lon="114.14358779638673" /><trkpt lat="22.37942378125" lon="114.14357479638672" /><trkpt lat="22.37961478125" lon="114.14353479638672" /><trkpt lat="22.38003178125" lon="114.14343679638672" /><trkpt lat="22.38025378125" lon="114.14338979638671" /><trkpt lat="22.38034178125" lon="114.14342479638673" /><trkpt lat="22.38051178125" lon="114.14353079638671" /><trkpt lat="22.38057178125" lon="114.14354279638673" /><trkpt lat="22.38065378125" lon="114.14356579638672" /><trkpt lat="22.38070678125" lon="114.14356079638672" /><trkpt lat="22.38077078125" lon="114.14352879638672" /><trkpt lat="22.38081678125" lon="114.14348679638672" /><trkpt lat="22.38085078125" lon="114.14342379638671" /><trkpt lat="22.38086378125" lon="114.14334479638671" /><trkpt lat="22.38089978125" lon="114.14313579638672" /><trkpt lat="22.38091378125" lon="114.14306579638672" /><trkpt lat="22.38100578125" lon="114.14292079638672" /><trkpt lat="22.38105578125" lon="114.14286879638672" /><trkpt lat="22.38110878125" lon="114.14278879638672" /><trkpt lat="22.38113678125" lon="114.14273279638672" /><trkpt lat="22.38116678125" lon="114.14264879638672" /><trkpt lat="22.38117278125" lon="114.14258779638672" /><trkpt lat="22.38116978125" lon="114.14251679638672" /><trkpt lat="22.38114478125" lon="114.14243279638671" /><trkpt lat="22.38109578125" lon="114.14233979638672" /><trkpt lat="22.38101678125" lon="114.14218879638672" /><trkpt lat="22.38088078125" lon="114.14191579638671" /><trkpt lat="22.38087078125" lon="114.14181379638671" /><trkpt lat="22.38087778125" lon="114.14172279638672" /><trkpt lat="22.38091778125" lon="114.14165479638672" /><trkpt lat="22.38097078125" lon="114.14160079638671" /><trkpt lat="22.38155878125" lon="114.14141479638671" /><trkpt lat="22.38181878125" lon="114.14149679638672" /><trkpt lat="22.38205678125" lon="114.14172379638671" /><trkpt lat="22.38243378125" lon="114.14194979638673" /><trkpt lat="22.38254178125" lon="114.14210879638672" /><trkpt lat="22.38277978125" lon="114.14229179638671" /><trkpt lat="22.38288778125" lon="114.14251079638672" /><trkpt lat="22.38324678125" lon="114.14260879638672" /><trkpt lat="22.38343278125" lon="114.14269679638672" /><trkpt lat="22.38357478125" lon="114.14314979638672" /><trkpt lat="22.38376378125" lon="114.14338579638672" /><trkpt lat="22.38394478125" lon="114.14361979638672" /><trkpt lat="22.38414378125" lon="114.14375479638672" /><trkpt lat="22.38429078125" lon="114.14378579638672" /><trkpt lat="22.38434978125" lon="114.14379579638671" /><trkpt lat="22.38440978125" lon="114.14379879638672" /></trkseg></trk></gpx>