<?xml version='1.0' encoding='UTF-8' ?><gpx version="1.1" creator="HikingTrailHK" xsi:schemaLocation="http://www.topografix.com/GPX/1/1 http://www.topografix.com/GPX/1/1/gpx.xsd https://hikingtrailhk.appspot.com/xml/gpxextensions/v1 https://hikingtrailhk.appspot.com/xml/gpxextensions/v1/gpxextensions.xsd" xmlns="http://www.topografix.com/GPX/1/1" xmlns:h="https://hikingtrailhk.appspot.com/xml/gpxextensions/v1" xmlns:xsi="http://www.w3.org/2001/XMLSchema-instance"><metadata><name>九逕山 @ 2017-5-1 11:00</name><desc></desc><extensions><h:categoryid>tour_route</h:categoryid></extensions></metadata><trk><trkseg><trkpt lat="22.39409596404577" lon="113.97379405445936" /><trkpt lat="22.39409578125" lon="113.97379679638672" /><trkpt lat="22.39409678125" lon="113.97389279638672" /><trkpt lat="22.39410678125" lon="113.97403279638672" /><trkpt lat="22.39416078125" lon="113.97425179638672" /><trkpt lat="22.39425378125" lon="113.97457779638673" /><trkpt lat="22.39428778125" lon="113.97470779638672" /><trkpt lat="22.39431578125" lon="113.97480979638672" /><trkpt lat="22.39436078125" lon="113.97497579638672" /><trkpt lat="22.39449478125" lon="113.97542279638672" /><trkpt lat="22.39469578125" lon="113.97605179638671" /><trkpt lat="22.39477578125" lon="113.97632579638672" /><trkpt lat="22.39470678125" lon="113.97641279638673" /><trkpt lat="22.39483878125" lon="113.97679679638672" /><trkpt lat="22.39506578125" lon="113.97753479638672" /><trkpt lat="22.39509278125" lon="113.97765279638672" /><trkpt lat="22.39511078125" lon="113.97774079638671" /><trkpt lat="22.39512578125" lon="113.97789179638671" /><trkpt lat="22.39512978125" lon="113.97805579638671" /><trkpt lat="22.39513678125" lon="113.97817079638672" /><trkpt lat="22.39519078125" lon="113.97832679638672" /><trkpt lat="22.39529978125" lon="113.97846079638671" /><trkpt lat="22.39532678125" lon="113.97873679638671" /><trkpt lat="22.39536278125" lon="113.97898179638672" /><trkpt lat="22.39539878125" lon="113.97922879638672" /><trkpt lat="22.39515778125" lon="113.97946279638671" /><trkpt lat="22.39510778125" lon="113.97967079638671" /><trkpt lat="22.39503578125" lon="113.97986879638673" /><trkpt lat="22.39492978125" lon="113.98006379638672" /><trkpt lat="22.39473178125" lon="113.98020779638672" /><trkpt lat="22.39474078125" lon="113.98039179638671" /><trkpt lat="22.39463978125" lon="113.98057279638672" /><trkpt lat="22.39445178125" lon="113.98060879638672" /><trkpt lat="22.39422078125" lon="113.98093279638672" /><trkpt lat="22.39419178125" lon="113.98112079638672" /><trkpt lat="22.39420878125" lon="113.98121579638672" /><trkpt lat="22.39420378125" lon="113.98132679638672" /><trkpt lat="22.39416978125" lon="113.98144779638672" /><trkpt lat="22.39409878125" lon="113.98151179638671" /><trkpt lat="22.39402478125" lon="113.98160179638671" /><trkpt lat="22.39405478125" lon="113.98169279638672" /><trkpt lat="22.39417178125" lon="113.98178779638671" /><trkpt lat="22.39422378125" lon="113.98189779638672" /><trkpt lat="22.39420178125" lon="113.98197379638673" /><trkpt lat="22.39425178125" lon="113.98207579638672" /><trkpt lat="22.39435578125" lon="113.98213179638672" /><trkpt lat="22.39438678125" lon="113.98219279638671" /><trkpt lat="22.39438178125" lon="113.98231979638672" /><trkpt lat="22.39446678125" lon="113.98245879638672" /><trkpt lat="22.39448978125" lon="113.98254379638672" /><trkpt lat="22.39462578125" lon="113.98243779638672" /><trkpt lat="22.39496478125" lon="113.98244679638672" /><trkpt lat="22.39507178125" lon="113.98260679638672" /><trkpt lat="22.39506778125" lon="113.98282479638672" /><trkpt lat="22.39506978125" lon="113.98288179638672" /><trkpt lat="22.39509378125" lon="113.98301079638672" /><trkpt lat="22.39516178125" lon="113.98312079638671" /><trkpt lat="22.39523978125" lon="113.98316279638672" /><trkpt lat="22.39520678125" lon="113.98341579638672" /><trkpt lat="22.39511878125" lon="113.98354279638671" /><trkpt lat="22.39509378125" lon="113.98363379638671" /><trkpt lat="22.39513878125" lon="113.98371979638672" /><trkpt lat="22.39520078125" lon="113.98378679638672" /><trkpt lat="22.39517778125" lon="113.98394279638671" /><trkpt lat="22.39520178125" lon="113.98402979638672" /><trkpt lat="22.39517578125" lon="113.98415379638672" /><trkpt lat="22.39519078125" lon="113.98425879638671" /><trkpt lat="22.39520378125" lon="113.98442879638672" /><trkpt lat="22.39525678125" lon="113.98454679638672" /><trkpt lat="22.39529778125" lon="113.98472579638671" /><trkpt lat="22.39536078125" lon="113.98481579638671" /><trkpt lat="22.39537678125" lon="113.98492079638672" /><trkpt lat="22.395284781249998" lon="113.98502779638672" /><trkpt lat="22.39526178125" lon="113.98510279638671" /><trkpt lat="22.39523978125" lon="113.98522379638672" /><trkpt lat="22.39523478125" lon="113.98531279638672" /><trkpt lat="22.39524178125" lon="113.98540879638672" /><trkpt lat="22.39525878125" lon="113.98552779638672" /><trkpt lat="22.39523878125" lon="113.98580579638671" /><trkpt lat="22.39521178125" lon="113.98594079638671" /><trkpt lat="22.39511278125" lon="113.98605179638672" /><trkpt lat="22.39512878125" lon="113.98612079638671" /><trkpt lat="22.39505978125" lon="113.98618279638671" /><trkpt lat="22.39498678125" lon="113.98625479638672" /><trkpt lat="22.39492278125" lon="113.98634679638671" /><trkpt lat="22.39484678125" lon="113.98652079638671" /><trkpt lat="22.39478578125" lon="113.98667879638671" /><trkpt lat="22.39480278125" lon="113.98678679638672" /><trkpt lat="22.39477578125" lon="113.98687979638672" /><trkpt lat="22.39471278125" lon="113.98693579638672" /><trkpt lat="22.39460878125" lon="113.98701479638672" /><trkpt lat="22.39454478125" lon="113.98713479638671" /><trkpt lat="22.39452878125" lon="113.98724379638672" /><trkpt lat="22.39443178125" lon="113.98738679638672" /><trkpt lat="22.39436878125" lon="113.98747579638672" /><trkpt lat="22.39432878125" lon="113.98759879638672" /><trkpt lat="22.39425578125" lon="113.98769179638671" /><trkpt lat="22.39411878125" lon="113.98761679638672" /><trkpt lat="22.39399978125" lon="113.98763279638672" /><trkpt lat="22.39389578125" lon="113.98757979638673" /><trkpt lat="22.39393078125" lon="113.98748879638671" /><trkpt lat="22.39394278125" lon="113.98733879638672" /><trkpt lat="22.39404978125" lon="113.98705879638672" /><trkpt lat="22.39405478125" lon="113.98694679638672" /><trkpt lat="22.39405178125" lon="113.98685079638672" /><trkpt lat="22.39413378125" lon="113.98678579638671" /><trkpt lat="22.39417378125" lon="113.98654379638671" /><trkpt lat="22.39419078125" lon="113.98631379638672" /><trkpt lat="22.39422778125" lon="113.98626579638672" /><trkpt lat="22.39423278125" lon="113.98612579638672" /><trkpt lat="22.39418378125" lon="113.98603479638672" /><trkpt lat="22.39416378125" lon="113.98616879638672" /><trkpt lat="22.39406978125" lon="113.98610979638671" /><trkpt lat="22.39396078125" lon="113.98607179638672" /><trkpt lat="22.393905781249998" lon="113.98599179638671" /><trkpt lat="22.39378178125" lon="113.98601879638672" /><trkpt lat="22.39369778125" lon="113.98601879638672" /><trkpt lat="22.39364278125" lon="113.98604579638672" /><trkpt lat="22.39357078125" lon="113.98605079638672" /><trkpt lat="22.39347678125" lon="113.98621179638671" /><trkpt lat="22.39343478125" lon="113.98627579638672" /><trkpt lat="22.39337978125" lon="113.98629179638672" /><trkpt lat="22.39332078125" lon="113.98639379638672" /><trkpt lat="22.39322078125" lon="113.98650679638672" /><trkpt lat="22.39313678125" lon="113.98656079638671" /><trkpt lat="22.39304778125" lon="113.98655479638671" /><trkpt lat="22.39301278125" lon="113.98655479638671" /><trkpt lat="22.39291078125" lon="113.98668979638671" /><trkpt lat="22.39256078125" lon="113.98690779638672" /><trkpt lat="22.39236678125" lon="113.98691279638672" /><trkpt lat="22.39226478125" lon="113.98687279638672" /><trkpt lat="22.39219578125" lon="113.98688479638672" /><trkpt lat="22.39209178125" lon="113.98691679638672" /><trkpt lat="22.39188078125" lon="113.98690179638672" /><trkpt lat="22.39174478125" lon="113.98696879638672" /><trkpt lat="22.39123478125" lon="113.98685579638672" /><trkpt lat="22.39093378125" lon="113.98682679638672" /><trkpt lat="22.39087478125" lon="113.98685279638671" /><trkpt lat="22.39060178125" lon="113.98697179638671" /><trkpt lat="22.39063078125" lon="113.98723479638672" /><trkpt lat="22.39051178125" lon="113.98717579638672" /><trkpt lat="22.39036778125" lon="113.98725079638672" /><trkpt lat="22.39028878125" lon="113.98738479638672" /><trkpt lat="22.39027378125" lon="113.98757279638671" /><trkpt lat="22.39025378125" lon="113.98772279638672" /><trkpt lat="22.38987678125" lon="113.98807179638672" /><trkpt lat="22.38983378125" lon="113.98814479638672" /><trkpt lat="22.38976278125" lon="113.98826479638672" /><trkpt lat="22.38981578125" lon="113.98880879638672" /><trkpt lat="22.38968878125" lon="113.98908579638672" /><trkpt lat="22.38963378125" lon="113.98942879638672" /><trkpt lat="22.38968878125" lon="113.98964379638672" /><trkpt lat="22.38950978125" lon="113.99002479638672" /><trkpt lat="22.38942578125" lon="113.99009379638672" /><trkpt lat="22.38911778125" lon="113.99017979638671" /><trkpt lat="22.38891978125" lon="113.99030379638671" /><trkpt lat="22.38886078125" lon="113.99049679638672" /><trkpt lat="22.38860278125" lon="113.99064679638671" /><trkpt lat="22.38855778125" lon="113.99078579638672" /><trkpt lat="22.38842378125" lon="113.99086679638671" /><trkpt lat="22.38825478125" lon="113.99102779638672" /><trkpt lat="22.38824078125" lon="113.99108679638672" /><trkpt lat="22.38815078125" lon="113.99108079638673" /><trkpt lat="22.38814578125" lon="113.99127979638672" /><trkpt lat="22.38801678125" lon="113.99138179638672" /><trkpt lat="22.38803678125" lon="113.99149979638672" /><trkpt lat="22.38793778125" lon="113.99166079638672" /><trkpt lat="22.38796278125" lon="113.99170379638672" /><trkpt lat="22.38791278125" lon="113.99186979638672" /><trkpt lat="22.38781878125" lon="113.99200879638671" /><trkpt lat="22.38785078125" lon="113.99217279638673" /><trkpt lat="22.38806578125" lon="113.99227379638671" /><trkpt lat="22.38817478125" lon="113.99245579638672" /><trkpt lat="22.38828378125" lon="113.99260679638672" /><trkpt lat="22.38824378125" lon="113.99287479638672" /><trkpt lat="22.38809578125" lon="113.99308879638671" /><trkpt lat="22.38791678125" lon="113.99338979638672" /><trkpt lat="22.38785178125" lon="113.99364579638672" /><trkpt lat="22.38789478125" lon="113.99397379638671" /><trkpt lat="22.38792878125" lon="113.99415279638671" /><trkpt lat="22.38810478125" lon="113.99443779638672" /><trkpt lat="22.38822978125" lon="113.99466779638672" /><trkpt lat="22.38824678125" lon="113.99481679638671" /><trkpt lat="22.38822978125" lon="113.99502679638672" /><trkpt lat="22.38821978125" lon="113.99516279638672" /><trkpt lat="22.38834178125" lon="113.99513179638672" /><trkpt lat="22.38868678125" lon="113.99520579638671" /><trkpt lat="22.38874378125" lon="113.99524079638672" /><trkpt lat="22.38877378125" lon="113.99524279638672" /><trkpt lat="22.38881878125" lon="113.99525179638673" /><trkpt lat="22.38887378125" lon="113.99531979638672" /><trkpt lat="22.38882778125" lon="113.99539179638671" /><trkpt lat="22.388828781249998" lon="113.99548379638672" /><trkpt lat="22.38894378125" lon="113.99565779638672" /><trkpt lat="22.38897678125" lon="113.99572979638671" /><trkpt lat="22.38904778125" lon="113.99582079638672" /><trkpt lat="22.38913878125" lon="113.99588279638672" /><trkpt lat="22.38927878125" lon="113.99601979638672" /><trkpt lat="22.38930678125" lon="113.99615979638672" /><trkpt lat="22.389381781250002" lon="113.99625379638672" /><trkpt lat="22.38945178125" lon="113.99642979638672" /><trkpt lat="22.38962578125" lon="113.99657779638672" /><trkpt lat="22.38967178125" lon="113.99665179638671" /><trkpt lat="22.38981478125" lon="113.99683179638672" /><trkpt lat="22.38986978125" lon="113.99695279638672" /><trkpt lat="22.38976178125" lon="113.99740279638672" /><trkpt lat="22.38976878125" lon="113.99752379638672" /><trkpt lat="22.38985878125" lon="113.99763779638671" /><trkpt lat="22.38993578125" lon="113.99775879638672" /><trkpt lat="22.38994078125" lon="113.99791879638671" /><trkpt lat="22.38986478125" lon="113.99797779638672" /><trkpt lat="22.38982578125" lon="113.99808979638672" /><trkpt lat="22.38949278125" lon="113.99829879638672" /><trkpt lat="22.389419781249998" lon="113.99832879638672" /><trkpt lat="22.38932578125" lon="113.99843879638672" /><trkpt lat="22.38938378125" lon="113.99854179638672" /><trkpt lat="22.38949478125" lon="113.99876279638671" /><trkpt lat="22.38962178125" lon="113.99891279638672" /><trkpt lat="22.38970978125" lon="113.99895679638672" /><trkpt lat="22.38978378125" lon="113.99921879638671" /><trkpt lat="22.38987578125" lon="113.99943979638672" /><trkpt lat="22.38995378125" lon="113.99953379638671" /><trkpt lat="22.39003478125" lon="113.99959379638672" /><trkpt lat="22.39011678125" lon="113.99961679638672" /><trkpt lat="22.39026578125" lon="113.99965879638673" /><trkpt lat="22.39032978125" lon="113.99973579638672" /><trkpt lat="22.39030078125" lon="113.99979479638672" /><trkpt lat="22.39024478125" lon="113.99986079638671" /><trkpt lat="22.39016278125" lon="113.99993179638672" /><trkpt lat="22.39013578125" lon="114.00004779638672" /><trkpt lat="22.39009778125" lon="114.00015579638672" /><trkpt lat="22.39011078125" lon="114.00023979638672" /><trkpt lat="22.39018478125" lon="114.00042779638672" /><trkpt lat="22.39024878125" lon="114.00052179638672" /><trkpt lat="22.39024178125" lon="114.00061079638672" /><trkpt lat="22.39008878125" lon="114.00085479638672" /><trkpt lat="22.39005478125" lon="114.00097179638672" /><trkpt lat="22.39007878125" lon="114.00104179638672" /><trkpt lat="22.39010278125" lon="114.00110479638671" /><trkpt lat="22.39013878125" lon="114.00156979638672" /><trkpt lat="22.39007078125" lon="114.00174879638672" /><trkpt lat="22.39006778125" lon="114.00187379638672" /><trkpt lat="22.39011678125" lon="114.00194879638671" /><trkpt lat="22.39021478125" lon="114.00195379638672" /><trkpt lat="22.39032778125" lon="114.00191279638672" /><trkpt lat="22.39051878125" lon="114.00190079638672" /><trkpt lat="22.39069078125" lon="114.00188579638672" /><trkpt lat="22.39079078125" lon="114.00190179638672" /><trkpt lat="22.39090678125" lon="114.00188879638672" /><trkpt lat="22.39096078125" lon="114.00190879638672" /><trkpt lat="22.39102578125" lon="114.00199579638672" /><trkpt lat="22.39110578125" lon="114.00209879638672" /><trkpt lat="22.39111878125" lon="114.00230779638672" /><trkpt lat="22.391071781249998" lon="114.00252579638672" /><trkpt lat="22.39101678125" lon="114.00261579638672" /><trkpt lat="22.39097878125" lon="114.00278379638672" /><trkpt lat="22.39099978125" lon="114.00286979638672" /><trkpt lat="22.39093078125" lon="114.00304579638671" /><trkpt lat="22.39093478125" lon="114.00315779638672" /><trkpt lat="22.39091378125" lon="114.00331979638672" /><trkpt lat="22.39079578125" lon="114.00350479638672" /><trkpt lat="22.39082378125" lon="114.00357579638671" /><trkpt lat="22.39086978125" lon="114.00364179638672" /><trkpt lat="22.39101578125" lon="114.00371479638672" /><trkpt lat="22.39117078125" lon="114.00374279638672" /><trkpt lat="22.39122978125" lon="114.00378879638671" /><trkpt lat="22.39126678125" lon="114.00388579638673" /><trkpt lat="22.39135478125" lon="114.00393079638671" /><trkpt lat="22.39139478125" lon="114.00401479638671" /><trkpt lat="22.39149878125" lon="114.00412479638672" /><trkpt lat="22.39156778125" lon="114.00419879638672" /><trkpt lat="22.39159878125" lon="114.00426379638672" /><trkpt lat="22.39157778125" lon="114.00433779638672" /><trkpt lat="22.39161478125" lon="114.00443279638672" /><trkpt lat="22.39160678125" lon="114.00454379638671" /><trkpt lat="22.39175878125" lon="114.00471079638672" /><trkpt lat="22.39187978125" lon="114.00472679638672" /><trkpt lat="22.39194678125" lon="114.00478479638672" /><trkpt lat="22.39211278125" lon="114.00484379638672" /><trkpt lat="22.39216678125" lon="114.00489279638671" /><trkpt lat="22.39217178125" lon="114.00521379638671" /><trkpt lat="22.39228778125" lon="114.00527479638671" /><trkpt lat="22.39233778125" lon="114.00528479638672" /><trkpt lat="22.39245378125" lon="114.00526279638672" /><trkpt lat="22.39256478125" lon="114.00525279638671" /><trkpt lat="22.39262278125" lon="114.00527379638672" /><trkpt lat="22.39270278125" lon="114.00532579638671" /><trkpt lat="22.39282678125" lon="114.00541779638672" /><trkpt lat="22.39296778125" lon="114.00550479638672" /><trkpt lat="22.393041781249998" lon="114.00558179638672" /><trkpt lat="22.39310978125" lon="114.00577079638671" /><trkpt lat="22.39309678125" lon="114.00585479638671" /><trkpt lat="22.39312378125" lon="114.00603179638672" /><trkpt lat="22.39322578125" lon="114.00625379638672" /><trkpt lat="22.39325278125" lon="114.00631779638672" /><trkpt lat="22.39326978125" lon="114.00638179638672" /><trkpt lat="22.39327378125" lon="114.00652879638672" /><trkpt lat="22.39331478125" lon="114.00670179638672" /><trkpt lat="22.39350678125" lon="114.00684979638672" /><trkpt lat="22.39360778125" lon="114.00692979638671" /><trkpt lat="22.39364878125" lon="114.00694279638672" /><trkpt lat="22.39369778125" lon="114.00706279638672" /><trkpt lat="22.39380078125" lon="114.00707579638672" /><trkpt lat="22.39379878125" lon="114.00740079638672" /><trkpt lat="22.39374378125" lon="114.00754479638672" /><trkpt lat="22.39368978125" lon="114.00772879638671" /><trkpt lat="22.39376378125" lon="114.00788079638671" /><trkpt lat="22.39382878125" lon="114.00810979638672" /><trkpt lat="22.39382378125" lon="114.00827779638672" /><trkpt lat="22.39377978125" lon="114.00839979638671" /><trkpt lat="22.39376778125" lon="114.00862079638672" /><trkpt lat="22.39373978125" lon="114.00876579638673" /><trkpt lat="22.39374378125" lon="114.00889579638672" /><trkpt lat="22.39363478125" lon="114.00901779638671" /><trkpt lat="22.39355078125" lon="114.00911679638672" /><trkpt lat="22.39345678125" lon="114.00927679638671" /><trkpt lat="22.39339278125" lon="114.00939879638672" /><trkpt lat="22.39332778125" lon="114.00952879638672" /><trkpt lat="22.39327878125" lon="114.00966979638672" /><trkpt lat="22.39325878125" lon="114.00978379638671" /><trkpt lat="22.39323378125" lon="114.00980179638672" /><trkpt lat="22.39320878125" lon="114.00980479638672" /><trkpt lat="22.39311678125" lon="114.00974979638671" /><trkpt lat="22.39302578125" lon="114.00976079638671" /><trkpt lat="22.39307578125" lon="114.00983479638671" /><trkpt lat="22.39303878125" lon="114.00996879638672" /><trkpt lat="22.39306378125" lon="114.00999779638671" /><trkpt lat="22.39308078125" lon="114.01006479638671" /><trkpt lat="22.39305578125" lon="114.01022079638672" /><trkpt lat="22.39308278125" lon="114.01026679638672" /><trkpt lat="22.39301878125" lon="114.01032279638672" /><trkpt lat="22.39298678125" lon="114.01038979638672" /><trkpt lat="22.39276578125" lon="114.01053479638672" /><trkpt lat="22.39268878125" lon="114.01055879638672" /><trkpt lat="22.39267178125" lon="114.01060979638672" /><trkpt lat="22.39260678125" lon="114.01062579638672" /><trkpt lat="22.39253478125" lon="114.01069779638672" /><trkpt lat="22.39252278125" lon="114.01077379638672" /><trkpt lat="22.39250578125" lon="114.01093179638671" /><trkpt lat="22.39252978125" lon="114.01104679638672" /><trkpt lat="22.39264078125" lon="114.01117879638672" /><trkpt lat="22.39269578125" lon="114.01124579638672" /><trkpt lat="22.39269178125" lon="114.01148379638671" /><trkpt lat="22.39271078125" lon="114.01169079638672" /><trkpt lat="22.39269378125" lon="114.01180379638672" /><trkpt lat="22.39267578125" lon="114.01186779638672" /><trkpt lat="22.39269578125" lon="114.01200979638672" /><trkpt lat="22.39253178125" lon="114.01218079638672" /><trkpt lat="22.39240078125" lon="114.01223279638671" /><trkpt lat="22.39227178125" lon="114.01219679638672" /><trkpt lat="22.39212378125" lon="114.01246179638672" /><trkpt lat="22.39201978125" lon="114.01245179638671" /><trkpt lat="22.39203878125" lon="114.01251279638672" /><trkpt lat="22.39212378125" lon="114.01256579638672" /><trkpt lat="22.39217578125" lon="114.01253079638671" /><trkpt lat="22.39226378125" lon="114.01252679638672" /><trkpt lat="22.39235878125" lon="114.01257679638672" /><trkpt lat="22.39241778125" lon="114.01268279638671" /><trkpt lat="22.39244078125" lon="114.01279079638672" /><trkpt lat="22.39239578125" lon="114.01303179638671" /><trkpt lat="22.39231678125" lon="114.01309879638671" /><trkpt lat="22.39228178125" lon="114.01309379638671" /><trkpt lat="22.39223478125" lon="114.01315479638671" /><trkpt lat="22.39208878125" lon="114.01326779638671" /><trkpt lat="22.39194478125" lon="114.01328079638672" /><trkpt lat="22.39184278125" lon="114.01333179638672" /><trkpt lat="22.39169978125" lon="114.01346879638672" /><trkpt lat="22.39163478125" lon="114.01358179638672" /><trkpt lat="22.39149378125" lon="114.01368879638672" /><trkpt lat="22.39144878125" lon="114.01378279638672" /><trkpt lat="22.39138178125" lon="114.01382079638672" /><trkpt lat="22.39126578125" lon="114.01390079638672" /><trkpt lat="22.39121778125" lon="114.01401379638672" /><trkpt lat="22.39113178125" lon="114.01413979638671" /><trkpt lat="22.39110878125" lon="114.01425779638672" /><trkpt lat="22.39100778125" lon="114.01443979638672" /><trkpt lat="22.39111078125" lon="114.01464079638671" /><trkpt lat="22.39117378125" lon="114.01476679638672" /><trkpt lat="22.39116878125" lon="114.01483979638672" /><trkpt lat="22.39120278125" lon="114.01493579638672" /><trkpt lat="22.39119078125" lon="114.01502779638672" /><trkpt lat="22.39122778125" lon="114.01517179638672" /><trkpt lat="22.39121078125" lon="114.01523679638672" /><trkpt lat="22.39125078125" lon="114.01533579638672" /><trkpt lat="22.39124078125" lon="114.01542479638672" /><trkpt lat="22.39115578125" lon="114.01557179638672" /><trkpt lat="22.39112878125" lon="114.01564679638672" /><trkpt lat="22.39092978125" lon="114.01582979638673" /><trkpt lat="22.39094578125" lon="114.01585579638672" /><trkpt lat="22.39096678125" lon="114.01589479638672" /><trkpt lat="22.39100478125" lon="114.01601179638672" /><trkpt lat="22.39109878125" lon="114.01609479638672" /><trkpt lat="22.39119578125" lon="114.01615579638671" /><trkpt lat="22.39123578125" lon="114.01620679638673" /><trkpt lat="22.39125378125" lon="114.01623079638672" /><trkpt lat="22.39120578125" lon="114.01631179638672" /><trkpt lat="22.39118278125" lon="114.01636179638672" /><trkpt lat="22.39114378125" lon="114.01639679638672" /><trkpt lat="22.39112178125" lon="114.01644379638672" /><trkpt lat="22.39107478125" lon="114.01649479638672" /><trkpt lat="22.39104978125" lon="114.01657879638672" /><trkpt lat="22.39105878125" lon="114.01664479638671" /><trkpt lat="22.39107378125" lon="114.01669079638671" /><trkpt lat="22.39107378125" lon="114.01690679638672" /><trkpt lat="22.391071781249998" lon="114.01696679638673" /><trkpt lat="22.39108478125" lon="114.01700879638672" /><trkpt lat="22.39108278125" lon="114.01704679638672" /><trkpt lat="22.39112478125" lon="114.01718679638672" /><trkpt lat="22.39117178125" lon="114.01724279638672" /><trkpt lat="22.39121778125" lon="114.01735379638671" /><trkpt lat="22.39123378125" lon="114.01742379638672" /><trkpt lat="22.39132278125" lon="114.01753979638671" /><trkpt lat="22.39135578125" lon="114.01757179638672" /><trkpt lat="22.39154278125" lon="114.01763979638672" /><trkpt lat="22.39167178125" lon="114.01764979638672" /><trkpt lat="22.39171578125" lon="114.01759679638671" /><trkpt lat="22.39183378125" lon="114.01757179638672" /><trkpt lat="22.39204678125" lon="114.01762479638671" /><trkpt lat="22.39209778125" lon="114.01762579638672" /><trkpt lat="22.39212378125" lon="114.01765179638672" /><trkpt lat="22.39214778125" lon="114.01775379638671" /><trkpt lat="22.39218878125" lon="114.01787679638672" /><trkpt lat="22.39221978125" lon="114.01793979638671" /><trkpt lat="22.39227078125" lon="114.01796479638672" /><trkpt lat="22.39232578125" lon="114.01802079638672" /><trkpt lat="22.39236378125" lon="114.01807079638672" /><trkpt lat="22.39244078125" lon="114.01807779638672" /><trkpt lat="22.39246578125" lon="114.01812879638672" /><trkpt lat="22.39246578125" lon="114.01818279638672" /><trkpt lat="22.39240478125" lon="114.01830779638672" /><trkpt lat="22.39238278125" lon="114.01833379638671" /><trkpt lat="22.39236278125" lon="114.01838979638671" /><trkpt lat="22.39236478125" lon="114.01843579638673" /><trkpt lat="22.39234278125" lon="114.01850879638671" /><trkpt lat="22.39237578125" lon="114.01860079638672" /><trkpt lat="22.39236778125" lon="114.01863879638672" /><trkpt lat="22.39239278125" lon="114.01872379638672" /><trkpt lat="22.39254078125" lon="114.01886179638672" /><trkpt lat="22.39265578125" lon="114.01895679638672" /><trkpt lat="22.39278678125" lon="114.01901179638672" /><trkpt lat="22.39282678125" lon="114.01906679638672" /><trkpt lat="22.39286878125" lon="114.01923579638672" /><trkpt lat="22.39285978125" lon="114.01928279638672" /><trkpt lat="22.39283778125" lon="114.01931079638672" /><trkpt lat="22.39282278125" lon="114.01939379638672" /><trkpt lat="22.39277178125" lon="114.01942779638672" /><trkpt lat="22.39270078125" lon="114.01954779638672" /><trkpt lat="22.39269178125" lon="114.01959879638672" /><trkpt lat="22.39267778125" lon="114.01963479638673" /><trkpt lat="22.39265478125" lon="114.01966279638673" /><trkpt lat="22.39263078125" lon="114.01966679638672" /><trkpt lat="22.39257778125" lon="114.01968479638671" /><trkpt lat="22.39244678125" lon="114.01976979638673" /><trkpt lat="22.39244778125" lon="114.01983579638672" /><trkpt lat="22.39242678125" lon="114.01991079638672" /><trkpt lat="22.39232378125" lon="114.02009679638672" /><trkpt lat="22.39209778125" lon="114.02031379638672" /><trkpt lat="22.39194378125" lon="114.02053879638672" /><trkpt lat="22.39201678125" lon="114.02071779638672" /><trkpt lat="22.39197178125" lon="114.02084479638673" /><trkpt lat="22.39176978125" lon="114.02089179638672" /><trkpt lat="22.39174878125" lon="114.02091479638672" /><trkpt lat="22.39176278125" lon="114.02139079638673" /><trkpt lat="22.39181478125" lon="114.02151979638671" /><trkpt lat="22.39180078125" lon="114.02165979638671" /><trkpt lat="22.39157378125" lon="114.02189279638672" /><trkpt lat="22.39157078125" lon="114.02201879638672" /><trkpt lat="22.39164578125" lon="114.02217379638672" /><trkpt lat="22.39164178125" lon="114.02227379638671" /><trkpt lat="22.39160678125" lon="114.02238279638672" /><trkpt lat="22.39161078125" lon="114.02244579638672" /><trkpt lat="22.39169578125" lon="114.02261579638672" /><trkpt lat="22.39169578125" lon="114.02290679638672" /><trkpt lat="22.39188478125" lon="114.02304479638671" /><trkpt lat="22.39201578125" lon="114.02310679638671" /><trkpt lat="22.39212578125" lon="114.02309979638672" /><trkpt lat="22.39227278125" lon="114.02323279638672" /><trkpt lat="22.39244178125" lon="114.02336979638672" /><trkpt lat="22.39301778125" lon="114.02328879638672" /><trkpt lat="22.39313578125" lon="114.02321179638672" /><trkpt lat="22.39327478125" lon="114.02322579638673" /><trkpt lat="22.39332078125" lon="114.02349179638672" /><trkpt lat="22.39320878125" lon="114.02356579638672" /><trkpt lat="22.39285678125" lon="114.02363079638671" /><trkpt lat="22.39269278125" lon="114.02378979638672" /><trkpt lat="22.39277078125" lon="114.02410079638672" /><trkpt lat="22.39252778125" lon="114.02422479638672" /><trkpt lat="22.39249378125" lon="114.02435379638672" /><trkpt lat="22.39250578125" lon="114.02446979638673" /><trkpt lat="22.39259378125" lon="114.02453579638671" /><trkpt lat="22.39269278125" lon="114.02459879638671" /><trkpt lat="22.39281578125" lon="114.02481879638673" /><trkpt lat="22.39288878125" lon="114.02489479638672" /><trkpt lat="22.39294978125" lon="114.02511379638672" /><trkpt lat="22.39300778125" lon="114.02527179638672" /><trkpt lat="22.39301278125" lon="114.02535379638672" /><trkpt lat="22.39296678125" lon="114.02555379638672" /><trkpt lat="22.39304678125" lon="114.02594979638671" /><trkpt lat="22.39317578125" lon="114.02623679638671" /><trkpt lat="22.39321478125" lon="114.02640279638672" /><trkpt lat="22.39344478125" lon="114.02654679638673" /><trkpt lat="22.39341678125" lon="114.02679079638672" /><trkpt lat="22.39348578125" lon="114.02685179638672" /><trkpt lat="22.39386878125" lon="114.02682479638672" /><trkpt lat="22.39434178125" lon="114.02688179638672" /><trkpt lat="22.39477178125" lon="114.02700379638672" /><trkpt lat="22.39504578125" lon="114.02692279638671" /><trkpt lat="22.39518178125" lon="114.02705679638672" /><trkpt lat="22.395246781250002" lon="114.02755279638671" /><trkpt lat="22.39519078125" lon="114.02769279638672" /><trkpt lat="22.39501678125" lon="114.02786079638672" /><trkpt lat="22.39498778125" lon="114.02809779638672" /><trkpt lat="22.39491478125" lon="114.02827779638672" /><trkpt lat="22.39497778125" lon="114.02895279638672" /><trkpt lat="22.39511978125" lon="114.02916579638672" /><trkpt lat="22.39528378125" lon="114.02931979638672" /><trkpt lat="22.39538678125" lon="114.02944379638672" /><trkpt lat="22.39545278125" lon="114.02955779638671" /><trkpt lat="22.39566578125" lon="114.02978779638671" /><trkpt lat="22.39572578125" lon="114.02996479638672" /><trkpt lat="22.39573778125" lon="114.03034379638672" /><trkpt lat="22.39585978125" lon="114.03058579638672" /><trkpt lat="22.39594378125" lon="114.03078079638672" /><trkpt lat="22.39616678125" lon="114.03099679638672" /><trkpt lat="22.39621778125" lon="114.03096279638672" /><trkpt lat="22.39629878125" lon="114.03097979638672" /><trkpt lat="22.39635378125" lon="114.03093379638672" /><trkpt lat="22.39640878125" lon="114.03115479638672" /><trkpt lat="22.39646178125" lon="114.03151279638672" /><trkpt lat="22.39651978125" lon="114.03185979638671" /><trkpt lat="22.39654678125" lon="114.03234779638672" /><trkpt lat="22.39661978125" lon="114.03254579638671" /><trkpt lat="22.39680378125" lon="114.03269279638671" /><trkpt lat="22.39688678125" lon="114.03295079638671" /><trkpt lat="22.39683978125" lon="114.03313679638671" /><trkpt lat="22.39678678125" lon="114.03335079638671" /><trkpt lat="22.39679678125" lon="114.03360879638672" /><trkpt lat="22.39686678125" lon="114.03378079638672" /><trkpt lat="22.39701378125" lon="114.03391479638672" /><trkpt lat="22.39688878125" lon="114.03436179638672" /><trkpt lat="22.39659678125" lon="114.03454379638671" /><trkpt lat="22.39639378125" lon="114.03466279638671" /><trkpt lat="22.39638478125" lon="114.03482079638673" /><trkpt lat="22.39636778125" lon="114.03511779638671" /><trkpt lat="22.39631378125" lon="114.03534479638672" /><trkpt lat="22.39618578125" lon="114.03553079638672" /><trkpt lat="22.39618078125" lon="114.03582279638673" /><trkpt lat="22.39634178125" lon="114.03612179638672" /><trkpt lat="22.39628578125" lon="114.03663479638672" /><trkpt lat="22.39640478125" lon="114.03687179638672" /><trkpt lat="22.39644578125" lon="114.03727279638672" /><trkpt lat="22.39631978125" lon="114.03752779638671" /><trkpt lat="22.39650078125" lon="114.03813879638672" /><trkpt lat="22.39667478125" lon="114.03854279638672" /><trkpt lat="22.39679178125" lon="114.03872879638672" /><trkpt lat="22.39676778125" lon="114.03903479638672" /><trkpt lat="22.39680578125" lon="114.03934879638672" /><trkpt lat="22.39695878125" lon="114.03974879638672" /><trkpt lat="22.39704678125" lon="114.04010779638672" /><trkpt lat="22.39706678125" lon="114.04027279638672" /><trkpt lat="22.39713078125" lon="114.04054079638672" /><trkpt lat="22.39714578125" lon="114.04066979638672" /><trkpt lat="22.39720778125" lon="114.04138979638672" /><trkpt lat="22.39721678125" lon="114.04171179638672" /><trkpt lat="22.39740078125" lon="114.04229279638672" /><trkpt lat="22.39735378125" lon="114.04258479638672" /><trkpt lat="22.39713978125" lon="114.04285279638673" /><trkpt lat="22.39703978125" lon="114.04301579638671" /><trkpt lat="22.39700578125" lon="114.04332479638671" /><trkpt lat="22.39701878125" lon="114.04359079638672" /><trkpt lat="22.39686278125" lon="114.04391779638672" /><trkpt lat="22.39683878125" lon="114.04426379638672" /><trkpt lat="22.39678078125" lon="114.04445779638672" /><trkpt lat="22.39670478125" lon="114.04451279638671" /><trkpt lat="22.39664078125" lon="114.04461779638672" /><trkpt lat="22.39664478125" lon="114.04476879638672" /><trkpt lat="22.39659078125" lon="114.04500179638671" /><trkpt lat="22.39636578125" lon="114.04540579638672" /><trkpt lat="22.39624278125" lon="114.04557679638671" /><trkpt lat="22.39622378125" lon="114.04569079638672" /><trkpt lat="22.39626978125" lon="114.04583779638672" /><trkpt lat="22.39635678125" lon="114.04602879638672" /><trkpt lat="22.39660378125" lon="114.04621779638671" /><trkpt lat="22.39717878125" lon="114.04644979638672" /><trkpt lat="22.39744478125" lon="114.04672179638672" /><trkpt lat="22.39760078125" lon="114.04681479638671" /><trkpt lat="22.39762778125" lon="114.04689879638671" /><trkpt lat="22.39744778125" lon="114.04707579638672" /><trkpt lat="22.39736378125" lon="114.04719479638672" /><trkpt lat="22.39738878125" lon="114.04728479638672" /><trkpt lat="22.39767178125" lon="114.04757679638672" /><trkpt lat="22.39806878125" lon="114.04773179638671" /><trkpt lat="22.39819078125" lon="114.04783179638672" /><trkpt lat="22.39824178125" lon="114.04776679638672" /><trkpt lat="22.39857978125" lon="114.04785179638672" /><trkpt lat="22.39869778125" lon="114.04777479638672" /><trkpt lat="22.39895778125" lon="114.04776379638672" /><trkpt lat="22.39915078125" lon="114.04764579638672" /><trkpt lat="22.39923878125" lon="114.04744979638672" /><trkpt lat="22.39939078125" lon="114.04734979638671" /><trkpt lat="22.39944178125" lon="114.04715179638671" /><trkpt lat="22.39943678125" lon="114.04699579638672" /><trkpt lat="22.39950678125" lon="114.04669779638672" /><trkpt lat="22.39949378125" lon="114.04653879638671" /><trkpt lat="22.399376781249998" lon="114.04634579638672" /><trkpt lat="22.39930678125" lon="114.04629779638672" /><trkpt lat="22.39930378125" lon="114.04617979638672" /><trkpt lat="22.39950878125" lon="114.04576879638672" /><trkpt lat="22.39970178125" lon="114.04560879638672" /><trkpt lat="22.40000678125" lon="114.04569979638671" /><trkpt lat="22.40037878125" lon="114.04621079638672" /><trkpt lat="22.40084278125" lon="114.04658479638672" /><trkpt lat="22.40107478125" lon="114.04639379638672" /><trkpt lat="22.40140678125" lon="114.04626479638672" /><trkpt lat="22.40199278125" lon="114.04634879638672" /><trkpt lat="22.40211478125" lon="114.04656979638672" /><trkpt lat="22.40234378125" lon="114.04654679638672" /><trkpt lat="22.40271178125" lon="114.04634079638672" /><trkpt lat="22.40338478125" lon="114.04637079638673" /><trkpt lat="22.40367078125" lon="114.04626479638672" /><trkpt lat="22.40401978125" lon="114.04595179638672" /><trkpt lat="22.40423078125" lon="114.04580779638673" /><trkpt lat="22.40446478125" lon="114.04595879638671" /><trkpt lat="22.40455078125" lon="114.04608879638671" /><trkpt lat="22.40469178125" lon="114.04615679638673" /><trkpt lat="22.40480078125" lon="114.04623779638672" /><trkpt lat="22.40489278125" lon="114.04646679638672" /><trkpt lat="22.40507978125" lon="114.04682179638672" /><trkpt lat="22.40512178125" lon="114.04700379638672" /><trkpt lat="22.40516578125" lon="114.04707679638672" /><trkpt lat="22.40532378125" lon="114.04714779638672" /><trkpt lat="22.40538378125" lon="114.04721279638672" /><trkpt lat="22.40554378125" lon="114.04721279638672" /><trkpt lat="22.40576478125" lon="114.04728879638672" /><trkpt lat="22.40606878125" lon="114.04745779638672" /><trkpt lat="22.40614178125" lon="114.04752879638671" /><trkpt lat="22.40623478125" lon="114.04752179638672" /><trkpt lat="22.40649178125" lon="114.04739279638672" /><trkpt lat="22.40679978125" lon="114.04730879638672" /><trkpt lat="22.40689578125" lon="114.04732679638671" /><trkpt lat="22.40697878125" lon="114.04730879638672" /><trkpt lat="22.40709578125" lon="114.04725279638672" /><trkpt lat="22.40721778125" lon="114.04711179638672" /><trkpt lat="22.40733278125" lon="114.04707779638672" /><trkpt lat="22.40754978125" lon="114.04696179638673" /><trkpt lat="22.40768778125" lon="114.04684079638672" /><trkpt lat="22.40796978125" lon="114.04676779638672" /><trkpt lat="22.40814578125" lon="114.04662879638671" /><trkpt lat="22.40843578125" lon="114.04653779638672" /><trkpt lat="22.40849978125" lon="114.04654079638672" /><trkpt lat="22.40862778125" lon="114.04657079638672" /><trkpt lat="22.40873278125" lon="114.04687379638672" /><trkpt lat="22.40882378125" lon="114.04702779638671" /><trkpt lat="22.40895578125" lon="114.04711579638672" /><trkpt lat="22.40901578125" lon="114.04719779638671" /><trkpt lat="22.40915378125" lon="114.04729079638672" /><trkpt lat="22.40935278125" lon="114.04738479638672" /><trkpt lat="22.40937778125" lon="114.04750479638672" /><trkpt lat="22.40935378125" lon="114.04761779638672" /><trkpt lat="22.40937078125" lon="114.04771079638672" /><trkpt lat="22.40948578125" lon="114.04791079638672" /><trkpt lat="22.40947678125" lon="114.04803079638671" /><trkpt lat="22.40937078125" lon="114.04822879638672" /><trkpt lat="22.40937078125" lon="114.04832579638672" /><trkpt lat="22.40925978125" lon="114.04867779638671" /><trkpt lat="22.40924678125" lon="114.04907779638671" /><trkpt lat="22.40931678125" lon="114.04926479638672" /><trkpt lat="22.40928178125" lon="114.04946679638672" /><trkpt lat="22.40933978125" lon="114.04967379638671" /><trkpt lat="22.40930278125" lon="114.04996179638673" /><trkpt lat="22.40942978125" lon="114.05013379638672" /><trkpt lat="22.40958778125" lon="114.05020979638672" /><trkpt lat="22.40968278125" lon="114.05034179638672" /><trkpt lat="22.40983678125" lon="114.05046079638672" /><trkpt lat="22.40997778125" lon="114.05050379638672" /><trkpt lat="22.41048878125" lon="114.05078779638671" /><trkpt lat="22.41049078125" lon="114.05091879638672" /><trkpt lat="22.41056978125" lon="114.05116279638672" /><trkpt lat="22.41063278125" lon="114.05144079638671" /><trkpt lat="22.41078878125" lon="114.05151379638671" /><trkpt lat="22.41096678125" lon="114.05173379638671" /><trkpt lat="22.41100078125" lon="114.05181679638672" /><trkpt lat="22.41119278125" lon="114.05187879638672" /><trkpt lat="22.41142078125" lon="114.05201179638672" /><trkpt lat="22.41151178125" lon="114.05201679638672" /><trkpt lat="22.41197178125" lon="114.05218079638672" /><trkpt lat="22.41219078125" lon="114.05278079638671" /><trkpt lat="22.41221378125" lon="114.05302479638672" /><trkpt lat="22.41231378125" lon="114.05327079638671" /><trkpt lat="22.41249678125" lon="114.05341379638672" /><trkpt lat="22.41270978125" lon="114.05347779638672" /><trkpt lat="22.41291378125" lon="114.05372479638672" /><trkpt lat="22.41300578125" lon="114.05380179638672" /><trkpt lat="22.41310178125" lon="114.05380879638672" /><trkpt lat="22.41334078125" lon="114.05395979638672" /><trkpt lat="22.41348278125" lon="114.05395079638672" /><trkpt lat="22.41353278125" lon="114.05386879638672" /><trkpt lat="22.41360478125" lon="114.05387879638671" /><trkpt lat="22.41370978125" lon="114.05392979638673" /><trkpt lat="22.41380378125" lon="114.05403079638671" /><trkpt lat="22.41399978125" lon="114.05404379638672" /><trkpt lat="22.41400778125" lon="114.05410279638672" /><trkpt lat="22.41418778125" lon="114.05411779638672" /><trkpt lat="22.41419478125" lon="114.05415779638672" /><trkpt lat="22.41439878125" lon="114.05417879638672" /><trkpt lat="22.41446978125" lon="114.05422979638672" /><trkpt lat="22.41462578125" lon="114.05444379638672" /><trkpt lat="22.41477278125" lon="114.05448279638672" /><trkpt lat="22.41498178125" lon="114.05467279638673" /><trkpt lat="22.41524678125" lon="114.05467479638672" /><trkpt lat="22.41547678125" lon="114.05462779638673" /><trkpt lat="22.41581278125" lon="114.05483379638672" /><trkpt lat="22.41640078125" lon="114.05492379638672" /><trkpt lat="22.41663878125" lon="114.05514479638671" /><trkpt lat="22.41685178125" lon="114.05523179638672" /><trkpt lat="22.41709978125" lon="114.05519479638671" /><trkpt lat="22.41728578125" lon="114.05522579638672" /><trkpt lat="22.41760478125" lon="114.05512079638672" /><trkpt lat="22.41779978125" lon="114.05516079638672" /><trkpt lat="22.41861978125" lon="114.05497479638672" /><trkpt lat="22.41875978125" lon="114.05510779638672" /><trkpt lat="22.41895278125" lon="114.05526079638672" /><trkpt lat="22.41918178125" lon="114.05542279638672" /><trkpt lat="22.41936678125" lon="114.05540879638671" /><trkpt lat="22.41958478125" lon="114.05537079638673" /><trkpt lat="22.41983978125" lon="114.05537279638672" /><trkpt lat="22.42002278125" lon="114.05534279638673" /><trkpt lat="22.42020178125" lon="114.05539679638672" /><trkpt lat="22.42042678125" lon="114.05550279638672" /><trkpt lat="22.42057178125" lon="114.05564179638672" /><trkpt lat="22.42063278125" lon="114.05566179638672" /><trkpt lat="22.42075478125" lon="114.05567379638671" /><trkpt lat="22.42081378125" lon="114.05561479638672" /><trkpt lat="22.42084178125" lon="114.05558579638672" /><trkpt lat="22.42101078125" lon="114.05544779638672" /><trkpt lat="22.42123178125" lon="114.05551779638672" /><trkpt lat="22.42146178125" lon="114.05549979638671" /><trkpt lat="22.42174278125" lon="114.05556579638672" /><trkpt lat="22.42211978125" lon="114.05542879638672" /><trkpt lat="22.42223978125" lon="114.05545079638672" /><trkpt lat="22.42235078125" lon="114.05541379638672" /><trkpt lat="22.42254978125" lon="114.05539879638673" /><trkpt lat="22.42282078125" lon="114.05526079638672" /><trkpt lat="22.42306878125" lon="114.05528679638672" /><trkpt lat="22.42319578125" lon="114.05535579638672" /><trkpt lat="22.42334878125" lon="114.05560079638671" /><trkpt lat="22.42336678125" lon="114.05567079638672" /><trkpt lat="22.42339078125" lon="114.05585379638671" /><trkpt lat="22.42344578125" lon="114.05607779638672" /><trkpt lat="22.42357478125" lon="114.05618579638671" /><trkpt lat="22.42368078125" lon="114.05634479638672" /><trkpt lat="22.42388778125" lon="114.05649279638672" /><trkpt lat="22.42421778125" lon="114.05688579638672" /><trkpt lat="22.42440978125" lon="114.05722479638672" /><trkpt lat="22.42454978125" lon="114.05732579638672" /><trkpt lat="22.42480178125" lon="114.05746579638672" /><trkpt lat="22.42510978125" lon="114.05758479638672" /><trkpt lat="22.42522178125" lon="114.05771979638672" /><trkpt lat="22.42530978125" lon="114.05776079638672" /><trkpt lat="22.42549478125" lon="114.05793479638672" /><trkpt lat="22.42562578125" lon="114.05808879638671" /><trkpt lat="22.42575178125" lon="114.05805979638671" /><trkpt lat="22.42585478125" lon="114.05808579638672" /><trkpt lat="22.42605578125" lon="114.05797979638672" /><trkpt lat="22.426299781250002" lon="114.05786779638672" /><trkpt lat="22.42634678125" lon="114.05777379638671" /><trkpt lat="22.42638778125" lon="114.05766379638672" /><trkpt lat="22.42653978125" lon="114.05764779638672" /><trkpt lat="22.42666278125" lon="114.05768979638673" /><trkpt lat="22.42676778125" lon="114.05754779638671" /><trkpt lat="22.42677878125" lon="114.05746679638672" /><trkpt lat="22.42688478125" lon="114.05734879638672" /><trkpt lat="22.42692178125" lon="114.05724779638672" /><trkpt lat="22.42701678125" lon="114.05709879638673" /><trkpt lat="22.42705378125" lon="114.05687579638672" /><trkpt lat="22.42709178125" lon="114.05677779638673" /><trkpt lat="22.42716578125" lon="114.05671979638672" /><trkpt lat="22.42725678125" lon="114.05670979638671" /><trkpt lat="22.42731478125" lon="114.05667579638671" /><trkpt lat="22.42740178125" lon="114.05648279638672" /><trkpt lat="22.42744478125" lon="114.05632479638672" /><trkpt lat="22.42750578125" lon="114.05623279638672" /><trkpt lat="22.42776278125" lon="114.05578979638672" /><trkpt lat="22.42788378125" lon="114.05571979638673" /><trkpt lat="22.42804578125" lon="114.05559579638673" /><trkpt lat="22.42806778125" lon="114.05551379638672" /><trkpt lat="22.42814478125" lon="114.05546079638673" /><trkpt lat="22.42835478125" lon="114.05529379638672" /><trkpt lat="22.42856278125" lon="114.05508679638672" /><trkpt lat="22.42861278125" lon="114.05504479638672" /><trkpt lat="22.42872078125" lon="114.05502379638672" /><trkpt lat="22.42885378125" lon="114.05495679638672" /><trkpt lat="22.42895778125" lon="114.05487479638671" /><trkpt lat="22.42917878125" lon="114.05465779638672" /><trkpt lat="22.42924678125" lon="114.05459679638672" /><trkpt lat="22.42934178125" lon="114.05449079638672" /><trkpt lat="22.42947278125" lon="114.05440079638672" /><trkpt lat="22.42953478125" lon="114.05431979638672" /><trkpt lat="22.42953178125" lon="114.05423379638673" /><trkpt lat="22.42970978125" lon="114.05416179638672" /><trkpt lat="22.42981678125" lon="114.05406279638672" /><trkpt lat="22.42996678125" lon="114.05388379638671" /><trkpt lat="22.43006678125" lon="114.05381179638673" /><trkpt lat="22.43020078125" lon="114.05375979638671" /><trkpt lat="22.43025078125" lon="114.05365179638672" /><trkpt lat="22.43031378125" lon="114.05360579638672" /><trkpt lat="22.43042278125" lon="114.05346579638672" /><trkpt lat="22.43053578125" lon="114.05340979638672" /><trkpt lat="22.43066078125" lon="114.05334279638672" /><trkpt lat="22.43077978125" lon="114.05326279638672" /><trkpt lat="22.43078478125" lon="114.05317379638672" /><trkpt lat="22.43089178125" lon="114.05296379638672" /><trkpt lat="22.43096578125" lon="114.05269279638672" /><trkpt lat="22.43104778125" lon="114.05257679638672" /><trkpt lat="22.43104778125" lon="114.05250179638672" /><trkpt lat="22.43108278125" lon="114.05241379638672" /><trkpt lat="22.43095578125" lon="114.05226479638672" /><trkpt lat="22.43088778125" lon="114.05214779638672" /><trkpt lat="22.43074478125" lon="114.05192579638671" /><trkpt lat="22.43066278125" lon="114.05181779638671" /><trkpt lat="22.43047078125" lon="114.05177479638672" /><trkpt lat="22.43045678125" lon="114.05172279638671" /><trkpt lat="22.43044978125" lon="114.05160279638672" /><trkpt lat="22.43034478125" lon="114.05135579638672" /><trkpt lat="22.43033378125" lon="114.05112979638672" /><trkpt lat="22.43033178125" lon="114.05088779638672" /><trkpt lat="22.43043078125" lon="114.05075979638671" /><trkpt lat="22.43054778125" lon="114.05044079638672" /><trkpt lat="22.43053578125" lon="114.05034179638672" /><trkpt lat="22.43056678125" lon="114.05016279638672" /><trkpt lat="22.43054478125" lon="114.05004279638672" /><trkpt lat="22.43062278125" lon="114.05003979638671" /><trkpt lat="22.43071578125" lon="114.05000579638671" /><trkpt lat="22.43085378125" lon="114.04998979638673" /><trkpt lat="22.43119478125" lon="114.04990479638671" /><trkpt lat="22.43138878125" lon="114.04984379638672" /><trkpt lat="22.43153878125" lon="114.04986279638672" /><trkpt lat="22.43164578125" lon="114.04983679638671" /><trkpt lat="22.43176778125" lon="114.04985579638672" /><trkpt lat="22.43186378125" lon="114.04989379638671" /><trkpt lat="22.43200678125" lon="114.04993179638672" /><trkpt lat="22.43223778125" lon="114.04991179638672" /><trkpt lat="22.43255678125" lon="114.04997779638671" /><trkpt lat="22.43264178125" lon="114.04996179638673" /><trkpt lat="22.43277578125" lon="114.04995679638672" /><trkpt lat="22.43287678125" lon="114.04996079638671" /><trkpt lat="22.43304278125" lon="114.05002279638671" /><trkpt lat="22.43316278125" lon="114.04999779638672" /><trkpt lat="22.43325778125" lon="114.04994379638671" /><trkpt lat="22.43330978125" lon="114.04997479638672" /><trkpt lat="22.43338578125" lon="114.04997979638672" /><trkpt lat="22.43344978125" lon="114.04994779638672" /><trkpt lat="22.43353578125" lon="114.04996779638672" /><trkpt lat="22.43377778125" lon="114.04993779638671" /><trkpt lat="22.43385978125" lon="114.04989179638672" /><trkpt lat="22.43391078125" lon="114.04988379638672" /><trkpt lat="22.43402978125" lon="114.04984979638672" /><trkpt lat="22.43416478125" lon="114.04981379638672" /><trkpt lat="22.43433078125" lon="114.04985479638673" /><trkpt lat="22.43433478125" lon="114.04991479638672" /><trkpt lat="22.43439578125" lon="114.04993079638672" /><trkpt lat="22.43444778125" lon="114.04995679638672" /><trkpt lat="22.43458078125" lon="114.04993679638672" /><trkpt lat="22.43465478125" lon="114.04995079638672" /><trkpt lat="22.43472978125" lon="114.05000179638672" /><trkpt lat="22.43482178125" lon="114.05002679638672" /><trkpt lat="22.43487578125" lon="114.05009479638672" /><trkpt lat="22.43501078125" lon="114.05006979638672" /><trkpt lat="22.43503978125" lon="114.05006279638671" /><trkpt lat="22.43507478125" lon="114.05005879638672" /><trkpt lat="22.43513978125" lon="114.05004879638672" /><trkpt lat="22.43523078125" lon="114.05003679638672" /><trkpt lat="22.43527578125" lon="114.05005579638672" /><trkpt lat="22.43535878125" lon="114.05008179638672" /><trkpt lat="22.43541978125" lon="114.05012879638672" /><trkpt lat="22.43547178125" lon="114.05017779638672" /><trkpt lat="22.43556878125" lon="114.05016879638671" /><trkpt lat="22.43562878125" lon="114.05015879638673" /><trkpt lat="22.43577578125" lon="114.05009679638673" /><trkpt lat="22.43589178125" lon="114.05005979638672" /><trkpt lat="22.43598578125" lon="114.05004179638672" /><trkpt lat="22.43612478125" lon="114.04998779638672" /><trkpt lat="22.43624678125" lon="114.04993579638672" /><trkpt lat="22.43639678125" lon="114.04987179638673" /><trkpt lat="22.43651178125" lon="114.04985379638671" /><trkpt lat="22.43665978125" lon="114.04977479638671" /><trkpt lat="22.43679978125" lon="114.04967779638672" /><trkpt lat="22.43697078125" lon="114.04952679638671" /><trkpt lat="22.43703578125" lon="114.04936879638672" /><trkpt lat="22.43707278125" lon="114.04931979638671" /><trkpt lat="22.43711578125" lon="114.04927479638671" /><trkpt lat="22.43738278125" lon="114.04921779638671" /><trkpt lat="22.43742378125" lon="114.04919379638672" /><trkpt lat="22.43751178125" lon="114.04916079638672" /><trkpt lat="22.43760278125" lon="114.04915379638672" /><trkpt lat="22.43764078125" lon="114.04907179638671" /><trkpt lat="22.43777578125" lon="114.04894779638671" /><trkpt lat="22.43801778125" lon="114.04894179638671" /><trkpt lat="22.43810978125" lon="114.04906879638672" /><trkpt lat="22.43828378125" lon="114.04901079638672" /><trkpt lat="22.43831878125" lon="114.04883979638672" /><trkpt lat="22.43838378125" lon="114.04879879638672" /><trkpt lat="22.43855478125" lon="114.04878579638672" /><trkpt lat="22.43866178125" lon="114.04877679638672" /><trkpt lat="22.43886178125" lon="114.04862879638672" /><trkpt lat="22.43900578125" lon="114.04855179638672" /><trkpt lat="22.43907678125" lon="114.04853079638671" /><trkpt lat="22.43920778125" lon="114.04847479638671" /><trkpt lat="22.43928878125" lon="114.04837679638672" /><trkpt lat="22.43946878125" lon="114.04830379638672" /><trkpt lat="22.43946478125" lon="114.04826379638672" /><trkpt lat="22.43952378125" lon="114.04825279638672" /><trkpt lat="22.43955478125" lon="114.04822279638672" /><trkpt lat="22.43976278125" lon="114.04819979638673" /><trkpt lat="22.43993278125" lon="114.04823479638672" /><trkpt lat="22.44002578125" lon="114.04822179638671" /><trkpt lat="22.44015078125" lon="114.04814179638672" /><trkpt lat="22.44022278125" lon="114.04809479638672" /><trkpt lat="22.44027478125" lon="114.04806179638672" /><trkpt lat="22.44028978125" lon="114.04803579638671" /><trkpt lat="22.44031678125" lon="114.04799879638672" /><trkpt lat="22.44040478125" lon="114.04789279638672" /><trkpt lat="22.44048178125" lon="114.04777779638673" /><trkpt lat="22.44061878125" lon="114.04748879638672" /><trkpt lat="22.44082678125" lon="114.04731579638671" /><trkpt lat="22.44108678125" lon="114.04725279638672" /><trkpt lat="22.44119878125" lon="114.04703479638673" /><trkpt lat="22.44138278125" lon="114.04695779638672" /><trkpt lat="22.44143478125" lon="114.04691379638672" /><trkpt lat="22.44163178125" lon="114.04680079638672" /><trkpt lat="22.44173778125" lon="114.04680379638671" /><trkpt lat="22.44181678125" lon="114.04670379638672" /><trkpt lat="22.44200378125" lon="114.04657879638673" /><trkpt lat="22.44295878125" lon="114.04636279638672" /><trkpt lat="22.44336678125" lon="114.04665079638671" /><trkpt lat="22.44344978125" lon="114.04667379638671" /><trkpt lat="22.44356278125" lon="114.04674279638672" /><trkpt lat="22.44365278125" lon="114.04666879638673" /><trkpt lat="22.44389578125" lon="114.04656579638672" /><trkpt lat="22.44380578125" lon="114.04619179638672" /><trkpt lat="22.44380378125" lon="114.04600879638672" /><trkpt lat="22.44386778125" lon="114.04545479638672" /><trkpt lat="22.44387878125" lon="114.04526279638672" /><trkpt lat="22.44391678125" lon="114.04497679638672" /><trkpt lat="22.44396578125" lon="114.04473179638671" /><trkpt lat="22.44405078125" lon="114.04433279638671" /><trkpt lat="22.44411978125" lon="114.04389879638671" /><trkpt lat="22.44416978125" lon="114.04350679638672" /><trkpt lat="22.44418178125" lon="114.04323679638672" /><trkpt lat="22.44423978125" lon="114.04322079638672" /><trkpt lat="22.44425378125" lon="114.04266679638671" /><trkpt lat="22.44425878125" lon="114.04233879638672" /><trkpt lat="22.44425978125" lon="114.04226479638672" /><trkpt lat="22.44429178125" lon="114.04169279638671" /><trkpt lat="22.44424178125" lon="114.04137279638672" /><trkpt lat="22.44418978125" lon="114.04140379638672" /><trkpt lat="22.44416278125" lon="114.04096379638672" /><trkpt lat="22.44408678125" lon="114.04055479638671" /><trkpt lat="22.44402678125" lon="114.04019279638672" /><trkpt lat="22.44404878125" lon="114.04004379638671" /><trkpt lat="22.44409078125" lon="114.03995579638672" /><trkpt lat="22.44416478125" lon="114.03965579638673" /><trkpt lat="22.444167781250002" lon="114.03934879638672" /><trkpt lat="22.44416578125" lon="114.03920179638672" /><trkpt lat="22.44413678125" lon="114.03896179638672" /><trkpt lat="22.44413278125" lon="114.03882779638671" /><trkpt lat="22.44418878125" lon="114.03832679638671" /><trkpt lat="22.44421678125" lon="114.03778979638672" /><trkpt lat="22.44418478125" lon="114.03767779638672" /><trkpt lat="22.44407478125" lon="114.03749379638671" /><trkpt lat="22.44404078125" lon="114.03744479638672" /><trkpt lat="22.44398178125" lon="114.03730679638672" /><trkpt lat="22.44392878125" lon="114.03718479638673" /><trkpt lat="22.44387478125" lon="114.03710279638672" /><trkpt lat="22.44379978125" lon="114.03705479638671" /><trkpt lat="22.44383378125" lon="114.03701279638672" /><trkpt lat="22.44388178125" lon="114.03695279638671" /><trkpt lat="22.44393478125" lon="114.03689079638671" /><trkpt lat="22.44414278125" lon="114.03689479638672" /><trkpt lat="22.44417378125" lon="114.03689679638671" /><trkpt lat="22.44416878125" lon="114.03594479638672" /><trkpt lat="22.44415578125" lon="114.03572779638672" /><trkpt lat="22.44427078125" lon="114.03550779638672" /><trkpt lat="22.44424578125" lon="114.03543379638671" /><trkpt lat="22.44426578125" lon="114.03541379638672" /><trkpt lat="22.44427878125" lon="114.03538379638672" /><trkpt lat="22.44430078125" lon="114.03522679638672" /><trkpt lat="22.44433478125" lon="114.03500679638672" /><trkpt lat="22.444337767980134" lon="114.03473740692132" /></trkseg></trk></gpx>