<?xml version='1.0' encoding='UTF-8' ?><gpx version="1.1" creator="HikingTrailHK" xsi:schemaLocation="http://www.topografix.com/GPX/1/1 http://www.topografix.com/GPX/1/1/gpx.xsd" xmlns="http://www.topografix.com/GPX/1/1" xmlns:xsi="http://www.w3.org/2001/XMLSchema-instance"><metadata><name>九龍東石礦場 @ 2017-1-22</name><desc></desc></metadata><trk><trkseg><trkpt lat="22.29677978125" lon="114.23761879638671" /><trkpt lat="22.29670478125" lon="114.23767979638671" /><trkpt lat="22.29644878125" lon="114.23786079638671" /><trkpt lat="22.29612978125" lon="114.23805679638672" /><trkpt lat="22.29598078125" lon="114.23812079638672" /><trkpt lat="22.29579678125" lon="114.23814179638671" /><trkpt lat="22.29568178125" lon="114.23814179638671" /><trkpt lat="22.29558178125" lon="114.23812079638672" /><trkpt lat="22.29549178125" lon="114.23810179638672" /><trkpt lat="22.29511378125" lon="114.23800579638672" /><trkpt lat="22.29455878125" lon="114.23785779638672" /><trkpt lat="22.29444778125" lon="114.23784679638672" /><trkpt lat="22.29435578125" lon="114.23784779638672" /><trkpt lat="22.29423978125" lon="114.23788179638672" /><trkpt lat="22.29408078125" lon="114.23795879638672" /><trkpt lat="22.29377278125" lon="114.23809679638671" /><trkpt lat="22.293782781250002" lon="114.23826279638672" /><trkpt lat="22.29368278125" lon="114.23814679638672" /><trkpt lat="22.29322478125" lon="114.23838179638672" /><trkpt lat="22.29316278125" lon="114.23839579638671" /><trkpt lat="22.29311878125" lon="114.23839179638672" /><trkpt lat="22.29307978125" lon="114.23838279638672" /><trkpt lat="22.29302678125" lon="114.23834779638672" /><trkpt lat="22.29280378125" lon="114.23811879638671" /><trkpt lat="22.29270478125" lon="114.23810079638672" /><trkpt lat="22.29265978125" lon="114.23812079638672" /><trkpt lat="22.29234178125" lon="114.23844079638671" /><trkpt lat="22.29229678125" lon="114.23855579638672" /><trkpt lat="22.29239878125" lon="114.23867779638672" /><trkpt lat="22.29258978125" lon="114.23889379638672" /><trkpt lat="22.29264178125" lon="114.23901779638672" /><trkpt lat="22.29248878125" lon="114.23903679638671" /><trkpt lat="22.29194378125" lon="114.23892379638671" /><trkpt lat="22.29153078125" lon="114.23881979638672" /><trkpt lat="22.29105978125" lon="114.23861179638672" /><trkpt lat="22.29049578125" lon="114.23838479638673" /><trkpt lat="22.29052378125" lon="114.23828579638672" /><trkpt lat="22.29031378125" lon="114.23814879638672" /><trkpt lat="22.29022978125" lon="114.23811179638672" /><trkpt lat="22.29002678125" lon="114.23802379638671" /><trkpt lat="22.28978078125" lon="114.23781479638671" /><trkpt lat="22.28963778125" lon="114.23767879638672" /><trkpt lat="22.28938878125" lon="114.23755379638672" /><trkpt lat="22.28912178125" lon="114.23741179638672" /><trkpt lat="22.28887478125" lon="114.23729279638673" /><trkpt lat="22.28867078125" lon="114.23703879638671" /><trkpt lat="22.28857578125" lon="114.23697579638672" /><trkpt lat="22.28850578125" lon="114.23697179638671" /><trkpt lat="22.28835178125" lon="114.23712079638672" /><trkpt lat="22.28831278125" lon="114.23716679638672" /><trkpt lat="22.28817678125" lon="114.23731579638672" /><trkpt lat="22.28780378125" lon="114.23779379638673" /><trkpt lat="22.28746978125" lon="114.23827479638672" /><trkpt lat="22.28739378125" lon="114.23833879638671" /><trkpt lat="22.28731778125" lon="114.23837079638672" /><trkpt lat="22.28712078125" lon="114.23857779638672" /><trkpt lat="22.28698678125" lon="114.23874479638671" /><trkpt lat="22.28673978125" lon="114.23933579638671" /><trkpt lat="22.28667178125" lon="114.23937479638671" /><trkpt lat="22.28661778125" lon="114.23952779638672" /><trkpt lat="22.28657678125" lon="114.23966579638672" /><trkpt lat="22.28643978125" lon="114.23967079638672" /><trkpt lat="22.28640278125" lon="114.23967179638672" /><trkpt lat="22.28632378125" lon="114.23973079638672" /><trkpt lat="22.28632678125" lon="114.23977479638671" /><trkpt lat="22.28631978125" lon="114.23983579638671" /><trkpt lat="22.28630578125" lon="114.23992079638671" /><trkpt lat="22.28629778125" lon="114.24006579638672" /><trkpt lat="22.28632178125" lon="114.24024379638672" /><trkpt lat="22.28631078125" lon="114.24032079638671" /><trkpt lat="22.28652078125" lon="114.24036779638672" /><trkpt lat="22.28649178125" lon="114.24062379638671" /><trkpt lat="22.28639878125" lon="114.24095179638672" /><trkpt lat="22.28621478125" lon="114.24090379638672" /><trkpt lat="22.28610178125" lon="114.24122779638672" /><trkpt lat="22.28607078125" lon="114.24129579638672" /><trkpt lat="22.28604478125" lon="114.24139879638672" /><trkpt lat="22.28604778125" lon="114.24151179638672" /><trkpt lat="22.28602678125" lon="114.24164679638672" /><trkpt lat="22.28600178125" lon="114.24182679638672" /><trkpt lat="22.28593478125" lon="114.24188579638673" /><trkpt lat="22.28597278125" lon="114.24196279638672" /><trkpt lat="22.28593478125" lon="114.24202179638672" /><trkpt lat="22.28592978125" lon="114.24221279638672" /><trkpt lat="22.28586578125" lon="114.24241279638672" /><trkpt lat="22.28577678125" lon="114.24260579638671" /><trkpt lat="22.28588578125" lon="114.24269179638672" /><trkpt lat="22.28606378125" lon="114.24282079638672" /><trkpt lat="22.28623278125" lon="114.24293779638671" /><trkpt lat="22.28619478125" lon="114.24317179638672" /><trkpt lat="22.28610578125" lon="114.24326779638672" /><trkpt lat="22.285918078230566" lon="114.24331709757455" /><trkpt lat="22.28588064194966" lon="114.24316941367935" /><trkpt lat="22.28587567823641" lon="114.24279416340498" /><trkpt lat="22.285867886684684" lon="114.24278832848715" /><trkpt lat="22.285853712348924" lon="114.24278373841291" /><trkpt lat="22.28584298146751" lon="114.24277750600952" /><trkpt lat="22.285828339357252" lon="114.2427616818931" /><trkpt lat="22.285818333156953" lon="114.24275383368142" /><trkpt lat="22.285806186232335" lon="114.24272359825765" /><trkpt lat="22.28580122251644" lon="114.24271830980062" /><trkpt lat="22.28580122251644" lon="114.24270018950112" /><trkpt lat="22.28579625880036" lon="114.24270555391915" /><trkpt lat="22.285833446066743" lon="114.24265050438608" /><trkpt lat="22.28577678125" lon="114.24260579638671" /><trkpt lat="22.28586578125" lon="114.24241279638672" /><trkpt lat="22.28592978125" lon="114.24221279638672" /><trkpt lat="22.28593478125" lon="114.24202179638672" /><trkpt lat="22.28597278125" lon="114.24196279638672" /><trkpt lat="22.28593478125" lon="114.24188579638673" /><trkpt lat="22.28600178125" lon="114.24182679638672" /><trkpt lat="22.28602678125" lon="114.24164679638672" /><trkpt lat="22.28604778125" lon="114.24151179638672" /><trkpt lat="22.28604478125" lon="114.24139879638672" /><trkpt lat="22.28607078125" lon="114.24129579638672" /><trkpt lat="22.28610178125" lon="114.24122779638672" /><trkpt lat="22.28621478125" lon="114.24090379638672" /><trkpt lat="22.28639878125" lon="114.24095179638672" /><trkpt lat="22.28649178125" lon="114.24062379638671" /><trkpt lat="22.28652078125" lon="114.24036779638672" /><trkpt lat="22.28631078125" lon="114.24032079638671" /><trkpt lat="22.28632178125" lon="114.24024379638672" /><trkpt lat="22.28629778125" lon="114.24006579638672" /><trkpt lat="22.28630578125" lon="114.23992079638671" /><trkpt lat="22.28631978125" lon="114.23983579638671" /><trkpt lat="22.28632678125" lon="114.23977479638671" /><trkpt lat="22.28632378125" lon="114.23973079638672" /><trkpt lat="22.28640278125" lon="114.23967179638672" /><trkpt lat="22.28643978125" lon="114.23967079638672" /><trkpt lat="22.28657678125" lon="114.23966579638672" /><trkpt lat="22.28661778125" lon="114.23952779638672" /><trkpt lat="22.28667178125" lon="114.23937479638671" /><trkpt lat="22.28673978125" lon="114.23933579638671" /><trkpt lat="22.28698678125" lon="114.23874479638671" /><trkpt lat="22.28712078125" lon="114.23857779638672" /><trkpt lat="22.28731778125" lon="114.23837079638672" /><trkpt lat="22.28739378125" lon="114.23833879638671" /><trkpt lat="22.28746978125" lon="114.23827479638672" /><trkpt lat="22.28780378125" lon="114.23779379638673" /><trkpt lat="22.28817678125" lon="114.23731579638672" /><trkpt lat="22.28831278125" lon="114.23716679638672" /><trkpt lat="22.28835178125" lon="114.23712079638672" /><trkpt lat="22.28850578125" lon="114.23697179638671" /><trkpt lat="22.28857578125" lon="114.23697579638672" /><trkpt lat="22.28867078125" lon="114.23703879638671" /><trkpt lat="22.28887478125" lon="114.23729279638673" /><trkpt lat="22.28912178125" lon="114.23741179638672" /><trkpt lat="22.28938878125" lon="114.23755379638672" /><trkpt lat="22.28963778125" lon="114.23767879638672" /><trkpt lat="22.28978078125" lon="114.23781479638671" /><trkpt lat="22.29002678125" lon="114.23802379638671" /><trkpt lat="22.29022978125" lon="114.23811179638672" /><trkpt lat="22.29031378125" lon="114.23814879638672" /><trkpt lat="22.29052378125" lon="114.23828579638672" /><trkpt lat="22.29049578125" lon="114.23838479638673" /><trkpt lat="22.29105978125" lon="114.23861179638672" /><trkpt lat="22.29153078125" lon="114.23881979638672" /><trkpt lat="22.29194378125" lon="114.23892379638671" /><trkpt lat="22.29248878125" lon="114.23903679638671" /><trkpt lat="22.29264178125" lon="114.23901779638672" /><trkpt lat="22.29258978125" lon="114.23889379638672" /><trkpt lat="22.29239878125" lon="114.23867779638672" /><trkpt lat="22.29229678125" lon="114.23855579638672" /><trkpt lat="22.29234178125" lon="114.23844079638671" /><trkpt lat="22.29265978125" lon="114.23812079638672" /><trkpt lat="22.29270478125" lon="114.23810079638672" /><trkpt lat="22.29280378125" lon="114.23811879638671" /><trkpt lat="22.29302678125" lon="114.23834779638672" /><trkpt lat="22.29307978125" lon="114.23838279638672" /><trkpt lat="22.29311878125" lon="114.23839179638672" /><trkpt lat="22.29316278125" lon="114.23839579638671" /><trkpt lat="22.29322478125" lon="114.23838179638672" /><trkpt lat="22.29368278125" lon="114.23814679638672" /><trkpt lat="22.29377278125" lon="114.23809679638671" /><trkpt lat="22.29408078125" lon="114.23795879638672" /><trkpt lat="22.29423978125" lon="114.23788179638672" /><trkpt lat="22.29435578125" lon="114.23784779638672" /><trkpt lat="22.29444778125" lon="114.23784679638672" /><trkpt lat="22.29455878125" lon="114.23785779638672" /><trkpt lat="22.29511378125" lon="114.23800579638672" /><trkpt lat="22.29549178125" lon="114.23810179638672" /><trkpt lat="22.29558178125" lon="114.23812079638672" /><trkpt lat="22.29568178125" lon="114.23814179638671" /><trkpt lat="22.29579678125" lon="114.23814179638671" /><trkpt lat="22.29598078125" lon="114.23812079638672" /><trkpt lat="22.29612978125" lon="114.23805679638672" /><trkpt lat="22.29644878125" lon="114.23786079638671" /><trkpt lat="22.29670478125" lon="114.23767979638671" /><trkpt lat="22.29677978125" lon="114.23761879638671" /></trkseg><trkseg><trkpt lat="22.305907566636794" lon="114.23303057216172" /><trkpt lat="22.30621178125" lon="114.23272379638672" /><trkpt lat="22.30661678125" lon="114.23228879638671" /><trkpt lat="22.30678178125" lon="114.23208479638672" /><trkpt lat="22.30693778125" lon="114.23186179638672" /><trkpt lat="22.30701978125" lon="114.23172079638672" /><trkpt lat="22.30710578125" lon="114.23150279638672" /><trkpt lat="22.30701078125" lon="114.23142779638673" /><trkpt lat="22.30695278125" lon="114.23136279638672" /><trkpt lat="22.30697178125" lon="114.23116079638672" /><trkpt lat="22.30703078125" lon="114.23109479638671" /><trkpt lat="22.30716678125" lon="114.23101479638672" /><trkpt lat="22.30715878125" lon="114.23085179638672" /><trkpt lat="22.30712678125" lon="114.23070379638672" /><trkpt lat="22.30704278125" lon="114.23056579638671" /><trkpt lat="22.30699578125" lon="114.23051679638672" /><trkpt lat="22.30688978125" lon="114.23044479638672" /><trkpt lat="22.30672578125" lon="114.23040579638672" /><trkpt lat="22.30657778125" lon="114.23042079638672" /><trkpt lat="22.30638778125" lon="114.23044879638672" /><trkpt lat="22.30593978125" lon="114.23052179638672" /><trkpt lat="22.30573578125" lon="114.23052479638672" /><trkpt lat="22.30556578125" lon="114.23048879638672" /><trkpt lat="22.30542178125" lon="114.23039779638673" /><trkpt lat="22.30530778125" lon="114.23027879638671" /><trkpt lat="22.30525278125" lon="114.23019079638672" /><trkpt lat="22.30521978125" lon="114.23012779638672" /><trkpt lat="22.30518578125" lon="114.23002579638671" /><trkpt lat="22.30516378125" lon="114.22994279638672" /><trkpt lat="22.30515478125" lon="114.22975579638671" /><trkpt lat="22.30516578125" lon="114.22959179638671" /><trkpt lat="22.30523578125" lon="114.22940379638672" /><trkpt lat="22.30400778125" lon="114.22766679638671" /><trkpt lat="22.30394578125" lon="114.22752379638672" /><trkpt lat="22.30286578125" lon="114.22755579638672" /><trkpt lat="22.30286278125" lon="114.22775879638672" /><trkpt lat="22.30277478125" lon="114.22776979638672" /><trkpt lat="22.30267978125" lon="114.22763479638672" /><trkpt lat="22.30250878125" lon="114.22764779638672" /><trkpt lat="22.30250778125" lon="114.22759679638672" /><trkpt lat="22.30250878125" lon="114.22741579638672" /><trkpt lat="22.30249878125" lon="114.22727079638672" /><trkpt lat="22.30238378125" lon="114.22735879638672" /><trkpt lat="22.30231078125" lon="114.22749579638672" /><trkpt lat="22.30199378125" lon="114.22769579638671" /><trkpt lat="22.30152278125" lon="114.22809979638672" /><trkpt lat="22.30141978125" lon="114.22821579638672" /><trkpt lat="22.30143978125" lon="114.22824479638672" /><trkpt lat="22.30113478125" lon="114.22847179638671" /><trkpt lat="22.30080778125" lon="114.22853779638672" /><trkpt lat="22.30081978125" lon="114.22863579638671" /><trkpt lat="22.30065378125" lon="114.22869879638672" /><trkpt lat="22.30062178125" lon="114.22873279638672" /><trkpt lat="22.30039708263763" lon="114.22877361416212" /><trkpt lat="22.30048278125" lon="114.22899579638671" /><trkpt lat="22.30048278125" lon="114.22912179638672" /><trkpt lat="22.30055678125" lon="114.22939679638672" /><trkpt lat="22.30063078125" lon="114.22947979638671" /><trkpt lat="22.30063678125" lon="114.22951979638673" /><trkpt lat="22.30066778125" lon="114.22953479638672" /><trkpt lat="22.30071878125" lon="114.22953179638672" /><trkpt lat="22.30080978125" lon="114.22958779638672" /><trkpt lat="22.30087578125" lon="114.22954079638671" /><trkpt lat="22.300943781249998" lon="114.22943979638671" /><trkpt lat="22.30101278125" lon="114.22937779638671" /><trkpt lat="22.30101278125" lon="114.22920179638672" /><trkpt lat="22.30105178125" lon="114.22914579638672" /><trkpt lat="22.30108078125" lon="114.22923579638672" /><trkpt lat="22.30118978125" lon="114.22926079638673" /><trkpt lat="22.30138078125" lon="114.22926979638672" /><trkpt lat="22.30144878125" lon="114.22927279638672" /><trkpt lat="22.30155378125" lon="114.22921779638672" /><trkpt lat="22.30163978125" lon="114.22918979638672" /><trkpt lat="22.30173078125" lon="114.22914379638672" /><trkpt lat="22.30182778125" lon="114.22912779638672" /><trkpt lat="22.30189078125" lon="114.22910379638672" /><trkpt lat="22.30193078125" lon="114.22905079638672" /><trkpt lat="22.30199278125" lon="114.22902079638672" /><trkpt lat="22.30210978125" lon="114.22904479638672" /><trkpt lat="22.30236378125" lon="114.22926079638673" /><trkpt lat="22.30245178125" lon="114.22928279638671" /><trkpt lat="22.30247778125" lon="114.22938379638671" /><trkpt lat="22.30258378125" lon="114.22943679638672" /><trkpt lat="22.30266278125" lon="114.22950379638672" /><trkpt lat="22.30277178125" lon="114.22951679638672" /><trkpt lat="22.30289078125" lon="114.22962079638671" /><trkpt lat="22.30300278125" lon="114.22969479638672" /><trkpt lat="22.30308478125" lon="114.22983379638671" /><trkpt lat="22.30322178125" lon="114.22982179638672" /><trkpt lat="22.30331278125" lon="114.22985279638672" /><trkpt lat="22.30338878125" lon="114.23007579638671" /><trkpt lat="22.30333678125" lon="114.23017379638672" /><trkpt lat="22.30319878125" lon="114.23024379638672" /><trkpt lat="22.30309978125" lon="114.23021979638672" /><trkpt lat="22.30295278125" lon="114.23047279638672" /><trkpt lat="22.30278378125" lon="114.23057979638672" /><trkpt lat="22.30274078125" lon="114.23064979638671" /><trkpt lat="22.30264178125" lon="114.23066879638672" /><trkpt lat="22.30266278125" lon="114.23087379638672" /><trkpt lat="22.30271478125" lon="114.23094879638671" /><trkpt lat="22.30278378125" lon="114.23099579638672" /><trkpt lat="22.30296078125" lon="114.23116779638671" /><trkpt lat="22.30309478125" lon="114.23161179638672" /><trkpt lat="22.30324178125" lon="114.23212079638672" /><trkpt lat="22.30337978125" lon="114.23233579638672" /><trkpt lat="22.30345378125" lon="114.23321379638672" /><trkpt lat="22.30341478125" lon="114.23339579638672" /><trkpt lat="22.30348378125" lon="114.23384879638672" /><trkpt lat="22.30355278125" lon="114.23406879638672" /><trkpt lat="22.30335478125" lon="114.23461479638672" /><trkpt lat="22.30332378125" lon="114.23473579638672" /><trkpt lat="22.30338478125" lon="114.23485779638672" /><trkpt lat="22.30345178125" lon="114.23491179638673" /><trkpt lat="22.303676437117133" lon="114.2347581925914" /><trkpt lat="22.303746984400803" lon="114.23467925798279" /><trkpt lat="22.30381578125" lon="114.23462679638672" /><trkpt lat="22.30418078125" lon="114.23434179638672" /><trkpt lat="22.30447278125" lon="114.23419179638672" /><trkpt lat="22.30461078125" lon="114.23415279638672" /><trkpt lat="22.30482478125" lon="114.23401379638672" /><trkpt lat="22.30513878125" lon="114.23377779638672" /><trkpt lat="22.30537978125" lon="114.23356279638672" /><trkpt lat="22.30621178125" lon="114.23272379638672" /><trkpt lat="22.30661678125" lon="114.23228879638671" /><trkpt lat="22.30678178125" lon="114.23208479638672" /><trkpt lat="22.30693778125" lon="114.23186179638672" /><trkpt lat="22.30694111104673" lon="114.23185607076795" /></trkseg></trk></gpx>