<?xml version='1.0' encoding='UTF-8' ?><gpx version="1.1" creator="HikingTrailHK" xsi:schemaLocation="http://www.topografix.com/GPX/1/1 http://www.topografix.com/GPX/1/1/gpx.xsd https://hikingtrailhk.appspot.com/xml/gpxextensions/v1 https://hikingtrailhk.appspot.com/xml/gpxextensions/v1/gpxextensions.xsd" xmlns="http://www.topografix.com/GPX/1/1" xmlns:h="https://hikingtrailhk.appspot.com/xml/gpxextensions/v1" xmlns:xsi="http://www.w3.org/2001/XMLSchema-instance"><metadata><name>九龍坑山 @ 2016-6-26</name><desc></desc><extensions><h:categoryid>scenery_route</h:categoryid></extensions></metadata><trk><trkseg><trkpt lat="22.45062848071483" lon="114.16078572352757" /><trkpt lat="22.45065378125" lon="114.16076379638672" /><trkpt lat="22.45069578125" lon="114.16072779638672" /><trkpt lat="22.45073478125" lon="114.16069379638672" /><trkpt lat="22.45081078125" lon="114.16062979638671" /><trkpt lat="22.45083578125" lon="114.16061079638672" /><trkpt lat="22.45106778125" lon="114.16039679638672" /><trkpt lat="22.45114078125" lon="114.16033879638672" /><trkpt lat="22.45114878125" lon="114.16028279638672" /><trkpt lat="22.45115978125" lon="114.16023879638672" /><trkpt lat="22.45133778125" lon="114.16020279638671" /><trkpt lat="22.45144678125" lon="114.16019379638672" /><trkpt lat="22.45150878125" lon="114.16016679638672" /><trkpt lat="22.45160778125" lon="114.16010879638672" /><trkpt lat="22.45172978125" lon="114.15999679638672" /><trkpt lat="22.45175778125" lon="114.15996779638672" /><trkpt lat="22.45179078125" lon="114.15989679638672" /><trkpt lat="22.45182578125" lon="114.15982179638672" /><trkpt lat="22.45197478125" lon="114.15934679638671" /><trkpt lat="22.45199178125" lon="114.15929179638673" /><trkpt lat="22.45201878125" lon="114.15919779638672" /><trkpt lat="22.45210578125" lon="114.15891579638672" /><trkpt lat="22.45210978125" lon="114.15886079638672" /><trkpt lat="22.45210278125" lon="114.15882579638672" /><trkpt lat="22.45208678125" lon="114.15880279638672" /><trkpt lat="22.45208978125" lon="114.15875379638672" /><trkpt lat="22.45210478125" lon="114.15871579638672" /><trkpt lat="22.45207678125" lon="114.15869579638672" /><trkpt lat="22.45210278125" lon="114.15864179638672" /><trkpt lat="22.45212178125" lon="114.15861079638672" /><trkpt lat="22.45219278125" lon="114.15858479638672" /><trkpt lat="22.45224078125" lon="114.15856679638672" /><trkpt lat="22.45233278125" lon="114.15860279638672" /><trkpt lat="22.45242578125" lon="114.15863079638672" /><trkpt lat="22.45245278125" lon="114.15865979638671" /><trkpt lat="22.45249578125" lon="114.15870479638671" /><trkpt lat="22.45253278125" lon="114.15874079638672" /><trkpt lat="22.45265278125" lon="114.15880879638672" /><trkpt lat="22.45285278125" lon="114.15893579638671" /><trkpt lat="22.45291778125" lon="114.15898079638671" /><trkpt lat="22.45296478125" lon="114.15901579638673" /><trkpt lat="22.45304378125" lon="114.15908179638672" /><trkpt lat="22.45308078125" lon="114.15911479638672" /><trkpt lat="22.453151179259955" lon="114.15914264391158" /><trkpt lat="22.45338878125" lon="114.15882879638671" /><trkpt lat="22.45338078125" lon="114.15872779638671" /><trkpt lat="22.45371878125" lon="114.15773879638672" /><trkpt lat="22.45376678125" lon="114.15761079638672" /><trkpt lat="22.45381578125" lon="114.15752679638672" /><trkpt lat="22.45385478125" lon="114.15747879638671" /><trkpt lat="22.45398678125" lon="114.15739379638671" /><trkpt lat="22.45407578125" lon="114.15737579638672" /><trkpt lat="22.45415778125" lon="114.15738279638671" /><trkpt lat="22.45423678125" lon="114.15741479638672" /><trkpt lat="22.45431478125" lon="114.15745479638672" /><trkpt lat="22.45493278125" lon="114.15787779638671" /><trkpt lat="22.45528878125" lon="114.15812179638672" /><trkpt lat="22.45547978125" lon="114.15825279638672" /><trkpt lat="22.45565778125" lon="114.15839579638671" /><trkpt lat="22.45581678125" lon="114.15850179638672" /><trkpt lat="22.45589078125" lon="114.15859879638671" /><trkpt lat="22.45593678125" lon="114.15868979638672" /><trkpt lat="22.45596178125" lon="114.15874079638672" /><trkpt lat="22.45598478125" lon="114.15881179638671" /><trkpt lat="22.45599078125" lon="114.15886979638672" /><trkpt lat="22.45612078125" lon="114.15884379638672" /><trkpt lat="22.45618978125" lon="114.15882979638671" /><trkpt lat="22.45621878125" lon="114.15882179638672" /><trkpt lat="22.45642778125" lon="114.15878279638672" /><trkpt lat="22.45658178125" lon="114.15875679638673" /><trkpt lat="22.45663178125" lon="114.15873879638671" /><trkpt lat="22.45671178125" lon="114.15871979638672" /><trkpt lat="22.45673278125" lon="114.15880379638672" /><trkpt lat="22.45673378125" lon="114.15889679638671" /><trkpt lat="22.45673278125" lon="114.15896079638672" /><trkpt lat="22.45676078125" lon="114.15901679638672" /><trkpt lat="22.45677278125" lon="114.15903179638671" /><trkpt lat="22.45680078125" lon="114.15906679638672" /><trkpt lat="22.45683878125" lon="114.15908879638671" /><trkpt lat="22.45688278125" lon="114.15906579638671" /><trkpt lat="22.45692978125" lon="114.15903579638672" /><trkpt lat="22.45701078125" lon="114.15899779638671" /><trkpt lat="22.45705178125" lon="114.15897079638673" /><trkpt lat="22.45711178125" lon="114.15894779638671" /><trkpt lat="22.45717378125" lon="114.15893479638672" /><trkpt lat="22.45722078125" lon="114.15892979638672" /><trkpt lat="22.45723778125" lon="114.15900179638672" /><trkpt lat="22.45727978125" lon="114.15903279638673" /><trkpt lat="22.45734978125" lon="114.15906879638672" /><trkpt lat="22.45740878125" lon="114.15907979638672" /><trkpt lat="22.45744278125" lon="114.15910079638672" /><trkpt lat="22.45749078125" lon="114.15912879638672" /><trkpt lat="22.45754878125" lon="114.15913079638672" /><trkpt lat="22.45758178125" lon="114.15912579638672" /><trkpt lat="22.45773178125" lon="114.15909979638671" /><trkpt lat="22.45779278125" lon="114.15906979638672" /><trkpt lat="22.45782178125" lon="114.15905179638672" /><trkpt lat="22.45784878125" lon="114.15903179638671" /><trkpt lat="22.45789478125" lon="114.15897679638672" /><trkpt lat="22.45793978125" lon="114.15903079638672" /><trkpt lat="22.45795378125" lon="114.15907079638671" /><trkpt lat="22.45794278125" lon="114.15911679638671" /><trkpt lat="22.45793878125" lon="114.15915779638672" /><trkpt lat="22.45796478125" lon="114.15918279638672" /><trkpt lat="22.45800878125" lon="114.15920379638672" /><trkpt lat="22.45803378125" lon="114.15923879638672" /><trkpt lat="22.45805378125" lon="114.15928379638672" /><trkpt lat="22.45807478125" lon="114.15932479638671" /><trkpt lat="22.45808778125" lon="114.15933579638671" /><trkpt lat="22.45809878125" lon="114.15935379638672" /><trkpt lat="22.45811078125" lon="114.15939779638671" /><trkpt lat="22.45812178125" lon="114.15941279638672" /><trkpt lat="22.45814878125" lon="114.15943779638671" /><trkpt lat="22.45819778125" lon="114.15944779638671" /><trkpt lat="22.45836478125" lon="114.15944879638671" /><trkpt lat="22.45838278125" lon="114.15945079638672" /><trkpt lat="22.45843378125" lon="114.15948279638671" /><trkpt lat="22.45845678125" lon="114.15950179638672" /><trkpt lat="22.45849778125" lon="114.15952979638672" /><trkpt lat="22.45857178125" lon="114.15951779638672" /><trkpt lat="22.45875078125" lon="114.15947279638672" /><trkpt lat="22.45880478125" lon="114.15942479638672" /><trkpt lat="22.45888478125" lon="114.15939079638672" /><trkpt lat="22.45902778125" lon="114.15931079638672" /><trkpt lat="22.45906478125" lon="114.15926179638672" /><trkpt lat="22.45917178125" lon="114.15922679638672" /><trkpt lat="22.45919578125" lon="114.15917579638672" /><trkpt lat="22.45924178125" lon="114.15911579638671" /><trkpt lat="22.45930678125" lon="114.15906179638672" /><trkpt lat="22.45940478125" lon="114.15903579638672" /><trkpt lat="22.45943478125" lon="114.15901079638672" /><trkpt lat="22.45951378125" lon="114.15893979638672" /><trkpt lat="22.45958878125" lon="114.15895979638672" /><trkpt lat="22.45957878125" lon="114.15900879638671" /><trkpt lat="22.45966278125" lon="114.15905879638672" /><trkpt lat="22.45974978125" lon="114.15910279638672" /><trkpt lat="22.45987978125" lon="114.15916879638672" /><trkpt lat="22.45991978125" lon="114.15917379638672" /><trkpt lat="22.45996078125" lon="114.15918679638672" /><trkpt lat="22.46000078125" lon="114.15920679638671" /><trkpt lat="22.46004078125" lon="114.15921479638672" /><trkpt lat="22.46009578125" lon="114.15920579638671" /><trkpt lat="22.46015078125" lon="114.15918479638673" /><trkpt lat="22.46020678125" lon="114.15916379638672" /><trkpt lat="22.46023378125" lon="114.15915479638672" /><trkpt lat="22.46025978125" lon="114.15913679638672" /><trkpt lat="22.46034078125" lon="114.15911279638672" /><trkpt lat="22.46040978125" lon="114.15911079638671" /><trkpt lat="22.46046178125" lon="114.15913679638672" /><trkpt lat="22.46048478125" lon="114.15914979638671" /><trkpt lat="22.46049678125" lon="114.15917879638671" /><trkpt lat="22.46053778125" lon="114.15924379638672" /><trkpt lat="22.46064078125" lon="114.15934379638672" /><trkpt lat="22.46069078125" lon="114.15940679638672" /><trkpt lat="22.46078878125" lon="114.15948779638671" /><trkpt lat="22.46086278125" lon="114.15952079638672" /><trkpt lat="22.46091978125" lon="114.15955479638671" /><trkpt lat="22.46093678125" lon="114.15956979638672" /><trkpt lat="22.46094678125" lon="114.15958979638671" /><trkpt lat="22.46104678125" lon="114.15967579638672" /><trkpt lat="22.46111878125" lon="114.15975279638671" /><trkpt lat="22.46122478125" lon="114.15981479638671" /><trkpt lat="22.46132778125" lon="114.15981679638672" /><trkpt lat="22.46138778125" lon="114.15982179638672" /><trkpt lat="22.46142778125" lon="114.15981679638672" /><trkpt lat="22.46146178125" lon="114.15980579638672" /><trkpt lat="22.46149578125" lon="114.15979479638672" /><trkpt lat="22.46156278125" lon="114.15980579638672" /><trkpt lat="22.46166278125" lon="114.15984379638672" /><trkpt lat="22.46174478125" lon="114.15989879638671" /><trkpt lat="22.46181678125" lon="114.15996279638672" /><trkpt lat="22.46189178125" lon="114.16000979638672" /><trkpt lat="22.46193478125" lon="114.16004879638672" /><trkpt lat="22.46199378125" lon="114.16011479638672" /><trkpt lat="22.46204878125" lon="114.16018679638672" /><trkpt lat="22.46208378125" lon="114.16024479638672" /><trkpt lat="22.46209678125" lon="114.16028079638671" /><trkpt lat="22.46209878125" lon="114.16029479638672" /><trkpt lat="22.46205878125" lon="114.16040379638672" /><trkpt lat="22.46203878125" lon="114.16054479638672" /><trkpt lat="22.46200278125" lon="114.16066579638672" /><trkpt lat="22.46194678125" lon="114.16077079638671" /><trkpt lat="22.46191778125" lon="114.16080879638672" /><trkpt lat="22.46188778125" lon="114.16084679638672" /><trkpt lat="22.46185278125" lon="114.16088379638671" /><trkpt lat="22.46182978125" lon="114.16091679638672" /><trkpt lat="22.46181178125" lon="114.16110979638673" /><trkpt lat="22.46177278125" lon="114.16129379638672" /><trkpt lat="22.46176878125" lon="114.16135879638672" /><trkpt lat="22.46177178125" lon="114.16142079638672" /><trkpt lat="22.461876781249998" lon="114.16169179638672" /><trkpt lat="22.46196478125" lon="114.16190879638671" /><trkpt lat="22.46197578125" lon="114.16200479638673" /><trkpt lat="22.46209178125" lon="114.16209179638672" /><trkpt lat="22.46216378125" lon="114.16217079638672" /><trkpt lat="22.46220378125" lon="114.16226579638672" /><trkpt lat="22.46224978125" lon="114.16244779638672" /><trkpt lat="22.46228378125" lon="114.16261979638672" /><trkpt lat="22.46230678125" lon="114.16270879638672" /><trkpt lat="22.46233378125" lon="114.16277879638672" /><trkpt lat="22.46236678125" lon="114.16282579638671" /><trkpt lat="22.46242478125" lon="114.16284179638672" /><trkpt lat="22.46251578125" lon="114.16285679638672" /><trkpt lat="22.46271178125" lon="114.16285479638672" /><trkpt lat="22.46275678125" lon="114.16284879638673" /><trkpt lat="22.46287878125" lon="114.16282979638672" /><trkpt lat="22.46291078125" lon="114.16280279638671" /><trkpt lat="22.46294378125" lon="114.16280079638672" /><trkpt lat="22.46299078125" lon="114.16284479638672" /><trkpt lat="22.46301378125" lon="114.16285679638672" /><trkpt lat="22.46308878125" lon="114.16283579638672" /><trkpt lat="22.46316178125" lon="114.16282679638672" /><trkpt lat="22.46319778125" lon="114.16283279638672" /><trkpt lat="22.46322278125" lon="114.16284079638672" /><trkpt lat="22.46328178125" lon="114.16287079638671" /><trkpt lat="22.46331078125" lon="114.16287579638671" /><trkpt lat="22.46338278125" lon="114.16286279638672" /><trkpt lat="22.46346478125" lon="114.16286279638672" /><trkpt lat="22.46354378125" lon="114.16284579638672" /><trkpt lat="22.46360678125" lon="114.16282879638672" /><trkpt lat="22.46369978125" lon="114.16282379638672" /><trkpt lat="22.46384978125" lon="114.16282479638672" /><trkpt lat="22.46426478125" lon="114.16278179638672" /><trkpt lat="22.46457178125" lon="114.16279779638671" /><trkpt lat="22.46468178125" lon="114.16281379638671" /><trkpt lat="22.46487178125" lon="114.16290179638672" /><trkpt lat="22.46496378125" lon="114.16299879638672" /><trkpt lat="22.46494878125" lon="114.16306979638672" /><trkpt lat="22.46491678125" lon="114.16325579638672" /><trkpt lat="22.46487278125" lon="114.16354179638672" /><trkpt lat="22.46480978125" lon="114.16366179638672" /><trkpt lat="22.46480978125" lon="114.16378279638671" /><trkpt lat="22.46480478125" lon="114.16383879638671" /><trkpt lat="22.46478678125" lon="114.16412979638672" /><trkpt lat="22.46473978125" lon="114.16435479638672" /><trkpt lat="22.46475478125" lon="114.16463079638672" /><trkpt lat="22.46479978125" lon="114.16476679638671" /><trkpt lat="22.46483278125" lon="114.16481479638672" /><trkpt lat="22.46491378125" lon="114.16498679638671" /><trkpt lat="22.465104781249998" lon="114.16543279638672" /><trkpt lat="22.46538878125" lon="114.16614879638672" /><trkpt lat="22.46548878125" lon="114.16629379638673" /><trkpt lat="22.46552378125" lon="114.16636579638671" /><trkpt lat="22.46555978125" lon="114.16654979638672" /><trkpt lat="22.46562878125" lon="114.16662379638672" /><trkpt lat="22.46574278125" lon="114.16668579638672" /><trkpt lat="22.46584678125" lon="114.16670879638671" /><trkpt lat="22.46600878125" lon="114.16679479638672" /><trkpt lat="22.46618978125" lon="114.16686779638673" /><trkpt lat="22.46630678125" lon="114.16691179638671" /><trkpt lat="22.46635978125" lon="114.16696679638672" /><trkpt lat="22.46638878125" lon="114.16695779638673" /><trkpt lat="22.46646278125" lon="114.16699579638671" /><trkpt lat="22.46655578125" lon="114.16704579638672" /><trkpt lat="22.46666178125" lon="114.16709079638672" /><trkpt lat="22.46671778125" lon="114.16712979638672" /><trkpt lat="22.46677878125" lon="114.16719379638671" /><trkpt lat="22.46687378125" lon="114.16723479638672" /><trkpt lat="22.46693678125" lon="114.16726279638672" /><trkpt lat="22.46697478125" lon="114.16723979638672" /><trkpt lat="22.46701478125" lon="114.16724879638672" /><trkpt lat="22.46705678125" lon="114.16727479638672" /><trkpt lat="22.46708778125" lon="114.16728979638673" /><trkpt lat="22.46712978125" lon="114.16729479638671" /><trkpt lat="22.46718578125" lon="114.16731079638672" /><trkpt lat="22.46721778125" lon="114.16731379638672" /><trkpt lat="22.46725578125" lon="114.16733079638672" /><trkpt lat="22.46732678125" lon="114.16736579638672" /><trkpt lat="22.46735478125" lon="114.16740579638672" /><trkpt lat="22.46739078125" lon="114.16741679638672" /><trkpt lat="22.46744078125" lon="114.16742979638671" /><trkpt lat="22.46752778125" lon="114.16750379638673" /><trkpt lat="22.46757478125" lon="114.16755379638671" /><trkpt lat="22.46762078125" lon="114.16757079638671" /><trkpt lat="22.46766878125" lon="114.16760879638672" /><trkpt lat="22.467703781250002" lon="114.16763779638671" /><trkpt lat="22.46773278125" lon="114.16765079638672" /><trkpt lat="22.46782178125" lon="114.16768179638672" /><trkpt lat="22.46789978125" lon="114.16773979638671" /><trkpt lat="22.46795978125" lon="114.16780679638671" /><trkpt lat="22.46803178125" lon="114.16785879638672" /><trkpt lat="22.46811878125" lon="114.16794279638673" /><trkpt lat="22.46819178125" lon="114.16801879638672" /><trkpt lat="22.46824278125" lon="114.16808579638672" /><trkpt lat="22.46829378125" lon="114.16817579638672" /><trkpt lat="22.46834978125" lon="114.16821179638671" /><trkpt lat="22.46839578125" lon="114.16823179638672" /><trkpt lat="22.46847478125" lon="114.16829379638672" /><trkpt lat="22.46853678125" lon="114.16835179638672" /><trkpt lat="22.46859278125" lon="114.16838779638672" /><trkpt lat="22.46865078125" lon="114.16840279638672" /><trkpt lat="22.46876378125" lon="114.16845179638672" /><trkpt lat="22.46881878125" lon="114.16846579638671" /><trkpt lat="22.46885678125" lon="114.16849379638671" /><trkpt lat="22.46889578125" lon="114.16852779638671" /><trkpt lat="22.46898478125" lon="114.16856279638672" /><trkpt lat="22.46904978125" lon="114.16862879638671" /><trkpt lat="22.46914478125" lon="114.16869379638672" /><trkpt lat="22.46933678125" lon="114.16880679638672" /><trkpt lat="22.46943278125" lon="114.16879479638672" /><trkpt lat="22.46947778125" lon="114.16884979638672" /><trkpt lat="22.46958078125" lon="114.16888979638672" /><trkpt lat="22.46972778125" lon="114.16897679638672" /><trkpt lat="22.46983078125" lon="114.16903279638672" /><trkpt lat="22.46989578125" lon="114.16906979638672" /><trkpt lat="22.47001278125" lon="114.16908079638672" /><trkpt lat="22.47024478125" lon="114.16905779638672" /><trkpt lat="22.47045878125" lon="114.16901779638673" /><trkpt lat="22.47060878125" lon="114.16898279638671" /><trkpt lat="22.47072678125" lon="114.16896679638671" /><trkpt lat="22.47084778125" lon="114.16897179638671" /><trkpt lat="22.47098078125" lon="114.16897779638671" /><trkpt lat="22.47104378125" lon="114.16897779638671" /><trkpt lat="22.47111178125" lon="114.16897479638672" /><trkpt lat="22.47116778125" lon="114.16896179638672" /><trkpt lat="22.47121778125" lon="114.16894279638672" /><trkpt lat="22.47170078125" lon="114.16875879638673" /><trkpt lat="22.47178078125" lon="114.16869079638671" /><trkpt lat="22.47180578125" lon="114.16871779638672" /><trkpt lat="22.47186278125" lon="114.16867379638671" /><trkpt lat="22.47189578125" lon="114.16867179638672" /><trkpt lat="22.47198978125" lon="114.16863779638672" /><trkpt lat="22.472030781249998" lon="114.16862479638672" /><trkpt lat="22.47210278125" lon="114.16857779638671" /><trkpt lat="22.47222278125" lon="114.16851679638673" /><trkpt lat="22.47229778125" lon="114.16846279638672" /><trkpt lat="22.47235778125" lon="114.16845679638672" /><trkpt lat="22.47245378125" lon="114.16845879638672" /><trkpt lat="22.47258178125" lon="114.16850779638672" /><trkpt lat="22.47271878125" lon="114.16858779638672" /><trkpt lat="22.47279178125" lon="114.16863179638672" /><trkpt lat="22.47288678125" lon="114.16871179638672" /><trkpt lat="22.47299578125" lon="114.16880279638671" /><trkpt lat="22.47304678125" lon="114.16886479638671" /><trkpt lat="22.47312278125" lon="114.16894879638672" /><trkpt lat="22.47318678125" lon="114.16901279638672" /><trkpt lat="22.47322978125" lon="114.16908279638672" /><trkpt lat="22.47328778125" lon="114.16912979638671" /><trkpt lat="22.47331978125" lon="114.16915179638671" /><trkpt lat="22.47337578125" lon="114.16919179638671" /><trkpt lat="22.47343078125" lon="114.16919179638671" /><trkpt lat="22.47368978125" lon="114.16913579638671" /><trkpt lat="22.47375578125" lon="114.16911779638671" /><trkpt lat="22.47381178125" lon="114.16909479638672" /><trkpt lat="22.47384478125" lon="114.16908279638672" /><trkpt lat="22.47396578125" lon="114.16900479638672" /><trkpt lat="22.47403478125" lon="114.16895379638672" /><trkpt lat="22.47412478125" lon="114.16894579638672" /><trkpt lat="22.47420978125" lon="114.16896079638671" /><trkpt lat="22.47429278125" lon="114.16899279638672" /><trkpt lat="22.47435878125" lon="114.16900179638672" /><trkpt lat="22.47443578125" lon="114.16901579638672" /><trkpt lat="22.47459478125" lon="114.16914179638673" /><trkpt lat="22.47466578125" lon="114.16919679638671" /><trkpt lat="22.47476378125" lon="114.16924879638673" /><trkpt lat="22.47482978125" lon="114.16926379638672" /><trkpt lat="22.47489578125" lon="114.16924479638672" /><trkpt lat="22.47500778125" lon="114.16918279638672" /><trkpt lat="22.47509778125" lon="114.16916579638672" /><trkpt lat="22.47516078125" lon="114.16919279638672" /><trkpt lat="22.47524478125" lon="114.16923779638672" /><trkpt lat="22.47535978125" lon="114.16929679638672" /><trkpt lat="22.47539778125" lon="114.16931679638672" /><trkpt lat="22.47541978125" lon="114.16936879638672" /><trkpt lat="22.47542878125" lon="114.16940579638671" /><trkpt lat="22.47544878125" lon="114.16945179638672" /><trkpt lat="22.47546878125" lon="114.16950379638672" /><trkpt lat="22.47551878125" lon="114.16960179638671" /><trkpt lat="22.47555178125" lon="114.16965879638671" /><trkpt lat="22.47559878125" lon="114.16970979638671" /><trkpt lat="22.47564778125" lon="114.16976779638672" /><trkpt lat="22.47570878125" lon="114.16981679638671" /><trkpt lat="22.47571878125" lon="114.16992279638671" /><trkpt lat="22.47572078125" lon="114.17001679638672" /><trkpt lat="22.47572478125" lon="114.17007379638672" /><trkpt lat="22.47573578125" lon="114.17010879638671" /><trkpt lat="22.47580378125" lon="114.17017779638672" /><trkpt lat="22.47597678125" lon="114.17028479638672" /><trkpt lat="22.47601578125" lon="114.17031779638671" /><trkpt lat="22.47621078125" lon="114.17047179638672" /><trkpt lat="22.47627478125" lon="114.17048279638672" /><trkpt lat="22.47633778125" lon="114.17047479638671" /><trkpt lat="22.47643378125" lon="114.17048679638673" /><trkpt lat="22.47652278125" lon="114.17049579638672" /><trkpt lat="22.47660578125" lon="114.17051079638672" /><trkpt lat="22.47666278125" lon="114.17048679638673" /><trkpt lat="22.47669878125" lon="114.17049679638671" /><trkpt lat="22.47679278125" lon="114.17047879638672" /><trkpt lat="22.47691278125" lon="114.17050679638672" /><trkpt lat="22.47694678125" lon="114.17062179638671" /><trkpt lat="22.47693678125" lon="114.17067479638672" /><trkpt lat="22.47692578125" lon="114.17072579638672" /><trkpt lat="22.47684478125" lon="114.17080979638672" /><trkpt lat="22.47676478125" lon="114.17087279638672" /><trkpt lat="22.47674378125" lon="114.17098779638673" /><trkpt lat="22.47677478125" lon="114.17104279638671" /><trkpt lat="22.47682778125" lon="114.17104979638673" /><trkpt lat="22.47688778125" lon="114.17101479638671" /><trkpt lat="22.47698078125" lon="114.17101279638672" /><trkpt lat="22.47707578125" lon="114.17107079638672" /><trkpt lat="22.47731778125" lon="114.17119479638671" /><trkpt lat="22.47760878125" lon="114.17128079638672" /><trkpt lat="22.47776978125" lon="114.17146379638672" /><trkpt lat="22.47811378125" lon="114.17147079638671" /><trkpt lat="22.47825678125" lon="114.17161479638672" /><trkpt lat="22.47851278125" lon="114.17199179638672" /><trkpt lat="22.478645781250002" lon="114.17202179638672" /><trkpt lat="22.47874178125" lon="114.17196279638672" /><trkpt lat="22.47883078125" lon="114.17179179638671" /><trkpt lat="22.47900878125" lon="114.17177779638672" /><trkpt lat="22.47918678125" lon="114.17178179638672" /><trkpt lat="22.47926078125" lon="114.17183879638672" /><trkpt lat="22.47941378125" lon="114.17215379638672" /><trkpt lat="22.47952978125" lon="114.17223479638672" /><trkpt lat="22.47961778125" lon="114.17226479638671" /><trkpt lat="22.47969478125" lon="114.17229079638672" /><trkpt lat="22.47978978125" lon="114.17227079638671" /><trkpt lat="22.47985778125" lon="114.17215079638672" /><trkpt lat="22.47994978125" lon="114.17205979638672" /><trkpt lat="22.48015778125" lon="114.17188579638672" /><trkpt lat="22.48030778125" lon="114.17184679638672" /><trkpt lat="22.48046978125" lon="114.17184479638672" /><trkpt lat="22.48076478125" lon="114.17177379638672" /><trkpt lat="22.48086478125" lon="114.17177279638672" /><trkpt lat="22.48096078125" lon="114.17184279638671" /><trkpt lat="22.48107778125" lon="114.17208379638672" /><trkpt lat="22.48119378125" lon="114.17210679638671" /><trkpt lat="22.48146178125" lon="114.17196679638671" /><trkpt lat="22.48156578125" lon="114.17195879638672" /><trkpt lat="22.48164478125" lon="114.17203579638672" /><trkpt lat="22.48167778125" lon="114.17210679638671" /><trkpt lat="22.48168678125" lon="114.17222279638672" /><trkpt lat="22.48171778125" lon="114.17227679638673" /><trkpt lat="22.48182478125" lon="114.17232079638671" /><trkpt lat="22.48196478125" lon="114.17230379638671" /><trkpt lat="22.48203878125" lon="114.17232379638672" /><trkpt lat="22.48209578125" lon="114.17231979638672" /><trkpt lat="22.48214878125" lon="114.17231579638671" /><trkpt lat="22.48227478125" lon="114.17222279638672" /><trkpt lat="22.48240778125" lon="114.17212379638671" /><trkpt lat="22.48268878125" lon="114.17206879638672" /><trkpt lat="22.48279578125" lon="114.17204779638672" /><trkpt lat="22.48291978125" lon="114.17208679638672" /><trkpt lat="22.48303278125" lon="114.17212279638672" /><trkpt lat="22.48309978125" lon="114.17223079638671" /><trkpt lat="22.48328078125" lon="114.17231079638672" /><trkpt lat="22.48333578125" lon="114.17232679638671" /><trkpt lat="22.48348478125" lon="114.17237079638672" /><trkpt lat="22.48376478125" lon="114.17232179638673" /><trkpt lat="22.48390178125" lon="114.17216079638672" /><trkpt lat="22.48406178125" lon="114.17199579638672" /><trkpt lat="22.48405978125" lon="114.17192279638672" /><trkpt lat="22.48420278125" lon="114.17199379638672" /><trkpt lat="22.48434878125" lon="114.17190579638672" /><trkpt lat="22.48450078125" lon="114.17185979638671" /><trkpt lat="22.48482678125" lon="114.17191679638672" /><trkpt lat="22.48508678125" lon="114.17205179638673" /><trkpt lat="22.48548078125" lon="114.17202079638672" /><trkpt lat="22.48569678125" lon="114.17203979638671" /><trkpt lat="22.48594478125" lon="114.17201079638672" /><trkpt lat="22.48612778125" lon="114.17212679638672" /><trkpt lat="22.48621078125" lon="114.17212779638672" /><trkpt lat="22.48628278125" lon="114.17214679638671" /><trkpt lat="22.48634678125" lon="114.17218679638673" /><trkpt lat="22.48645978125" lon="114.17232279638672" /><trkpt lat="22.48651378125" lon="114.17244279638672" /><trkpt lat="22.48662078125" lon="114.17246479638672" /><trkpt lat="22.48668978125" lon="114.17243179638672" /><trkpt lat="22.48682978125" lon="114.17247279638671" /><trkpt lat="22.48692378125" lon="114.17236879638672" /><trkpt lat="22.48699478125" lon="114.17236679638673" /><trkpt lat="22.48707878125" lon="114.17247479638672" /><trkpt lat="22.48714178125" lon="114.17247679638672" /><trkpt lat="22.48723278125" lon="114.17251579638672" /><trkpt lat="22.48737378125" lon="114.17267579638671" /><trkpt lat="22.48750678125" lon="114.17271379638672" /><trkpt lat="22.48756678125" lon="114.17274179638672" /><trkpt lat="22.48770678125" lon="114.17280679638672" /><trkpt lat="22.48783278125" lon="114.17300479638672" /><trkpt lat="22.48787578125" lon="114.17314579638672" /><trkpt lat="22.48794378125" lon="114.17320279638672" /><trkpt lat="22.48819378125" lon="114.17359179638672" /><trkpt lat="22.48823678125" lon="114.17365979638672" /><trkpt lat="22.48829278125" lon="114.17367979638672" /><trkpt lat="22.48835678125" lon="114.17370279638672" /><trkpt lat="22.48852978125" lon="114.17373179638672" /><trkpt lat="22.48871178125" lon="114.17372979638672" /><trkpt lat="22.48893178125" lon="114.17383979638672" /><trkpt lat="22.48899878125" lon="114.17404679638672" /><trkpt lat="22.48904678125" lon="114.17419679638672" /><trkpt lat="22.48924378125" lon="114.17436379638671" /><trkpt lat="22.48927878125" lon="114.17437379638672" /><trkpt lat="22.48930578125" lon="114.17438179638673" /><trkpt lat="22.48944478125" lon="114.17442379638672" /><trkpt lat="22.48971178125" lon="114.17445679638672" /><trkpt lat="22.48974578125" lon="114.17448079638672" /><trkpt lat="22.48999078125" lon="114.17461379638672" /><trkpt lat="22.49002178125" lon="114.17462279638671" /><trkpt lat="22.49006678125" lon="114.17463579638672" /><trkpt lat="22.49019978125" lon="114.17465579638672" /><trkpt lat="22.49021878125" lon="114.17466879638671" /><trkpt lat="22.49025278125" lon="114.17469179638672" /><trkpt lat="22.49032278125" lon="114.17480079638672" /><trkpt lat="22.49035378125" lon="114.17485579638672" /><trkpt lat="22.49039678125" lon="114.17493279638671" /><trkpt lat="22.49042078125" lon="114.17490279638672" /><trkpt lat="22.49053778125" lon="114.17474979638672" /><trkpt lat="22.49059978125" lon="114.17481079638672" /><trkpt lat="22.49066478125" lon="114.17482579638671" /><trkpt lat="22.49070978125" lon="114.17484879638671" /><trkpt lat="22.49077978125" lon="114.17490479638671" /><trkpt lat="22.49087878125" lon="114.17498579638672" /><trkpt lat="22.49094678125" lon="114.17508979638671" /><trkpt lat="22.49096378125" lon="114.17511679638672" /><trkpt lat="22.49103078125" lon="114.17518579638671" /><trkpt lat="22.49109578125" lon="114.17525279638672" /><trkpt lat="22.49129678125" lon="114.17537779638671" /><trkpt lat="22.49131178125" lon="114.17540179638672" /><trkpt lat="22.49144578125" lon="114.17562379638672" /><trkpt lat="22.49151678125" lon="114.17571479638671" /><trkpt lat="22.49156978125" lon="114.17583479638672" /><trkpt lat="22.49159078125" lon="114.17588079638672" /><trkpt lat="22.49164578125" lon="114.17603679638673" /><trkpt lat="22.49170978125" lon="114.17621979638672" /><trkpt lat="22.49181378125" lon="114.17634979638672" /><trkpt lat="22.49186478125" lon="114.17645079638672" /><trkpt lat="22.49189378125" lon="114.17647379638672" /><trkpt lat="22.49200078125" lon="114.17655479638672" /><trkpt lat="22.49201478125" lon="114.17657679638671" /><trkpt lat="22.49204578125" lon="114.17662479638672" /><trkpt lat="22.49208978125" lon="114.17674479638671" /><trkpt lat="22.49219178125" lon="114.17677579638672" /><trkpt lat="22.49222878125" lon="114.17678679638672" /><trkpt lat="22.49231578125" lon="114.17697879638672" /><trkpt lat="22.49242378125" lon="114.17706979638672" /><trkpt lat="22.49257078125" lon="114.17714979638671" /><trkpt lat="22.49296278125" lon="114.17732779638672" /><trkpt lat="22.49299878125" lon="114.17734379638672" /><trkpt lat="22.49309578125" lon="114.17742679638671" /><trkpt lat="22.49312978125" lon="114.17745679638672" /><trkpt lat="22.49329578125" lon="114.17746879638672" /><trkpt lat="22.49331378125" lon="114.17757379638672" /><trkpt lat="22.49336878125" lon="114.17765079638671" /><trkpt lat="22.49338178125" lon="114.17768779638672" /><trkpt lat="22.49345478125" lon="114.17789179638672" /><trkpt lat="22.49330778125" lon="114.17797079638672" /><trkpt lat="22.49315478125" lon="114.17801279638672" /><trkpt lat="22.49298878125" lon="114.17816779638672" /><trkpt lat="22.49289778125" lon="114.17823079638671" /><trkpt lat="22.49275578125" lon="114.17831379638672" /><trkpt lat="22.49245178125" lon="114.17838379638673" /><trkpt lat="22.49226978125" lon="114.17835979638672" /><trkpt lat="22.49206478125" lon="114.17843179638672" /><trkpt lat="22.49191978125" lon="114.17851779638671" /><trkpt lat="22.49185978125" lon="114.17865479638672" /><trkpt lat="22.49184978125" lon="114.17880479638671" /><trkpt lat="22.49182978125" lon="114.17890379638672" /><trkpt lat="22.49163878125" lon="114.17915479638671" /><trkpt lat="22.49150578125" lon="114.17925579638671" /><trkpt lat="22.49145378125" lon="114.17936679638672" /><trkpt lat="22.49139778125" lon="114.17943479638672" /><trkpt lat="22.49123678125" lon="114.17941679638672" /><trkpt lat="22.49115278125" lon="114.17945379638672" /><trkpt lat="22.49117678125" lon="114.17960579638672" /><trkpt lat="22.49117078125" lon="114.17974279638672" /><trkpt lat="22.49104078125" lon="114.17979879638672" /><trkpt lat="22.49097378125" lon="114.17979679638673" /><trkpt lat="22.49097778125" lon="114.17990679638672" /><trkpt lat="22.49102578125" lon="114.18000279638672" /><trkpt lat="22.49103178125" lon="114.18010479638671" /><trkpt lat="22.49106278125" lon="114.18019679638672" /><trkpt lat="22.49111478125" lon="114.18027979638671" /><trkpt lat="22.49108278125" lon="114.18050579638673" /><trkpt lat="22.49107878125" lon="114.18062479638672" /><trkpt lat="22.49108978125" lon="114.18071879638671" /><trkpt lat="22.49113378125" lon="114.18080079638672" /><trkpt lat="22.49120578125" lon="114.18076779638672" /><trkpt lat="22.49127978125" lon="114.18074279638672" /><trkpt lat="22.49131378125" lon="114.18076479638673" /><trkpt lat="22.49127278125" lon="114.18084979638672" /><trkpt lat="22.49122478125" lon="114.18095779638672" /><trkpt lat="22.49114178125" lon="114.18117379638672" /><trkpt lat="22.49101678125" lon="114.18124179638671" /><trkpt lat="22.49080278125" lon="114.18121479638671" /><trkpt lat="22.49071578125" lon="114.18135879638672" /><trkpt lat="22.49073778125" lon="114.18171579638671" /><trkpt lat="22.49061078125" lon="114.18182779638671" /><trkpt lat="22.49033778125" lon="114.18174679638672" /><trkpt lat="22.49024978125" lon="114.18168879638672" /><trkpt lat="22.49001478125" lon="114.18156979638673" /><trkpt lat="22.48987578125" lon="114.18147779638672" /><trkpt lat="22.48965478125" lon="114.18137779638671" /><trkpt lat="22.48942278125" lon="114.18126979638672" /><trkpt lat="22.48918978125" lon="114.18116979638671" /><trkpt lat="22.48883878125" lon="114.18105779638672" /><trkpt lat="22.48860878125" lon="114.18092579638672" /><trkpt lat="22.48835578125" lon="114.18079979638672" /><trkpt lat="22.48819578125" lon="114.18071679638672" /><trkpt lat="22.48785478125" lon="114.18082179638672" /><trkpt lat="22.48770078125" lon="114.18074379638672" /><trkpt lat="22.48757178125" lon="114.18087479638672" /><trkpt lat="22.48744378125" lon="114.18110879638672" /><trkpt lat="22.48735578125" lon="114.18129879638671" /><trkpt lat="22.48727478125" lon="114.18140079638673" /><trkpt lat="22.48709478125" lon="114.18148579638672" /><trkpt lat="22.48713578125" lon="114.18167579638671" /><trkpt lat="22.48694478125" lon="114.18180279638672" /><trkpt lat="22.48680678125" lon="114.18187179638672" /><trkpt lat="22.48663478125" lon="114.18201679638672" /><trkpt lat="22.48658578125" lon="114.18215479638671" /><trkpt lat="22.48656478125" lon="114.18235979638672" /><trkpt lat="22.48642678125" lon="114.18237479638672" /><trkpt lat="22.48636978125" lon="114.18237179638672" /><trkpt lat="22.48630078125" lon="114.18242779638672" /><trkpt lat="22.48621378125" lon="114.18249579638672" /><trkpt lat="22.48613678125" lon="114.18250279638671" /><trkpt lat="22.48609278125" lon="114.18254379638672" /><trkpt lat="22.48602578125" lon="114.18255479638673" /><trkpt lat="22.48598478125" lon="114.18258279638673" /><trkpt lat="22.48592478125" lon="114.18256179638672" /><trkpt lat="22.48585078125" lon="114.18265779638672" /><trkpt lat="22.48581678125" lon="114.18274079638672" /><trkpt lat="22.48579678125" lon="114.18276779638671" /><trkpt lat="22.48574778125" lon="114.18283279638672" /><trkpt lat="22.48563278125" lon="114.18290479638672" /><trkpt lat="22.48561178125" lon="114.18296579638672" /><trkpt lat="22.48556578125" lon="114.18301179638672" /><trkpt lat="22.48545278125" lon="114.18312479638672" /><trkpt lat="22.48549878125" lon="114.18331779638672" /><trkpt lat="22.48531078125" lon="114.18349379638671" /><trkpt lat="22.48527278125" lon="114.18358279638672" /><trkpt lat="22.48519078125" lon="114.18365279638672" /><trkpt lat="22.48512678125" lon="114.18373579638671" /><trkpt lat="22.48506178125" lon="114.18379279638671" /><trkpt lat="22.48467178125" lon="114.18368679638672" /><trkpt lat="22.48454378125" lon="114.18358379638671" /><trkpt lat="22.48442678125" lon="114.18344179638672" /><trkpt lat="22.48418178125" lon="114.18325179638671" /><trkpt lat="22.48410378125" lon="114.18313479638672" /><trkpt lat="22.48397978125" lon="114.18291679638672" /><trkpt lat="22.48381278125" lon="114.18285579638672" /><trkpt lat="22.48368678125" lon="114.18277179638672" /><trkpt lat="22.48337078125" lon="114.18264979638671" /><trkpt lat="22.48322878125" lon="114.18269379638672" /><trkpt lat="22.48287578125" lon="114.18274179638672" /><trkpt lat="22.48268878125" lon="114.18269179638672" /><trkpt lat="22.48223478125" lon="114.18270679638673" /><trkpt lat="22.48213078125" lon="114.18279279638672" /><trkpt lat="22.48203278125" lon="114.18289879638672" /><trkpt lat="22.48180878125" lon="114.18299379638673" /><trkpt lat="22.48169478125" lon="114.18298179638671" /><trkpt lat="22.48161878125" lon="114.18299079638672" /><trkpt lat="22.48155278125" lon="114.18296779638672" /><trkpt lat="22.48149978125" lon="114.18299479638672" /><trkpt lat="22.48128478125" lon="114.18308079638672" /><trkpt lat="22.48111078125" lon="114.18308579638672" /><trkpt lat="22.48093878125" lon="114.18310779638672" /><trkpt lat="22.48087978125" lon="114.18316579638672" /><trkpt lat="22.48085778125" lon="114.18316979638672" /><trkpt lat="22.48082978125" lon="114.18323479638671" /><trkpt lat="22.48080178125" lon="114.18326679638672" /><trkpt lat="22.48077378125" lon="114.18328479638672" /><trkpt lat="22.48073178125" lon="114.18328879638672" /><trkpt lat="22.48068978125" lon="114.18328579638671" /><trkpt lat="22.48064178125" lon="114.18327279638672" /><trkpt lat="22.48061478125" lon="114.18326879638671" /><trkpt lat="22.48057778125" lon="114.18328879638672" /><trkpt lat="22.48054178125" lon="114.18332179638672" /><trkpt lat="22.48049278125" lon="114.18330479638672" /><trkpt lat="22.48046178125" lon="114.18329679638671" /><trkpt lat="22.48042878125" lon="114.18329079638671" /><trkpt lat="22.48038678125" lon="114.18326579638672" /><trkpt lat="22.48035878125" lon="114.18324179638672" /><trkpt lat="22.480335781249998" lon="114.18320679638671" /><trkpt lat="22.48030278125" lon="114.18313379638671" /><trkpt lat="22.48027778125" lon="114.18307179638671" /><trkpt lat="22.48025378125" lon="114.18303579638672" /><trkpt lat="22.48021478125" lon="114.18299479638672" /><trkpt lat="22.48017478125" lon="114.18295279638672" /><trkpt lat="22.48014978125" lon="114.18294479638672" /><trkpt lat="22.48004878125" lon="114.18295079638672" /><trkpt lat="22.48000378125" lon="114.18294579638672" /><trkpt lat="22.47995678125" lon="114.18293079638671" /><trkpt lat="22.47987678125" lon="114.18292779638672" /><trkpt lat="22.47978678125" lon="114.18289779638671" /><trkpt lat="22.47974978125" lon="114.18286179638672" /><trkpt lat="22.47973178125" lon="114.18277979638673" /><trkpt lat="22.47971078125" lon="114.18274479638671" /><trkpt lat="22.47967978125" lon="114.18271479638672" /><trkpt lat="22.47964278125" lon="114.18264979638671" /><trkpt lat="22.47954178125" lon="114.18249079638672" /><trkpt lat="22.47948078125" lon="114.18240679638672" /><trkpt lat="22.47945378125" lon="114.18236679638672" /><trkpt lat="22.47943278125" lon="114.18231979638672" /><trkpt lat="22.47940178125" lon="114.18228579638672" /><trkpt lat="22.47935478125" lon="114.18227579638672" /><trkpt lat="22.47935178125" lon="114.18231779638671" /><trkpt lat="22.47933278125" lon="114.18236679638672" /><trkpt lat="22.47929978125" lon="114.18240379638672" /><trkpt lat="22.47924878125" lon="114.18243479638672" /><trkpt lat="22.47920278125" lon="114.18244679638671" /><trkpt lat="22.47916378125" lon="114.18247879638672" /><trkpt lat="22.47909978125" lon="114.18251779638672" /><trkpt lat="22.47903478125" lon="114.18256479638671" /><trkpt lat="22.47896878125" lon="114.18261179638672" /><trkpt lat="22.47892778125" lon="114.18263379638672" /><trkpt lat="22.47888678125" lon="114.18265079638672" /><trkpt lat="22.47880678125" lon="114.18269179638672" /><trkpt lat="22.47873578125" lon="114.18273679638672" /><trkpt lat="22.47867678125" lon="114.18276679638672" /><trkpt lat="22.47861378125" lon="114.18279179638672" /><trkpt lat="22.47857478125" lon="114.18280579638672" /><trkpt lat="22.47853778125" lon="114.18281379638672" /><trkpt lat="22.47847878125" lon="114.18282479638673" /><trkpt lat="22.47842078125" lon="114.18283479638671" /><trkpt lat="22.47838178125" lon="114.18284079638671" /><trkpt lat="22.47834178125" lon="114.18284579638672" /><trkpt lat="22.47830378125" lon="114.18285479638672" /><trkpt lat="22.47826278125" lon="114.18286579638672" /><trkpt lat="22.47821878125" lon="114.18288579638671" /><trkpt lat="22.47818578125" lon="114.18290079638672" /><trkpt lat="22.47815678125" lon="114.18292179638672" /><trkpt lat="22.47812578125" lon="114.18294379638672" /><trkpt lat="22.478092781249998" lon="114.18296079638672" /><trkpt lat="22.47805078125" lon="114.18296579638672" /><trkpt lat="22.47799078125" lon="114.18294679638672" /><trkpt lat="22.47793278125" lon="114.18291779638672" /><trkpt lat="22.47791078125" lon="114.18290679638672" /><trkpt lat="22.477895781249998" lon="114.18287879638672" /><trkpt lat="22.47786178125" lon="114.18281079638672" /><trkpt lat="22.47783178125" lon="114.18275579638672" /><trkpt lat="22.47780078125" lon="114.18270879638672" /><trkpt lat="22.47776378125" lon="114.18265679638672" /><trkpt lat="22.47770778125" lon="114.18260379638672" /><trkpt lat="22.47765778125" lon="114.18257379638672" /><trkpt lat="22.47759878125" lon="114.18255379638671" /><trkpt lat="22.47755078125" lon="114.18253679638671" /><trkpt lat="22.47749878125" lon="114.18253079638671" /><trkpt lat="22.47745078125" lon="114.18251679638672" /><trkpt lat="22.47739278125" lon="114.18248579638671" /><trkpt lat="22.47737878125" lon="114.18246179638672" /><trkpt lat="22.47732778125" lon="114.18230779638672" /><trkpt lat="22.47728078125" lon="114.18224779638672" /><trkpt lat="22.47720978125" lon="114.18219879638671" /><trkpt lat="22.47713578125" lon="114.18216979638672" /><trkpt lat="22.47706778125" lon="114.18213479638672" /><trkpt lat="22.47692378125" lon="114.18209579638672" /><trkpt lat="22.47687078125" lon="114.18207679638672" /><trkpt lat="22.47682378125" lon="114.18205279638671" /><trkpt lat="22.47677178125" lon="114.18198379638672" /><trkpt lat="22.47672278125" lon="114.18192979638673" /><trkpt lat="22.47670378125" lon="114.18192079638672" /><trkpt lat="22.47664978125" lon="114.18191079638672" /><trkpt lat="22.47655578125" lon="114.18190379638672" /><trkpt lat="22.47654078125" lon="114.18189779638672" /><trkpt lat="22.47649378125" lon="114.18187979638672" /><trkpt lat="22.47642378125" lon="114.18182979638672" /><trkpt lat="22.47634978125" lon="114.18175379638672" /><trkpt lat="22.47632678125" lon="114.18171879638672" /><trkpt lat="22.47629378125" lon="114.18170479638673" /><trkpt lat="22.47625278125" lon="114.18170179638672" /><trkpt lat="22.47620178125" lon="114.18170279638672" /><trkpt lat="22.47615178125" lon="114.18171579638671" /><trkpt lat="22.47610478125" lon="114.18175679638672" /><trkpt lat="22.47606778125" lon="114.18180779638672" /><trkpt lat="22.47604578125" lon="114.18185979638672" /><trkpt lat="22.47598378125" lon="114.18186879638672" /><trkpt lat="22.47589478125" lon="114.18186479638672" /><trkpt lat="22.47575878125" lon="114.18184879638672" /><trkpt lat="22.47563078125" lon="114.18181979638672" /><trkpt lat="22.47550978125" lon="114.18179579638672" /><trkpt lat="22.47542978125" lon="114.18176279638672" /><trkpt lat="22.47536778125" lon="114.18171779638672" /><trkpt lat="22.47531678125" lon="114.18168079638671" /><trkpt lat="22.47530078125" lon="114.18167279638672" /><trkpt lat="22.47526978125" lon="114.18166379638672" /><trkpt lat="22.47514078125" lon="114.18169279638671" /><trkpt lat="22.47501078125" lon="114.18174979638673" /><trkpt lat="22.47489678125" lon="114.18181779638672" /><trkpt lat="22.47481678125" lon="114.18187079638672" /><trkpt lat="22.47474678125" lon="114.18193279638672" /><trkpt lat="22.47458678125" lon="114.18210479638672" /><trkpt lat="22.47447878125" lon="114.18219579638672" /><trkpt lat="22.47436978125" lon="114.18225379638672" /><trkpt lat="22.47423778125" lon="114.18229879638672" /><trkpt lat="22.47416878125" lon="114.18234679638672" /><trkpt lat="22.47388078125" lon="114.18258479638672" /><trkpt lat="22.47377178125" lon="114.18265979638672" /><trkpt lat="22.47365678125" lon="114.18271379638672" /><trkpt lat="22.47354678125" lon="114.18271279638672" /><trkpt lat="22.47348478125" lon="114.18268879638671" /><trkpt lat="22.47342178125" lon="114.18265779638672" /><trkpt lat="22.47331478125" lon="114.18262779638673" /><trkpt lat="22.47316378125" lon="114.18261379638672" /><trkpt lat="22.47308878125" lon="114.18259879638671" /><trkpt lat="22.47301778125" lon="114.18258879638672" /><trkpt lat="22.47296578125" lon="114.18258279638673" /><trkpt lat="22.47289478125" lon="114.18257679638671" /><trkpt lat="22.47283178125" lon="114.18258779638671" /><trkpt lat="22.47275378125" lon="114.18259979638673" /><trkpt lat="22.47268278125" lon="114.18263379638672" /><trkpt lat="22.47262278125" lon="114.18268279638671" /><trkpt lat="22.47256578125" lon="114.18270779638672" /><trkpt lat="22.47253678125" lon="114.18271779638673" /><trkpt lat="22.47247678125" lon="114.18268979638673" /><trkpt lat="22.47237478125" lon="114.18261579638671" /><trkpt lat="22.47229078125" lon="114.18254979638672" /><trkpt lat="22.47218878125" lon="114.18248179638672" /><trkpt lat="22.47204778125" lon="114.18237779638672" /><trkpt lat="22.47201478125" lon="114.18234379638672" /><trkpt lat="22.47192878125" lon="114.18228679638672" /><trkpt lat="22.47177678125" lon="114.18226379638672" /><trkpt lat="22.47171178125" lon="114.18223479638672" /><trkpt lat="22.47166378125" lon="114.18216879638672" /><trkpt lat="22.47160478125" lon="114.18211379638672" /><trkpt lat="22.47153978125" lon="114.18209079638672" /><trkpt lat="22.47139278125" lon="114.18208479638672" /><trkpt lat="22.47124578125" lon="114.18210179638672" /><trkpt lat="22.47117478125" lon="114.18210679638672" /><trkpt lat="22.47110778125" lon="114.18212579638671" /><trkpt lat="22.47101378125" lon="114.18215179638672" /><trkpt lat="22.47092378125" lon="114.18219979638671" /><trkpt lat="22.47084278125" lon="114.18221179638672" /><trkpt lat="22.47076578125" lon="114.18220579638673" /><trkpt lat="22.47065878125" lon="114.18220279638672" /><trkpt lat="22.47059478125" lon="114.18220679638672" /><trkpt lat="22.470537781250002" lon="114.18223179638672" /><trkpt lat="22.47050478125" lon="114.18216079638673" /><trkpt lat="22.47045278125" lon="114.18210179638672" /><trkpt lat="22.47030078125" lon="114.18204879638672" /><trkpt lat="22.47028478125" lon="114.18200679638672" /><trkpt lat="22.47028378125" lon="114.18196079638672" /><trkpt lat="22.47026578125" lon="114.18190879638672" /><trkpt lat="22.47020478125" lon="114.18181879638672" /><trkpt lat="22.47019278125" lon="114.18177679638671" /><trkpt lat="22.47015478125" lon="114.18174679638672" /><trkpt lat="22.47010678125" lon="114.18167479638672" /><trkpt lat="22.47004378125" lon="114.18157979638671" /><trkpt lat="22.47000178125" lon="114.18152879638671" /><trkpt lat="22.46995278125" lon="114.18149579638671" /><trkpt lat="22.46992678125" lon="114.18145579638671" /><trkpt lat="22.46985378125" lon="114.18141879638672" /><trkpt lat="22.46982678125" lon="114.18139679638672" /><trkpt lat="22.46980778125" lon="114.18133379638672" /><trkpt lat="22.46975978125" lon="114.18130079638672" /><trkpt lat="22.46970778125" lon="114.18127779638672" /><trkpt lat="22.46958178125" lon="114.18124079638672" /><trkpt lat="22.46953278125" lon="114.18122879638672" /><trkpt lat="22.46946478125" lon="114.18118279638672" /><trkpt lat="22.46941278125" lon="114.18110679638671" /><trkpt lat="22.46939278125" lon="114.18109779638672" /><trkpt lat="22.46937278125" lon="114.18104579638671" /><trkpt lat="22.46934178125" lon="114.18099179638672" /><trkpt lat="22.46927678125" lon="114.18094279638672" /><trkpt lat="22.46923178125" lon="114.18087779638672" /><trkpt lat="22.46918878125" lon="114.18084779638671" /><trkpt lat="22.46907578125" lon="114.18081279638672" /><trkpt lat="22.46903578125" lon="114.18082279638672" /><trkpt lat="22.46901678125" lon="114.18084679638672" /><trkpt lat="22.46899678125" lon="114.18082279638672" /><trkpt lat="22.46890878125" lon="114.18082279638672" /><trkpt lat="22.46884678125" lon="114.18084079638672" /><trkpt lat="22.46868978125" lon="114.18080579638672" /><trkpt lat="22.46858078125" lon="114.18077479638671" /><trkpt lat="22.46853578125" lon="114.18075579638672" /><trkpt lat="22.46850278125" lon="114.18073779638672" /><trkpt lat="22.46848678125" lon="114.18070279638673" /><trkpt lat="22.46847378125" lon="114.18063879638672" /><trkpt lat="22.46842378125" lon="114.18060879638672" /><trkpt lat="22.46838778125" lon="114.18054279638672" /><trkpt lat="22.46834778125" lon="114.18051979638672" /><trkpt lat="22.46829378125" lon="114.18048579638672" /><trkpt lat="22.46826778125" lon="114.18048579638672" /><trkpt lat="22.46822978125" lon="114.18049579638672" /><trkpt lat="22.46818878125" lon="114.18049079638672" /><trkpt lat="22.46815678125" lon="114.18044479638672" /><trkpt lat="22.46810278125" lon="114.18041379638672" /><trkpt lat="22.46808178125" lon="114.18036479638671" /><trkpt lat="22.46802278125" lon="114.18033079638671" /><trkpt lat="22.46794078125" lon="114.18030879638673" /><trkpt lat="22.46785378125" lon="114.18024679638673" /><trkpt lat="22.46783178125" lon="114.18020779638672" /><trkpt lat="22.46778178125" lon="114.18015079638671" /><trkpt lat="22.46773378125" lon="114.18012279638671" /><trkpt lat="22.46771978125" lon="114.17992979638672" /><trkpt lat="22.46775378125" lon="114.17982579638672" /><trkpt lat="22.46772178125" lon="114.17972479638672" /><trkpt lat="22.46773378125" lon="114.17954379638672" /><trkpt lat="22.46769778125" lon="114.17952079638673" /><trkpt lat="22.46760078125" lon="114.17952879638672" /><trkpt lat="22.46753678125" lon="114.17954379638672" /><trkpt lat="22.46747178125" lon="114.17952879638672" /><trkpt lat="22.46741878125" lon="114.17952279638672" /><trkpt lat="22.46733478125" lon="114.17954479638672" /><trkpt lat="22.46726678125" lon="114.17958279638673" /><trkpt lat="22.46721478125" lon="114.17954979638672" /><trkpt lat="22.46702578125" lon="114.17959179638672" /><trkpt lat="22.46698878125" lon="114.17961479638672" /><trkpt lat="22.46698378125" lon="114.17961979638672" /><trkpt lat="22.46693978125" lon="114.17966379638672" /><trkpt lat="22.46691678125" lon="114.17969979638671" /><trkpt lat="22.46684478125" lon="114.17977879638671" /><trkpt lat="22.46680978125" lon="114.17977779638672" /><trkpt lat="22.46680578125" lon="114.17982879638672" /><trkpt lat="22.46677578125" lon="114.17988479638672" /><trkpt lat="22.46673078125" lon="114.17994879638673" /><trkpt lat="22.46670178125" lon="114.18001579638671" /><trkpt lat="22.46668478125" lon="114.18008579638672" /><trkpt lat="22.46664778125" lon="114.18016979638672" /><trkpt lat="22.46661078125" lon="114.18025679638671" /><trkpt lat="22.46656278125" lon="114.18028979638672" /><trkpt lat="22.46652678125" lon="114.18030579638672" /><trkpt lat="22.46642178125" lon="114.18028279638672" /><trkpt lat="22.46627978125" lon="114.18010179638672" /><trkpt lat="22.46621678125" lon="114.18004979638673" /><trkpt lat="22.46614078125" lon="114.17999579638672" /><trkpt lat="22.46591378125" lon="114.17985679638672" /><trkpt lat="22.46584378125" lon="114.17985279638673" /><trkpt lat="22.46578378125" lon="114.17987779638672" /><trkpt lat="22.46574078125" lon="114.17990679638672" /><trkpt lat="22.46570578125" lon="114.17997079638671" /><trkpt lat="22.46568078125" lon="114.18007079638672" /><trkpt lat="22.46564678125" lon="114.18014079638672" /><trkpt lat="22.46556978125" lon="114.18024479638672" /><trkpt lat="22.46555478125" lon="114.18025679638671" /><trkpt lat="22.46553578125" lon="114.18027179638672" /><trkpt lat="22.46551278125" lon="114.18028279638672" /><trkpt lat="22.46547278125" lon="114.18029279638672" /><trkpt lat="22.46543678125" lon="114.18033779638672" /><trkpt lat="22.46542778125" lon="114.18030479638672" /><trkpt lat="22.46541078125" lon="114.18029379638672" /><trkpt lat="22.46539178125" lon="114.18028779638672" /><trkpt lat="22.46535178125" lon="114.18025179638671" /><trkpt lat="22.46532378125" lon="114.18024179638672" /><trkpt lat="22.46531045827759" lon="114.18024065441747" /></trkseg></trk></gpx>