<?xml version='1.0' encoding='UTF-8' ?><gpx version="1.1" creator="HikingTrailHK" xsi:schemaLocation="http://www.topografix.com/GPX/1/1 http://www.topografix.com/GPX/1/1/gpx.xsd" xmlns="http://www.topografix.com/GPX/1/1" xmlns:xsi="http://www.w3.org/2001/XMLSchema-instance"><metadata><name>九龍城@ 2017-3-11</name><desc></desc></metadata><trk><trkseg><trkpt lat="22.33845178125" lon="114.18543879638672" /><trkpt lat="22.33840678125" lon="114.18539079638671" /><trkpt lat="22.33838878125" lon="114.18537179638672" /><trkpt lat="22.33835178125" lon="114.18535379638672" /><trkpt lat="22.33831178125" lon="114.18536479638672" /><trkpt lat="22.33826478125" lon="114.18538479638671" /><trkpt lat="22.33805178125" lon="114.18550579638672" /><trkpt lat="22.33793678125" lon="114.18556879638672" /><trkpt lat="22.33779078125" lon="114.18563179638672" /><trkpt lat="22.33759378125" lon="114.18568079638672" /><trkpt lat="22.33746578125" lon="114.18563979638672" /><trkpt lat="22.33731978125" lon="114.18554979638672" /><trkpt lat="22.33728578125" lon="114.18548179638672" /><trkpt lat="22.33729578125" lon="114.18540579638672" /><trkpt lat="22.33730478125" lon="114.18530879638672" /><trkpt lat="22.33731178125" lon="114.18523079638672" /><trkpt lat="22.33728678125" lon="114.18514779638672" /><trkpt lat="22.337232781250002" lon="114.18510179638672" /><trkpt lat="22.33714378125" lon="114.18509979638672" /><trkpt lat="22.33692078125" lon="114.18512879638672" /><trkpt lat="22.33687778125" lon="114.18509779638671" /><trkpt lat="22.33685278125" lon="114.18506379638671" /><trkpt lat="22.33681378125" lon="114.18494979638672" /><trkpt lat="22.33681378125" lon="114.18478979638672" /><trkpt lat="22.33627778125" lon="114.18500879638673" /><trkpt lat="22.33622078125" lon="114.18503079638671" /><trkpt lat="22.33613278125" lon="114.18504779638671" /><trkpt lat="22.33604678125" lon="114.18507879638672" /><trkpt lat="22.33598578125" lon="114.18512579638671" /><trkpt lat="22.33580778125" lon="114.18520679638672" /><trkpt lat="22.33571478125" lon="114.18526879638672" /><trkpt lat="22.33563678125" lon="114.18535079638671" /><trkpt lat="22.33552178125" lon="114.18547979638672" /><trkpt lat="22.33527378125" lon="114.18509279638671" /><trkpt lat="22.33519278125" lon="114.18510779638672" /><trkpt lat="22.33501678125" lon="114.18509779638671" /><trkpt lat="22.33497678125" lon="114.18526379638672" /><trkpt lat="22.33482278125" lon="114.18523679638672" /><trkpt lat="22.33470278125" lon="114.18518779638671" /><trkpt lat="22.33473378125" lon="114.18505079638672" /><trkpt lat="22.33498378125" lon="114.18394279638672" /><trkpt lat="22.33508278125" lon="114.18399479638671" /><trkpt lat="22.33513578125" lon="114.18412079638672" /><trkpt lat="22.33516278125" lon="114.18420379638673" /><trkpt lat="22.33534978125" lon="114.18418679638671" /><trkpt lat="22.33548478125" lon="114.18413979638672" /><trkpt lat="22.33556178125" lon="114.18412579638672" /><trkpt lat="22.33561678125" lon="114.18412679638672" /><trkpt lat="22.33568378125" lon="114.18412779638672" /><trkpt lat="22.33575178125" lon="114.18415779638671" /><trkpt lat="22.33591778125" lon="114.18425279638672" /><trkpt lat="22.33589778125" lon="114.18428079638672" /><trkpt lat="22.33586178125" lon="114.18430279638672" /><trkpt lat="22.33577278125" lon="114.18429979638672" /><trkpt lat="22.33573378125" lon="114.18428879638672" /><trkpt lat="22.335695687483575" lon="114.18427993889445" /><trkpt lat="22.335718531753912" lon="114.1842605164648" /><trkpt lat="22.335745609785135" lon="114.18427217201929" /><trkpt lat="22.33576598200098" lon="114.18426908695761" /><trkpt lat="22.33580419157893" lon="114.18427199262464" /><trkpt lat="22.335843491055215" lon="114.1842842489292" /><trkpt lat="22.335887518451216" lon="114.18428295384018" /><trkpt lat="22.335919385948237" lon="114.18425368604517" /><trkpt lat="22.33598278125" lon="114.18428879638672" /><trkpt lat="22.33607378125" lon="114.18432179638671" /><trkpt lat="22.33614478125" lon="114.18432879638672" /><trkpt lat="22.33624778125" lon="114.18433879638673" /><trkpt lat="22.33631678125" lon="114.18433179638672" /><trkpt lat="22.33639378125" lon="114.18429579638672" /><trkpt lat="22.33645878125" lon="114.18429279638671" /><trkpt lat="22.33659478125" lon="114.18430779638672" /><trkpt lat="22.33670478125" lon="114.18431679638672" /><trkpt lat="22.33687178125" lon="114.18460779638671" /><trkpt lat="22.33681102961567" lon="114.18474818391779" /><trkpt lat="22.33681178125" lon="114.18475879638672" /><trkpt lat="22.33681378125" lon="114.18478979638672" /><trkpt lat="22.33627778125" lon="114.18500879638673" /><trkpt lat="22.33622078125" lon="114.18503079638671" /><trkpt lat="22.33613278125" lon="114.18504779638671" /><trkpt lat="22.33604678125" lon="114.18507879638672" /><trkpt lat="22.33598578125" lon="114.18512579638671" /><trkpt lat="22.33580778125" lon="114.18520679638672" /><trkpt lat="22.33571478125" lon="114.18526879638672" /><trkpt lat="22.33563678125" lon="114.18535079638671" /><trkpt lat="22.33552178125" lon="114.18547979638672" /><trkpt lat="22.33558578125" lon="114.18562379638672" /><trkpt lat="22.33564078125" lon="114.18572879638671" /><trkpt lat="22.33566678125" lon="114.18582479638673" /><trkpt lat="22.33566078125" lon="114.18593379638672" /><trkpt lat="22.33563778125" lon="114.18601179638672" /><trkpt lat="22.33560078125" lon="114.18605479638671" /><trkpt lat="22.33525578125" lon="114.18621579638672" /><trkpt lat="22.33521878125" lon="114.18626279638671" /><trkpt lat="22.33515878125" lon="114.18631179638672" /><trkpt lat="22.33509278125" lon="114.18630879638673" /><trkpt lat="22.33501178125" lon="114.18620079638671" /><trkpt lat="22.33494878125" lon="114.18607679638671" /><trkpt lat="22.33464378125" lon="114.18615379638672" /><trkpt lat="22.33469778125" lon="114.18632979638672" /><trkpt lat="22.33471078125" lon="114.18639279638671" /><trkpt lat="22.33476578125" lon="114.18669479638672" /><trkpt lat="22.33476978125" lon="114.18678279638672" /><trkpt lat="22.33474378125" lon="114.18739879638672" /><trkpt lat="22.33421978125" lon="114.18737179638671" /><trkpt lat="22.33419878125" lon="114.18734979638671" /><trkpt lat="22.33418478125" lon="114.18732479638672" /><trkpt lat="22.33418978125" lon="114.18723079638671" /><trkpt lat="22.33411678125" lon="114.18722879638672" /><trkpt lat="22.33411178125" lon="114.18728479638672" /><trkpt lat="22.33403178125" lon="114.18728379638672" /><trkpt lat="22.33400278125" lon="114.18731179638672" /><trkpt lat="22.33396678125" lon="114.18732679638671" /><trkpt lat="22.33384278125" lon="114.18732079638671" /><trkpt lat="22.33371278125" lon="114.18728879638672" /><trkpt lat="22.33361678125" lon="114.18727179638672" /><trkpt lat="22.33354978125" lon="114.18726879638672" /><trkpt lat="22.33348878125" lon="114.18727379638672" /><trkpt lat="22.33334678125" lon="114.18728979638672" /><trkpt lat="22.33307278125" lon="114.18724179638672" /><trkpt lat="22.33270678125" lon="114.18712679638672" /><trkpt lat="22.33266878125" lon="114.18711279638671" /><trkpt lat="22.33265278125" lon="114.18719079638672" /><trkpt lat="22.33263278125" lon="114.18728879638672" /><trkpt lat="22.33267478125" lon="114.18728679638672" /><trkpt lat="22.33271578125" lon="114.18729879638671" /><trkpt lat="22.33275978125" lon="114.18731779638672" /><trkpt lat="22.33291178125" lon="114.18734679638672" /><trkpt lat="22.33336378125" lon="114.18743579638672" /><trkpt lat="22.33353778125" lon="114.18746379638672" /><trkpt lat="22.33353378125" lon="114.18749679638672" /><trkpt lat="22.33348878125" lon="114.18788279638672" /><trkpt lat="22.33342178125" lon="114.18798379638672" /><trkpt lat="22.33335878125" lon="114.18803479638672" /><trkpt lat="22.33325878125" lon="114.18808979638672" /><trkpt lat="22.33316478125" lon="114.18817379638672" /><trkpt lat="22.33309078125" lon="114.18820279638672" /><trkpt lat="22.33307978125" lon="114.18823379638673" /><trkpt lat="22.33324678125" lon="114.18826179638671" /><trkpt lat="22.33338078125" lon="114.18832379638671" /><trkpt lat="22.33346778125" lon="114.18836579638672" /><trkpt lat="22.33346978125" lon="114.18851379638672" /><trkpt lat="22.33345778125" lon="114.18867179638671" /><trkpt lat="22.33346978125" lon="114.18878979638671" /><trkpt lat="22.33345478125" lon="114.18892379638672" /><trkpt lat="22.33345478125" lon="114.18906079638671" /><trkpt lat="22.33348378125" lon="114.18915679638671" /><trkpt lat="22.333532543857416" lon="114.1892399588773" /><trkpt lat="22.33355159441716" lon="114.18932532896213" /><trkpt lat="22.333581942747415" lon="114.18939087638591" /><trkpt lat="22.333646248549698" lon="114.18937131667371" /><trkpt lat="22.333627657289284" lon="114.18928224996785" /><trkpt lat="22.333517221987677" lon="114.18908144064193" /><trkpt lat="22.333499162708975" lon="114.18900462909824" /><trkpt lat="22.333499944111296" lon="114.18889725168134" /><trkpt lat="22.33346417629841" lon="114.18873468482357" /><trkpt lat="22.33345778125" lon="114.18867179638671" /><trkpt lat="22.33346978125" lon="114.18851379638672" /><trkpt lat="22.33346778125" lon="114.18836579638672" /><trkpt lat="22.33338078125" lon="114.18832379638671" /><trkpt lat="22.33324678125" lon="114.18826179638671" /><trkpt lat="22.33307978125" lon="114.18823379638673" /><trkpt lat="22.33309078125" lon="114.18820279638672" /><trkpt lat="22.33316478125" lon="114.18817379638672" /><trkpt lat="22.33325878125" lon="114.18808979638672" /><trkpt lat="22.33335878125" lon="114.18803479638672" /><trkpt lat="22.33342178125" lon="114.18798379638672" /><trkpt lat="22.33348878125" lon="114.18788279638672" /><trkpt lat="22.33353378125" lon="114.18749679638672" /><trkpt lat="22.33353778125" lon="114.18746379638672" /><trkpt lat="22.33350078125" lon="114.18745779638672" /><trkpt lat="22.33336378125" lon="114.18743579638672" /><trkpt lat="22.33291178125" lon="114.18734679638672" /><trkpt lat="22.33275978125" lon="114.18731779638672" /><trkpt lat="22.33271578125" lon="114.18729879638671" /><trkpt lat="22.33267478125" lon="114.18728679638672" /><trkpt lat="22.33263278125" lon="114.18728879638672" /><trkpt lat="22.33265278125" lon="114.18719079638672" /><trkpt lat="22.33266878125" lon="114.18711279638671" /><trkpt lat="22.33262278125" lon="114.18709679638673" /><trkpt lat="22.33232578125" lon="114.18708279638672" /><trkpt lat="22.33190678125" lon="114.18706379638672" /><trkpt lat="22.33186978125" lon="114.18703779638672" /><trkpt lat="22.33184078125" lon="114.18700579638671" /><trkpt lat="22.33184278125" lon="114.18694379638671" /><trkpt lat="22.33177078125" lon="114.18694079638672" /><trkpt lat="22.33169478125" lon="114.18693779638672" /><trkpt lat="22.33169078125" lon="114.18704079638673" /><trkpt lat="22.33156278125" lon="114.18703579638672" /><trkpt lat="22.33079978125" lon="114.18700479638672" /><trkpt lat="22.33022578125" lon="114.18698179638672" /><trkpt lat="22.32906178125" lon="114.18693379638673" /><trkpt lat="22.32905778125" lon="114.18702379638673" /><trkpt lat="22.32899678125" lon="114.18702079638672" /><trkpt lat="22.32859678125" lon="114.18700279638672" /><trkpt lat="22.32842478125" lon="114.18699579638673" /><trkpt lat="22.32831378125" lon="114.18699079638672" /><trkpt lat="22.32823778125" lon="114.18698679638672" /><trkpt lat="22.32814578125" lon="114.18698279638672" /><trkpt lat="22.32804878125" lon="114.18697879638673" /><trkpt lat="22.32744778125" lon="114.18695179638672" /><trkpt lat="22.32742578125" lon="114.18688579638672" /><trkpt lat="22.32738678125" lon="114.18689079638672" /><trkpt lat="22.32737478125" lon="114.18689279638672" /><trkpt lat="22.32734178125" lon="114.18689679638672" /><trkpt lat="22.32729678125" lon="114.18689979638673" /><trkpt lat="22.32728078125" lon="114.18689979638673" /><trkpt lat="22.32723478125" lon="114.18681879638672" /><trkpt lat="22.32721278125" lon="114.18681979638671" /><trkpt lat="22.32717678125" lon="114.18682279638672" /><trkpt lat="22.32713378125" lon="114.18683079638672" /><trkpt lat="22.32705778125" lon="114.18634079638672" /><trkpt lat="22.32704078125" lon="114.18629779638673" /><trkpt lat="22.32689278125" lon="114.18545679638672" /><trkpt lat="22.32687978125" lon="114.18540679638672" /><trkpt lat="22.32685878125" lon="114.18536279638671" /><trkpt lat="22.32682878125" lon="114.18535079638671" /><trkpt lat="22.32679578125" lon="114.18527379638672" /><trkpt lat="22.32673878125" lon="114.18528479638672" /><trkpt lat="22.32562178125" lon="114.18551279638672" /><trkpt lat="22.32522478125" lon="114.18559779638672" /><trkpt lat="22.32519578125" lon="114.18560379638672" /><trkpt lat="22.32518378125" lon="114.18554579638672" /><trkpt lat="22.32505578125" lon="114.18556379638672" /><trkpt lat="22.32504878125" lon="114.18556079638672" /><trkpt lat="22.32504378125" lon="114.18555779638672" /><trkpt lat="22.32503978125" lon="114.18555379638671" /><trkpt lat="22.32503678125" lon="114.18554879638671" /><trkpt lat="22.32499578125" lon="114.18547579638673" /><trkpt lat="22.32494478125" lon="114.18550879638671" /><trkpt lat="22.32489478125" lon="114.18553979638672" /><trkpt lat="22.32491778125" lon="114.18558579638672" /><trkpt lat="22.32490478125" lon="114.18559379638671" /><trkpt lat="22.32486678125" lon="114.18561679638673" /><trkpt lat="22.32485778125" lon="114.18559879638671" /><trkpt lat="22.32483778125" lon="114.18555579638672" /><trkpt lat="22.32471878125" lon="114.18530479638672" /><trkpt lat="22.32445078125" lon="114.18472279638672" /><trkpt lat="22.32443978125" lon="114.18469879638671" /><trkpt lat="22.32409278125" lon="114.18394379638671" /><trkpt lat="22.32407778125" lon="114.18391179638672" /><trkpt lat="22.32405578125" lon="114.18386679638672" /><trkpt lat="22.32398878125" lon="114.18373079638671" /><trkpt lat="22.32387678125" lon="114.18380079638672" /><trkpt lat="22.32384078125" lon="114.18382279638672" /><trkpt lat="22.32368078125" lon="114.18391879638672" /><trkpt lat="22.32315778125" lon="114.18423379638672" /><trkpt lat="22.32246478125" lon="114.18460979638672" /><trkpt lat="22.322942013256935" lon="114.18556126944554" /><trkpt lat="22.322949730228828" lon="114.18564739046946" /><trkpt lat="22.32301159059527" lon="114.18560495463987" /><trkpt lat="22.32298105759071" lon="114.1855439607179" /><trkpt lat="22.32289414157117" lon="114.18550433573614" /><trkpt lat="22.322841212264905" lon="114.18546632390172" /><trkpt lat="22.322844539508417" lon="114.18540001586372" /><trkpt lat="22.32264978125" lon="114.18498679638672" /><trkpt lat="22.32251378125" lon="114.18471379638672" /><trkpt lat="22.32250178125" lon="114.18468779638673" /><trkpt lat="22.32245078125" lon="114.18461679638672" /><trkpt lat="22.32234778125" lon="114.18466379638672" /><trkpt lat="22.32205978125" lon="114.18477579638672" /><trkpt lat="22.32203778125" lon="114.18478379638672" /><trkpt lat="22.32122878125" lon="114.18506679638672" /><trkpt lat="22.32101278125" lon="114.18515579638672" /><trkpt lat="22.32042178125" lon="114.18538079638672" /><trkpt lat="22.32026978125" lon="114.18544279638672" /><trkpt lat="22.32014678125" lon="114.18553979638672" /><trkpt lat="22.32007978125" lon="114.18564379638671" /><trkpt lat="22.31991878125" lon="114.18555479638673" /><trkpt lat="22.31973078125" lon="114.18539279638672" /><trkpt lat="22.31951078125" lon="114.18515679638672" /><trkpt lat="22.31941778125" lon="114.18500879638673" /><trkpt lat="22.31935678125" lon="114.18491079638672" /><trkpt lat="22.31932778125" lon="114.18481979638672" /><trkpt lat="22.31932778125" lon="114.18473079638672" /><trkpt lat="22.31933778125" lon="114.18459879638672" /><trkpt lat="22.31936178125" lon="114.18450279638672" /><trkpt lat="22.31943578125" lon="114.18436179638672" /><trkpt lat="22.31983078125" lon="114.18377079638672" /><trkpt lat="22.31990778125" lon="114.18365579638672" /><trkpt lat="22.32001278125" lon="114.18346779638672" /><trkpt lat="22.32005878125" lon="114.18321079638672" /><trkpt lat="22.32005478125" lon="114.18307179638671" /><trkpt lat="22.31988078125" lon="114.18215179638672" /><trkpt lat="22.31978578125" lon="114.18174579638672" /><trkpt lat="22.31967678125" lon="114.18151979638672" /><trkpt lat="22.31952278125" lon="114.18132379638672" /><trkpt lat="22.31938178125" lon="114.18120679638672" /><trkpt lat="22.31943364246389" lon="114.18112540659367" /><trkpt lat="22.319308971292898" lon="114.18106114916633" /><trkpt lat="22.31881778125" lon="114.18075279638671" /><trkpt lat="22.31857778125" lon="114.18060479638672" /><trkpt lat="22.31775478125" lon="114.18012279638671" /><trkpt lat="22.31770978125" lon="114.18010079638672" /><trkpt lat="22.31714978125" lon="114.17982479638673" /><trkpt lat="22.31712878125" lon="114.17979979638672" /><trkpt lat="22.317121781250002" lon="114.17978679638672" /><trkpt lat="22.31711678125" lon="114.17976979638672" /><trkpt lat="22.31711578125" lon="114.17975279638672" /><trkpt lat="22.31724278125" lon="114.17943079638673" /><trkpt lat="22.31726178125" lon="114.17938779638672" /><trkpt lat="22.31727378125" lon="114.17936979638672" /><trkpt lat="22.31730978125" lon="114.17932779638672" /><trkpt lat="22.31761978125" lon="114.17918679638672" /><trkpt lat="22.31774578125" lon="114.17909479638672" /><trkpt lat="22.31788878125" lon="114.17900079638672" /><trkpt lat="22.31790578125" lon="114.17899579638672" /><trkpt lat="22.31794461719565" lon="114.17897518822309" /><trkpt lat="22.31792478125" lon="114.17894179638672" /><trkpt lat="22.31788278125" lon="114.17887979638672" /><trkpt lat="22.31774978125" lon="114.17882079638672" /><trkpt lat="22.31770978125" lon="114.17880679638672" /><trkpt lat="22.31765778125" lon="114.17878179638672" /><trkpt lat="22.31729078125" lon="114.17857879638672" /><trkpt lat="22.31725378125" lon="114.17857479638671" /><trkpt lat="22.31720078125" lon="114.17858679638672" /><trkpt lat="22.31708578125" lon="114.17854979638672" /><trkpt lat="22.31702278125" lon="114.17850579638672" /><trkpt lat="22.31657178125" lon="114.17835779638672" /><trkpt lat="22.31627578125" lon="114.17820879638671" /><trkpt lat="22.31603378125" lon="114.17800879638672" /><trkpt lat="22.31560678125" lon="114.17757379638672" /><trkpt lat="22.31526378125" lon="114.17741179638672" /><trkpt lat="22.31517578125" lon="114.17741379638672" /><trkpt lat="22.31515378125" lon="114.17742579638671" /><trkpt lat="22.31512078125" lon="114.17745379638671" /><trkpt lat="22.31508478125" lon="114.17742279638672" /><trkpt lat="22.31506778125" lon="114.17744079638672" /><trkpt lat="22.31502878125" lon="114.17754479638671" /><trkpt lat="22.31502678125" lon="114.17743879638672" /><trkpt lat="22.31500678125" lon="114.17738279638672" /><trkpt lat="22.31495078125" lon="114.17737979638672" /><trkpt lat="22.31494378125" lon="114.17736479638671" /><trkpt lat="22.31484478125" lon="114.17731579638672" /><trkpt lat="22.31476700811828" lon="114.17723982277857" /><trkpt lat="22.31238021988355" lon="114.17689797421895" /><trkpt lat="22.312072241302786" lon="114.17697012383009" /><trkpt lat="22.31106078125" lon="114.17802879638671" /><trkpt lat="22.31083578125" lon="114.17823879638672" /><trkpt lat="22.31067878125" lon="114.17842079638672" /><trkpt lat="22.31063778125" lon="114.17846179638671" /><trkpt lat="22.31054978125" lon="114.17854879638672" /><trkpt lat="22.31046878125" lon="114.17868679638671" /><trkpt lat="22.31046778125" lon="114.17875679638672" /><trkpt lat="22.31040778125" lon="114.17882679638672" /><trkpt lat="22.31032578125" lon="114.17890579638672" /><trkpt lat="22.31022978125" lon="114.17895079638672" /><trkpt lat="22.31014578125" lon="114.17901579638672" /><trkpt lat="22.31007178125" lon="114.17906379638671" /><trkpt lat="22.31003778125" lon="114.17911679638672" /><trkpt lat="22.30995078125" lon="114.17926679638671" /><trkpt lat="22.30984478125" lon="114.17938179638672" /><trkpt lat="22.30977278125" lon="114.17947079638672" /><trkpt lat="22.30963878125" lon="114.17956479638671" /><trkpt lat="22.30954378125" lon="114.17961579638671" /><trkpt lat="22.30948978125" lon="114.17968279638671" /><trkpt lat="22.30941778125" lon="114.17978479638671" /><trkpt lat="22.30922878125" lon="114.17995579638672" /><trkpt lat="22.30917678125" lon="114.18002579638672" /><trkpt lat="22.30913978125" lon="114.18011179638673" /><trkpt lat="22.30906078125" lon="114.18016279638672" /><trkpt lat="22.30898878125" lon="114.18022979638671" /><trkpt lat="22.30890678125" lon="114.18032379638672" /><trkpt lat="22.30883478125" lon="114.18036879638672" /><trkpt lat="22.30877478125" lon="114.18043079638672" /><trkpt lat="22.30869778125" lon="114.18051979638672" /><trkpt lat="22.30862878125" lon="114.18057879638671" /><trkpt lat="22.30858178125" lon="114.18063479638671" /><trkpt lat="22.30851478125" lon="114.18072279638672" /><trkpt lat="22.30841678125" lon="114.18082579638671" /><trkpt lat="22.30817978125" lon="114.18091779638672" /><trkpt lat="22.30790778125" lon="114.18115779638671" /><trkpt lat="22.30785278125" lon="114.18121379638671" /><trkpt lat="22.30781078125" lon="114.18126279638672" /><trkpt lat="22.30776478125" lon="114.18131279638672" /><trkpt lat="22.30770478125" lon="114.18135279638672" /><trkpt lat="22.30742178125" lon="114.18159979638672" /><trkpt lat="22.30737378125" lon="114.18164779638671" /><trkpt lat="22.30735078125" lon="114.18168579638672" /><trkpt lat="22.30724178125" lon="114.18178979638672" /><trkpt lat="22.30721678125" lon="114.18184379638672" /><trkpt lat="22.307331793907828" lon="114.18188472138397" /><trkpt lat="22.30729478125" lon="114.18195779638671" /><trkpt lat="22.30725978125" lon="114.18205579638672" /><trkpt lat="22.30728878125" lon="114.18210179638672" /><trkpt lat="22.30681378125" lon="114.18286979638673" /><trkpt lat="22.30676678125" lon="114.18290279638671" /><trkpt lat="22.30651678125" lon="114.18332879638672" /><trkpt lat="22.30655878125" lon="114.18335879638671" /><trkpt lat="22.30645278125" lon="114.18352179638671" /><trkpt lat="22.30631978125" lon="114.18374379638672" /><trkpt lat="22.30625378125" lon="114.18368779638672" /><trkpt lat="22.30619278125" lon="114.18362179638672" /><trkpt lat="22.30615678125" lon="114.18363179638672" /><trkpt lat="22.30609578125" lon="114.18368579638671" /><trkpt lat="22.30606478125" lon="114.18374879638672" /><trkpt lat="22.30609378125" lon="114.18376579638672" /><trkpt lat="22.30606578125" lon="114.18382179638672" /><trkpt lat="22.30605278125" lon="114.18385279638672" /><trkpt lat="22.30602878125" lon="114.18389379638671" /><trkpt lat="22.30592078125" lon="114.18409579638671" /><trkpt lat="22.30578778125" lon="114.18435879638672" /><trkpt lat="22.30576278125" lon="114.18433979638672" /><trkpt lat="22.30557578125" lon="114.18420979638672" /><trkpt lat="22.30521778125" lon="114.18394579638672" /><trkpt lat="22.30491078125" lon="114.18370379638672" /><trkpt lat="22.30445278125" lon="114.18338779638673" /><trkpt lat="22.30405078125" lon="114.18309579638672" /><trkpt lat="22.30403578125" lon="114.18303879638673" /><trkpt lat="22.30399678125" lon="114.18298679638671" /><trkpt lat="22.30394378125" lon="114.18295879638671" /><trkpt lat="22.30400978125" lon="114.18218479638672" /><trkpt lat="22.30383478125" lon="114.18216679638672" /><trkpt lat="22.30385278125" lon="114.18197879638672" /><trkpt lat="22.30389578125" lon="114.18142579638672" /><trkpt lat="22.30390078125" lon="114.18136779638672" /><trkpt lat="22.30345278125" lon="114.18131879638672" /><trkpt lat="22.30222678125" lon="114.18115979638672" /><trkpt lat="22.30205378125" lon="114.18111979638672" /><trkpt lat="22.30201478125" lon="114.18110979638672" /><trkpt lat="22.30094778125" lon="114.18105879638672" /><trkpt lat="22.30077478125" lon="114.18106179638671" /><trkpt lat="22.30066978125" lon="114.18104679638672" /><trkpt lat="22.30018078125" lon="114.18092379638672" /><trkpt lat="22.29978278125" lon="114.18092079638672" /><trkpt lat="22.29962278125" lon="114.18097479638672" /><trkpt lat="22.29942678125" lon="114.18086679638672" /><trkpt lat="22.29940278125" lon="114.18085479638673" /><trkpt lat="22.29932278125" lon="114.18086779638672" /><trkpt lat="22.29912378125" lon="114.18067979638671" /><trkpt lat="22.29910578125" lon="114.18056079638671" /><trkpt lat="22.29907378125" lon="114.18056779638673" /><trkpt lat="22.29829678125" lon="114.17962079638671" /><trkpt lat="22.29817078125" lon="114.17947479638671" /><trkpt lat="22.29797778125" lon="114.17924679638672" /><trkpt lat="22.29744078125" lon="114.17858279638672" /><trkpt lat="22.29698178125" lon="114.17803079638672" /><trkpt lat="22.29614378125" lon="114.17702179638673" /><trkpt lat="22.29568378125" lon="114.17661579638671" /><trkpt lat="22.29569978125" lon="114.17659379638671" /><trkpt lat="22.29575078125" lon="114.17652479638672" /><trkpt lat="22.29613678125" lon="114.17607379638672" /><trkpt lat="22.29620478125" lon="114.17600879638672" /><trkpt lat="22.29585678125" lon="114.17546779638671" /><trkpt lat="22.29580678125" lon="114.17538379638673" /><trkpt lat="22.29563878125" lon="114.17509879638672" /><trkpt lat="22.29563878125" lon="114.17472479638671" /><trkpt lat="22.29711378125" lon="114.17462179638672" /><trkpt lat="22.29722878125" lon="114.17460779638672" /><trkpt lat="22.29712078125" lon="114.17364379638671" /><trkpt lat="22.29711478125" lon="114.17356679638672" /><trkpt lat="22.29709678125" lon="114.17340679638671" /><trkpt lat="22.29705378125" lon="114.17302279638672" /><trkpt lat="22.29695778125" lon="114.17232379638672" /><trkpt lat="22.29699178125" lon="114.17232179638673" /><trkpt lat="22.29764278125" lon="114.17227679638673" /><trkpt lat="22.29766778125" lon="114.17227479638672" /><trkpt lat="22.29802178125" lon="114.17225879638671" /><trkpt lat="22.29811878125" lon="114.17225379638671" /><trkpt lat="22.29816478125" lon="114.17225179638672" /><trkpt lat="22.29819878125" lon="114.17225079638672" /><trkpt lat="22.29868678125" lon="114.17222979638672" /><trkpt lat="22.29872178125" lon="114.17222879638672" /><trkpt lat="22.29875378125" lon="114.17222679638672" /><trkpt lat="22.29886978125" lon="114.17218579638671" /><trkpt lat="22.29947978125" lon="114.17214579638672" /><trkpt lat="22.29949978125" lon="114.17220279638671" /><trkpt lat="22.29951578125" lon="114.17220179638672" /><trkpt lat="22.29954878125" lon="114.17219679638671" /><trkpt lat="22.29956778125" lon="114.17219479638672" /><trkpt lat="22.29959578125" lon="114.17219179638671" /><trkpt lat="22.29961278125" lon="114.17213979638672" /><trkpt lat="22.30029478125" lon="114.17208279638672" /><trkpt lat="22.30032878125" lon="114.17209279638672" /><trkpt lat="22.30034778125" lon="114.17208979638671" /><trkpt lat="22.30038978125" lon="114.17209479638672" /><trkpt lat="22.30038378125" lon="114.17208479638671" /><trkpt lat="22.30036778125" lon="114.17205779638672" /><trkpt lat="22.30034673222889" lon="114.17201878020197" /><trkpt lat="22.30036278125" lon="114.17201779638673" /><trkpt lat="22.30051478125" lon="114.17200279638672" /><trkpt lat="22.30056278125" lon="114.17199779638672" /><trkpt lat="22.30099378125" lon="114.17196879638672" /><trkpt lat="22.30109478125" lon="114.17196279638672" /><trkpt lat="22.30126978125" lon="114.17194979638671" /><trkpt lat="22.30127678125" lon="114.17202979638672" /><trkpt lat="22.30128178125" lon="114.17209379638672" /><trkpt lat="22.30129478125" lon="114.17224179638671" /><trkpt lat="22.30128678125" lon="114.17234779638672" /><trkpt lat="22.301339969198196" lon="114.17286130439851" /></trkseg></trk></gpx>