<?xml version='1.0' encoding='UTF-8' ?><gpx version="1.1" creator="HikingTrailHK" xsi:schemaLocation="http://www.topografix.com/GPX/1/1 http://www.topografix.com/GPX/1/1/gpx.xsd" xmlns="http://www.topografix.com/GPX/1/1" xmlns:xsi="http://www.w3.org/2001/XMLSchema-instance"><metadata><name>井欄樹--慈雲山 @ 2015-6-10</name><desc></desc></metadata><trk><trkseg><trkpt lat="22.334111227486982" lon="114.23741813906247" /><trkpt lat="22.33412378125" lon="114.23744979638671" /><trkpt lat="22.33420778125" lon="114.23766279638672" /><trkpt lat="22.33423478125" lon="114.23772979638672" /><trkpt lat="22.33428678125" lon="114.23770079638672" /><trkpt lat="22.33432778125" lon="114.23767679638672" /><trkpt lat="22.33441078125" lon="114.23768179638672" /><trkpt lat="22.33465878125" lon="114.23778979638672" /><trkpt lat="22.33475078125" lon="114.23784679638672" /><trkpt lat="22.33479478125" lon="114.23780379638671" /><trkpt lat="22.33496778125" lon="114.23770279638671" /><trkpt lat="22.33512778125" lon="114.23751579638672" /><trkpt lat="22.33527578125" lon="114.23751579638672" /><trkpt lat="22.33536778125" lon="114.23745079638672" /><trkpt lat="22.33553378125" lon="114.23715479638672" /><trkpt lat="22.33576478125" lon="114.23670279638672" /><trkpt lat="22.33585578125" lon="114.23653079638672" /><trkpt lat="22.33597378125" lon="114.23651679638672" /><trkpt lat="22.33601978125" lon="114.23637079638672" /><trkpt lat="22.33616978125" lon="114.23639879638672" /><trkpt lat="22.33629178125" lon="114.23616679638671" /><trkpt lat="22.33649478125" lon="114.23594479638672" /><trkpt lat="22.33669278125" lon="114.23578779638672" /><trkpt lat="22.33690878125" lon="114.23574679638672" /><trkpt lat="22.33700678125" lon="114.23580879638672" /><trkpt lat="22.33711578125" lon="114.23574079638672" /><trkpt lat="22.33736278125" lon="114.23557579638671" /><trkpt lat="22.33762178125" lon="114.23540079638671" /><trkpt lat="22.33766278125" lon="114.23531879638672" /><trkpt lat="22.33785078125" lon="114.23523379638672" /><trkpt lat="22.33806978125" lon="114.23521179638672" /><trkpt lat="22.33825178125" lon="114.23519679638672" /><trkpt lat="22.33834878125" lon="114.23517979638672" /><trkpt lat="22.33847278125" lon="114.23524879638671" /><trkpt lat="22.33861178125" lon="114.23527579638672" /><trkpt lat="22.33874578125" lon="114.23547479638673" /><trkpt lat="22.33884978125" lon="114.23545879638672" /><trkpt lat="22.33895178125" lon="114.23550179638671" /><trkpt lat="22.33912078125" lon="114.23549179638673" /><trkpt lat="22.33934178125" lon="114.23541579638672" /><trkpt lat="22.33955778125" lon="114.23538379638671" /><trkpt lat="22.33981078125" lon="114.23527079638671" /><trkpt lat="22.34009778125" lon="114.23526079638673" /><trkpt lat="22.34038078125" lon="114.23519679638672" /><trkpt lat="22.34054178125" lon="114.23520679638672" /><trkpt lat="22.34072578125" lon="114.23523879638672" /><trkpt lat="22.34087478125" lon="114.23525979638671" /><trkpt lat="22.34104278125" lon="114.23534079638672" /><trkpt lat="22.34123678125" lon="114.23535679638672" /><trkpt lat="22.34146978125" lon="114.23517379638672" /><trkpt lat="22.34152978125" lon="114.23520679638672" /><trkpt lat="22.34169278125" lon="114.23514779638671" /><trkpt lat="22.34185678125" lon="114.23503479638671" /><trkpt lat="22.34198078125" lon="114.23486279638672" /><trkpt lat="22.34202078125" lon="114.23470179638672" /><trkpt lat="22.34208978125" lon="114.23454079638672" /><trkpt lat="22.34221878125" lon="114.23443879638671" /><trkpt lat="22.34232878125" lon="114.23434279638671" /><trkpt lat="22.34245478125" lon="114.23401079638671" /><trkpt lat="22.34252878125" lon="114.23374279638672" /><trkpt lat="22.34260878125" lon="114.23355279638672" /><trkpt lat="22.34266578125" lon="114.23345179638672" /><trkpt lat="22.34277978125" lon="114.23331279638671" /><trkpt lat="22.34299778125" lon="114.23347379638672" /><trkpt lat="22.34314678125" lon="114.23355979638671" /><trkpt lat="22.34327578125" lon="114.23374179638672" /><trkpt lat="22.34357378125" lon="114.23380079638672" /><trkpt lat="22.34371778125" lon="114.23370979638672" /><trkpt lat="22.34384678125" lon="114.23357179638671" /><trkpt lat="22.34384178125" lon="114.23341479638673" /><trkpt lat="22.34378678125" lon="114.23312979638672" /><trkpt lat="22.34375678125" lon="114.23294279638672" /><trkpt lat="22.34386178125" lon="114.23291579638672" /><trkpt lat="22.34405478125" lon="114.23282979638672" /><trkpt lat="22.34424878125" lon="114.23280879638672" /><trkpt lat="22.34444678125" lon="114.23272179638671" /><trkpt lat="22.34468978125" lon="114.23261579638672" /><trkpt lat="22.34488378125" lon="114.23255079638672" /><trkpt lat="22.34501978125" lon="114.23244479638672" /><trkpt lat="22.34521578125" lon="114.23247079638672" /><trkpt lat="22.34531978125" lon="114.23256679638672" /><trkpt lat="22.34544878125" lon="114.23273379638673" /><trkpt lat="22.34549978125" lon="114.23294379638672" /><trkpt lat="22.34562778125" lon="114.23310879638672" /><trkpt lat="22.34567278125" lon="114.23336079638672" /><trkpt lat="22.34569678125" lon="114.23368279638672" /><trkpt lat="22.34584578125" lon="114.23390279638672" /><trkpt lat="22.34599978125" lon="114.23407479638672" /><trkpt lat="22.34614578125" lon="114.23435679638672" /><trkpt lat="22.34625278125" lon="114.23458379638672" /><trkpt lat="22.34628778125" lon="114.23470179638672" /><trkpt lat="22.34640678125" lon="114.23478779638671" /><trkpt lat="22.34649578125" lon="114.23480379638671" /><trkpt lat="22.34657078125" lon="114.23483579638672" /><trkpt lat="22.34652778125" lon="114.23494879638672" /><trkpt lat="22.34656378125" lon="114.23494579638673" /><trkpt lat="22.34659978125" lon="114.23492379638672" /><trkpt lat="22.34666978125" lon="114.23483179638671" /><trkpt lat="22.34684178125" lon="114.23456679638672" /><trkpt lat="22.34691678125" lon="114.23448279638671" /><trkpt lat="22.34700778125" lon="114.23443279638671" /><trkpt lat="22.34707378125" lon="114.23440379638672" /><trkpt lat="22.34714378125" lon="114.23439979638673" /><trkpt lat="22.34732378125" lon="114.23442579638672" /><trkpt lat="22.34758078125" lon="114.23452279638671" /><trkpt lat="22.34784478125" lon="114.23464079638671" /><trkpt lat="22.34793278125" lon="114.23464679638671" /><trkpt lat="22.34800378125" lon="114.23463679638672" /><trkpt lat="22.34816278125" lon="114.23457779638672" /><trkpt lat="22.34836678125" lon="114.23443379638672" /><trkpt lat="22.34845778125" lon="114.23439679638672" /><trkpt lat="22.34855378125" lon="114.23437279638672" /><trkpt lat="22.34864778125" lon="114.23436479638671" /><trkpt lat="22.34911478125" lon="114.23439579638672" /><trkpt lat="22.34917378125" lon="114.23438479638672" /><trkpt lat="22.34921778125" lon="114.23435479638673" /><trkpt lat="22.34936378125" lon="114.23424579638672" /><trkpt lat="22.34955078125" lon="114.23414379638672" /><trkpt lat="22.34986178125" lon="114.23405079638673" /><trkpt lat="22.34995378125" lon="114.23403779638672" /><trkpt lat="22.35007278125" lon="114.23404779638672" /><trkpt lat="22.35036678125" lon="114.23415379638672" /><trkpt lat="22.35048478125" lon="114.23420179638671" /><trkpt lat="22.35064778125" lon="114.23421679638672" /><trkpt lat="22.35075178125" lon="114.23426579638672" /><trkpt lat="22.35082378125" lon="114.23432879638672" /><trkpt lat="22.35086978125" lon="114.23440779638672" /><trkpt lat="22.35089478125" lon="114.23447779638671" /><trkpt lat="22.35091978125" lon="114.23458879638672" /><trkpt lat="22.35096178125" lon="114.23459979638672" /><trkpt lat="22.35099378125" lon="114.23464879638672" /><trkpt lat="22.35103578125" lon="114.23467779638672" /><trkpt lat="22.35109578125" lon="114.23465879638673" /><trkpt lat="22.35114278125" lon="114.23461379638672" /><trkpt lat="22.35116978125" lon="114.23451979638672" /><trkpt lat="22.35122978125" lon="114.23447679638672" /><trkpt lat="22.35129678125" lon="114.23448179638672" /><trkpt lat="22.35133078125" lon="114.23454679638672" /><trkpt lat="22.35137778125" lon="114.23461079638672" /><trkpt lat="22.35144278125" lon="114.23469979638672" /><trkpt lat="22.35150978125" lon="114.23472879638672" /><trkpt lat="22.35156378125" lon="114.23479079638672" /><trkpt lat="22.35163878125" lon="114.23478779638671" /><trkpt lat="22.35170078125" lon="114.23481479638671" /><trkpt lat="22.35178978125" lon="114.23476079638672" /><trkpt lat="22.35191878125" lon="114.23455179638673" /><trkpt lat="22.35207778125" lon="114.23428379638672" /><trkpt lat="22.35211278125" lon="114.23408479638672" /><trkpt lat="22.35209078125" lon="114.23384879638672" /><trkpt lat="22.35220178125" lon="114.23356479638672" /><trkpt lat="22.35230578125" lon="114.23345779638672" /><trkpt lat="22.35241978125" lon="114.23335579638672" /><trkpt lat="22.35243978125" lon="114.23323779638672" /><trkpt lat="22.35239978125" lon="114.23314679638672" /><trkpt lat="22.35238978125" lon="114.23301779638672" /><trkpt lat="22.35241478125" lon="114.23292079638672" /><trkpt lat="22.35241478125" lon="114.23279779638672" /><trkpt lat="22.35248978125" lon="114.23272779638671" /><trkpt lat="22.35261878125" lon="114.23266879638672" /><trkpt lat="22.35290178125" lon="114.23237379638672" /><trkpt lat="22.35306478125" lon="114.23229879638671" /><trkpt lat="22.35316878125" lon="114.23229879638671" /><trkpt lat="22.35332278125" lon="114.23223979638672" /><trkpt lat="22.35349178125" lon="114.23204679638673" /><trkpt lat="22.35353178125" lon="114.23194479638671" /><trkpt lat="22.35358078125" lon="114.23175179638672" /><trkpt lat="22.35368978125" lon="114.23159579638671" /><trkpt lat="22.35371978125" lon="114.23149379638672" /><trkpt lat="22.35380378125" lon="114.23127979638672" /><trkpt lat="22.35390378125" lon="114.23120479638672" /><trkpt lat="22.35396278125" lon="114.23112379638673" /><trkpt lat="22.35420878125" lon="114.23093979638672" /><trkpt lat="22.35439378125" lon="114.23083779638672" /><trkpt lat="22.35464078125" lon="114.23056779638672" /><trkpt lat="22.35482778125" lon="114.23039479638672" /><trkpt lat="22.35503478125" lon="114.23015879638672" /><trkpt lat="22.35511878125" lon="114.23002979638672" /><trkpt lat="22.35511378125" lon="114.22991679638672" /><trkpt lat="22.35502478125" lon="114.22970779638672" /><trkpt lat="22.35506778125" lon="114.22947979638671" /><trkpt lat="22.35509578125" lon="114.22923979638672" /><trkpt lat="22.35517878125" lon="114.22910179638671" /><trkpt lat="22.35516878125" lon="114.22890879638672" /><trkpt lat="22.35526278125" lon="114.22872579638671" /><trkpt lat="22.35532778125" lon="114.22859779638672" /><trkpt lat="22.35535178125" lon="114.22836679638672" /><trkpt lat="22.35537678125" lon="114.22813579638672" /><trkpt lat="22.35536178125" lon="114.22798579638672" /><trkpt lat="22.35526178125" lon="114.22776279638671" /><trkpt lat="22.35528978125" lon="114.22761079638671" /><trkpt lat="22.35536578125" lon="114.22756579638671" /><trkpt lat="22.35542778125" lon="114.22744879638672" /><trkpt lat="22.35550578125" lon="114.22730979638672" /><trkpt lat="22.35558078125" lon="114.22722379638672" /><trkpt lat="22.35562978125" lon="114.22707879638672" /><trkpt lat="22.35565478125" lon="114.22692879638672" /><trkpt lat="22.35570978125" lon="114.22677379638672" /><trkpt lat="22.35578278125" lon="114.22660779638672" /><trkpt lat="22.35589178125" lon="114.22645979638672" /><trkpt lat="22.35600978125" lon="114.22643279638672" /><trkpt lat="22.35612678125" lon="114.22632779638671" /><trkpt lat="22.35624078125" lon="114.22616479638671" /><trkpt lat="22.35643178125" lon="114.22594579638672" /><trkpt lat="22.35659778125" lon="114.22593079638672" /><trkpt lat="22.35679078125" lon="114.22579179638672" /><trkpt lat="22.35694978125" lon="114.22567379638672" /><trkpt lat="22.35713278125" lon="114.22565779638671" /><trkpt lat="22.35740178125" lon="114.22571179638672" /><trkpt lat="22.35747278125" lon="114.22566179638672" /><trkpt lat="22.35755478125" lon="114.22546979638672" /><trkpt lat="22.35763578125" lon="114.22536079638672" /><trkpt lat="22.35769178125" lon="114.22528479638672" /><trkpt lat="22.35775378125" lon="114.22514779638672" /><trkpt lat="22.35781778125" lon="114.22495479638673" /><trkpt lat="22.35776778125" lon="114.22482079638672" /><trkpt lat="22.35778278125" lon="114.22468679638672" /><trkpt lat="22.35772878125" lon="114.22455779638672" /><trkpt lat="22.35770378125" lon="114.22442379638672" /><trkpt lat="22.35775878125" lon="114.22428479638671" /><trkpt lat="22.35787778125" lon="114.22417179638671" /><trkpt lat="22.35789278125" lon="114.22402179638672" /><trkpt lat="22.35785778125" lon="114.22389279638672" /><trkpt lat="22.35788278125" lon="114.22373179638672" /><trkpt lat="22.35792178125" lon="114.22351179638672" /><trkpt lat="22.35781678125" lon="114.22339079638672" /><trkpt lat="22.35758978125" lon="114.22322779638672" /><trkpt lat="22.35740078125" lon="114.22310979638672" /><trkpt lat="22.35723278125" lon="114.22285179638672" /><trkpt lat="22.35721778125" lon="114.22274479638672" /><trkpt lat="22.35707878125" lon="114.22261079638672" /><trkpt lat="22.35696978125" lon="114.22248179638672" /><trkpt lat="22.35690978125" lon="114.22238579638672" /><trkpt lat="22.35684078125" lon="114.22225679638672" /><trkpt lat="22.35676878125" lon="114.22204979638671" /><trkpt lat="22.35659778125" lon="114.22203379638673" /><trkpt lat="22.35644978125" lon="114.22200679638672" /><trkpt lat="22.35643478125" lon="114.22188979638672" /><trkpt lat="22.35651178125" lon="114.22192079638671" /><trkpt lat="22.35655278125" lon="114.22191779638672" /><trkpt lat="22.35658578125" lon="114.22189479638672" /><trkpt lat="22.35660878125" lon="114.22185479638672" /><trkpt lat="22.35660878125" lon="114.22178479638671" /><trkpt lat="22.35658678125" lon="114.22174879638672" /><trkpt lat="22.35648478125" lon="114.22169479638671" /><trkpt lat="22.35635578125" lon="114.22166179638671" /><trkpt lat="22.35622678125" lon="114.22165079638673" /><trkpt lat="22.35612478125" lon="114.22166279638672" /><trkpt lat="22.35602778125" lon="114.22171879638672" /><trkpt lat="22.35593878125" lon="114.22180579638672" /><trkpt lat="22.35585278125" lon="114.22184679638671" /><trkpt lat="22.35577478125" lon="114.22183479638672" /><trkpt lat="22.35566578125" lon="114.22179079638671" /><trkpt lat="22.35557978125" lon="114.22174879638672" /><trkpt lat="22.35546978125" lon="114.22173979638671" /><trkpt lat="22.35535178125" lon="114.22177979638671" /><trkpt lat="22.35529078125" lon="114.22179279638672" /><trkpt lat="22.35522478125" lon="114.22179679638671" /><trkpt lat="22.35513878125" lon="114.22174979638672" /><trkpt lat="22.35505478125" lon="114.22163979638673" /><trkpt lat="22.35497978125" lon="114.22153279638673" /><trkpt lat="22.35490778125" lon="114.22145979638672" /><trkpt lat="22.35483278125" lon="114.22139979638672" /><trkpt lat="22.35467978125" lon="114.22130679638671" /><trkpt lat="22.35457278125" lon="114.22127279638671" /><trkpt lat="22.35440778125" lon="114.22128979638671" /><trkpt lat="22.35431478125" lon="114.22134279638672" /><trkpt lat="22.35422278125" lon="114.22140779638671" /><trkpt lat="22.35407878125" lon="114.22143879638672" /><trkpt lat="22.35391678125" lon="114.22141879638671" /><trkpt lat="22.35362178125" lon="114.22138279638672" /><trkpt lat="22.35347478125" lon="114.22135879638672" /><trkpt lat="22.35336378125" lon="114.22129979638672" /><trkpt lat="22.353289781249998" lon="114.22124179638672" /><trkpt lat="22.35322878125" lon="114.22115979638671" /><trkpt lat="22.35318678125" lon="114.22106879638672" /><trkpt lat="22.35318178125" lon="114.22096579638672" /><trkpt lat="22.35320878125" lon="114.22086079638672" /><trkpt lat="22.35324878125" lon="114.22074979638671" /><trkpt lat="22.35333178125" lon="114.22062179638672" /><trkpt lat="22.35345078125" lon="114.22053479638672" /><trkpt lat="22.35369578125" lon="114.22047879638671" /><trkpt lat="22.35390278125" lon="114.22043779638672" /><trkpt lat="22.35398878125" lon="114.22039779638672" /><trkpt lat="22.35406078125" lon="114.22033679638672" /><trkpt lat="22.35420078125" lon="114.22016179638672" /><trkpt lat="22.35449178125" lon="114.21965479638672" /><trkpt lat="22.35461778125" lon="114.21946679638671" /><trkpt lat="22.35480478125" lon="114.21937579638671" /><trkpt lat="22.35485278125" lon="114.21938079638672" /><trkpt lat="22.35493578125" lon="114.21938779638671" /><trkpt lat="22.35504478125" lon="114.21944579638672" /><trkpt lat="22.35512078125" lon="114.21951179638671" /><trkpt lat="22.35518578125" lon="114.21956879638672" /><trkpt lat="22.35530778125" lon="114.21962279638672" /><trkpt lat="22.35540778125" lon="114.21962379638671" /><trkpt lat="22.35547578125" lon="114.21959879638672" /><trkpt lat="22.35564478125" lon="114.21939179638672" /><trkpt lat="22.35576878125" lon="114.21928179638672" /><trkpt lat="22.35587578125" lon="114.21924979638672" /><trkpt lat="22.35597978125" lon="114.21923879638672" /><trkpt lat="22.35612078125" lon="114.21925279638671" /><trkpt lat="22.35625978125" lon="114.21925779638671" /><trkpt lat="22.35639378125" lon="114.21922879638672" /><trkpt lat="22.35652078125" lon="114.21916979638672" /><trkpt lat="22.35666678125" lon="114.21900879638672" /><trkpt lat="22.35676278125" lon="114.21876479638672" /><trkpt lat="22.35681578125" lon="114.21856379638672" /><trkpt lat="22.35684278125" lon="114.21849279638671" /><trkpt lat="22.35690278125" lon="114.21837079638672" /><trkpt lat="22.35694478125" lon="114.21820879638672" /><trkpt lat="22.35696678125" lon="114.21794879638672" /><trkpt lat="22.35698178125" lon="114.21764579638672" /><trkpt lat="22.35698678125" lon="114.21750379638672" /><trkpt lat="22.35697178125" lon="114.21740479638672" /><trkpt lat="22.35686078125" lon="114.21728379638672" /><trkpt lat="22.35669978125" lon="114.21720979638671" /><trkpt lat="22.35653378125" lon="114.21715679638672" /><trkpt lat="22.35636978125" lon="114.21703779638672" /><trkpt lat="22.35631678125" lon="114.21687579638672" /><trkpt lat="22.35632978125" lon="114.21676879638672" /><trkpt lat="22.35639678125" lon="114.21654579638673" /><trkpt lat="22.35638378125" lon="114.21637179638672" /><trkpt lat="22.35633178125" lon="114.21622679638672" /><trkpt lat="22.35625778125" lon="114.21608779638672" /><trkpt lat="22.35611778125" lon="114.21585079638672" /><trkpt lat="22.35595478125" lon="114.21565579638671" /><trkpt lat="22.35587778125" lon="114.21559979638671" /><trkpt lat="22.35578178125" lon="114.21554079638672" /><trkpt lat="22.35572178125" lon="114.21542779638672" /><trkpt lat="22.35572378125" lon="114.21528579638672" /><trkpt lat="22.35578178125" lon="114.21515379638672" /><trkpt lat="22.35583378125" lon="114.21497079638672" /><trkpt lat="22.35577678125" lon="114.21484279638672" /><trkpt lat="22.35575678125" lon="114.21472479638672" /><trkpt lat="22.35575678125" lon="114.21454779638673" /><trkpt lat="22.35576378125" lon="114.21437379638672" /><trkpt lat="22.35577778125" lon="114.21403679638672" /><trkpt lat="22.35578878125" lon="114.21386679638672" /><trkpt lat="22.35579078125" lon="114.21341579638671" /><trkpt lat="22.35573978125" lon="114.21308279638671" /><trkpt lat="22.35565478125" lon="114.21272979638672" /><trkpt lat="22.35559278125" lon="114.21253579638672" /><trkpt lat="22.35550378125" lon="114.21240179638671" /><trkpt lat="22.35545378125" lon="114.21221979638672" /><trkpt lat="22.35538978125" lon="114.21193279638672" /><trkpt lat="22.35534078125" lon="114.21162779638672" /><trkpt lat="22.35527278125" lon="114.21133579638672" /><trkpt lat="22.35518978125" lon="114.21110779638671" /><trkpt lat="22.35517978125" lon="114.21091679638671" /><trkpt lat="22.35522478125" lon="114.21082179638672" /><trkpt lat="22.35532578125" lon="114.21066279638671" /><trkpt lat="22.35538678125" lon="114.21049779638672" /><trkpt lat="22.35539578125" lon="114.21026679638672" /><trkpt lat="22.35544478125" lon="114.21008679638672" /><trkpt lat="22.35556578125" lon="114.20990479638672" /><trkpt lat="22.35568178125" lon="114.20977379638671" /><trkpt lat="22.35575678125" lon="114.20971179638671" /><trkpt lat="22.35585678125" lon="114.20952979638672" /><trkpt lat="22.35591878125" lon="114.20934079638671" /><trkpt lat="22.35592378125" lon="114.20926379638672" /><trkpt lat="22.35593178125" lon="114.20919579638672" /><trkpt lat="22.35592278125" lon="114.20911179638672" /><trkpt lat="22.35591278125" lon="114.20902379638672" /><trkpt lat="22.35587078125" lon="114.20895279638673" /><trkpt lat="22.35571978125" lon="114.20882879638671" /><trkpt lat="22.35564978125" lon="114.20875879638672" /><trkpt lat="22.35557078125" lon="114.20863879638672" /><trkpt lat="22.35548278125" lon="114.20854779638672" /><trkpt lat="22.35530778125" lon="114.20836579638672" /><trkpt lat="22.35524778125" lon="114.20826779638672" /><trkpt lat="22.35519578125" lon="114.20820479638672" /><trkpt lat="22.35514578125" lon="114.20806479638672" /><trkpt lat="22.35512878125" lon="114.20772579638673" /><trkpt lat="22.35505978125" lon="114.20755579638671" /><trkpt lat="22.35500578125" lon="114.20729779638671" /><trkpt lat="22.35490878125" lon="114.20718579638672" /><trkpt lat="22.35471078125" lon="114.20697579638671" /><trkpt lat="22.35464878125" lon="114.20680079638672" /><trkpt lat="22.35466878125" lon="114.20667079638672" /><trkpt lat="22.35484178125" lon="114.20647279638672" /><trkpt lat="22.35493778125" lon="114.20623479638672" /><trkpt lat="22.35496478125" lon="114.20561879638672" /><trkpt lat="22.35497978125" lon="114.20547579638672" /><trkpt lat="22.35495978125" lon="114.20520079638672" /><trkpt lat="22.35498478125" lon="114.20502379638671" /><trkpt lat="22.35499778125" lon="114.20474479638672" /><trkpt lat="22.35494378125" lon="114.20453679638672" /><trkpt lat="22.35467978125" lon="114.20413679638672" /><trkpt lat="22.35440578125" lon="114.20377479638672" /><trkpt lat="22.35436478125" lon="114.20362179638671" /><trkpt lat="22.35441478125" lon="114.20344579638672" /><trkpt lat="22.35440478125" lon="114.20332779638672" /><trkpt lat="22.35434178125" lon="114.20308279638672" /><trkpt lat="22.35435778125" lon="114.20289079638673" /><trkpt lat="22.35439778125" lon="114.20264879638673" /><trkpt lat="22.35445178125" lon="114.20246579638672" /><trkpt lat="22.35460378125" lon="114.20239079638672" /><trkpt lat="22.35464778125" lon="114.20232279638672" /><trkpt lat="22.35466178125" lon="114.20224079638672" /><trkpt lat="22.35465678125" lon="114.20216579638672" /><trkpt lat="22.35459578125" lon="114.20199879638672" /><trkpt lat="22.35456278125" lon="114.20181979638672" /><trkpt lat="22.35446378125" lon="114.20153479638672" /><trkpt lat="22.35440578125" lon="114.20123079638672" /><trkpt lat="22.35450478125" lon="114.20102179638671" /><trkpt lat="22.35458678125" lon="114.20085679638672" /><trkpt lat="22.35467478125" lon="114.20068879638671" /><trkpt lat="22.35463478125" lon="114.20054379638673" /><trkpt lat="22.35459478125" lon="114.20032779638672" /><trkpt lat="22.35464478125" lon="114.20015479638671" /><trkpt lat="22.35473478125" lon="114.20005579638672" /><trkpt lat="22.35486178125" lon="114.20001679638672" /><trkpt lat="22.35501478125" lon="114.19990879638672" /><trkpt lat="22.35511878125" lon="114.19983879638671" /><trkpt lat="22.35518378125" lon="114.19973679638672" /><trkpt lat="22.35531478125" lon="114.19965679638672" /><trkpt lat="22.35538978125" lon="114.19957579638672" /><trkpt lat="22.35540378125" lon="114.19954679638671" /><trkpt lat="22.35546078125" lon="114.19937779638671" /><trkpt lat="22.35549078125" lon="114.19919779638671" /><trkpt lat="22.35549078125" lon="114.19906879638671" /><trkpt lat="22.35553278125" lon="114.19902079638672" /><trkpt lat="22.35558278125" lon="114.19895079638673" /><trkpt lat="22.35556778125" lon="114.19891079638671" /><trkpt lat="22.35552278125" lon="114.19891079638671" /><trkpt lat="22.35546578125" lon="114.19899079638672" /><trkpt lat="22.35541378125" lon="114.19905279638672" /><trkpt lat="22.35535478125" lon="114.19920279638671" /><trkpt lat="22.35527778125" lon="114.19928579638672" /><trkpt lat="22.35520978125" lon="114.19931779638672" /><trkpt lat="22.35513878125" lon="114.19935079638672" /><trkpt lat="22.35510378125" lon="114.19940679638673" /><trkpt lat="22.35504678125" lon="114.19938579638672" /><trkpt lat="22.35507678125" lon="114.19931279638672" /><trkpt lat="22.35512578125" lon="114.19923279638672" /><trkpt lat="22.35517878125" lon="114.19917379638672" /><trkpt lat="22.35524278125" lon="114.19906879638671" /><trkpt lat="22.35524778125" lon="114.19901279638673" /><trkpt lat="22.35520078125" lon="114.19895079638673" /><trkpt lat="22.35508178125" lon="114.19887879638672" /><trkpt lat="22.35489778125" lon="114.19874979638672" /><trkpt lat="22.35468178125" lon="114.19854579638672" /><trkpt lat="22.35457278125" lon="114.19841179638672" /><trkpt lat="22.35445678125" lon="114.19821879638671" /><trkpt lat="22.35441378125" lon="114.19817879638671" /><trkpt lat="22.35430978125" lon="114.19817879638671" /><trkpt lat="22.35420078125" lon="114.19822079638672" /><trkpt lat="22.35405978125" lon="114.19820779638673" /><trkpt lat="22.35396478125" lon="114.19815379638672" /><trkpt lat="22.35391578125" lon="114.19806579638671" /><trkpt lat="22.35392278125" lon="114.19794779638671" /><trkpt lat="22.35396478125" lon="114.19785179638671" /><trkpt lat="22.35403178125" lon="114.19774679638672" /><trkpt lat="22.35408478125" lon="114.19764979638671" /><trkpt lat="22.35406678125" lon="114.19755379638671" /><trkpt lat="22.35402078125" lon="114.19751479638671" /><trkpt lat="22.35390878125" lon="114.19750979638673" /><trkpt lat="22.35373078125" lon="114.19751279638672" /><trkpt lat="22.35359478125" lon="114.19748579638672" /><trkpt lat="22.35329578125" lon="114.19746679638672" /><trkpt lat="22.35316478125" lon="114.19748479638672" /><trkpt lat="22.35304478125" lon="114.19751779638672" /><trkpt lat="22.35287778125" lon="114.19749979638672" /><trkpt lat="22.35284578125" lon="114.19748879638672" /><trkpt lat="22.35280878125" lon="114.19747979638672" /><trkpt lat="22.35277078125" lon="114.19746979638671" /><trkpt lat="22.35270478125" lon="114.19746579638672" /><trkpt lat="22.35264578125" lon="114.19747379638672" /><trkpt lat="22.35256678125" lon="114.19749379638672" /><trkpt lat="22.35250278125" lon="114.19748079638671" /><trkpt lat="22.35243178125" lon="114.19744479638672" /><trkpt lat="22.35233478125" lon="114.19738979638672" /><trkpt lat="22.35215578125" lon="114.19726679638671" /><trkpt lat="22.35203178125" lon="114.19720179638672" /><trkpt lat="22.35197778125" lon="114.19714379638671" /><trkpt lat="22.35191178125" lon="114.19704579638672" /><trkpt lat="22.35186878125" lon="114.19691279638671" /><trkpt lat="22.35187878125" lon="114.19676079638671" /><trkpt lat="22.35189278125" lon="114.19667479638672" /><trkpt lat="22.35193878125" lon="114.19656979638673" /><trkpt lat="22.35198078125" lon="114.19643979638671" /><trkpt lat="22.35199778125" lon="114.19631979638672" /><trkpt lat="22.35202878125" lon="114.19622879638672" /><trkpt lat="22.35213178125" lon="114.19609079638671" /><trkpt lat="22.35218078125" lon="114.19594679638672" /><trkpt lat="22.35230578125" lon="114.19543679638672" /><trkpt lat="22.35230878125" lon="114.19525479638672" /><trkpt lat="22.35228878125" lon="114.19513979638671" /><trkpt lat="22.35222678125" lon="114.19509379638671" /><trkpt lat="22.35180778125" lon="114.19497379638672" /><trkpt lat="22.35161278125" lon="114.19491779638672" /><trkpt lat="22.35154078125" lon="114.19491179638672" /><trkpt lat="22.35149778125" lon="114.19491779638672" /><trkpt lat="22.35144578125" lon="114.19495879638671" /><trkpt lat="22.35131078125" lon="114.19505679638672" /><trkpt lat="22.35126578125" lon="114.19509079638672" /><trkpt lat="22.35119778125" lon="114.19510879638672" /><trkpt lat="22.35111278125" lon="114.19509379638671" /><trkpt lat="22.35104478125" lon="114.19509979638671" /><trkpt lat="22.35097478125" lon="114.19511979638672" /><trkpt lat="22.35091278125" lon="114.19513579638672" /><trkpt lat="22.35084878125" lon="114.19513179638672" /><trkpt lat="22.35074478125" lon="114.19508879638671" /><trkpt lat="22.35067578125" lon="114.19508079638672" /><trkpt lat="22.35061378125" lon="114.19509979638671" /><trkpt lat="22.35049978125" lon="114.19514179638672" /><trkpt lat="22.35044978125" lon="114.19514879638672" /><trkpt lat="22.35036878125" lon="114.19511479638672" /><trkpt lat="22.35024678125" lon="114.19501679638672" /><trkpt lat="22.35014378125" lon="114.19490379638673" /><trkpt lat="22.35004278125" lon="114.19466879638672" /><trkpt lat="22.35000678125" lon="114.19454179638672" /><trkpt lat="22.35000178125" lon="114.19442979638671" /><trkpt lat="22.35003678125" lon="114.19428679638672" /><trkpt lat="22.35004578125" lon="114.19418979638672" /><trkpt lat="22.35003878125" lon="114.19412279638672" /><trkpt lat="22.34997678125" lon="114.19405279638671" /><trkpt lat="22.34990578125" lon="114.19403179638672" /><trkpt lat="22.34979278125" lon="114.19403079638671" /><trkpt lat="22.34949578125" lon="114.19414279638671" /><trkpt lat="22.34937678125" lon="114.19422379638672" /><trkpt lat="22.34914878125" lon="114.19440179638671" /><trkpt lat="22.34890878125" lon="114.19458879638672" /><trkpt lat="22.34961978125" lon="114.19564579638671" /><trkpt lat="22.34968278125" lon="114.19577879638672" /><trkpt lat="22.34972878125" lon="114.19588779638671" /><trkpt lat="22.34975578125" lon="114.19600479638672" /><trkpt lat="22.34978678125" lon="114.19613779638672" /><trkpt lat="22.34979578125" lon="114.19618579638671" /><trkpt lat="22.34976078125" lon="114.19619779638671" /><trkpt lat="22.34985478125" lon="114.19672179638673" /><trkpt lat="22.34990478125" lon="114.19701979638671" /><trkpt lat="22.34997378125" lon="114.19721479638672" /><trkpt lat="22.35005878125" lon="114.19739179638673" /><trkpt lat="22.35015878125" lon="114.19753979638672" /><trkpt lat="22.35032578125" lon="114.19770279638672" /><trkpt lat="22.35050278125" lon="114.19788179638672" /><trkpt lat="22.350570545193758" lon="114.19797643217912" /></trkseg></trk></gpx>