<?xml version='1.0' encoding='UTF-8' ?><gpx version="1.1" creator="HikingTrailHK" xsi:schemaLocation="http://www.topografix.com/GPX/1/1 http://www.topografix.com/GPX/1/1/gpx.xsd" xmlns="http://www.topografix.com/GPX/1/1" xmlns:xsi="http://www.w3.org/2001/XMLSchema-instance"><metadata><name>佇人左脊 @ 2019-04-05 12:05:45</name><desc></desc></metadata><trk><trkseg><trkpt lat="22.3392385" lon="114.21649922"><ele>188.9144287109375</ele><time>2019-04-05T04:05:45Z</time></trkpt><trkpt lat="22.33924151" lon="114.21651876"><ele>187.34454345703125</ele><time>2019-04-05T04:05:55Z</time></trkpt><trkpt lat="22.33922055" lon="114.21661693"><ele>193.6624755859375</ele><time>2019-04-05T04:06:01.001Z</time></trkpt><trkpt lat="22.33923723" lon="114.21653438"><ele>187.288330078125</ele><time>2019-04-05T04:06:02Z</time></trkpt><trkpt lat="22.3392286" lon="114.21655246"><ele>187.44061279296875</ele><time>2019-04-05T04:06:09Z</time></trkpt><trkpt lat="22.33923985" lon="114.21658033"><ele>184.67926025390625</ele><time>2019-04-05T04:06:58Z</time></trkpt><trkpt lat="22.33925391" lon="114.2165983"><ele>183.64306640625</ele><time>2019-04-05T04:07:00Z</time></trkpt><trkpt lat="22.33927783" lon="114.21661282"><ele>186.4649658203125</ele><time>2019-04-05T04:07:03Z</time></trkpt><trkpt lat="22.33929866" lon="114.2166236"><ele>187.5701904296875</ele><time>2019-04-05T04:07:09Z</time></trkpt><trkpt lat="22.33932867" lon="114.2166254"><ele>187.0194091796875</ele><time>2019-04-05T04:07:13Z</time></trkpt><trkpt lat="22.33934654" lon="114.21662962"><ele>186.4920654296875</ele><time>2019-04-05T04:07:16Z</time></trkpt><trkpt lat="22.33936537" lon="114.21663759"><ele>186.13958740234375</ele><time>2019-04-05T04:07:19Z</time></trkpt><trkpt lat="22.33938354" lon="114.21664122"><ele>187.13916015625</ele><time>2019-04-05T04:07:25Z</time></trkpt><trkpt lat="22.33940611" lon="114.21663234"><ele>185.31597900390625</ele><time>2019-04-05T04:07:32Z</time></trkpt><trkpt lat="22.33942285" lon="114.2166246"><ele>186.17864990234375</ele><time>2019-04-05T04:07:37Z</time></trkpt><trkpt lat="22.33944364" lon="114.21662646"><ele>187.8531494140625</ele><time>2019-04-05T04:07:46Z</time></trkpt><trkpt lat="22.33945734" lon="114.21661045"><ele>187.63250732421875</ele><time>2019-04-05T04:07:48Z</time></trkpt><trkpt lat="22.33946684" lon="114.2165927"><ele>189.25164794921875</ele><time>2019-04-05T04:07:50Z</time></trkpt><trkpt lat="22.33947601" lon="114.21657417"><ele>190.9456787109375</ele><time>2019-04-05T04:07:53Z</time></trkpt><trkpt lat="22.33949921" lon="114.21656781"><ele>191.10211181640625</ele><time>2019-04-05T04:08:09Z</time></trkpt><trkpt lat="22.33952686" lon="114.21655875"><ele>190.63201904296875</ele><time>2019-04-05T04:08:12Z</time></trkpt><trkpt lat="22.3395478" lon="114.21654815"><ele>189.55322265625</ele><time>2019-04-05T04:08:15Z</time></trkpt><trkpt lat="22.33957453" lon="114.21655248"><ele>191.5733642578125</ele><time>2019-04-05T04:08:18Z</time></trkpt><trkpt lat="22.33959972" lon="114.21654516"><ele>191.885986328125</ele><time>2019-04-05T04:08:23Z</time></trkpt><trkpt lat="22.3396183" lon="114.21653913"><ele>190.4493408203125</ele><time>2019-04-05T04:08:25Z</time></trkpt><trkpt lat="22.33963999" lon="114.21653901"><ele>191.13641357421875</ele><time>2019-04-05T04:08:28Z</time></trkpt><trkpt lat="22.33965682" lon="114.21655036"><ele>194.74224853515625</ele><time>2019-04-05T04:08:32Z</time></trkpt><trkpt lat="22.33966223" lon="114.21657004"><ele>194.65606689453125</ele><time>2019-04-05T04:08:39Z</time></trkpt><trkpt lat="22.33968574" lon="114.21658178"><ele>195.13427734375</ele><time>2019-04-05T04:09:07Z</time></trkpt><trkpt lat="22.33970499" lon="114.21658856"><ele>196.36737060546875</ele><time>2019-04-05T04:09:10Z</time></trkpt><trkpt lat="22.33972521" lon="114.21659137"><ele>196.907958984375</ele><time>2019-04-05T04:09:16Z</time></trkpt><trkpt lat="22.33973727" lon="114.21660804"><ele>197.3795166015625</ele><time>2019-04-05T04:09:19Z</time></trkpt><trkpt lat="22.33975317" lon="114.21662031"><ele>197.17657470703125</ele><time>2019-04-05T04:09:23Z</time></trkpt><trkpt lat="22.33976538" lon="114.21663565"><ele>198.924560546875</ele><time>2019-04-05T04:09:40Z</time></trkpt><trkpt lat="22.33977981" lon="114.21664931"><ele>197.99810791015625</ele><time>2019-04-05T04:09:43Z</time></trkpt><trkpt lat="22.33980077" lon="114.21664455"><ele>197.9423828125</ele><time>2019-04-05T04:09:50Z</time></trkpt><trkpt lat="22.33981834" lon="114.21665155"><ele>197.14642333984375</ele><time>2019-04-05T04:09:54Z</time></trkpt><trkpt lat="22.33983985" lon="114.21665077"><ele>197.5860595703125</ele><time>2019-04-05T04:09:57Z</time></trkpt><trkpt lat="22.3398586" lon="114.2166496"><ele>196.5426025390625</ele><time>2019-04-05T04:10:13Z</time></trkpt><trkpt lat="22.3398743" lon="114.2166372"><ele>198.2376708984375</ele><time>2019-04-05T04:10:33Z</time></trkpt><trkpt lat="22.3398837" lon="114.21661754"><ele>196.199462890625</ele><time>2019-04-05T04:10:36Z</time></trkpt><trkpt lat="22.33986522" lon="114.21662225"><ele>198.53167724609375</ele><time>2019-04-05T04:11:02Z</time></trkpt><trkpt lat="22.33987074" lon="114.21664204"><ele>198.1695556640625</ele><time>2019-04-05T04:11:12Z</time></trkpt><trkpt lat="22.33988881" lon="114.2166469"><ele>198.86212158203125</ele><time>2019-04-05T04:11:21Z</time></trkpt><trkpt lat="22.33989798" lon="114.21666754"><ele>198.20538330078125</ele><time>2019-04-05T04:11:31Z</time></trkpt><trkpt lat="22.33987961" lon="114.21667584"><ele>198.8935546875</ele><time>2019-04-05T04:11:33Z</time></trkpt><trkpt lat="22.33987119" lon="114.21669641"><ele>200.337890625</ele><time>2019-04-05T04:11:37Z</time></trkpt><trkpt lat="22.33987997" lon="114.21671798"><ele>202.5970458984375</ele><time>2019-04-05T04:11:44Z</time></trkpt><trkpt lat="22.33988714" lon="114.21673948"><ele>203.83233642578125</ele><time>2019-04-05T04:11:56Z</time></trkpt><trkpt lat="22.33989124" lon="114.21675959"><ele>204.47186279296875</ele><time>2019-04-05T04:12:16Z</time></trkpt><trkpt lat="22.33988658" lon="114.21678007"><ele>205.25323486328125</ele><time>2019-04-05T04:12:24Z</time></trkpt><trkpt lat="22.33988986" lon="114.21680291"><ele>206.70880126953125</ele><time>2019-04-05T04:12:32Z</time></trkpt><trkpt lat="22.3398817" lon="114.21682557"><ele>206.69384765625</ele><time>2019-04-05T04:12:52Z</time></trkpt><trkpt lat="22.33987732" lon="114.2168484"><ele>207.8380126953125</ele><time>2019-04-05T04:12:56Z</time></trkpt><trkpt lat="22.33987184" lon="114.21686769"><ele>208.19854736328125</ele><time>2019-04-05T04:13:00Z</time></trkpt><trkpt lat="22.33987557" lon="114.2168903"><ele>208.83740234375</ele><time>2019-04-05T04:13:09Z</time></trkpt><trkpt lat="22.33988178" lon="114.21691148"><ele>210.04803466796875</ele><time>2019-04-05T04:13:13Z</time></trkpt><trkpt lat="22.33988967" lon="114.2169331"><ele>212.009033203125</ele><time>2019-04-05T04:13:17Z</time></trkpt><trkpt lat="22.33990104" lon="114.21694997"><ele>213.448974609375</ele><time>2019-04-05T04:13:23Z</time></trkpt><trkpt lat="22.33991736" lon="114.2169613"><ele>212.72216796875</ele><time>2019-04-05T04:13:34Z</time></trkpt><trkpt lat="22.33993442" lon="114.21697216"><ele>213.737060546875</ele><time>2019-04-05T04:13:41Z</time></trkpt><trkpt lat="22.33995775" lon="114.2169811"><ele>216.0931396484375</ele><time>2019-04-05T04:13:48Z</time></trkpt><trkpt lat="22.33997085" lon="114.21699581"><ele>220.1832275390625</ele><time>2019-04-05T04:14:03Z</time></trkpt><trkpt lat="22.33998584" lon="114.21701325"><ele>222.03790283203125</ele><time>2019-04-05T04:14:10Z</time></trkpt><trkpt lat="22.33997517" lon="114.2170346"><ele>222.55413818359375</ele><time>2019-04-05T04:14:12Z</time></trkpt><trkpt lat="22.33999159" lon="114.2170481"><ele>224.31646728515625</ele><time>2019-04-05T04:14:20Z</time></trkpt><trkpt lat="22.34000244" lon="114.2170671"><ele>221.5072021484375</ele><time>2019-04-05T04:14:26Z</time></trkpt><trkpt lat="22.34001226" lon="114.2170897"><ele>221.65289306640625</ele><time>2019-04-05T04:14:30Z</time></trkpt><trkpt lat="22.34002834" lon="114.21710452"><ele>218.89471435546875</ele><time>2019-04-05T04:14:33Z</time></trkpt><trkpt lat="22.34004947" lon="114.21711523"><ele>220.77783203125</ele><time>2019-04-05T04:14:35Z</time></trkpt><trkpt lat="22.34006226" lon="114.21712899"><ele>220.67449951171875</ele><time>2019-04-05T04:14:46Z</time></trkpt><trkpt lat="22.34008221" lon="114.21713926"><ele>221.33966064453125</ele><time>2019-04-05T04:14:52Z</time></trkpt><trkpt lat="22.34010145" lon="114.21715579"><ele>220.78985595703125</ele><time>2019-04-05T04:14:57Z</time></trkpt><trkpt lat="22.34011758" lon="114.21716608"><ele>224.3643798828125</ele><time>2019-04-05T04:15:06Z</time></trkpt><trkpt lat="22.34011867" lon="114.21719295"><ele>226.211181640625</ele><time>2019-04-05T04:15:21Z</time></trkpt><trkpt lat="22.34012671" lon="114.21721822"><ele>225.41021728515625</ele><time>2019-04-05T04:15:24Z</time></trkpt><trkpt lat="22.34013677" lon="114.21724493"><ele>225.6451416015625</ele><time>2019-04-05T04:15:27Z</time></trkpt><trkpt lat="22.34015002" lon="114.2172604"><ele>225.17950439453125</ele><time>2019-04-05T04:15:30Z</time></trkpt><trkpt lat="22.34016483" lon="114.21727807"><ele>227.13214111328125</ele><time>2019-04-05T04:15:35Z</time></trkpt><trkpt lat="22.34017902" lon="114.21729077"><ele>227.3404541015625</ele><time>2019-04-05T04:15:41Z</time></trkpt><trkpt lat="22.34017302" lon="114.21730969"><ele>228.1995849609375</ele><time>2019-04-05T04:15:51Z</time></trkpt><trkpt lat="22.34018591" lon="114.21732724"><ele>230.03961181640625</ele><time>2019-04-05T04:15:58Z</time></trkpt><trkpt lat="22.3402026" lon="114.21733951"><ele>229.42352294921875</ele><time>2019-04-05T04:16:01Z</time></trkpt><trkpt lat="22.34020641" lon="114.21736423"><ele>230.93084716796875</ele><time>2019-04-05T04:16:05Z</time></trkpt><trkpt lat="22.34020743" lon="114.21738501"><ele>230.74896240234375</ele><time>2019-04-05T04:16:08Z</time></trkpt><trkpt lat="22.34021454" lon="114.21740592"><ele>232.49835205078125</ele><time>2019-04-05T04:16:12Z</time></trkpt><trkpt lat="22.34021955" lon="114.21742825"><ele>232.6185302734375</ele><time>2019-04-05T04:16:17Z</time></trkpt><trkpt lat="22.34023109" lon="114.21744494"><ele>236.01104736328125</ele><time>2019-04-05T04:16:26Z</time></trkpt><trkpt lat="22.34023903" lon="114.21746731"><ele>237.765380859375</ele><time>2019-04-05T04:16:29Z</time></trkpt><trkpt lat="22.34025284" lon="114.21748743"><ele>236.91778564453125</ele><time>2019-04-05T04:16:51Z</time></trkpt><trkpt lat="22.34026777" lon="114.21750303"><ele>235.92193603515625</ele><time>2019-04-05T04:16:54Z</time></trkpt><trkpt lat="22.34028414" lon="114.21751222"><ele>237.8292236328125</ele><time>2019-04-05T04:16:56Z</time></trkpt><trkpt lat="22.34030302" lon="114.21752985"><ele>237.355224609375</ele><time>2019-04-05T04:17:00Z</time></trkpt><trkpt lat="22.34031829" lon="114.21754535"><ele>237.28338623046875</ele><time>2019-04-05T04:17:03Z</time></trkpt><trkpt lat="22.34032192" lon="114.21756686"><ele>239.794921875</ele><time>2019-04-05T04:17:09Z</time></trkpt><trkpt lat="22.34032761" lon="114.21759701"><ele>240.2760009765625</ele><time>2019-04-05T04:17:12Z</time></trkpt><trkpt lat="22.34033163" lon="114.21761785"><ele>241.203857421875</ele><time>2019-04-05T04:17:15Z</time></trkpt><trkpt lat="22.34034456" lon="114.21763556"><ele>241.17401123046875</ele><time>2019-04-05T04:17:18Z</time></trkpt><trkpt lat="22.34035875" lon="114.21764994"><ele>240.354736328125</ele><time>2019-04-05T04:17:21Z</time></trkpt><trkpt lat="22.34037342" lon="114.21766448"><ele>241.52996826171875</ele><time>2019-04-05T04:17:24Z</time></trkpt><trkpt lat="22.34037506" lon="114.21768888"><ele>244.5927734375</ele><time>2019-04-05T04:17:34Z</time></trkpt><trkpt lat="22.3403935" lon="114.21769436"><ele>244.658935546875</ele><time>2019-04-05T04:17:37Z</time></trkpt><trkpt lat="22.34040944" lon="114.21771295"><ele>244.10443115234375</ele><time>2019-04-05T04:17:40Z</time></trkpt><trkpt lat="22.3404117" lon="114.2177359"><ele>242.3377685546875</ele><time>2019-04-05T04:17:46Z</time></trkpt><trkpt lat="22.34041405" lon="114.21775766"><ele>247.82110595703125</ele><time>2019-04-05T04:18:02Z</time></trkpt><trkpt lat="22.34041064" lon="114.21778139"><ele>248.7716064453125</ele><time>2019-04-05T04:18:08Z</time></trkpt><trkpt lat="22.34041864" lon="114.21780417"><ele>249.7662353515625</ele><time>2019-04-05T04:18:12Z</time></trkpt><trkpt lat="22.34043099" lon="114.21781939"><ele>249.5565185546875</ele><time>2019-04-05T04:18:15Z</time></trkpt><trkpt lat="22.34044415" lon="114.21783863"><ele>249.5791015625</ele><time>2019-04-05T04:18:18Z</time></trkpt><trkpt lat="22.34044988" lon="114.21785735"><ele>248.46588134765625</ele><time>2019-04-05T04:18:19Z</time></trkpt><trkpt lat="22.34046005" lon="114.21787377"><ele>246.60064697265625</ele><time>2019-04-05T04:18:23Z</time></trkpt><trkpt lat="22.34046833" lon="114.21789303"><ele>253.11553955078125</ele><time>2019-04-05T04:18:35Z</time></trkpt><trkpt lat="22.34048079" lon="114.21791904"><ele>255.849609375</ele><time>2019-04-05T04:18:56Z</time></trkpt><trkpt lat="22.34049474" lon="114.21793615"><ele>257.9161376953125</ele><time>2019-04-05T04:19:02Z</time></trkpt><trkpt lat="22.340515" lon="114.21793963"><ele>261.3935546875</ele><time>2019-04-05T04:19:13Z</time></trkpt><trkpt lat="22.34053129" lon="114.21795177"><ele>264.99755859375</ele><time>2019-04-05T04:19:23Z</time></trkpt><trkpt lat="22.34054192" lon="114.21796946"><ele>269.97125244140625</ele><time>2019-04-05T04:19:38Z</time></trkpt><trkpt lat="22.34054565" lon="114.217995"><ele>271.679443359375</ele><time>2019-04-05T04:19:41Z</time></trkpt><trkpt lat="22.34056114" lon="114.21800636"><ele>271.9456787109375</ele><time>2019-04-05T04:19:48Z</time></trkpt><trkpt lat="22.34057977" lon="114.21801314"><ele>272.408447265625</ele><time>2019-04-05T04:19:55Z</time></trkpt><trkpt lat="22.34058785" lon="114.21803086"><ele>270.520751953125</ele><time>2019-04-05T04:20:06Z</time></trkpt><trkpt lat="22.34060109" lon="114.21805961"><ele>273.2691650390625</ele><time>2019-04-05T04:20:12Z</time></trkpt><trkpt lat="22.34061383" lon="114.21807467"><ele>273.99700927734375</ele><time>2019-04-05T04:20:16Z</time></trkpt><trkpt lat="22.34061783" lon="114.21809628"><ele>277.3121337890625</ele><time>2019-04-05T04:20:30Z</time></trkpt><trkpt lat="22.34063082" lon="114.21811645"><ele>276.0989990234375</ele><time>2019-04-05T04:20:33Z</time></trkpt><trkpt lat="22.34064061" lon="114.21814153"><ele>274.99365234375</ele><time>2019-04-05T04:20:37Z</time></trkpt><trkpt lat="22.34064753" lon="114.21816425"><ele>275.0782470703125</ele><time>2019-04-05T04:20:40Z</time></trkpt><trkpt lat="22.34065449" lon="114.2181842"><ele>275.138671875</ele><time>2019-04-05T04:20:42Z</time></trkpt><trkpt lat="22.34067132" lon="114.21819524"><ele>276.69195556640625</ele><time>2019-04-05T04:20:56Z</time></trkpt><trkpt lat="22.34068376" lon="114.21821864"><ele>276.9420166015625</ele><time>2019-04-05T04:21:00Z</time></trkpt><trkpt lat="22.34068908" lon="114.21824002"><ele>278.251220703125</ele><time>2019-04-05T04:21:04Z</time></trkpt><trkpt lat="22.34070575" lon="114.21824939"><ele>276.332275390625</ele><time>2019-04-05T04:21:08Z</time></trkpt><trkpt lat="22.34071248" lon="114.21826833"><ele>281.47882080078125</ele><time>2019-04-05T04:21:14Z</time></trkpt><trkpt lat="22.3406968" lon="114.21827992"><ele>281.55426025390625</ele><time>2019-04-05T04:21:19Z</time></trkpt><trkpt lat="22.34071271" lon="114.21829422"><ele>282.36328125</ele><time>2019-04-05T04:21:23Z</time></trkpt><trkpt lat="22.34072966" lon="114.21830232"><ele>283.76409912109375</ele><time>2019-04-05T04:21:27Z</time></trkpt><trkpt lat="22.34073497" lon="114.21832249"><ele>284.9559326171875</ele><time>2019-04-05T04:21:31Z</time></trkpt><trkpt lat="22.34074435" lon="114.21834173"><ele>293.3096923828125</ele><time>2019-04-05T04:21:39Z</time></trkpt><trkpt lat="22.34076149" lon="114.21835125"><ele>295.4188232421875</ele><time>2019-04-05T04:21:47Z</time></trkpt><trkpt lat="22.34077528" lon="114.21836916"><ele>297.2490234375</ele><time>2019-04-05T04:21:55Z</time></trkpt><trkpt lat="22.3407766" lon="114.2183917"><ele>298.4178466796875</ele><time>2019-04-05T04:22:01Z</time></trkpt><trkpt lat="22.34077768" lon="114.21841382"><ele>301.2451171875</ele><time>2019-04-05T04:22:05Z</time></trkpt><trkpt lat="22.34079823" lon="114.21842137"><ele>300.0582275390625</ele><time>2019-04-05T04:22:11Z</time></trkpt><trkpt lat="22.34081245" lon="114.21843409"><ele>300.782958984375</ele><time>2019-04-05T04:22:14Z</time></trkpt><trkpt lat="22.34083064" lon="114.2184363"><ele>300.8748779296875</ele><time>2019-04-05T04:22:26Z</time></trkpt><trkpt lat="22.34083551" lon="114.21845799"><ele>303.0811767578125</ele><time>2019-04-05T04:22:30Z</time></trkpt><trkpt lat="22.34084369" lon="114.21848132"><ele>304.83544921875</ele><time>2019-04-05T04:23:11Z</time></trkpt><trkpt lat="22.34085277" lon="114.21850104"><ele>306.64447021484375</ele><time>2019-04-05T04:23:13Z</time></trkpt><trkpt lat="22.34086273" lon="114.21851813"><ele>308.1763916015625</ele><time>2019-04-05T04:23:16Z</time></trkpt><trkpt lat="22.34087476" lon="114.21853415"><ele>307.827880859375</ele><time>2019-04-05T04:23:20Z</time></trkpt><trkpt lat="22.34089047" lon="114.21855008"><ele>308.027099609375</ele><time>2019-04-05T04:23:31Z</time></trkpt><trkpt lat="22.34090009" lon="114.21856912"><ele>310.14849853515625</ele><time>2019-04-05T04:23:39Z</time></trkpt><trkpt lat="22.34092228" lon="114.21858094"><ele>312.0966796875</ele><time>2019-04-05T04:23:57Z</time></trkpt><trkpt lat="22.34093945" lon="114.2185948"><ele>313.78125</ele><time>2019-04-05T04:23:59Z</time></trkpt><trkpt lat="22.3409531" lon="114.21860846"><ele>315.0382080078125</ele><time>2019-04-05T04:24:02Z</time></trkpt><trkpt lat="22.34097059" lon="114.21862099"><ele>317.06591796875</ele><time>2019-04-05T04:24:13Z</time></trkpt><trkpt lat="22.3409873" lon="114.21863256"><ele>315.48150634765625</ele><time>2019-04-05T04:24:16Z</time></trkpt><trkpt lat="22.34099807" lon="114.21864953"><ele>317.355712890625</ele><time>2019-04-05T04:24:22Z</time></trkpt><trkpt lat="22.34100129" lon="114.21867043"><ele>317.2801513671875</ele><time>2019-04-05T04:24:44Z</time></trkpt><trkpt lat="22.34100704" lon="114.21869096"><ele>317.75439453125</ele><time>2019-04-05T04:24:49Z</time></trkpt><trkpt lat="22.34100331" lon="114.21871076"><ele>316.3011474609375</ele><time>2019-04-05T04:24:52Z</time></trkpt><trkpt lat="22.34098589" lon="114.21871578"><ele>318.83990478515625</ele><time>2019-04-05T04:25:01Z</time></trkpt><trkpt lat="22.34098114" lon="114.21873894"><ele>318.66436767578125</ele><time>2019-04-05T04:25:09Z</time></trkpt><trkpt lat="22.34097175" lon="114.21875985"><ele>322.4931640625</ele><time>2019-04-05T04:25:14Z</time></trkpt><trkpt lat="22.34095843" lon="114.21874515"><ele>323.07122802734375</ele><time>2019-04-05T04:25:18Z</time></trkpt><trkpt lat="22.34095946" lon="114.21876526"><ele>322.54742431640625</ele><time>2019-04-05T04:25:25Z</time></trkpt><trkpt lat="22.34095976" lon="114.21879194"><ele>324.2259521484375</ele><time>2019-04-05T04:25:44Z</time></trkpt><trkpt lat="22.34096494" lon="114.21881656"><ele>325.2835693359375</ele><time>2019-04-05T04:25:46Z</time></trkpt><trkpt lat="22.34095504" lon="114.21883624"><ele>326.95849609375</ele><time>2019-04-05T04:25:51Z</time></trkpt><trkpt lat="22.34093916" lon="114.21885116"><ele>328.39794921875</ele><time>2019-04-05T04:25:53Z</time></trkpt><trkpt lat="22.34092392" lon="114.21886174"><ele>329.98516845703125</ele><time>2019-04-05T04:26:15Z</time></trkpt><trkpt lat="22.34092611" lon="114.21888167"><ele>331.76995849609375</ele><time>2019-04-05T04:26:37Z</time></trkpt><trkpt lat="22.34093154" lon="114.21890118"><ele>333.574462890625</ele><time>2019-04-05T04:26:42Z</time></trkpt><trkpt lat="22.34093708" lon="114.21892582"><ele>333.7042236328125</ele><time>2019-04-05T04:26:45Z</time></trkpt><trkpt lat="22.3409481" lon="114.21894311"><ele>333.2777099609375</ele><time>2019-04-05T04:26:47Z</time></trkpt><trkpt lat="22.34095529" lon="114.218963"><ele>334.96417236328125</ele><time>2019-04-05T04:26:52Z</time></trkpt><trkpt lat="22.34094674" lon="114.21898862"><ele>339.742431640625</ele><time>2019-04-05T04:26:58Z</time></trkpt><trkpt lat="22.3409509" lon="114.21900973"><ele>339.9307861328125</ele><time>2019-04-05T04:27:03Z</time></trkpt><trkpt lat="22.34096602" lon="114.21902446"><ele>339.5242919921875</ele><time>2019-04-05T04:27:13Z</time></trkpt><trkpt lat="22.34098455" lon="114.21903814"><ele>339.39349365234375</ele><time>2019-04-05T04:27:24Z</time></trkpt><trkpt lat="22.34100184" lon="114.21904654"><ele>340.314697265625</ele><time>2019-04-05T04:27:29Z</time></trkpt><trkpt lat="22.3410143" lon="114.21906169"><ele>341.87567138671875</ele><time>2019-04-05T04:27:55Z</time></trkpt><trkpt lat="22.3410163" lon="114.21908106"><ele>345.1907958984375</ele><time>2019-04-05T04:28:00Z</time></trkpt><trkpt lat="22.34102929" lon="114.21910133"><ele>342.6748046875</ele><time>2019-04-05T04:28:07Z</time></trkpt><trkpt lat="22.34104352" lon="114.21911577"><ele>343.775390625</ele><time>2019-04-05T04:28:12Z</time></trkpt><trkpt lat="22.34106144" lon="114.21912055"><ele>345.39892578125</ele><time>2019-04-05T04:28:20Z</time></trkpt><trkpt lat="22.34107339" lon="114.21913553"><ele>347.7039794921875</ele><time>2019-04-05T04:28:29Z</time></trkpt><trkpt lat="22.34108995" lon="114.21914428"><ele>348.73583984375</ele><time>2019-04-05T04:28:49Z</time></trkpt><trkpt lat="22.34110884" lon="114.21915183"><ele>348.6727294921875</ele><time>2019-04-05T04:29:01Z</time></trkpt><trkpt lat="22.3411286" lon="114.21914922"><ele>354.15185546875</ele><time>2019-04-05T04:29:14Z</time></trkpt><trkpt lat="22.34114988" lon="114.21915356"><ele>355.576416015625</ele><time>2019-04-05T04:29:16Z</time></trkpt><trkpt lat="22.34117002" lon="114.21914801"><ele>355.355224609375</ele><time>2019-04-05T04:29:19Z</time></trkpt><trkpt lat="22.34119042" lon="114.21915035"><ele>360.46826171875</ele><time>2019-04-05T04:30:01Z</time></trkpt><trkpt lat="22.34120706" lon="114.21915984"><ele>362.27288818359375</ele><time>2019-04-05T04:30:13Z</time></trkpt><trkpt lat="22.34121343" lon="114.21918121"><ele>358.505859375</ele><time>2019-04-05T04:30:23Z</time></trkpt><trkpt lat="22.34123302" lon="114.21922542"><ele>357.9443359375</ele><time>2019-04-05T04:30:25Z</time></trkpt><trkpt lat="22.34124523" lon="114.21924825"><ele>360.1563720703125</ele><time>2019-04-05T04:30:27Z</time></trkpt><trkpt lat="22.34125632" lon="114.21926545"><ele>362.7630615234375</ele><time>2019-04-05T04:30:32Z</time></trkpt><trkpt lat="22.34126337" lon="114.21928635"><ele>363.736328125</ele><time>2019-04-05T04:31:05Z</time></trkpt><trkpt lat="22.34128266" lon="114.21928623"><ele>365.00732421875</ele><time>2019-04-05T04:31:54Z</time></trkpt><trkpt lat="22.34129542" lon="114.21930839"><ele>365.54638671875</ele><time>2019-04-05T04:31:56Z</time></trkpt><trkpt lat="22.34130052" lon="114.21932819"><ele>367.4608154296875</ele><time>2019-04-05T04:31:59Z</time></trkpt><trkpt lat="22.34130261" lon="114.21934796"><ele>370.11737060546875</ele><time>2019-04-05T04:32:56Z</time></trkpt><trkpt lat="22.34131011" lon="114.21936746"><ele>374.3963623046875</ele><time>2019-04-05T04:32:59Z</time></trkpt><trkpt lat="22.34132103" lon="114.21938532"><ele>376.81884765625</ele><time>2019-04-05T04:33:04Z</time></trkpt><trkpt lat="22.34133023" lon="114.21940288"><ele>381.203857421875</ele><time>2019-04-05T04:33:26Z</time></trkpt><trkpt lat="22.34135003" lon="114.2194085"><ele>384.9678955078125</ele><time>2019-04-05T04:33:34Z</time></trkpt><trkpt lat="22.34136127" lon="114.2194245"><ele>384.59637451171875</ele><time>2019-04-05T04:33:38Z</time></trkpt><trkpt lat="22.34136108" lon="114.21944805"><ele>385.958251953125</ele><time>2019-04-05T04:34:03Z</time></trkpt><trkpt lat="22.34136184" lon="114.21946782"><ele>384.9808349609375</ele><time>2019-04-05T04:34:04Z</time></trkpt><trkpt lat="22.34136872" lon="114.21948617"><ele>387.5418701171875</ele><time>2019-04-05T04:34:08Z</time></trkpt><trkpt lat="22.34137541" lon="114.21950473"><ele>388.90399169921875</ele><time>2019-04-05T04:34:17Z</time></trkpt><trkpt lat="22.34138827" lon="114.21952582"><ele>388.730224609375</ele><time>2019-04-05T04:34:27Z</time></trkpt><trkpt lat="22.34140399" lon="114.21951401"><ele>392.67181396484375</ele><time>2019-04-05T04:34:47Z</time></trkpt><trkpt lat="22.34139904" lon="114.21953565"><ele>392.86932373046875</ele><time>2019-04-05T04:34:54Z</time></trkpt><trkpt lat="22.34139508" lon="114.21955535"><ele>392.21484375</ele><time>2019-04-05T04:35:36Z</time></trkpt><trkpt lat="22.34139637" lon="114.21957734"><ele>392.45068359375</ele><time>2019-04-05T04:35:41Z</time></trkpt><trkpt lat="22.34139858" lon="114.2195974"><ele>393.8592529296875</ele><time>2019-04-05T04:35:54Z</time></trkpt><trkpt lat="22.34141024" lon="114.21961235"><ele>395.42236328125</ele><time>2019-04-05T04:36:00Z</time></trkpt><trkpt lat="22.34140922" lon="114.21959291"><ele>398.35107421875</ele><time>2019-04-05T04:36:10Z</time></trkpt><trkpt lat="22.34140494" lon="114.21961772"><ele>398.341796875</ele><time>2019-04-05T04:36:42Z</time></trkpt><trkpt lat="22.34141016" lon="114.21963893"><ele>398.5399169921875</ele><time>2019-04-05T04:36:54Z</time></trkpt><trkpt lat="22.34140418" lon="114.21965728"><ele>401.600341796875</ele><time>2019-04-05T04:37:24Z</time></trkpt><trkpt lat="22.34140704" lon="114.21967734"><ele>401.883544921875</ele><time>2019-04-05T04:37:28Z</time></trkpt><trkpt lat="22.34141425" lon="114.21970507"><ele>406.12548828125</ele><time>2019-04-05T04:38:03Z</time></trkpt><trkpt lat="22.341417" lon="114.21972674"><ele>406.9635009765625</ele><time>2019-04-05T04:38:06Z</time></trkpt><trkpt lat="22.34142287" lon="114.21974526"><ele>408.0181884765625</ele><time>2019-04-05T04:38:13Z</time></trkpt><trkpt lat="22.34143484" lon="114.21975997"><ele>408.573486328125</ele><time>2019-04-05T04:38:17Z</time></trkpt><trkpt lat="22.34144558" lon="114.21978235"><ele>410.2364501953125</ele><time>2019-04-05T04:38:20Z</time></trkpt><trkpt lat="22.34145243" lon="114.2198046"><ele>410.8095703125</ele><time>2019-04-05T04:38:24Z</time></trkpt><trkpt lat="22.34144686" lon="114.21982344"><ele>410.6878662109375</ele><time>2019-04-05T04:38:30Z</time></trkpt><trkpt lat="22.34146554" lon="114.21982079"><ele>409.99066162109375</ele><time>2019-04-05T04:38:38Z</time></trkpt><trkpt lat="22.34146804" lon="114.21984297"><ele>410.188720703125</ele><time>2019-04-05T04:38:57Z</time></trkpt><trkpt lat="22.34147101" lon="114.21986877"><ele>408.7999267578125</ele><time>2019-04-05T04:38:59Z</time></trkpt><trkpt lat="22.34147499" lon="114.21989029"><ele>410.44873046875</ele><time>2019-04-05T04:39:08Z</time></trkpt><trkpt lat="22.34147181" lon="114.21991188"><ele>408.7401123046875</ele><time>2019-04-05T04:39:11Z</time></trkpt><trkpt lat="22.34146313" lon="114.2199352"><ele>413.07958984375</ele><time>2019-04-05T04:39:15Z</time></trkpt><trkpt lat="22.34146123" lon="114.21995479"><ele>414.28228759765625</ele><time>2019-04-05T04:39:22Z</time></trkpt><trkpt lat="22.3414772" lon="114.21996994"><ele>416.8695068359375</ele><time>2019-04-05T04:39:42Z</time></trkpt><trkpt lat="22.3414962" lon="114.21997997"><ele>417.7393798828125</ele><time>2019-04-05T04:39:51Z</time></trkpt><trkpt lat="22.3415149" lon="114.21999329"><ele>418.73211669921875</ele><time>2019-04-05T04:40:02Z</time></trkpt><trkpt lat="22.34153711" lon="114.21998491"><ele>420.58740234375</ele><time>2019-04-05T04:40:13Z</time></trkpt><trkpt lat="22.34155561" lon="114.21997865"><ele>422.05633544921875</ele><time>2019-04-05T04:40:40Z</time></trkpt><trkpt lat="22.34157784" lon="114.21998303"><ele>422.60784912109375</ele><time>2019-04-05T04:40:45Z</time></trkpt><trkpt lat="22.34160004" lon="114.2199858"><ele>424.33935546875</ele><time>2019-04-05T04:40:51Z</time></trkpt><trkpt lat="22.34161923" lon="114.21998837"><ele>423.92901611328125</ele><time>2019-04-05T04:40:54Z</time></trkpt><trkpt lat="22.3416419" lon="114.21999191"><ele>423.3455810546875</ele><time>2019-04-05T04:40:58Z</time></trkpt><trkpt lat="22.34166441" lon="114.21998894"><ele>423.3297119140625</ele><time>2019-04-05T04:41:00Z</time></trkpt><trkpt lat="22.34168763" lon="114.21999228"><ele>423.900634765625</ele><time>2019-04-05T04:41:02Z</time></trkpt><trkpt lat="22.34170107" lon="114.219979"><ele>424.8726806640625</ele><time>2019-04-05T04:41:06Z</time></trkpt><trkpt lat="22.34171411" lon="114.21996333"><ele>424.0389404296875</ele><time>2019-04-05T04:41:12Z</time></trkpt><trkpt lat="22.341733" lon="114.21996624"><ele>424.46575927734375</ele><time>2019-04-05T04:41:17Z</time></trkpt><trkpt lat="22.34175333" lon="114.21997269"><ele>425.7945556640625</ele><time>2019-04-05T04:41:21Z</time></trkpt><trkpt lat="22.34176409" lon="114.21999314"><ele>426.27850341796875</ele><time>2019-04-05T04:41:25Z</time></trkpt><trkpt lat="22.34175717" lon="114.22001688"><ele>426.8741455078125</ele><time>2019-04-05T04:41:27Z</time></trkpt><trkpt lat="22.34177717" lon="114.22001959"><ele>429.2510986328125</ele><time>2019-04-05T04:41:32Z</time></trkpt><trkpt lat="22.34179104" lon="114.22003942"><ele>431.902587890625</ele><time>2019-04-05T04:42:01Z</time></trkpt><trkpt lat="22.34180212" lon="114.22005503"><ele>431.8927001953125</ele><time>2019-04-05T04:42:03Z</time></trkpt><trkpt lat="22.34181339" lon="114.22007034"><ele>432.38946533203125</ele><time>2019-04-05T04:42:07Z</time></trkpt><trkpt lat="22.34182004" lon="114.22009619"><ele>430.8516845703125</ele><time>2019-04-05T04:42:11Z</time></trkpt><trkpt lat="22.34183294" lon="114.22011045"><ele>430.44976806640625</ele><time>2019-04-05T04:42:13Z</time></trkpt><trkpt lat="22.34184482" lon="114.22012967"><ele>431.0584716796875</ele><time>2019-04-05T04:42:17Z</time></trkpt><trkpt lat="22.34184288" lon="114.22015472"><ele>433.32135009765625</ele><time>2019-04-05T04:42:20Z</time></trkpt><trkpt lat="22.34185001" lon="114.22017432"><ele>434.1239013671875</ele><time>2019-04-05T04:42:23Z</time></trkpt><trkpt lat="22.34186728" lon="114.2201881"><ele>430.6693115234375</ele><time>2019-04-05T04:42:27Z</time></trkpt><trkpt lat="22.34187848" lon="114.22021361"><ele>428.3294677734375</ele><time>2019-04-05T04:42:31Z</time></trkpt><trkpt lat="22.34188452" lon="114.22023311"><ele>430.51275634765625</ele><time>2019-04-05T04:42:35Z</time></trkpt><trkpt lat="22.34188116" lon="114.22025391"><ele>431.193603515625</ele><time>2019-04-05T04:42:40Z</time></trkpt><trkpt lat="22.34187776" lon="114.22028218"><ele>431.9061279296875</ele><time>2019-04-05T04:42:45Z</time></trkpt><trkpt lat="22.34188764" lon="114.22030507"><ele>434.46368408203125</ele><time>2019-04-05T04:42:55Z</time></trkpt><trkpt lat="22.34189207" lon="114.22032606"><ele>433.28619384765625</ele><time>2019-04-05T04:42:58Z</time></trkpt><trkpt lat="22.34189299" lon="114.22035239"><ele>433.074951171875</ele><time>2019-04-05T04:43:33Z</time></trkpt><trkpt lat="22.34190644" lon="114.22037242"><ele>434.3641357421875</ele><time>2019-04-05T04:43:36Z</time></trkpt><trkpt lat="22.3419208" lon="114.22039393"><ele>433.375244140625</ele><time>2019-04-05T04:43:40Z</time></trkpt><trkpt lat="22.34193292" lon="114.22041546"><ele>434.639404296875</ele><time>2019-04-05T04:43:45Z</time></trkpt><trkpt lat="22.34193122" lon="114.22043757"><ele>435.339599609375</ele><time>2019-04-05T04:43:48Z</time></trkpt><trkpt lat="22.3419208" lon="114.22046446"><ele>435.41363525390625</ele><time>2019-04-05T04:43:51Z</time></trkpt><trkpt lat="22.34192818" lon="114.22048655"><ele>437.93402099609375</ele><time>2019-04-05T04:43:54Z</time></trkpt><trkpt lat="22.34194187" lon="114.22050048"><ele>438.38385009765625</ele><time>2019-04-05T04:43:58Z</time></trkpt><trkpt lat="22.34195679" lon="114.22052716"><ele>438.349609375</ele><time>2019-04-05T04:44:06Z</time></trkpt><trkpt lat="22.34196422" lon="114.22055261"><ele>439.499755859375</ele><time>2019-04-05T04:44:08Z</time></trkpt><trkpt lat="22.34196587" lon="114.22057523"><ele>443.036865234375</ele><time>2019-04-05T04:44:15Z</time></trkpt><trkpt lat="22.34198508" lon="114.22057402"><ele>444.9835205078125</ele><time>2019-04-05T04:44:23Z</time></trkpt><trkpt lat="22.3420074" lon="114.22057776"><ele>447.981201171875</ele><time>2019-04-05T04:44:53Z</time></trkpt><trkpt lat="22.34201359" lon="114.22059842"><ele>449.572509765625</ele><time>2019-04-05T04:45:01Z</time></trkpt><trkpt lat="22.34202467" lon="114.22061495"><ele>452.6568603515625</ele><time>2019-04-05T04:45:15Z</time></trkpt><trkpt lat="22.34203144" lon="114.22063532"><ele>453.9561767578125</ele><time>2019-04-05T04:45:24Z</time></trkpt><trkpt lat="22.34204477" lon="114.22065164"><ele>453.072265625</ele><time>2019-04-05T04:45:27Z</time></trkpt><trkpt lat="22.34205993" lon="114.22066487"><ele>453.2762451171875</ele><time>2019-04-05T04:45:30Z</time></trkpt><trkpt lat="22.34207602" lon="114.22067822"><ele>452.8076171875</ele><time>2019-04-05T04:45:33Z</time></trkpt><trkpt lat="22.34209245" lon="114.22069019"><ele>455.48779296875</ele><time>2019-04-05T04:45:39Z</time></trkpt><trkpt lat="22.34209897" lon="114.22071516"><ele>456.21575927734375</ele><time>2019-04-05T04:45:48Z</time></trkpt><trkpt lat="22.34209359" lon="114.22074054"><ele>457.3388671875</ele><time>2019-04-05T04:45:51Z</time></trkpt><trkpt lat="22.34208488" lon="114.2207659"><ele>458.90032958984375</ele><time>2019-04-05T04:45:53Z</time></trkpt><trkpt lat="22.34210213" lon="114.22077287"><ele>459.64862060546875</ele><time>2019-04-05T04:45:55Z</time></trkpt><trkpt lat="22.34211433" lon="114.22079096"><ele>459.84039306640625</ele><time>2019-04-05T04:46:00Z</time></trkpt><trkpt lat="22.34209923" lon="114.22081551"><ele>458.98291015625</ele><time>2019-04-05T04:46:10Z</time></trkpt><trkpt lat="22.34209941" lon="114.22084009"><ele>461.58294677734375</ele><time>2019-04-05T04:46:13Z</time></trkpt><trkpt lat="22.34211363" lon="114.22085329"><ele>462.89208984375</ele><time>2019-04-05T04:46:16Z</time></trkpt><trkpt lat="22.34212442" lon="114.22087432"><ele>463.10247802734375</ele><time>2019-04-05T04:46:22Z</time></trkpt><trkpt lat="22.34213987" lon="114.22086292"><ele>463.00592041015625</ele><time>2019-04-05T04:46:25Z</time></trkpt><trkpt lat="22.34215276" lon="114.2208765"><ele>463.6844482421875</ele><time>2019-04-05T04:46:35Z</time></trkpt><trkpt lat="22.34215919" lon="114.22089661"><ele>468.06414794921875</ele><time>2019-04-05T04:46:46Z</time></trkpt><trkpt lat="22.34216542" lon="114.22091678"><ele>469.3861083984375</ele><time>2019-04-05T04:46:51Z</time></trkpt><trkpt lat="22.34216284" lon="114.22093658"><ele>473.5133056640625</ele><time>2019-04-05T04:46:58Z</time></trkpt><trkpt lat="22.34214917" lon="114.22095006"><ele>474.72430419921875</ele><time>2019-04-05T04:47:04Z</time></trkpt><trkpt lat="22.34213555" lon="114.22096869"><ele>476.22607421875</ele><time>2019-04-05T04:47:10Z</time></trkpt><trkpt lat="22.34213781" lon="114.22098942"><ele>479.8883056640625</ele><time>2019-04-05T04:47:19Z</time></trkpt><trkpt lat="22.34212059" lon="114.22099723"><ele>481.046630859375</ele><time>2019-04-05T04:47:24Z</time></trkpt><trkpt lat="22.34210348" lon="114.22100426"><ele>482.122314453125</ele><time>2019-04-05T04:47:37Z</time></trkpt><trkpt lat="22.34208628" lon="114.22101545"><ele>484.7225341796875</ele><time>2019-04-05T04:47:50Z</time></trkpt><trkpt lat="22.34206888" lon="114.22102246"><ele>484.83941650390625</ele><time>2019-04-05T04:47:55Z</time></trkpt><trkpt lat="22.34205107" lon="114.22102827"><ele>484.1082763671875</ele><time>2019-04-05T04:48:00Z</time></trkpt><trkpt lat="22.34202877" lon="114.22102695"><ele>480.96893310546875</ele><time>2019-04-05T04:48:06Z</time></trkpt><trkpt lat="22.34201024" lon="114.22102111"><ele>483.39697265625</ele><time>2019-04-05T04:48:12Z</time></trkpt><trkpt lat="22.34199091" lon="114.2210257"><ele>485.6590576171875</ele><time>2019-04-05T04:48:15Z</time></trkpt><trkpt lat="22.34197113" lon="114.22103442"><ele>484.898681640625</ele><time>2019-04-05T04:48:18Z</time></trkpt><trkpt lat="22.34195154" lon="114.22103978"><ele>487.1832275390625</ele><time>2019-04-05T04:48:21Z</time></trkpt><trkpt lat="22.34193116" lon="114.22103689"><ele>491.3173828125</ele><time>2019-04-05T04:48:34Z</time></trkpt><trkpt lat="22.34192074" lon="114.2210207"><ele>491.370361328125</ele><time>2019-04-05T04:48:58Z</time></trkpt><trkpt lat="22.34190377" lon="114.22103168"><ele>492.729248046875</ele><time>2019-04-05T04:49:05Z</time></trkpt><trkpt lat="22.34189257" lon="114.22104912"><ele>492.654052734375</ele><time>2019-04-05T04:49:08Z</time></trkpt><trkpt lat="22.34188818" lon="114.22107077"><ele>491.79345703125</ele><time>2019-04-05T04:49:12Z</time></trkpt><trkpt lat="22.34189414" lon="114.22109613"><ele>492.47052001953125</ele><time>2019-04-05T04:49:15Z</time></trkpt><trkpt lat="22.34189252" lon="114.22111982"><ele>492.876953125</ele><time>2019-04-05T04:49:17Z</time></trkpt><trkpt lat="22.34187551" lon="114.22113462"><ele>494.6209716796875</ele><time>2019-04-05T04:49:21Z</time></trkpt><trkpt lat="22.3418589" lon="114.22115335"><ele>498.1986083984375</ele><time>2019-04-05T04:49:33Z</time></trkpt><trkpt lat="22.34185345" lon="114.2211768"><ele>498.954833984375</ele><time>2019-04-05T04:49:40Z</time></trkpt><trkpt lat="22.34185093" lon="114.221202"><ele>499.15380859375</ele><time>2019-04-05T04:49:43Z</time></trkpt><trkpt lat="22.34185211" lon="114.22122504"><ele>499.784912109375</ele><time>2019-04-05T04:49:50Z</time></trkpt><trkpt lat="22.34184467" lon="114.22124698"><ele>499.4073486328125</ele><time>2019-04-05T04:49:53Z</time></trkpt><trkpt lat="22.34185864" lon="114.22126235"><ele>500.9307861328125</ele><time>2019-04-05T04:50:06Z</time></trkpt><trkpt lat="22.34186676" lon="114.22128602"><ele>501.59844970703125</ele><time>2019-04-05T04:50:11Z</time></trkpt><trkpt lat="22.34185186" lon="114.22130472"><ele>503.721435546875</ele><time>2019-04-05T04:50:14Z</time></trkpt><trkpt lat="22.34186368" lon="114.22132357"><ele>502.9901123046875</ele><time>2019-04-05T04:50:51Z</time></trkpt><trkpt lat="22.34184446" lon="114.22134119"><ele>500.530029296875</ele><time>2019-04-05T04:51:01Z</time></trkpt><trkpt lat="22.34183435" lon="114.22135994"><ele>504.4149169921875</ele><time>2019-04-05T04:51:05Z</time></trkpt><trkpt lat="22.34183272" lon="114.22138518"><ele>506.3670654296875</ele><time>2019-04-05T04:51:13Z</time></trkpt><trkpt lat="22.34184158" lon="114.22140822"><ele>506.25164794921875</ele><time>2019-04-05T04:51:18Z</time></trkpt><trkpt lat="22.34182681" lon="114.22142559"><ele>506.6170654296875</ele><time>2019-04-05T04:51:28Z</time></trkpt><trkpt lat="22.34182177" lon="114.22144496"><ele>508.494140625</ele><time>2019-04-05T04:51:31Z</time></trkpt><trkpt lat="22.34181474" lon="114.22146457"><ele>508.0740966796875</ele><time>2019-04-05T04:51:34Z</time></trkpt><trkpt lat="22.34180048" lon="114.22148028"><ele>509.34307861328125</ele><time>2019-04-05T04:51:45Z</time></trkpt><trkpt lat="22.34178959" lon="114.2214983"><ele>510.9547119140625</ele><time>2019-04-05T04:51:51Z</time></trkpt><trkpt lat="22.34177428" lon="114.22151592"><ele>514.5759887695312</ele><time>2019-04-05T04:51:55Z</time></trkpt><trkpt lat="22.34176078" lon="114.2215312"><ele>517.4550170898438</ele><time>2019-04-05T04:52:02Z</time></trkpt><trkpt lat="22.34175084" lon="114.22154983"><ele>519.4144897460938</ele><time>2019-04-05T04:52:05Z</time></trkpt><trkpt lat="22.34174136" lon="114.22156838"><ele>521.0938720703125</ele><time>2019-04-05T04:52:07Z</time></trkpt><trkpt lat="22.34172019" lon="114.22157689"><ele>519.1434936523438</ele><time>2019-04-05T04:52:10Z</time></trkpt><trkpt lat="22.34170473" lon="114.22159172"><ele>520.796142578125</ele><time>2019-04-05T04:52:17Z</time></trkpt><trkpt lat="22.34169573" lon="114.22160902"><ele>520.8998413085938</ele><time>2019-04-05T04:52:23Z</time></trkpt><trkpt lat="22.34168836" lon="114.22163611"><ele>520.200439453125</ele><time>2019-04-05T04:52:27Z</time></trkpt><trkpt lat="22.34167617" lon="114.22166203"><ele>521.8287963867188</ele><time>2019-04-05T04:52:30Z</time></trkpt><trkpt lat="22.34166825" lon="114.22168304"><ele>522.3081665039062</ele><time>2019-04-05T04:52:32Z</time></trkpt><trkpt lat="22.34166826" lon="114.22170588"><ele>524.183349609375</ele><time>2019-04-05T04:52:36Z</time></trkpt><trkpt lat="22.34167216" lon="114.22173292"><ele>526.1083984375</ele><time>2019-04-05T04:52:40Z</time></trkpt><trkpt lat="22.34167494" lon="114.22175461"><ele>527.551025390625</ele><time>2019-04-05T04:52:45Z</time></trkpt><trkpt lat="22.34168694" lon="114.22177269"><ele>525.85693359375</ele><time>2019-04-05T04:52:50Z</time></trkpt><trkpt lat="22.341683" lon="114.22179271"><ele>526.183349609375</ele><time>2019-04-05T04:52:53Z</time></trkpt><trkpt lat="22.34167912" lon="114.22181344"><ele>525.478759765625</ele><time>2019-04-05T04:52:57Z</time></trkpt><trkpt lat="22.34166196" lon="114.22182239"><ele>526.646484375</ele><time>2019-04-05T04:53:01Z</time></trkpt><trkpt lat="22.34164927" lon="114.22184388"><ele>526.587890625</ele><time>2019-04-05T04:53:05Z</time></trkpt><trkpt lat="22.34164358" lon="114.22186311"><ele>526.6385498046875</ele><time>2019-04-05T04:53:07Z</time></trkpt><trkpt lat="22.34162993" lon="114.22187665"><ele>525.1846923828125</ele><time>2019-04-05T04:53:13Z</time></trkpt><trkpt lat="22.34161559" lon="114.22189432"><ele>527.60400390625</ele><time>2019-04-05T04:53:18Z</time></trkpt><trkpt lat="22.34161319" lon="114.22191459"><ele>528.584228515625</ele><time>2019-04-05T04:53:21Z</time></trkpt><trkpt lat="22.34160752" lon="114.22193891"><ele>529.5538330078125</ele><time>2019-04-05T04:53:25Z</time></trkpt><trkpt lat="22.34160599" lon="114.22196185"><ele>529.823974609375</ele><time>2019-04-05T04:53:28Z</time></trkpt><trkpt lat="22.34160124" lon="114.22198821"><ele>528.951416015625</ele><time>2019-04-05T04:53:31Z</time></trkpt><trkpt lat="22.34159907" lon="114.22201189"><ele>530.2867431640625</ele><time>2019-04-05T04:53:39Z</time></trkpt><trkpt lat="22.34159424" lon="114.22203561"><ele>533.3594970703125</ele><time>2019-04-05T04:53:48Z</time></trkpt><trkpt lat="22.3415912" lon="114.22206267"><ele>534.0390625</ele><time>2019-04-05T04:53:54Z</time></trkpt><trkpt lat="22.341599" lon="114.22208355"><ele>534.27490234375</ele><time>2019-04-05T04:53:57Z</time></trkpt><trkpt lat="22.34160641" lon="114.22210312"><ele>536.507568359375</ele><time>2019-04-05T04:54:03Z</time></trkpt><trkpt lat="22.34160389" lon="114.2221249"><ele>534.397705078125</ele><time>2019-04-05T04:54:06Z</time></trkpt><trkpt lat="22.34160943" lon="114.2221447"><ele>534.31396484375</ele><time>2019-04-05T04:54:14Z</time></trkpt><trkpt lat="22.34162367" lon="114.22215728"><ele>534.478515625</ele><time>2019-04-05T04:54:22Z</time></trkpt><trkpt lat="22.34161574" lon="114.22217871"><ele>538.410400390625</ele><time>2019-04-05T04:54:26Z</time></trkpt><trkpt lat="22.34162699" lon="114.2221987"><ele>541.323486328125</ele><time>2019-04-05T04:54:32Z</time></trkpt><trkpt lat="22.341636" lon="114.22221689"><ele>543.89013671875</ele><time>2019-04-05T04:54:42Z</time></trkpt><trkpt lat="22.34163027" lon="114.22223817"><ele>543.587158203125</ele><time>2019-04-05T04:54:47Z</time></trkpt><trkpt lat="22.3416226" lon="114.22225929"><ele>545.6370849609375</ele><time>2019-04-05T04:54:57Z</time></trkpt><trkpt lat="22.34162136" lon="114.22228425"><ele>544.572509765625</ele><time>2019-04-05T04:55:01Z</time></trkpt><trkpt lat="22.34162395" lon="114.22230483"><ele>545.98583984375</ele><time>2019-04-05T04:55:04Z</time></trkpt><trkpt lat="22.34163167" lon="114.22232643"><ele>548.013427734375</ele><time>2019-04-05T04:55:11Z</time></trkpt><trkpt lat="22.3416342" lon="114.22234889"><ele>549.341064453125</ele><time>2019-04-05T04:55:14Z</time></trkpt><trkpt lat="22.34163427" lon="114.22237046"><ele>550.222412109375</ele><time>2019-04-05T04:55:17Z</time></trkpt><trkpt lat="22.3416321" lon="114.22239104"><ele>550.9774169921875</ele><time>2019-04-05T04:55:20Z</time></trkpt><trkpt lat="22.34162538" lon="114.22241583"><ele>551.9051513671875</ele><time>2019-04-05T04:55:24Z</time></trkpt><trkpt lat="22.34161978" lon="114.22243613"><ele>552.96630859375</ele><time>2019-04-05T04:55:28Z</time></trkpt><trkpt lat="22.34161368" lon="114.22246454"><ele>553.28125</ele><time>2019-04-05T04:55:34Z</time></trkpt><trkpt lat="22.34160004" lon="114.22247904"><ele>551.99267578125</ele><time>2019-04-05T04:55:40Z</time></trkpt><trkpt lat="22.34158714" lon="114.22249673"><ele>553.114990234375</ele><time>2019-04-05T04:55:43Z</time></trkpt><trkpt lat="22.34158371" lon="114.22251902"><ele>552.75732421875</ele><time>2019-04-05T04:55:47Z</time></trkpt><trkpt lat="22.34158343" lon="114.22255"><ele>553.4345703125</ele><time>2019-04-05T04:55:51Z</time></trkpt><trkpt lat="22.34159889" lon="114.22256074"><ele>550.986572265625</ele><time>2019-04-05T04:55:53Z</time></trkpt><trkpt lat="22.34158646" lon="114.22258277"><ele>552.365966796875</ele><time>2019-04-05T04:56:00Z</time></trkpt><trkpt lat="22.34158341" lon="114.22260834"><ele>553.697265625</ele><time>2019-04-05T04:56:05Z</time></trkpt><trkpt lat="22.34157047" lon="114.2226258"><ele>554.085205078125</ele><time>2019-04-05T04:56:08Z</time></trkpt><trkpt lat="22.34156258" lon="114.222648"><ele>558.359619140625</ele><time>2019-04-05T04:56:11Z</time></trkpt><trkpt lat="22.34155935" lon="114.22267681"><ele>558.82470703125</ele><time>2019-04-05T04:56:14Z</time></trkpt><trkpt lat="22.34157347" lon="114.22269098"><ele>560.8551025390625</ele><time>2019-04-05T04:56:20Z</time></trkpt><trkpt lat="22.34158511" lon="114.22271275"><ele>564.117431640625</ele><time>2019-04-05T04:56:51Z</time></trkpt><trkpt lat="22.34158816" lon="114.2227327"><ele>565.078369140625</ele><time>2019-04-05T04:56:54Z</time></trkpt><trkpt lat="22.34158229" lon="114.22275593"><ele>560.208984375</ele><time>2019-04-05T04:57:08Z</time></trkpt><trkpt lat="22.34157536" lon="114.22277965"><ele>562.32275390625</ele><time>2019-04-05T04:57:11Z</time></trkpt><trkpt lat="22.3415634" lon="114.22279868"><ele>563.578369140625</ele><time>2019-04-05T04:57:19Z</time></trkpt><trkpt lat="22.34154505" lon="114.22281254"><ele>565.412109375</ele><time>2019-04-05T04:57:24Z</time></trkpt><trkpt lat="22.34154057" lon="114.2228314"><ele>566.2362060546875</ele><time>2019-04-05T04:57:27Z</time></trkpt><trkpt lat="22.34152359" lon="114.2228459"><ele>566.000244140625</ele><time>2019-04-05T04:57:35Z</time></trkpt><trkpt lat="22.3415037" lon="114.22284532"><ele>567.294677734375</ele><time>2019-04-05T04:57:38Z</time></trkpt><trkpt lat="22.34148007" lon="114.22284163"><ele>567.4632568359375</ele><time>2019-04-05T04:57:46Z</time></trkpt><trkpt lat="22.34146313" lon="114.22285087"><ele>569.12548828125</ele><time>2019-04-05T04:57:49Z</time></trkpt><trkpt lat="22.34146556" lon="114.22287258"><ele>567.718505859375</ele><time>2019-04-05T04:57:57Z</time></trkpt><trkpt lat="22.3414438" lon="114.22287695"><ele>568.9072265625</ele><time>2019-04-05T04:58:01Z</time></trkpt><trkpt lat="22.34142331" lon="114.22287736"><ele>568.967041015625</ele><time>2019-04-05T04:58:05Z</time></trkpt><trkpt lat="22.34140562" lon="114.22289379"><ele>571.3961181640625</ele><time>2019-04-05T04:58:20Z</time></trkpt><trkpt lat="22.34138872" lon="114.22290065"><ele>571.7021484375</ele><time>2019-04-05T04:58:27Z</time></trkpt><trkpt lat="22.34136884" lon="114.22289909"><ele>572.631103515625</ele><time>2019-04-05T04:58:32Z</time></trkpt><trkpt lat="22.34134179" lon="114.2229008"><ele>573.5621337890625</ele><time>2019-04-05T04:58:34Z</time></trkpt><trkpt lat="22.34132222" lon="114.22290227"><ele>573.1895751953125</ele><time>2019-04-05T04:58:35Z</time></trkpt><trkpt lat="22.34129702" lon="114.22290239"><ele>573.306640625</ele><time>2019-04-05T04:58:37Z</time></trkpt><trkpt lat="22.34127572" lon="114.22290504"><ele>575.110595703125</ele><time>2019-04-05T04:58:40Z</time></trkpt><trkpt lat="22.34125599" lon="114.22290193"><ele>575.8310546875</ele><time>2019-04-05T04:58:42Z</time></trkpt><trkpt lat="22.3412284" lon="114.22289676"><ele>576.04296875</ele><time>2019-04-05T04:58:47Z</time></trkpt><trkpt lat="22.34120892" lon="114.22290065"><ele>577.497314453125</ele><time>2019-04-05T04:58:51Z</time></trkpt><trkpt lat="22.34118952" lon="114.22291287"><ele>578.03955078125</ele><time>2019-04-05T04:58:54Z</time></trkpt><trkpt lat="22.34117154" lon="114.22292112"><ele>578.755859375</ele><time>2019-04-05T04:58:56Z</time></trkpt><trkpt lat="22.34115304" lon="114.22293124"><ele>576.3916015625</ele><time>2019-04-05T04:58:58Z</time></trkpt><trkpt lat="22.34113532" lon="114.22294051"><ele>578.4208984375</ele><time>2019-04-05T04:59:00Z</time></trkpt><trkpt lat="22.3411146" lon="114.22294886"><ele>580.8848876953125</ele><time>2019-04-05T04:59:03Z</time></trkpt><trkpt lat="22.34110344" lon="114.22296578"><ele>581.0333251953125</ele><time>2019-04-05T04:59:07Z</time></trkpt><trkpt lat="22.34108328" lon="114.22297482"><ele>581.5255126953125</ele><time>2019-04-05T04:59:17Z</time></trkpt><trkpt lat="22.34106329" lon="114.22298168"><ele>582.9976806640625</ele><time>2019-04-05T04:59:23Z</time></trkpt><trkpt lat="22.3410549" lon="114.22300475"><ele>583.695556640625</ele><time>2019-04-05T04:59:31Z</time></trkpt><trkpt lat="22.34104488" lon="114.2230236"><ele>584.4490966796875</ele><time>2019-04-05T04:59:39Z</time></trkpt></trkseg></trk></gpx>