<?xml version='1.0' encoding='UTF-8' ?><gpx version="1.1" creator="HikingTrailHK" xsi:schemaLocation="http://www.topografix.com/GPX/1/1 http://www.topografix.com/GPX/1/1/gpx.xsd" xmlns="http://www.topografix.com/GPX/1/1" xmlns:xsi="http://www.w3.org/2001/XMLSchema-instance"><metadata><name>佛堂洲@ 2022-10-02</name><desc></desc></metadata><trk><trkseg><trkpt lat="22.28192718519774" lon="114.26939897086714" /><trkpt lat="22.28192278125" lon="114.26938679638671" /><trkpt lat="22.28188778125" lon="114.26929679638671" /><trkpt lat="22.28186978125" lon="114.26919679638672" /><trkpt lat="22.28193778125" lon="114.26908279638671" /><trkpt lat="22.28195478125" lon="114.26897079638672" /><trkpt lat="22.28196778125" lon="114.26888779638672" /><trkpt lat="22.28199078125" lon="114.26861979638672" /><trkpt lat="22.28197878125" lon="114.26831079638671" /><trkpt lat="22.28195678125" lon="114.26808679638673" /><trkpt lat="22.28193378125" lon="114.26795279638672" /><trkpt lat="22.28181378125" lon="114.26779079638672" /><trkpt lat="22.28171978125" lon="114.26768079638671" /><trkpt lat="22.28164078125" lon="114.26765979638672" /><trkpt lat="22.28158378125" lon="114.26762379638672" /><trkpt lat="22.28152378125" lon="114.26762779638672" /><trkpt lat="22.28148278125" lon="114.26758279638672" /><trkpt lat="22.28142978125" lon="114.26750579638671" /><trkpt lat="22.28127578125" lon="114.26744879638672" /><trkpt lat="22.28109478125" lon="114.26742479638672" /><trkpt lat="22.28081278125" lon="114.26745279638672" /><trkpt lat="22.28056160297342" lon="114.26744689553942" /><trkpt lat="22.280114493105856" lon="114.26721155174181" /><trkpt lat="22.279987924134545" lon="114.26721094327917" /><trkpt lat="22.279861758237743" lon="114.26709555121948" /><trkpt lat="22.279781958965543" lon="114.26707441938481" /><trkpt lat="22.279686010120983" lon="114.26701209319873" /><trkpt lat="22.27963104429051" lon="114.2669352609534" /><trkpt lat="22.279628297397522" lon="114.26692932412584" /><trkpt lat="22.27962280501049" lon="114.26692075343635" /><trkpt lat="22.279617314234684" lon="114.26690855146643" /><trkpt lat="22.279617004234353" lon="114.26690261242504" /><trkpt lat="22.279621243769295" lon="114.26686771332753" /><trkpt lat="22.27956078125" lon="114.26683879638672" /><trkpt lat="22.27947078125" lon="114.26676479638672" /><trkpt lat="22.27938778125" lon="114.26677379638672" /><trkpt lat="22.27933178125" lon="114.26660679638672" /><trkpt lat="22.27922978125" lon="114.26652979638672" /><trkpt lat="22.27915878125" lon="114.26650879638672" /><trkpt lat="22.27907678125" lon="114.26655279638672" /><trkpt lat="22.27895178125" lon="114.26656979638672" /><trkpt lat="22.27890278125" lon="114.26662279638671" /><trkpt lat="22.27887478125" lon="114.26668379638672" /><trkpt lat="22.27884778125" lon="114.26676979638673" /><trkpt lat="22.27881078125" lon="114.26685079638672" /><trkpt lat="22.27874678125" lon="114.26690379638671" /><trkpt lat="22.27868678125" lon="114.26696479638672" /><trkpt lat="22.27865278125" lon="114.26701379638672" /><trkpt lat="22.27848678125" lon="114.26695279638672" /><trkpt lat="22.27841178125" lon="114.26695679638672" /><trkpt lat="22.27834378125" lon="114.26693179638671" /><trkpt lat="22.27828578125" lon="114.26700679638672" /><trkpt lat="22.27821978125" lon="114.26703879638671" /><trkpt lat="22.27815278125" lon="114.26705979638672" /><trkpt lat="22.27809578125" lon="114.26704279638672" /><trkpt lat="22.27806578125" lon="114.26705279638672" /><trkpt lat="22.27803678125" lon="114.26708979638671" /><trkpt lat="22.27798878125" lon="114.26714279638672" /><trkpt lat="22.27792678125" lon="114.26718179638672" /><trkpt lat="22.27788478125" lon="114.26722479638671" /><trkpt lat="22.27783978125" lon="114.26723479638672" /><trkpt lat="22.27779278125" lon="114.26730579638672" /><trkpt lat="22.27778478125" lon="114.26733979638672" /><trkpt lat="22.27774678125" lon="114.26735579638672" /><trkpt lat="22.27773178125" lon="114.26738079638672" /><trkpt lat="22.27769278125" lon="114.26738579638672" /><trkpt lat="22.27766478125" lon="114.26736579638671" /><trkpt lat="22.27762778125" lon="114.26737479638672" /><trkpt lat="22.27757178125" lon="114.26741179638672" /><trkpt lat="22.27756178125" lon="114.26746679638671" /><trkpt lat="22.27749778125" lon="114.26749679638672" /><trkpt lat="22.27753278125" lon="114.26756579638672" /><trkpt lat="22.27753678125" lon="114.26764179638671" /><trkpt lat="22.27756878125" lon="114.26768279638672" /><trkpt lat="22.27759178125" lon="114.26774179638672" /><trkpt lat="22.27757778125" lon="114.26778779638671" /><trkpt lat="22.27759278125" lon="114.26783179638672" /><trkpt lat="22.27762278125" lon="114.26784379638671" /><trkpt lat="22.27769278125" lon="114.26785279638672" /><trkpt lat="22.27771278125" lon="114.26787079638672" /><trkpt lat="22.27773078125" lon="114.26796079638672" /><trkpt lat="22.27770878125" lon="114.26800879638672" /><trkpt lat="22.27768278125" lon="114.26808079638671" /><trkpt lat="22.27763678125" lon="114.26814079638672" /><trkpt lat="22.277566781250002" lon="114.26819779638672" /><trkpt lat="22.27749178125" lon="114.26824779638672" /><trkpt lat="22.27746978125" lon="114.26828779638672" /><trkpt lat="22.27744078125" lon="114.26834979638672" /><trkpt lat="22.27738878125" lon="114.26840179638671" /><trkpt lat="22.27733678125" lon="114.26844979638672" /><trkpt lat="22.27732378125" lon="114.26852379638672" /><trkpt lat="22.27733278125" lon="114.26856379638672" /><trkpt lat="22.27732778125" lon="114.26862579638671" /><trkpt lat="22.27734778125" lon="114.26865979638671" /><trkpt lat="22.27734578125" lon="114.26872179638671" /><trkpt lat="22.27737478125" lon="114.26879979638672" /><trkpt lat="22.27735878125" lon="114.26885579638672" /><trkpt lat="22.27728678125" lon="114.26888979638672" /><trkpt lat="22.27726578125" lon="114.26895179638672" /><trkpt lat="22.27727678125" lon="114.26901379638672" /><trkpt lat="22.27719578125" lon="114.26901779638672" /><trkpt lat="22.27689778125" lon="114.26921979638672" /><trkpt lat="22.27679978125" lon="114.26920179638672" /><trkpt lat="22.27670778125" lon="114.26926179638671" /><trkpt lat="22.27666878125" lon="114.26937179638672" /><trkpt lat="22.27641978125" lon="114.26949579638672" /><trkpt lat="22.27629878125" lon="114.26962279638671" /><trkpt lat="22.27619378125" lon="114.26963679638672" /><trkpt lat="22.27603978125" lon="114.26969779638672" /><trkpt lat="22.27594178125" lon="114.26978279638672" /><trkpt lat="22.27596178125" lon="114.26997379638672" /><trkpt lat="22.27601378125" lon="114.26994879638671" /><trkpt lat="22.27596478125" lon="114.27006879638672" /><trkpt lat="22.27583078125" lon="114.27013979638672" /><trkpt lat="22.27571278125" lon="114.27011479638672" /><trkpt lat="22.27550178125" lon="114.26992779638672" /><trkpt lat="22.27543378125" lon="114.26947279638672" /><trkpt lat="22.27537178125" lon="114.26881479638672" /><trkpt lat="22.27541478125" lon="114.26840779638673" /><trkpt lat="22.27542078125" lon="114.26798579638672" /><trkpt lat="22.27547378125" lon="114.26766079638672" /><trkpt lat="22.27557778125" lon="114.26736679638672" /><trkpt lat="22.27558478125" lon="114.26722979638672" /><trkpt lat="22.27554878125" lon="114.26706679638671" /><trkpt lat="22.27535878125" lon="114.26678379638672" /><trkpt lat="22.27526878125" lon="114.26674379638672" /><trkpt lat="22.27518878125" lon="114.26676579638672" /><trkpt lat="22.27512278125" lon="114.26685779638672" /><trkpt lat="22.27481878125" lon="114.26679579638672" /><trkpt lat="22.27463678125" lon="114.26673379638672" /><trkpt lat="22.27463878125" lon="114.26665079638671" /><trkpt lat="22.27467178125" lon="114.26653279638671" /><trkpt lat="22.27466478125" lon="114.26644379638672" /><trkpt lat="22.27469778125" lon="114.26631679638672" /><trkpt lat="22.27468778125" lon="114.26621379638672" /><trkpt lat="22.27458978125" lon="114.26605079638672" /><trkpt lat="22.27466178125" lon="114.26600179638672" /><trkpt lat="22.27470278125" lon="114.26589479638672" /><trkpt lat="22.27482278125" lon="114.26591979638673" /><trkpt lat="22.27499278125" lon="114.26598079638671" /><trkpt lat="22.27518878125" lon="114.26592379638672" /><trkpt lat="22.27525778125" lon="114.26587379638671" /><trkpt lat="22.27544478125" lon="114.26590979638672" /><trkpt lat="22.27551978125" lon="114.26598079638671" /><trkpt lat="22.27561178125" lon="114.26603379638672" /><trkpt lat="22.27577578125" lon="114.26599479638672" /><trkpt lat="22.27586678125" lon="114.26590579638672" /><trkpt lat="22.27616178125" lon="114.26593779638672" /><trkpt lat="22.27623378125" lon="114.26589179638673" /><trkpt lat="22.27641078125" lon="114.26588479638671" /><trkpt lat="22.27644378125" lon="114.26578579638672" /><trkpt lat="22.27663978125" lon="114.26573979638673" /><trkpt lat="22.27669578125" lon="114.26575379638672" /><trkpt lat="22.27682678125" lon="114.26589879638672" /><trkpt lat="22.27691878125" lon="114.26593779638672" /><trkpt lat="22.27708878125" lon="114.26620679638671" /><trkpt lat="22.27713778125" lon="114.26626679638672" /><trkpt lat="22.27717678125" lon="114.26636279638672" /><trkpt lat="22.27717078125" lon="114.26646179638672" /><trkpt lat="22.27720378125" lon="114.26653279638671" /><trkpt lat="22.27732778125" lon="114.26659279638672" /><trkpt lat="22.27752078125" lon="114.26656779638672" /><trkpt lat="22.27769178125" lon="114.26663879638672" /><trkpt lat="22.27783178125" lon="114.26677979638671" /><trkpt lat="22.27788778125" lon="114.26686879638672" /><trkpt lat="22.27794378125" lon="114.26691079638672" /><trkpt lat="22.27804478125" lon="114.26691479638671" /><trkpt lat="22.27815278125" lon="114.26705979638672" /><trkpt lat="22.27821978125" lon="114.26703879638671" /><trkpt lat="22.27828578125" lon="114.26700679638672" /><trkpt lat="22.27834378125" lon="114.26693179638671" /><trkpt lat="22.27841178125" lon="114.26695679638672" /><trkpt lat="22.27848678125" lon="114.26695279638672" /><trkpt lat="22.27865278125" lon="114.26701379638672" /><trkpt lat="22.27865278125" lon="114.26708279638672" /><trkpt lat="22.27865978125" lon="114.26713579638673" /><trkpt lat="22.27869378125" lon="114.26724079638672" /><trkpt lat="22.27868678125" lon="114.26736679638672" /><trkpt lat="22.27871678125" lon="114.26745279638672" /><trkpt lat="22.27875378125" lon="114.26751379638672" /><trkpt lat="22.27882978125" lon="114.26756179638672" /><trkpt lat="22.27889678125" lon="114.26756579638672" /><trkpt lat="22.27896878125" lon="114.26758279638672" /><trkpt lat="22.27900578125" lon="114.26762679638672" /><trkpt lat="22.27905478125" lon="114.26770479638672" /><trkpt lat="22.27911178125" lon="114.26779379638671" /><trkpt lat="22.27917178125" lon="114.26786679638671" /><trkpt lat="22.27919778125" lon="114.26794479638671" /><trkpt lat="22.27925078125" lon="114.26813979638672" /><trkpt lat="22.27935578125" lon="114.26820879638672" /><trkpt lat="22.27948778125" lon="114.26839979638672" /><trkpt lat="22.27960478125" lon="114.26860279638672" /><trkpt lat="22.27970178125" lon="114.26870479638671" /><trkpt lat="22.27992878125" lon="114.26878279638672" /><trkpt lat="22.28001578125" lon="114.26886779638671" /><trkpt lat="22.28011278125" lon="114.26897379638672" /><trkpt lat="22.28020778125" lon="114.26911579638671" /><trkpt lat="22.28025278125" lon="114.26927779638672" /><trkpt lat="22.28027078125" lon="114.26943679638671" /><trkpt lat="22.28027878125" lon="114.26953079638672" /><trkpt lat="22.28029778125" lon="114.26963979638671" /><trkpt lat="22.28028978125" lon="114.26973779638672" /><trkpt lat="22.28031278125" lon="114.26985979638673" /><trkpt lat="22.28032378125" lon="114.26992479638672" /><trkpt lat="22.28036178125" lon="114.27002679638672" /><trkpt lat="22.28039178125" lon="114.27007479638672" /><trkpt lat="22.28041378125" lon="114.27015679638671" /><trkpt lat="22.28047078125" lon="114.27027479638672" /><trkpt lat="22.280533195828113" lon="114.27036567638025" /><trkpt lat="22.28078678125" lon="114.27016479638672" /><trkpt lat="22.28188778125" lon="114.26929679638671" /><trkpt lat="22.28192278125" lon="114.26938679638671" /><trkpt lat="22.28193978125" lon="114.26943379638672" /><trkpt lat="22.281908722866106" lon="114.2694587783559" /></trkseg></trk></gpx>