<?xml version='1.0' encoding='UTF-8' ?><gpx version="1.1" creator="HikingTrailHK" xsi:schemaLocation="http://www.topografix.com/GPX/1/1 http://www.topografix.com/GPX/1/1/gpx.xsd" xmlns="http://www.topografix.com/GPX/1/1" xmlns:xsi="http://www.w3.org/2001/XMLSchema-instance"><metadata><name>假玉桂山 @ 2020-07-03 16:21:22</name><desc></desc></metadata><trk><trkseg><trkpt lat="22.242439751490576" lon="114.14910957976424" /><trkpt lat="22.24211478125" lon="114.14935679638671" /><trkpt lat="22.24196178125" lon="114.14924879638671" /><trkpt lat="22.24205478125" lon="114.14940479638672" /><trkpt lat="22.24221078125" lon="114.14964779638672" /><trkpt lat="22.24299878125" lon="114.15076679638672" /><trkpt lat="22.24286478125" lon="114.15080079638672" /><trkpt lat="22.24272978125" lon="114.15067579638672" /><trkpt lat="22.24234378125" lon="114.15039479638672" /><trkpt lat="22.24195778125" lon="114.14998179638673" /><trkpt lat="22.24169478125" lon="114.14984679638673" /><trkpt lat="22.24137578125" lon="114.14962979638672" /><trkpt lat="22.24106078125" lon="114.14945679638672" /><trkpt lat="22.24091378125" lon="114.14944579638671" /><trkpt lat="22.24084478125" lon="114.14949479638672" /><trkpt lat="22.24080878125" lon="114.14958879638672" /><trkpt lat="22.24098078125" lon="114.14975079638671" /><trkpt lat="22.24111178125" lon="114.14998479638672" /><trkpt lat="22.24110178125" lon="114.15001179638672" /><trkpt lat="22.24109878125" lon="114.15008679638672" /><trkpt lat="22.24104378125" lon="114.15020479638672" /><trkpt lat="22.24101178125" lon="114.15023179638672" /><trkpt lat="22.24102178125" lon="114.15027179638672" /><trkpt lat="22.24106178125" lon="114.15038779638672" /><trkpt lat="22.24107378125" lon="114.15047879638672" /><trkpt lat="22.24111878125" lon="114.15057579638672" /><trkpt lat="22.24121078125" lon="114.15072079638672" /><trkpt lat="22.24119378125" lon="114.15136479638672" /><trkpt lat="22.24136878125" lon="114.15185679638672" /><trkpt lat="22.24134678125" lon="114.15224379638671" /><trkpt lat="22.24134278125" lon="114.15227579638672" /><trkpt lat="22.24134078125" lon="114.15231279638672" /><trkpt lat="22.24134778125" lon="114.15239879638672" /><trkpt lat="22.24135678125" lon="114.15246679638672" /><trkpt lat="22.24135478125" lon="114.15260379638671" /><trkpt lat="22.24131978125" lon="114.15273279638672" /><trkpt lat="22.24122478125" lon="114.15276679638671" /><trkpt lat="22.24118078125" lon="114.15262079638671" /><trkpt lat="22.24115678125" lon="114.15254379638672" /><trkpt lat="22.24111078125" lon="114.15244679638671" /><trkpt lat="22.24114078125" lon="114.15233479638673" /><trkpt lat="22.24119378125" lon="114.15234879638672" /><trkpt lat="22.24127378125" lon="114.15230679638672" /><trkpt lat="22.24134678125" lon="114.15224379638671" /><trkpt lat="22.24134278125" lon="114.15227579638672" /><trkpt lat="22.24134078125" lon="114.15231279638672" /><trkpt lat="22.24134778125" lon="114.15239879638672" /><trkpt lat="22.24135678125" lon="114.15246679638672" /><trkpt lat="22.24135478125" lon="114.15260379638671" /><trkpt lat="22.24131978125" lon="114.15273279638672" /><trkpt lat="22.24122478125" lon="114.15276679638671" /><trkpt lat="22.24076978125" lon="114.15296479638671" /><trkpt lat="22.24062178125" lon="114.15296679638672" /><trkpt lat="22.24047278125" lon="114.15297079638673" /><trkpt lat="22.24043878125" lon="114.15301979638672" /><trkpt lat="22.24043378125" lon="114.15303679638671" /><trkpt lat="22.24043978125" lon="114.15305279638672" /><trkpt lat="22.24050378125" lon="114.15311379638672" /><trkpt lat="22.24050978125" lon="114.15313379638673" /><trkpt lat="22.24050578125" lon="114.15315279638672" /><trkpt lat="22.24049878125" lon="114.15316979638672" /><trkpt lat="22.24047778125" lon="114.15317679638672" /><trkpt lat="22.24045378125" lon="114.15317479638672" /><trkpt lat="22.24038778125" lon="114.15314879638672" /><trkpt lat="22.24036778125" lon="114.15314879638672" /><trkpt lat="22.24034678125" lon="114.15316179638671" /><trkpt lat="22.24030778125" lon="114.15321979638672" /><trkpt lat="22.24031478125" lon="114.15328679638672" /><trkpt lat="22.24035078125" lon="114.15339179638671" /><trkpt lat="22.24041378125" lon="114.15349979638673" /><trkpt lat="22.24047478125" lon="114.15353379638672" /><trkpt lat="22.24055778125" lon="114.15355379638672" /><trkpt lat="22.24108678125" lon="114.15349579638672" /><trkpt lat="22.24111378125" lon="114.15356479638672" /><trkpt lat="22.24114378125" lon="114.15369279638672" /><trkpt lat="22.24117678125" lon="114.15384779638671" /><trkpt lat="22.24122978125" lon="114.15397079638672" /><trkpt lat="22.24124078125" lon="114.15399679638672" /><trkpt lat="22.24112278125" lon="114.15404579638673" /><trkpt lat="22.24121278125" lon="114.15422179638672" /><trkpt lat="22.24131278125" lon="114.15443479638672" /><trkpt lat="22.24159378125" lon="114.15430279638672" /><trkpt lat="22.24194278125" lon="114.15437579638672" /><trkpt lat="22.24198578125" lon="114.15448379638671" /><trkpt lat="22.24199778125" lon="114.15463079638671" /><trkpt lat="22.24199978125" lon="114.15471279638672" /><trkpt lat="22.24200678125" lon="114.15508579638671" /><trkpt lat="22.24201778125" lon="114.15591379638671" /><trkpt lat="22.24200978125" lon="114.15614079638672" /><trkpt lat="22.242009410561426" lon="114.15622087230729" /></trkseg></trk></gpx>