<?xml version='1.0' encoding='UTF-8' ?><gpx version="1.1" creator="HikingTrailHK" xsi:schemaLocation="http://www.topografix.com/GPX/1/1 http://www.topografix.com/GPX/1/1/gpx.xsd" xmlns="http://www.topografix.com/GPX/1/1" xmlns:xsi="http://www.w3.org/2001/XMLSchema-instance"><metadata><name>優悠：官坑牛樟 2023-4-29</name><desc></desc></metadata><trk><trkseg><trkpt lat="22.430545076748164" lon="114.25451830388515" /><trkpt lat="22.4303268871316" lon="114.25669106111775" /><trkpt lat="22.430337261238535" lon="114.25677766375924" /><trkpt lat="22.43031676357073" lon="114.25750405037019" /><trkpt lat="22.430253823976088" lon="114.25785974954516" /><trkpt lat="22.43024747157213" lon="114.25809122257141" /><trkpt lat="22.430215293144343" lon="114.25821691100037" /><trkpt lat="22.43006110123956" lon="114.2585225309694" /><trkpt lat="22.430058609211798" lon="114.25853134480775" /><trkpt lat="22.430054154445116" lon="114.25853991311277" /><trkpt lat="22.430042195603136" lon="114.2585753621938" /><trkpt lat="22.42989078125" lon="114.25851479638672" /><trkpt lat="22.42982478125" lon="114.25847479638672" /><trkpt lat="22.42975078125" lon="114.25847279638671" /><trkpt lat="22.42971978125" lon="114.25848879638671" /><trkpt lat="22.429646477736622" lon="114.25844626235816" /><trkpt lat="22.429694171057122" lon="114.25850711648144" /><trkpt lat="22.42974485336299" lon="114.25854753011004" /><trkpt lat="22.429871280859857" lon="114.25860327469206" /><trkpt lat="22.429977504896485" lon="114.25868433411779" /><trkpt lat="22.43000716934901" lon="114.25872765320315" /><trkpt lat="22.430046460916557" lon="114.2587655886449" /><trkpt lat="22.430045505725758" lon="114.25876742584586" /><trkpt lat="22.430047119011448" lon="114.25877034224072" /><trkpt lat="22.43004881722929" lon="114.25877137551987" /><trkpt lat="22.430075929550515" lon="114.2587870149771" /><trkpt lat="22.42966678125" lon="114.25988779638672" /><trkpt lat="22.42957578125" lon="114.26006979638672" /><trkpt lat="22.42935578125" lon="114.26034879638672" /><trkpt lat="22.42939178125" lon="114.26041779638672" /><trkpt lat="22.42936478125" lon="114.26044779638671" /><trkpt lat="22.42917478125" lon="114.26059679638672" /><trkpt lat="22.42898078125" lon="114.26074279638672" /><trkpt lat="22.42872078125" lon="114.26090779638672" /><trkpt lat="22.42854978125" lon="114.26098179638672" /><trkpt lat="22.42847078125" lon="114.26101579638672" /><trkpt lat="22.42808478125" lon="114.26115979638672" /><trkpt lat="22.42804378125" lon="114.26118279638672" /><trkpt lat="22.42744278125" lon="114.26141079638671" /><trkpt lat="22.42737978125" lon="114.26130079638672" /><trkpt lat="22.42735378125" lon="114.26122479638671" /><trkpt lat="22.42723978125" lon="114.26085379638671" /><trkpt lat="22.42724478125" lon="114.26057079638672" /><trkpt lat="22.42637378125" lon="114.26054479638672" /><trkpt lat="22.42531378125" lon="114.26038879638672" /><trkpt lat="22.42517378125" lon="114.26040079638672" /><trkpt lat="22.42519178125" lon="114.26024079638673" /><trkpt lat="22.42513378125" lon="114.26005879638672" /><trkpt lat="22.42508078125" lon="114.25980979638672" /><trkpt lat="22.42510978125" lon="114.25962879638672" /><trkpt lat="22.42515278125" lon="114.25955079638672" /><trkpt lat="22.42515778125" lon="114.25950379638672" /><trkpt lat="22.42518178125" lon="114.25923979638672" /><trkpt lat="22.42513378125" lon="114.25897479638672" /><trkpt lat="22.42506678125" lon="114.25881879638672" /><trkpt lat="22.42492278125" lon="114.25871479638671" /><trkpt lat="22.42456278125" lon="114.25845079638673" /><trkpt lat="22.42430378125" lon="114.25840879638672" /><trkpt lat="22.42426578125" lon="114.25838279638671" /><trkpt lat="22.42409378125" lon="114.25830079638672" /><trkpt lat="22.42388178125" lon="114.25826879638672" /><trkpt lat="22.42372878125" lon="114.25823279638672" /><trkpt lat="22.42352378125" lon="114.25814379638672" /><trkpt lat="22.42339878125" lon="114.25811379638672" /><trkpt lat="22.42328578125" lon="114.25797579638672" /><trkpt lat="22.42317178125" lon="114.25792079638671" /><trkpt lat="22.42303278125" lon="114.25767779638672" /><trkpt lat="22.42287478125" lon="114.25757879638672" /><trkpt lat="22.42278578125" lon="114.25748479638672" /><trkpt lat="22.42274478125" lon="114.25735079638672" /><trkpt lat="22.422754324882096" lon="114.2573289033386" /><trkpt lat="22.42277878125" lon="114.25727279638672" /><trkpt lat="22.42287978125" lon="114.25721079638672" /><trkpt lat="22.42305178125" lon="114.25712779638671" /><trkpt lat="22.42310578125" lon="114.25702579638671" /><trkpt lat="22.42340878125" lon="114.25692779638672" /><trkpt lat="22.42362778125" lon="114.25685879638672" /><trkpt lat="22.423780264969906" lon="114.25669384019659" /><trkpt lat="22.42388732785176" lon="114.25632532081994" /><trkpt lat="22.423861373239887" lon="114.25612877708318" /><trkpt lat="22.42388083926319" lon="114.25577078715463" /><trkpt lat="22.42374508510852" lon="114.25530860447043" /><trkpt lat="22.423575872251405" lon="114.25495017506779" /><trkpt lat="22.42333642861638" lon="114.25464837135297" /><trkpt lat="22.423186551232988" lon="114.254314597855" /><trkpt lat="22.42274612926076" lon="114.25376411036729" /><trkpt lat="22.4225960794287" lon="114.25341969638288" /><trkpt lat="22.422519062476354" lon="114.25330605826662" /><trkpt lat="22.422334551916535" lon="114.25279239951448" /><trkpt lat="22.422320743545257" lon="114.25260269128722" /><trkpt lat="22.422316140816818" lon="114.25260269128722" /><trkpt lat="22.422323266326604" lon="114.25255766234281" /><trkpt lat="22.42230778125" lon="114.25255479638672" /><trkpt lat="22.42228678125" lon="114.25256479638672" /><trkpt lat="22.42224278125" lon="114.25257279638672" /><trkpt lat="22.42220878125" lon="114.25257979638671" /><trkpt lat="22.42215678125" lon="114.25258279638672" /><trkpt lat="22.42209578125" lon="114.25257179638672" /><trkpt lat="22.42203378125" lon="114.25255579638672" /><trkpt lat="22.42199978125" lon="114.25254279638672" /><trkpt lat="22.42196678125" lon="114.25255179638671" /><trkpt lat="22.42193678125" lon="114.25254979638672" /><trkpt lat="22.42190278125" lon="114.25253679638672" /><trkpt lat="22.42188078125" lon="114.25253779638672" /><trkpt lat="22.421813781250002" lon="114.25251779638671" /><trkpt lat="22.42179178125" lon="114.25249379638672" /><trkpt lat="22.42176478125" lon="114.25247179638671" /><trkpt lat="22.42174178125" lon="114.25246679638671" /><trkpt lat="22.42172878125" lon="114.25247979638672" /><trkpt lat="22.42171778125" lon="114.25248179638672" /><trkpt lat="22.42168578125" lon="114.25248079638672" /><trkpt lat="22.42165578125" lon="114.25249079638672" /><trkpt lat="22.42161378125" lon="114.25250679638673" /><trkpt lat="22.42158178125" lon="114.25252079638672" /><trkpt lat="22.42154778125" lon="114.25252679638672" /><trkpt lat="22.42151778125" lon="114.25254179638672" /><trkpt lat="22.42147578125" lon="114.25255679638671" /><trkpt lat="22.42144278125" lon="114.25257479638672" /><trkpt lat="22.42137978125" lon="114.25259979638672" /><trkpt lat="22.42136178125" lon="114.25260779638671" /><trkpt lat="22.42132078125" lon="114.25265179638671" /><trkpt lat="22.42122878125" lon="114.25265779638671" /><trkpt lat="22.42118778125" lon="114.25265479638672" /><trkpt lat="22.42116978125" lon="114.25266779638672" /><trkpt lat="22.42113778125" lon="114.25268279638672" /><trkpt lat="22.42109878125" lon="114.25268679638671" /><trkpt lat="22.42104078125" lon="114.25270079638672" /><trkpt lat="22.42101878125" lon="114.25270179638672" /><trkpt lat="22.42097978125" lon="114.25270079638672" /><trkpt lat="22.42095378125" lon="114.25270579638672" /><trkpt lat="22.42093478125" lon="114.25272079638673" /><trkpt lat="22.42090078125" lon="114.25272779638672" /><trkpt lat="22.42087278125" lon="114.25274179638672" /><trkpt lat="22.42084878125" lon="114.25273879638672" /><trkpt lat="22.42081678125" lon="114.25272779638672" /><trkpt lat="22.42079378125" lon="114.25272779638672" /><trkpt lat="22.42074878125" lon="114.25273879638672" /><trkpt lat="22.42072078125" lon="114.25275279638672" /><trkpt lat="22.42068878125" lon="114.25276479638671" /><trkpt lat="22.42067178125" lon="114.25277079638671" /><trkpt lat="22.42065278125" lon="114.25279179638672" /><trkpt lat="22.42062278125" lon="114.25281279638672" /><trkpt lat="22.42061778125" lon="114.25282479638672" /><trkpt lat="22.42058678125" lon="114.25284179638672" /><trkpt lat="22.42053578125" lon="114.25286279638672" /><trkpt lat="22.42048378125" lon="114.25290279638672" /><trkpt lat="22.42046378125" lon="114.25292379638672" /><trkpt lat="22.42038678125" lon="114.25298979638671" /><trkpt lat="22.42037678125" lon="114.25299479638672" /><trkpt lat="22.42033978125" lon="114.25299479638672" /><trkpt lat="22.42031478125" lon="114.25300279638672" /><trkpt lat="22.42028978125" lon="114.25299979638672" /><trkpt lat="22.420275781249998" lon="114.25300879638672" /><trkpt lat="22.42025778125" lon="114.25302179638672" /><trkpt lat="22.42024178125" lon="114.25303879638672" /><trkpt lat="22.42018378125" lon="114.25305779638671" /><trkpt lat="22.42014278125" lon="114.25305279638673" /><trkpt lat="22.42011978125" lon="114.25304179638673" /><trkpt lat="22.42011178125" lon="114.25299679638673" /><trkpt lat="22.42009778125" lon="114.25297379638671" /><trkpt lat="22.42006878125" lon="114.25293979638671" /><trkpt lat="22.42003878125" lon="114.25293579638672" /><trkpt lat="22.42001078125" lon="114.25291879638672" /><trkpt lat="22.41998178125" lon="114.25289479638671" /><trkpt lat="22.41996278125" lon="114.25287379638672" /><trkpt lat="22.41995178125" lon="114.25286779638672" /><trkpt lat="22.41989578125" lon="114.25286579638671" /><trkpt lat="22.41988678125" lon="114.25286679638671" /><trkpt lat="22.41985178125" lon="114.25284679638672" /><trkpt lat="22.41980978125" lon="114.25285279638672" /><trkpt lat="22.41978378125" lon="114.25286879638672" /><trkpt lat="22.41974778125" lon="114.25288179638672" /><trkpt lat="22.41973278125" lon="114.25287279638673" /><trkpt lat="22.41966378125" lon="114.25286979638672" /><trkpt lat="22.41963778125" lon="114.25287279638673" /><trkpt lat="22.41959478125" lon="114.25285979638672" /><trkpt lat="22.41956878125" lon="114.25283579638672" /><trkpt lat="22.41953678125" lon="114.25280979638671" /><trkpt lat="22.41950578125" lon="114.25277179638672" /><trkpt lat="22.41946978125" lon="114.25274679638672" /><trkpt lat="22.41939778125" lon="114.25270079638672" /><trkpt lat="22.41936178125" lon="114.25266879638671" /><trkpt lat="22.41933678125" lon="114.25263779638672" /><trkpt lat="22.41931678125" lon="114.25261779638672" /><trkpt lat="22.41928878125" lon="114.25259379638672" /><trkpt lat="22.41926778125" lon="114.25256879638673" /><trkpt lat="22.41924078125" lon="114.25255379638672" /><trkpt lat="22.41918178125" lon="114.25250079638671" /><trkpt lat="22.41913878125" lon="114.25242379638672" /><trkpt lat="22.41911278125" lon="114.25232879638672" /><trkpt lat="22.41910478125" lon="114.25226779638672" /><trkpt lat="22.41903978125" lon="114.25218479638671" /><trkpt lat="22.419017781249998" lon="114.25217879638672" /><trkpt lat="22.41898778125" lon="114.25215079638672" /><trkpt lat="22.41895678125" lon="114.25213379638672" /><trkpt lat="22.41890478125" lon="114.25208479638673" /><trkpt lat="22.41888578125" lon="114.25203179638672" /><trkpt lat="22.41885478125" lon="114.25201779638672" /><trkpt lat="22.41881878125" lon="114.25198679638672" /><trkpt lat="22.41877178125" lon="114.25198179638672" /><trkpt lat="22.41866978125" lon="114.25200079638672" /><trkpt lat="22.41856378125" lon="114.25197779638673" /><trkpt lat="22.41850278125" lon="114.25194479638672" /><trkpt lat="22.41847878125" lon="114.25194279638671" /><trkpt lat="22.41839478125" lon="114.25190679638672" /><trkpt lat="22.41833878125" lon="114.25185079638672" /><trkpt lat="22.41833378125" lon="114.25183179638672" /><trkpt lat="22.41824778125" lon="114.25181179638672" /><trkpt lat="22.41815578125" lon="114.25180979638672" /><trkpt lat="22.41811978125" lon="114.25179179638671" /><trkpt lat="22.41804778125" lon="114.25185379638671" /><trkpt lat="22.41804978125" lon="114.25184279638673" /><trkpt lat="22.41798678125" lon="114.25176279638671" /><trkpt lat="22.41787178125" lon="114.25172579638672" /><trkpt lat="22.41785378125" lon="114.25167579638672" /><trkpt lat="22.41782378125" lon="114.25164479638671" /><trkpt lat="22.41782978125" lon="114.25155279638672" /><trkpt lat="22.41782378125" lon="114.25154179638672" /><trkpt lat="22.41774878125" lon="114.25148779638671" /><trkpt lat="22.41764178125" lon="114.25147579638671" /><trkpt lat="22.41763078125" lon="114.25148779638671" /><trkpt lat="22.41760378125" lon="114.25149979638672" /><trkpt lat="22.41749078125" lon="114.25149479638672" /><trkpt lat="22.41745478125" lon="114.25146979638671" /><trkpt lat="22.41721078125" lon="114.25136279638672" /><trkpt lat="22.417459527164382" lon="114.25133681373683" /><trkpt lat="22.41798382273855" lon="114.25099950464698" /><trkpt lat="22.422159857470533" lon="114.24973487109014" /><trkpt lat="22.42297836906434" lon="114.2496882733131" /><trkpt lat="22.423836946928247" lon="114.2494427316505" /><trkpt lat="22.42436658745011" lon="114.24913353120411" /><trkpt lat="22.424375986289817" lon="114.24911639007593" /><trkpt lat="22.4243918228037" lon="114.24911534295535" /><trkpt lat="22.424442286777747" lon="114.2490880604953" /><trkpt lat="22.424560928500398" lon="114.24902440151595" /><trkpt lat="22.424684330364954" lon="114.24881700629686" /><trkpt lat="22.42463646437892" lon="114.248578161333" /><trkpt lat="22.424679872489207" lon="114.24835491485447" /><trkpt lat="22.424783522885605" lon="114.24819967630549" /><trkpt lat="22.424894446820858" lon="114.24795427556529" /><trkpt lat="22.424943492564793" lon="114.24774201910924" /><trkpt lat="22.424955753818608" lon="114.2472381080525" /><trkpt lat="22.424918969570427" lon="114.24688666703258" /><trkpt lat="22.424722787437773" lon="114.24620366971533" /><trkpt lat="22.424705072115913" lon="114.24616369873155" /><trkpt lat="22.424704395276734" lon="114.2461504491859" /><trkpt lat="22.424692133751662" lon="114.24612394789176" /><trkpt lat="22.424680278179707" lon="114.24611034740889" /><trkpt lat="22.424679872489207" lon="114.24609996017944" /><trkpt lat="22.424670969683206" lon="114.24609364530556" /><trkpt lat="22.424668342605415" lon="114.24609001182762" /><trkpt lat="22.424667610962032" lon="114.2460801550294" /><trkpt lat="22.424661480337164" lon="114.24607750534534" /><trkpt lat="22.424661480337164" lon="114.24607343132573" /><trkpt lat="22.424656140759495" lon="114.24607011510807" /><trkpt lat="22.424652284245568" lon="114.24607011510807" /><trkpt lat="22.424693389442773" lon="114.24604289062792" /><trkpt lat="22.42463278125" lon="114.24593579638672" /><trkpt lat="22.42443978125" lon="114.24599079638672" /><trkpt lat="22.42439378125" lon="114.24599379638671" /><trkpt lat="22.42432878125" lon="114.24603079638672" /><trkpt lat="22.42421478125" lon="114.24607379638672" /><trkpt lat="22.42396378125" lon="114.24615079638671" /><trkpt lat="22.42380578125" lon="114.24597979638672" /><trkpt lat="22.42372178125" lon="114.24588479638672" /><trkpt lat="22.42367378125" lon="114.24575179638671" /><trkpt lat="22.42349978125" lon="114.24563779638672" /><trkpt lat="22.42348578125" lon="114.24562879638673" /><trkpt lat="22.42337878125" lon="114.24565979638672" /><trkpt lat="22.42333778125" lon="114.24561979638672" /><trkpt lat="22.42341778125" lon="114.24528179638672" /><trkpt lat="22.42342578125" lon="114.24512979638672" /><trkpt lat="22.42335578125" lon="114.24502479638672" /><trkpt lat="22.42314778125" lon="114.24490779638671" /><trkpt lat="22.42303878125" lon="114.24489979638672" /><trkpt lat="22.42300478125" lon="114.24480979638672" /><trkpt lat="22.42303778125" lon="114.24469879638671" /><trkpt lat="22.42323378125" lon="114.24460179638672" /><trkpt lat="22.42344478125" lon="114.24438279638672" /><trkpt lat="22.42350978125" lon="114.24423679638672" /><trkpt lat="22.42349178125" lon="114.24414879638672" /><trkpt lat="22.42329778125" lon="114.24405679638672" /><trkpt lat="22.42326278125" lon="114.24389379638671" /><trkpt lat="22.42301778125" lon="114.24369079638672" /><trkpt lat="22.423109781249998" lon="114.24331579638672" /><trkpt lat="22.42301578125" lon="114.24312179638672" /><trkpt lat="22.42276678125" lon="114.24291179638672" /><trkpt lat="22.42274678125" lon="114.24274979638672" /><trkpt lat="22.42272778125" lon="114.24267579638672" /><trkpt lat="22.42250878125" lon="114.24263879638671" /><trkpt lat="22.42237778125" lon="114.24271279638671" /><trkpt lat="22.42237078125" lon="114.24275679638671" /><trkpt lat="22.42225578125" lon="114.24278879638672" /><trkpt lat="22.42225478125" lon="114.24286379638671" /><trkpt lat="22.42211578125" lon="114.24292679638671" /><trkpt lat="22.42204778125" lon="114.24301179638672" /><trkpt lat="22.42187578125" lon="114.24298479638672" /><trkpt lat="22.42171878125" lon="114.24292079638671" /><trkpt lat="22.42160078125" lon="114.24285479638672" /><trkpt lat="22.42148478125" lon="114.24263979638671" /><trkpt lat="22.42133378125" lon="114.24251879638672" /><trkpt lat="22.42121178125" lon="114.24252279638672" /><trkpt lat="22.42101078125" lon="114.24275679638671" /><trkpt lat="22.42097878125" lon="114.24272279638672" /><trkpt lat="22.42090078125" lon="114.24273979638672" /><trkpt lat="22.42092478125" lon="114.24262679638672" /><trkpt lat="22.42088978125" lon="114.24240779638671" /><trkpt lat="22.42080278125" lon="114.24237579638672" /><trkpt lat="22.42077278125" lon="114.24252079638671" /><trkpt lat="22.42067778125" lon="114.24233379638672" /><trkpt lat="22.42048578125" lon="114.24224979638672" /><trkpt lat="22.42045978125" lon="114.24220579638671" /><trkpt lat="22.42040778125" lon="114.24213579638672" /><trkpt lat="22.420259484941052" lon="114.24239234963855" /><trkpt lat="22.420360600628626" lon="114.24237498705463" /><trkpt lat="22.4204296160255" lon="114.24225378206393" /><trkpt lat="22.420429694835708" lon="114.24210445974988" /><trkpt lat="22.42050778125" lon="114.24199279638673" /><trkpt lat="22.42056978125" lon="114.24192679638672" /><trkpt lat="22.42067478125" lon="114.24183779638672" /><trkpt lat="22.42078178125" lon="114.24175379638672" /><trkpt lat="22.42088178125" lon="114.24178579638672" /><trkpt lat="22.42084378125" lon="114.24171079638671" /><trkpt lat="22.42088178125" lon="114.24168279638671" /><trkpt lat="22.42093078125" lon="114.24149979638672" /><trkpt lat="22.42099278125" lon="114.24138779638672" /><trkpt lat="22.42131478125" lon="114.24115079638672" /><trkpt lat="22.42141778125" lon="114.24096779638671" /><trkpt lat="22.42162578125" lon="114.24078079638672" /><trkpt lat="22.42178378125" lon="114.24076579638673" /><trkpt lat="22.42174678125" lon="114.24061179638672" /><trkpt lat="22.42189178125" lon="114.24033779638673" /><trkpt lat="22.42178778125" lon="114.24018579638673" /><trkpt lat="22.42172278125" lon="114.24008979638671" /><trkpt lat="22.42173278125" lon="114.23986479638671" /><trkpt lat="22.42177778125" lon="114.23980079638672" /><trkpt lat="22.42161878125" lon="114.23981879638671" /><trkpt lat="22.42156978125" lon="114.23976679638672" /><trkpt lat="22.42148478125" lon="114.23963079638672" /><trkpt lat="22.42133478125" lon="114.23933579638671" /><trkpt lat="22.42134478125" lon="114.23915379638672" /><trkpt lat="22.42122578125" lon="114.23887779638672" /><trkpt lat="22.421222781250002" lon="114.23879179638672" /><trkpt lat="22.42116378125" lon="114.23785779638672" /><trkpt lat="22.42112678125" lon="114.23772779638672" /><trkpt lat="22.42112778125" lon="114.23752779638671" /><trkpt lat="22.42117778125" lon="114.23736379638672" /><trkpt lat="22.42090778125" lon="114.23730579638672" /><trkpt lat="22.42082178125" lon="114.23729379638672" /><trkpt lat="22.42065978125" lon="114.23724179638671" /><trkpt lat="22.42044978125" lon="114.23701879638672" /><trkpt lat="22.42035878125" lon="114.23685979638672" /><trkpt lat="22.42031778125" lon="114.23678679638672" /><trkpt lat="22.42035178125" lon="114.23674179638672" /><trkpt lat="22.42034778125" lon="114.23663579638672" /><trkpt lat="22.42032778125" lon="114.23650879638672" /><trkpt lat="22.42028378125" lon="114.23637379638672" /><trkpt lat="22.42026678125" lon="114.23626479638672" /><trkpt lat="22.42025778125" lon="114.23616079638671" /><trkpt lat="22.42026178125" lon="114.23607079638671" /><trkpt lat="22.420275781249998" lon="114.23597579638673" /><trkpt lat="22.42030178125" lon="114.23586879638673" /><trkpt lat="22.42033378125" lon="114.23571979638672" /><trkpt lat="22.42034178125" lon="114.23568079638672" /><trkpt lat="22.42034678125" lon="114.23561179638672" /><trkpt lat="22.42034978125" lon="114.23552479638671" /><trkpt lat="22.42034278125" lon="114.23543779638672" /><trkpt lat="22.42033078125" lon="114.23535579638671" /><trkpt lat="22.42030578125" lon="114.23525379638671" /><trkpt lat="22.42027678125" lon="114.23514879638672" /><trkpt lat="22.42023278125" lon="114.23506379638673" /><trkpt lat="22.42017678125" lon="114.23497779638672" /><trkpt lat="22.42010878125" lon="114.23489479638671" /><trkpt lat="22.42002178125" lon="114.23480379638671" /><trkpt lat="22.41941478125" lon="114.23412279638671" /><trkpt lat="22.41945878125" lon="114.23407079638672" /><trkpt lat="22.41956178125" lon="114.23394979638672" /><trkpt lat="22.41968078125" lon="114.23373479638671" /><trkpt lat="22.41972078125" lon="114.23349879638671" /><trkpt lat="22.419767781250002" lon="114.23336679638672" /><trkpt lat="22.41981178125" lon="114.23326779638671" /><trkpt lat="22.41987978125" lon="114.23327679638672" /><trkpt lat="22.41989078125" lon="114.23317479638672" /><trkpt lat="22.41989578125" lon="114.23262879638672" /><trkpt lat="22.41994978125" lon="114.23254579638672" /><trkpt lat="22.41997678125" lon="114.23250379638672" /><trkpt lat="22.42002078125" lon="114.23247479638673" /><trkpt lat="22.42005278125" lon="114.23247479638673" /><trkpt lat="22.42005878125" lon="114.23238979638671" /><trkpt lat="22.42006278125" lon="114.23232779638671" /><trkpt lat="22.42001878125" lon="114.23232779638671" /><trkpt lat="22.42001778125" lon="114.23227779638673" /><trkpt lat="22.420064019083647" lon="114.23219447037884" /><trkpt lat="22.420038648447743" lon="114.23210408205955" /><trkpt lat="22.420030191549557" lon="114.23200592347854" /><trkpt lat="22.419968432642733" lon="114.23184711123764" /><trkpt lat="22.419934346905265" lon="114.23172212448662" /><trkpt lat="22.419945622741295" lon="114.2316001649973" /><trkpt lat="22.4199959981991" lon="114.23153313316317" /><trkpt lat="22.420187726486006" lon="114.23138026445281" /><trkpt lat="22.420245841787533" lon="114.23131622574886" /><trkpt lat="22.42026698400602" lon="114.23122779138697" /><trkpt lat="22.420264165080553" lon="114.23122474194435" /><trkpt lat="22.42024475661796" lon="114.23114005873094" /><trkpt lat="22.420123456976228" lon="114.23094140154097" /><trkpt lat="22.42009246925204" lon="114.23084689085385" /><trkpt lat="22.42003606751632" lon="114.23077977828189" /><trkpt lat="22.41994033904568" lon="114.23056072598041" /><trkpt lat="22.41992025202981" lon="114.23047190850724" /><trkpt lat="22.41987373914472" lon="114.23037241772255" /><trkpt lat="22.419861053775392" lon="114.2302826802167" /><trkpt lat="22.419861053775392" lon="114.23014828240451" /><trkpt lat="22.419800446089" lon="114.2300811942871" /><trkpt lat="22.419675002062306" lon="114.22983113856066" /><trkpt lat="22.419613311247105" lon="114.22976170782113" /><trkpt lat="22.41960768685516" lon="114.22975258805747" /><trkpt lat="22.419599235359982" lon="114.22974612748396" /><trkpt lat="22.41959107344674" lon="114.22973424858412" /><trkpt lat="22.41958620468958" lon="114.22972898164858" /></trkseg></trk></gpx>