<?xml version='1.0' encoding='UTF-8' ?><gpx version="1.1" creator="HikingTrailHK" xsi:schemaLocation="http://www.topografix.com/GPX/1/1 http://www.topografix.com/GPX/1/1/gpx.xsd" xmlns="http://www.topografix.com/GPX/1/1" xmlns:xsi="http://www.w3.org/2001/XMLSchema-instance"><metadata><name>優悠路線@ 2023-08-19 (副本)</name><desc></desc></metadata><trk><trkseg><trkpt lat="22.31529684782597" lon="114.26480454383494" /><trkpt lat="22.31527278125" lon="114.26477879638672" /><trkpt lat="22.31525378125" lon="114.26474979638672" /><trkpt lat="22.31514878125" lon="114.26458879638672" /><trkpt lat="22.31504978125" lon="114.26446979638672" /><trkpt lat="22.31495678125" lon="114.26458479638671" /><trkpt lat="22.31481678125" lon="114.26474879638671" /><trkpt lat="22.31476978125" lon="114.26485579638671" /><trkpt lat="22.31477078125" lon="114.26496979638672" /><trkpt lat="22.31467678125" lon="114.26497979638673" /><trkpt lat="22.31460278125" lon="114.26498779638672" /><trkpt lat="22.31455678125" lon="114.26507379638672" /><trkpt lat="22.31454978125" lon="114.26513679638671" /><trkpt lat="22.31450878125" lon="114.26513779638672" /><trkpt lat="22.31446978125" lon="114.26514779638671" /><trkpt lat="22.31436278125" lon="114.26528079638672" /><trkpt lat="22.31431578125" lon="114.26524479638672" /><trkpt lat="22.31420678125" lon="114.26536979638672" /><trkpt lat="22.31416478125" lon="114.26542079638672" /><trkpt lat="22.31407178125" lon="114.26549979638672" /><trkpt lat="22.314019143253514" lon="114.2655660811277" /><trkpt lat="22.31397184496217" lon="114.26552313208936" /><trkpt lat="22.3139302514725" lon="114.26549549736569" /><trkpt lat="22.313890839590897" lon="114.26548359368502" /><trkpt lat="22.313847320107385" lon="114.26548958232775" /><trkpt lat="22.313807326348083" lon="114.26550501272794" /><trkpt lat="22.313775728854253" lon="114.26553239927006" /><trkpt lat="22.313097331473834" lon="114.2664093088283" /><trkpt lat="22.31372678125" lon="114.26708479638671" /><trkpt lat="22.31380478125" lon="114.26716779638672" /><trkpt lat="22.31382678125" lon="114.26719179638673" /><trkpt lat="22.31401678125" lon="114.26749479638671" /><trkpt lat="22.31403378125" lon="114.26752679638672" /><trkpt lat="22.31413278125" lon="114.26770379638671" /><trkpt lat="22.31437878125" lon="114.26797679638672" /><trkpt lat="22.31452978125" lon="114.26813379638672" /><trkpt lat="22.31493278125" lon="114.26854279638673" /><trkpt lat="22.31499678125" lon="114.26860779638672" /><trkpt lat="22.31510478125" lon="114.26871179638673" /><trkpt lat="22.31512578125" lon="114.26868479638672" /><trkpt lat="22.31509378125" lon="114.26865479638671" /><trkpt lat="22.31505078125" lon="114.26861479638671" /><trkpt lat="22.31507178125" lon="114.26858679638671" /><trkpt lat="22.31510615043935" lon="114.26862174741011" /><trkpt lat="22.315111755166253" lon="114.26867076260127" /><trkpt lat="22.31484578125" lon="114.26900579638672" /><trkpt lat="22.31477778125" lon="114.26893379638672" /><trkpt lat="22.31489778125" lon="114.26878379638671" /><trkpt lat="22.314754169024372" lon="114.26864547880594" /><trkpt lat="22.314697901601406" lon="114.26867013250745" /><trkpt lat="22.314607389490874" lon="114.26874585588001" /><trkpt lat="22.3145666930145" lon="114.26880299032075" /><trkpt lat="22.31455173670693" lon="114.2687600777316" /><trkpt lat="22.314594363317468" lon="114.26865362964998" /><trkpt lat="22.314607330760566" lon="114.26859736872649" /><trkpt lat="22.31458143458998" lon="114.26847626373483" /><trkpt lat="22.31411978125" lon="114.26798279638672" /><trkpt lat="22.31392278125" lon="114.26777279638672" /><trkpt lat="22.31374378125" lon="114.26756079638672" /><trkpt lat="22.31369378125" lon="114.26750979638672" /><trkpt lat="22.31359378125" lon="114.26738979638672" /><trkpt lat="22.313487704015706" lon="114.26726262050185" /><trkpt lat="22.31343678125" lon="114.26729579638672" /><trkpt lat="22.31341478125" lon="114.26736879638672" /><trkpt lat="22.31337478125" lon="114.26743279638671" /><trkpt lat="22.31333478125" lon="114.26746479638672" /><trkpt lat="22.31329278125" lon="114.26747879638671" /><trkpt lat="22.31325678125" lon="114.26747579638672" /><trkpt lat="22.31320878125" lon="114.26747079638672" /><trkpt lat="22.31313878125" lon="114.26738879638671" /><trkpt lat="22.31298478125" lon="114.26729679638672" /><trkpt lat="22.31272778125" lon="114.26697579638672" /><trkpt lat="22.31259778125" lon="114.26658279638671" /><trkpt lat="22.31250778125" lon="114.26649179638672" /><trkpt lat="22.31243378125" lon="114.26643679638671" /><trkpt lat="22.312279781249998" lon="114.26636179638672" /><trkpt lat="22.31194378125" lon="114.26627779638672" /><trkpt lat="22.31141378125" lon="114.26627579638672" /><trkpt lat="22.31115678125" lon="114.26640479638672" /><trkpt lat="22.31082378125" lon="114.26671179638672" /><trkpt lat="22.31026578125" lon="114.26716079638672" /><trkpt lat="22.31015178125" lon="114.26738279638671" /><trkpt lat="22.31014578125" lon="114.26754279638672" /><trkpt lat="22.31023678125" lon="114.26778379638672" /><trkpt lat="22.31020278125" lon="114.26784479638673" /><trkpt lat="22.31031678125" lon="114.26802379638671" /><trkpt lat="22.31045878125" lon="114.26805479638672" /><trkpt lat="22.31051578125" lon="114.26812879638672" /><trkpt lat="22.31036778125" lon="114.26833179638672" /><trkpt lat="22.31027678125" lon="114.26839379638672" /><trkpt lat="22.31029978125" lon="114.26873279638671" /><trkpt lat="22.31035678125" lon="114.26890479638672" /><trkpt lat="22.310325752745925" lon="114.26925500451017" /><trkpt lat="22.310161953482833" lon="114.26991092940136" /><trkpt lat="22.31009612712137" lon="114.27002324359688" /><trkpt lat="22.309975781072566" lon="114.27018230592444" /><trkpt lat="22.3097769017928" lon="114.27027374856038" /><trkpt lat="22.309680611929963" lon="114.27034619776589" /><trkpt lat="22.309551412352647" lon="114.27040816971146" /><trkpt lat="22.30948596069358" lon="114.27051774345449" /><trkpt lat="22.309470516060045" lon="114.27064994877571" /><trkpt lat="22.30951638526774" lon="114.27079067598288" /><trkpt lat="22.309583035656814" lon="114.27089788072362" /><trkpt lat="22.309692976995464" lon="114.27100230936838" /><trkpt lat="22.309886874935614" lon="114.27125671901376" /><trkpt lat="22.310237514315077" lon="114.27153124943004" /><trkpt lat="22.31033845376362" lon="114.27177344869904" /><trkpt lat="22.31036683815904" lon="114.27190501494073" /><trkpt lat="22.310360512239697" lon="114.27257143537668" /><trkpt lat="22.310319389491156" lon="114.27275524682352" /><trkpt lat="22.31019553189458" lon="114.27294547386475" /><trkpt lat="22.310137326196937" lon="114.27313069761408" /><trkpt lat="22.310043819614265" lon="114.27329215574963" /><trkpt lat="22.30993471126601" lon="114.27365351865308" /><trkpt lat="22.309766213637758" lon="114.27391859878503" /><trkpt lat="22.309740287706205" lon="114.27411033034161" /><trkpt lat="22.309769121967406" lon="114.27438740095278" /><trkpt lat="22.309855073855232" lon="114.2746603406735" /><trkpt lat="22.309991759546364" lon="114.27489937018993" /><trkpt lat="22.310408760226096" lon="114.27530378435046" /><trkpt lat="22.31059186036606" lon="114.27554427205126" /><trkpt lat="22.31055850108052" lon="114.27572793088478" /><trkpt lat="22.310165892463544" lon="114.27593743657934" /><trkpt lat="22.30992233354969" lon="114.27616958679926" /><trkpt lat="22.30991370081057" lon="114.27629811358383" /><trkpt lat="22.309929520264006" lon="114.27646665777411" /><trkpt lat="22.30986353446042" lon="114.27699470751207" /><trkpt lat="22.30986645133663" lon="114.27719913536703" /><trkpt lat="22.309892163198384" lon="114.27734497566342" /><trkpt lat="22.309905652184327" lon="114.27778894044832" /><trkpt lat="22.30988563262602" lon="114.27797011482807" /><trkpt lat="22.309816945820657" lon="114.27812713527283" /><trkpt lat="22.309840887066073" lon="114.27809960990129" /><trkpt lat="22.309836834567733" lon="114.27809504987897" /><trkpt lat="22.30984089136294" lon="114.27809330432893" /><trkpt lat="22.30985147004469" lon="114.27808075757946" /><trkpt lat="22.309886661983075" lon="114.27810875231494" /><trkpt lat="22.30990978125" lon="114.27807479638672" /><trkpt lat="22.30988578125" lon="114.27805679638672" /><trkpt lat="22.30986478125" lon="114.27803979638672" /><trkpt lat="22.30983378125" lon="114.27802879638672" /><trkpt lat="22.30972678125" lon="114.27803179638671" /><trkpt lat="22.30966078125" lon="114.27806579638671" /><trkpt lat="22.30962178125" lon="114.27814279638672" /><trkpt lat="22.30953378125" lon="114.27815879638672" /><trkpt lat="22.30941278125" lon="114.27820879638672" /><trkpt lat="22.30784648429193" lon="114.27827200753921" /><trkpt lat="22.307771935789944" lon="114.27828793813461" /><trkpt lat="22.30767729861587" lon="114.27828837486709" /><trkpt lat="22.307587320652246" lon="114.27825070004411" /><trkpt lat="22.307473266402866" lon="114.27824905357772" /><trkpt lat="22.30747040864577" lon="114.27824818057934" /><trkpt lat="22.30746686779068" lon="114.2782481180949" /><trkpt lat="22.307464813101745" lon="114.27824655304767" /><trkpt lat="22.30745739566227" lon="114.27824656547875" /><trkpt lat="22.307454243761285" lon="114.27824391015082" /><trkpt lat="22.307449773405935" lon="114.27824339084674" /><trkpt lat="22.30743983073802" lon="114.27823359648653" /><trkpt lat="22.307439195381704" lon="114.27822184013695" /><trkpt lat="22.30744080985845" lon="114.27821564545121" /><trkpt lat="22.307440461461" lon="114.27820752316029" /><trkpt lat="22.307438324121506" lon="114.27820153121286" /><trkpt lat="22.30741113303516" lon="114.27816971785268" /><trkpt lat="22.307422053797566" lon="114.27815676559982" /><trkpt lat="22.30747495111423" lon="114.27816129037245" /><trkpt lat="22.30696448550063" lon="114.27838008170801" /><trkpt lat="22.304674996419735" lon="114.27868289598268" /><trkpt lat="22.30270600077081" lon="114.27960947998912" /><trkpt lat="22.30219665514835" lon="114.2797375286018" /><trkpt lat="22.301880193014384" lon="114.27975960195276" /><trkpt lat="22.301427789655932" lon="114.27953396096854" /><trkpt lat="22.301224629052058" lon="114.27934592392347" /><trkpt lat="22.30112659342764" lon="114.27904513535941" /><trkpt lat="22.302105663574906" lon="114.27531721035069" /><trkpt lat="22.30209698197038" lon="114.2750442965148" /><trkpt lat="22.301838853087176" lon="114.27430852504472" /><trkpt lat="22.30158405431405" lon="114.27435421832075" /><trkpt lat="22.301112698885376" lon="114.27458349387314" /><trkpt lat="22.30060802588305" lon="114.27469412785734" /><trkpt lat="22.30034931993184" lon="114.27462768455791" /><trkpt lat="22.2999320228339" lon="114.27443181228625" /><trkpt lat="22.299962365392588" lon="114.27409069196028" /><trkpt lat="22.29990419204222" lon="114.27373632613023" /><trkpt lat="22.299685693076796" lon="114.27353250528603" /><trkpt lat="22.29968064877697" lon="114.27353003294905" /><trkpt lat="22.299670063650055" lon="114.27352264154655" /><trkpt lat="22.299656830758195" lon="114.2735246050874" /><trkpt lat="22.299651648169686" lon="114.2735160098648" /><trkpt lat="22.299634740837817" lon="114.2735052798215" /><trkpt lat="22.299621503085206" lon="114.27350417080049" /><trkpt lat="22.299610446159434" lon="114.27349749773737" /><trkpt lat="22.299597207206077" lon="114.27349943138273" /><trkpt lat="22.29959120486913" lon="114.27349223281055" /><trkpt lat="22.299577965585172" lon="114.27349416489699" /><trkpt lat="22.299461001677088" lon="114.27343127485267" /><trkpt lat="22.299327493448345" lon="114.27339045052173" /><trkpt lat="22.299072350626204" lon="114.27323476775643" /><trkpt lat="22.298890762450284" lon="114.27291968193651" /><trkpt lat="22.29883978494486" lon="114.27260275970025" /><trkpt lat="22.299118603881894" lon="114.27205634702648" /><trkpt lat="22.299200421842656" lon="114.27178145151532" /><trkpt lat="22.299347547151584" lon="114.27148148207351" /><trkpt lat="22.29935347762401" lon="114.27146048786557" /><trkpt lat="22.299367870470448" lon="114.27144719547795" /><trkpt lat="22.299381688422102" lon="114.27144274841226" /><trkpt lat="22.29938717103505" lon="114.2714272105631" /><trkpt lat="22.299391166769254" lon="114.27142225548073" /><trkpt lat="22.299389947706146" lon="114.27141623920102" /><trkpt lat="22.299399568423794" lon="114.27141887289099" /><trkpt lat="22.299405390906713" lon="114.27140276166313" /><trkpt lat="22.299418883831976" lon="114.27140447877275" /><trkpt lat="22.299427654690888" lon="114.27140240261951" /><trkpt lat="22.299430680553016" lon="114.2713930299085" /><trkpt lat="22.299447275009314" lon="114.27138793633031" /><trkpt lat="22.299454153839974" lon="114.27137709106108" /><trkpt lat="22.299480583909016" lon="114.27137023062403" /><trkpt lat="22.29948933774287" lon="114.27140668925762" /><trkpt lat="22.29950678125" lon="114.27140179638671" /><trkpt lat="22.29960478125" lon="114.27137979638673" /><trkpt lat="22.29970978125" lon="114.27136479638672" /><trkpt lat="22.29981178125" lon="114.27135679638671" /><trkpt lat="22.29990178125" lon="114.27135579638671" /><trkpt lat="22.30000578125" lon="114.27136179638671" /><trkpt lat="22.30012178125" lon="114.27137979638673" /><trkpt lat="22.30022278125" lon="114.27140279638672" /><trkpt lat="22.30032478125" lon="114.27143479638671" /><trkpt lat="22.30040178125" lon="114.27146379638671" /><trkpt lat="22.30046978125" lon="114.27149379638672" /><trkpt lat="22.30054078125" lon="114.27152979638672" /><trkpt lat="22.30059778125" lon="114.27156279638672" /><trkpt lat="22.30066978125" lon="114.27160879638672" /><trkpt lat="22.30073878125" lon="114.27165979638671" /><trkpt lat="22.30081178125" lon="114.27171979638672" /><trkpt lat="22.30087978125" lon="114.27177979638672" /><trkpt lat="22.30093478125" lon="114.27183279638672" /><trkpt lat="22.30106978125" lon="114.27197379638672" /><trkpt lat="22.30116678125" lon="114.27206379638672" /><trkpt lat="22.30126278125" lon="114.27214279638672" /><trkpt lat="22.30137078125" lon="114.27221579638672" /><trkpt lat="22.301494842753325" lon="114.27228271407134" /><trkpt lat="22.30153578125" lon="114.27230479638672" /><trkpt lat="22.30168778125" lon="114.27236279638672" /><trkpt lat="22.30178778125" lon="114.27238779638672" /><trkpt lat="22.30196678125" lon="114.27241779638672" /><trkpt lat="22.30221378125" lon="114.27242579638671" /><trkpt lat="22.30236778125" lon="114.27241579638672" /><trkpt lat="22.30247178125" lon="114.27239279638673" /><trkpt lat="22.30274578125" lon="114.27227479638672" /><trkpt lat="22.30281778125" lon="114.27223779638672" /><trkpt lat="22.30278778125" lon="114.27215779638672" /><trkpt lat="22.30285278125" lon="114.27211579638671" /><trkpt lat="22.30294578125" lon="114.27204379638673" /><trkpt lat="22.30305078125" lon="114.27195079638672" /><trkpt lat="22.30319978125" lon="114.27180079638671" /><trkpt lat="22.30335578125" lon="114.27161079638672" /><trkpt lat="22.30349678125" lon="114.27143279638672" /><trkpt lat="22.30373478125" lon="114.27118079638672" /><trkpt lat="22.30402678125" lon="114.27090679638673" /><trkpt lat="22.30427978125" lon="114.27073479638672" /><trkpt lat="22.304426687025966" lon="114.27065146084085" /><trkpt lat="22.30441867055923" lon="114.27056984177892" /><trkpt lat="22.30508078125" lon="114.27021079638672" /><trkpt lat="22.30535778125" lon="114.27001279638672" /><trkpt lat="22.30552078125" lon="114.26986279638672" /><trkpt lat="22.30577478125" lon="114.26956879638672" /><trkpt lat="22.30582278125" lon="114.26951479638672" /><trkpt lat="22.30603378125" lon="114.26926479638672" /><trkpt lat="22.30620678125" lon="114.26904179638672" /><trkpt lat="22.30634078125" lon="114.26887579638672" /><trkpt lat="22.30651678125" lon="114.26869879638672" /><trkpt lat="22.30662178125" lon="114.26860279638672" /><trkpt lat="22.30673078125" lon="114.26850579638672" /><trkpt lat="22.30682478125" lon="114.26842579638672" /><trkpt lat="22.30691278125" lon="114.26835479638672" /><trkpt lat="22.30693478125" lon="114.26833579638672" /><trkpt lat="22.30694778125" lon="114.26831979638672" /><trkpt lat="22.30695678125" lon="114.26830079638673" /><trkpt lat="22.30696378125" lon="114.26824679638672" /><trkpt lat="22.30697878125" lon="114.26823879638673" /><trkpt lat="22.30700978125" lon="114.26822379638672" /><trkpt lat="22.30703278125" lon="114.26821079638673" /><trkpt lat="22.30704578125" lon="114.26820379638671" /><trkpt lat="22.30701278125" lon="114.26813779638672" /><trkpt lat="22.30702378125" lon="114.26813179638673" /><trkpt lat="22.30706778125" lon="114.26810579638672" /><trkpt lat="22.30712778125" lon="114.26807779638672" /><trkpt lat="22.30715567107785" lon="114.2681118345833" /><trkpt lat="22.3071960064439" lon="114.2681442178154" /><trkpt lat="22.30721478125" lon="114.26814779638671" /><trkpt lat="22.30727978125" lon="114.26814079638672" /><trkpt lat="22.30760678125" lon="114.26800479638672" /><trkpt lat="22.30768378125" lon="114.26795079638671" /><trkpt lat="22.30795778125" lon="114.26785079638672" /><trkpt lat="22.30812078125" lon="114.26779379638671" /><trkpt lat="22.30850378125" lon="114.26756479638672" /><trkpt lat="22.30863578125" lon="114.26746279638672" /><trkpt lat="22.30915778125" lon="114.26685779638672" /><trkpt lat="22.30938978125" lon="114.26665079638671" /><trkpt lat="22.30946578125" lon="114.26660179638672" /><trkpt lat="22.30951578125" lon="114.26656479638672" /><trkpt lat="22.30953378125" lon="114.26653479638672" /><trkpt lat="22.309533068243418" lon="114.26646777933561" /><trkpt lat="22.30956678125" lon="114.26646579638673" /><trkpt lat="22.30958778125" lon="114.26646179638672" /><trkpt lat="22.30968378125" lon="114.26647079638671" /><trkpt lat="22.30970778125" lon="114.26641579638672" /><trkpt lat="22.30971278125" lon="114.26638479638672" /><trkpt lat="22.309723971424845" lon="114.26633090276121" /><trkpt lat="22.30974678125" lon="114.26633879638672" /><trkpt lat="22.30980378125" lon="114.26633679638672" /><trkpt lat="22.30985378125" lon="114.26632079638672" /><trkpt lat="22.30988078125" lon="114.26630579638672" /><trkpt lat="22.31005678125" lon="114.26620979638672" /><trkpt lat="22.31014978125" lon="114.26616779638672" /><trkpt lat="22.31021778125" lon="114.26613579638672" /><trkpt lat="22.31046478125" lon="114.26601679638672" /><trkpt lat="22.31109278125" lon="114.26572279638673" /><trkpt lat="22.31114478125" lon="114.26568479638672" /><trkpt lat="22.31120378125" lon="114.26563279638673" /><trkpt lat="22.31124078125" lon="114.26558679638671" /><trkpt lat="22.31125778125" lon="114.26555379638671" /><trkpt lat="22.31127778125" lon="114.26550079638672" /><trkpt lat="22.31128378125" lon="114.26546979638672" /><trkpt lat="22.31129178125" lon="114.26540379638672" /><trkpt lat="22.31129778125" lon="114.26534279638672" /><trkpt lat="22.31129778125" lon="114.26530079638673" /><trkpt lat="22.31133678125" lon="114.26525679638672" /><trkpt lat="22.31156378125" lon="114.26500579638672" /><trkpt lat="22.31161978125" lon="114.26488679638672" /><trkpt lat="22.31162273998027" lon="114.2648805664727" /></trkseg></trk></gpx>