<?xml version='1.0' encoding='UTF-8' ?><gpx version="1.1" creator="HikingTrailHK" xsi:schemaLocation="http://www.topografix.com/GPX/1/1 http://www.topografix.com/GPX/1/1/gpx.xsd" xmlns="http://www.topografix.com/GPX/1/1" xmlns:xsi="http://www.w3.org/2001/XMLSchema-instance"><metadata><name>元荃古道 @ 2016-07-26</name><desc></desc></metadata><trk><trkseg><trkpt lat="22.422453726029993" lon="114.03107551962084" /><trkpt lat="22.42234878125" lon="114.03109079638672" /><trkpt lat="22.42220278125" lon="114.03113479638672" /><trkpt lat="22.42208578125" lon="114.03117679638672" /><trkpt lat="22.42189678125" lon="114.03125779638673" /><trkpt lat="22.42146978125" lon="114.03153879638671" /><trkpt lat="22.42087978125" lon="114.03210579638672" /><trkpt lat="22.42081678125" lon="114.03214879638672" /><trkpt lat="22.42072878125" lon="114.03219679638671" /><trkpt lat="22.42064778125" lon="114.03222679638672" /><trkpt lat="22.42046278125" lon="114.03227879638672" /><trkpt lat="22.42042478125" lon="114.03230079638672" /><trkpt lat="22.42038878125" lon="114.03233579638672" /><trkpt lat="22.42021178125" lon="114.03252179638672" /><trkpt lat="22.42005078125" lon="114.03269079638672" /><trkpt lat="22.41977778125" lon="114.03279379638671" /><trkpt lat="22.41953978125" lon="114.03299079638671" /><trkpt lat="22.41947178125" lon="114.03304679638671" /><trkpt lat="22.41867678125" lon="114.03339479638672" /><trkpt lat="22.41792778125" lon="114.03357279638672" /><trkpt lat="22.41695978125" lon="114.03368079638672" /><trkpt lat="22.41640478125" lon="114.03351579638672" /><trkpt lat="22.41627278125" lon="114.03337679638672" /><trkpt lat="22.41600978125" lon="114.03324979638671" /><trkpt lat="22.41596778125" lon="114.03323479638672" /><trkpt lat="22.41590578125" lon="114.03324179638672" /><trkpt lat="22.41584878125" lon="114.03326479638672" /><trkpt lat="22.41581278125" lon="114.03330779638672" /><trkpt lat="22.41577078125" lon="114.03337179638672" /><trkpt lat="22.41572078125" lon="114.03340679638671" /><trkpt lat="22.41564278125" lon="114.03342079638672" /><trkpt lat="22.41555678125" lon="114.03341679638672" /><trkpt lat="22.41551178125" lon="114.03344079638671" /><trkpt lat="22.41515478125" lon="114.03368679638672" /><trkpt lat="22.41487278125" lon="114.03394679638672" /><trkpt lat="22.41459878125" lon="114.03403479638672" /><trkpt lat="22.41431678125" lon="114.03433179638672" /><trkpt lat="22.41395578125" lon="114.03450579638672" /><trkpt lat="22.41376378125" lon="114.03473379638672" /><trkpt lat="22.41347978125" lon="114.03478879638672" /><trkpt lat="22.41332478125" lon="114.03524079638672" /><trkpt lat="22.41332178125" lon="114.03557279638672" /><trkpt lat="22.41292078125" lon="114.03584379638671" /><trkpt lat="22.41265878125" lon="114.03613279638672" /><trkpt lat="22.412167781249998" lon="114.03647079638672" /><trkpt lat="22.41136978125" lon="114.03712179638671" /><trkpt lat="22.41129578125" lon="114.03715779638672" /><trkpt lat="22.41106578125" lon="114.03727979638671" /><trkpt lat="22.41103778125" lon="114.03736979638671" /><trkpt lat="22.41083178125" lon="114.03750579638672" /><trkpt lat="22.41075478125" lon="114.03764979638672" /><trkpt lat="22.41056678125" lon="114.03775779638671" /><trkpt lat="22.41049778125" lon="114.03775379638672" /><trkpt lat="22.41044178125" lon="114.03769979638672" /><trkpt lat="22.41036278125" lon="114.03769779638672" /><trkpt lat="22.41022178125" lon="114.03779279638673" /><trkpt lat="22.41012678125" lon="114.03779979638672" /><trkpt lat="22.41005078125" lon="114.03775179638671" /><trkpt lat="22.40996978125" lon="114.03778979638672" /><trkpt lat="22.40975778125" lon="114.03849779638672" /><trkpt lat="22.40922578125" lon="114.03920279638672" /><trkpt lat="22.40851078125" lon="114.03943379638672" /><trkpt lat="22.40827478125" lon="114.03970079638673" /><trkpt lat="22.40828878125" lon="114.03986879638671" /><trkpt lat="22.40809978125" lon="114.03991979638671" /><trkpt lat="22.40785778125" lon="114.04018879638672" /><trkpt lat="22.40754978125" lon="114.04024179638672" /><trkpt lat="22.40730578125" lon="114.04053579638672" /><trkpt lat="22.40681878125" lon="114.04063779638672" /><trkpt lat="22.40654978125" lon="114.04083879638672" /><trkpt lat="22.40621678125" lon="114.04095079638672" /><trkpt lat="22.40587878125" lon="114.04125079638672" /><trkpt lat="22.40547078125" lon="114.04139579638672" /><trkpt lat="22.40526778125" lon="114.04186379638672" /><trkpt lat="22.40515978125" lon="114.04194279638672" /><trkpt lat="22.40505078125" lon="114.04197279638672" /><trkpt lat="22.40483878125" lon="114.04210479638672" /><trkpt lat="22.40472078125" lon="114.04216879638672" /><trkpt lat="22.40439878125" lon="114.04242679638672" /><trkpt lat="22.40419978125" lon="114.04257079638671" /><trkpt lat="22.40399978125" lon="114.04263979638672" /><trkpt lat="22.40382578125" lon="114.04297679638672" /><trkpt lat="22.40372878125" lon="114.04307279638672" /><trkpt lat="22.40357378125" lon="114.04311479638672" /><trkpt lat="22.40326678125" lon="114.04331979638673" /><trkpt lat="22.40304278125" lon="114.04336779638672" /><trkpt lat="22.40286178125" lon="114.04344079638672" /><trkpt lat="22.40268578125" lon="114.04355479638672" /><trkpt lat="22.40249378125" lon="114.04380279638671" /><trkpt lat="22.40206078125" lon="114.04401579638672" /><trkpt lat="22.40157778125" lon="114.04429679638672" /><trkpt lat="22.40129378125" lon="114.04427779638672" /><trkpt lat="22.40091578125" lon="114.04438779638672" /><trkpt lat="22.40058078125" lon="114.04439779638672" /><trkpt lat="22.40022678125" lon="114.04428379638672" /><trkpt lat="22.40021578125" lon="114.04411079638672" /><trkpt lat="22.40013378125" lon="114.04407779638672" /><trkpt lat="22.39997678125" lon="114.04422579638671" /><trkpt lat="22.39984078125" lon="114.04421579638672" /><trkpt lat="22.39947678125" lon="114.04444479638671" /><trkpt lat="22.39929178125" lon="114.04447279638671" /><trkpt lat="22.39918778125" lon="114.04438779638672" /><trkpt lat="22.39913378125" lon="114.04420279638671" /><trkpt lat="22.39900278125" lon="114.04405479638672" /><trkpt lat="22.39887978125" lon="114.04400279638672" /><trkpt lat="22.39870678125" lon="114.04408179638672" /><trkpt lat="22.39859078125" lon="114.04406779638671" /><trkpt lat="22.39845278125" lon="114.04395479638671" /><trkpt lat="22.39822778125" lon="114.04384379638672" /><trkpt lat="22.39799578125" lon="114.04387279638672" /><trkpt lat="22.39790678125" lon="114.04393079638672" /><trkpt lat="22.39774378125" lon="114.04387179638672" /><trkpt lat="22.39759578125" lon="114.04367379638671" /><trkpt lat="22.39715378125" lon="114.04353979638672" /><trkpt lat="22.39701878125" lon="114.04359079638672" /><trkpt lat="22.39686278125" lon="114.04391779638672" /><trkpt lat="22.39683878125" lon="114.04426379638672" /><trkpt lat="22.39678078125" lon="114.04445779638672" /><trkpt lat="22.39670478125" lon="114.04451279638671" /><trkpt lat="22.39664078125" lon="114.04461779638672" /><trkpt lat="22.39664478125" lon="114.04476879638672" /><trkpt lat="22.39659078125" lon="114.04500179638671" /><trkpt lat="22.39636578125" lon="114.04540579638672" /><trkpt lat="22.39624278125" lon="114.04557679638671" /><trkpt lat="22.39622378125" lon="114.04569079638672" /><trkpt lat="22.39626978125" lon="114.04583779638672" /><trkpt lat="22.39635678125" lon="114.04602879638672" /><trkpt lat="22.39660378125" lon="114.04621779638671" /><trkpt lat="22.39717878125" lon="114.04644979638672" /><trkpt lat="22.39744478125" lon="114.04672179638672" /><trkpt lat="22.39760078125" lon="114.04681479638671" /><trkpt lat="22.39762778125" lon="114.04689879638671" /><trkpt lat="22.39744778125" lon="114.04707579638672" /><trkpt lat="22.39736378125" lon="114.04719479638672" /><trkpt lat="22.39738878125" lon="114.04728479638672" /><trkpt lat="22.39767178125" lon="114.04757679638672" /><trkpt lat="22.39806878125" lon="114.04773179638671" /><trkpt lat="22.39819078125" lon="114.04783179638672" /><trkpt lat="22.39832578125" lon="114.04797579638672" /><trkpt lat="22.39846678125" lon="114.04807679638672" /><trkpt lat="22.39854078125" lon="114.04812479638672" /><trkpt lat="22.39855778125" lon="114.04835279638672" /><trkpt lat="22.39852578125" lon="114.04843479638672" /><trkpt lat="22.39837878125" lon="114.04854379638672" /><trkpt lat="22.39834378125" lon="114.04857179638672" /><trkpt lat="22.39781378125" lon="114.04902279638672" /><trkpt lat="22.39761778125" lon="114.04913079638672" /><trkpt lat="22.39746678125" lon="114.04931679638672" /><trkpt lat="22.39711778125" lon="114.04969079638671" /><trkpt lat="22.39703278125" lon="114.04985879638672" /><trkpt lat="22.39699578125" lon="114.04993379638672" /><trkpt lat="22.39692478125" lon="114.05036979638672" /><trkpt lat="22.39698278125" lon="114.05061579638672" /><trkpt lat="22.39723378125" lon="114.05156779638672" /><trkpt lat="22.39766378125" lon="114.05274979638672" /><trkpt lat="22.39767478125" lon="114.05290979638671" /><trkpt lat="22.39767878125" lon="114.05298379638671" /><trkpt lat="22.39758178125" lon="114.05330379638671" /><trkpt lat="22.39754878125" lon="114.05373279638673" /><trkpt lat="22.39711578125" lon="114.05473979638671" /><trkpt lat="22.39703678125" lon="114.05488679638673" /><trkpt lat="22.39690678125" lon="114.05497879638672" /><trkpt lat="22.39685778125" lon="114.05514479638671" /><trkpt lat="22.39684378125" lon="114.05533479638672" /><trkpt lat="22.39687778125" lon="114.05567279638672" /><trkpt lat="22.39664878125" lon="114.05596779638672" /><trkpt lat="22.39679778125" lon="114.05665979638673" /><trkpt lat="22.39671678125" lon="114.05682979638672" /><trkpt lat="22.39655078125" lon="114.05698879638672" /><trkpt lat="22.39642578125" lon="114.05715879638672" /><trkpt lat="22.39647078125" lon="114.05750279638671" /><trkpt lat="22.39643378125" lon="114.05767379638672" /><trkpt lat="22.39617078125" lon="114.05787579638672" /><trkpt lat="22.39598178125" lon="114.05826179638672" /><trkpt lat="22.39585278125" lon="114.05888179638671" /><trkpt lat="22.39575578125" lon="114.05895779638672" /><trkpt lat="22.39559978125" lon="114.05893479638672" /><trkpt lat="22.39552378125" lon="114.05898679638672" /><trkpt lat="22.39542978125" lon="114.05927779638672" /><trkpt lat="22.39470278125" lon="114.05941679638671" /><trkpt lat="22.39446378125" lon="114.05951979638672" /><trkpt lat="22.39430778125" lon="114.05969579638672" /><trkpt lat="22.39422778125" lon="114.05999379638672" /><trkpt lat="22.39426178125" lon="114.06031479638672" /><trkpt lat="22.39425378125" lon="114.06046579638672" /><trkpt lat="22.39421178125" lon="114.06059479638672" /><trkpt lat="22.39412578125" lon="114.06071979638672" /><trkpt lat="22.39401778125" lon="114.06079679638673" /><trkpt lat="22.39384378125" lon="114.06087879638672" /><trkpt lat="22.39371078125" lon="114.06101479638671" /><trkpt lat="22.39359778125" lon="114.06118479638671" /><trkpt lat="22.39356378125" lon="114.06121479638672" /><trkpt lat="22.39353178125" lon="114.06122479638672" /><trkpt lat="22.39348978125" lon="114.06122779638672" /><trkpt lat="22.39344878125" lon="114.06121279638671" /><trkpt lat="22.39303178125" lon="114.06091379638671" /><trkpt lat="22.39296778125" lon="114.06088279638672" /><trkpt lat="22.39291078125" lon="114.06088279638672" /><trkpt lat="22.39285078125" lon="114.06091079638672" /><trkpt lat="22.392806781250002" lon="114.06097179638672" /><trkpt lat="22.39277578125" lon="114.06102879638672" /><trkpt lat="22.39266078125" lon="114.06128279638672" /><trkpt lat="22.39263678125" lon="114.06131579638672" /><trkpt lat="22.39258678125" lon="114.06135579638672" /><trkpt lat="22.39243278125" lon="114.06140779638672" /><trkpt lat="22.39235778125" lon="114.06142079638671" /><trkpt lat="22.39210978125" lon="114.06141779638672" /><trkpt lat="22.39208778125" lon="114.06142279638672" /><trkpt lat="22.39206478125" lon="114.06143579638672" /><trkpt lat="22.39203078125" lon="114.06148179638672" /><trkpt lat="22.39189478125" lon="114.06148879638671" /><trkpt lat="22.39171178125" lon="114.06159079638672" /><trkpt lat="22.39141478125" lon="114.06174179638671" /><trkpt lat="22.39139978125" lon="114.06203179638672" /><trkpt lat="22.39107978125" lon="114.06200179638672" /><trkpt lat="22.39088578125" lon="114.06196379638672" /><trkpt lat="22.39080178125" lon="114.06195579638671" /><trkpt lat="22.39073878125" lon="114.06197679638672" /><trkpt lat="22.39068378125" lon="114.06204279638672" /><trkpt lat="22.39065378125" lon="114.06212079638672" /><trkpt lat="22.39062978125" lon="114.06222579638671" /><trkpt lat="22.39059378125" lon="114.06231479638672" /><trkpt lat="22.39054378125" lon="114.06238179638672" /><trkpt lat="22.39048378125" lon="114.06243979638671" /><trkpt lat="22.39045178125" lon="114.06251179638672" /><trkpt lat="22.39045678125" lon="114.06259879638672" /><trkpt lat="22.39048478125" lon="114.06266779638672" /><trkpt lat="22.39051878125" lon="114.06273579638672" /><trkpt lat="22.39052778125" lon="114.06278179638672" /><trkpt lat="22.39048078125" lon="114.06290079638671" /><trkpt lat="22.39017478125" lon="114.06322479638672" /><trkpt lat="22.38987878125" lon="114.06338579638673" /><trkpt lat="22.38974578125" lon="114.06348979638672" /><trkpt lat="22.38968478125" lon="114.06357479638672" /><trkpt lat="22.38965078125" lon="114.06367179638671" /><trkpt lat="22.38965178125" lon="114.06379779638672" /><trkpt lat="22.38970078125" lon="114.06388779638672" /><trkpt lat="22.38990878125" lon="114.06411379638672" /><trkpt lat="22.38994978125" lon="114.06419679638672" /><trkpt lat="22.38996678125" lon="114.06427479638671" /><trkpt lat="22.38995978125" lon="114.06436979638671" /><trkpt lat="22.38992478125" lon="114.06449879638672" /><trkpt lat="22.38991378125" lon="114.06455879638672" /><trkpt lat="22.38991278125" lon="114.06462179638672" /><trkpt lat="22.38992978125" lon="114.06466479638672" /><trkpt lat="22.38995978125" lon="114.06470679638672" /><trkpt lat="22.39011778125" lon="114.06491579638671" /><trkpt lat="22.39018178125" lon="114.06502979638672" /><trkpt lat="22.39042778125" lon="114.06553679638672" /><trkpt lat="22.39046178125" lon="114.06565079638672" /><trkpt lat="22.39048878125" lon="114.06579979638671" /><trkpt lat="22.39051878125" lon="114.06602579638673" /><trkpt lat="22.39053878125" lon="114.06609879638673" /><trkpt lat="22.390563781250002" lon="114.06614079638672" /><trkpt lat="22.39059578125" lon="114.06616879638672" /><trkpt lat="22.39066378125" lon="114.06618179638672" /><trkpt lat="22.39072878125" lon="114.06617679638671" /><trkpt lat="22.39147378125" lon="114.06590179638673" /><trkpt lat="22.39167478125" lon="114.06588179638672" /><trkpt lat="22.39177578125" lon="114.06593079638672" /><trkpt lat="22.39180678125" lon="114.06599579638672" /><trkpt lat="22.39173378125" lon="114.06612479638672" /><trkpt lat="22.39160278125" lon="114.06623779638672" /><trkpt lat="22.39154978125" lon="114.06645579638672" /><trkpt lat="22.39137178125" lon="114.06665979638672" /><trkpt lat="22.39131078125" lon="114.06673679638672" /><trkpt lat="22.39128678125" lon="114.06678779638672" /><trkpt lat="22.39127578125" lon="114.06684979638672" /><trkpt lat="22.39129178125" lon="114.06694479638672" /><trkpt lat="22.39135478125" lon="114.06702479638672" /><trkpt lat="22.39146078125" lon="114.06710779638672" /><trkpt lat="22.39156278125" lon="114.06717779638672" /><trkpt lat="22.39161078125" lon="114.06721979638672" /><trkpt lat="22.39171178125" lon="114.06728079638673" /><trkpt lat="22.39176178125" lon="114.06730379638672" /><trkpt lat="22.39187478125" lon="114.06734779638671" /><trkpt lat="22.39193978125" lon="114.06739079638672" /><trkpt lat="22.39203178125" lon="114.06749079638672" /><trkpt lat="22.39228678125" lon="114.06777879638672" /><trkpt lat="22.39241378125" lon="114.06799379638672" /><trkpt lat="22.39256878125" lon="114.06822979638672" /><trkpt lat="22.39260778125" lon="114.06836979638672" /><trkpt lat="22.39260378125" lon="114.06850279638672" /><trkpt lat="22.39255478125" lon="114.06873579638672" /><trkpt lat="22.39253978125" lon="114.06883679638672" /><trkpt lat="22.39254378125" lon="114.06893879638672" /><trkpt lat="22.39257378125" lon="114.06903779638672" /><trkpt lat="22.39262378125" lon="114.06913879638672" /><trkpt lat="22.39269778125" lon="114.06920479638671" /><trkpt lat="22.39277578125" lon="114.06922379638672" /><trkpt lat="22.39285178125" lon="114.06922179638671" /><trkpt lat="22.39309978125" lon="114.06915279638672" /><trkpt lat="22.39319378125" lon="114.06915779638672" /><trkpt lat="22.39325778125" lon="114.06918279638671" /><trkpt lat="22.39330578125" lon="114.06925179638672" /><trkpt lat="22.39332978125" lon="114.06932479638672" /><trkpt lat="22.39332478125" lon="114.06940279638673" /><trkpt lat="22.39331378125" lon="114.06948979638672" /><trkpt lat="22.39327978125" lon="114.06957579638672" /><trkpt lat="22.39301678125" lon="114.06980079638672" /><trkpt lat="22.39293578125" lon="114.06994679638672" /><trkpt lat="22.39286678125" lon="114.07020079638671" /><trkpt lat="22.39277878125" lon="114.07029379638672" /><trkpt lat="22.39260078125" lon="114.07039379638672" /><trkpt lat="22.39247278125" lon="114.07048179638672" /><trkpt lat="22.39244278125" lon="114.07054679638672" /><trkpt lat="22.39244178125" lon="114.07060579638672" /><trkpt lat="22.39247378125" lon="114.07067479638673" /><trkpt lat="22.39253278125" lon="114.07073179638672" /><trkpt lat="22.39268478125" lon="114.07082379638672" /><trkpt lat="22.39276278125" lon="114.07089579638672" /><trkpt lat="22.39284078125" lon="114.07102179638672" /><trkpt lat="22.39296778125" lon="114.07151679638672" /><trkpt lat="22.39296178125" lon="114.07160679638672" /><trkpt lat="22.39289978125" lon="114.07164479638672" /><trkpt lat="22.39274178125" lon="114.07166679638672" /><trkpt lat="22.39263578125" lon="114.07171179638672" /><trkpt lat="22.39258378125" lon="114.07178779638672" /><trkpt lat="22.39254878125" lon="114.07192079638672" /><trkpt lat="22.39246078125" lon="114.07216879638672" /><trkpt lat="22.39235778125" lon="114.07228579638672" /><trkpt lat="22.39229678125" lon="114.07229679638672" /><trkpt lat="22.39223178125" lon="114.07227479638672" /><trkpt lat="22.39214378125" lon="114.07216279638672" /><trkpt lat="22.39205778125" lon="114.07183979638671" /><trkpt lat="22.39200378125" lon="114.07172379638672" /><trkpt lat="22.39189378125" lon="114.07162379638672" /><trkpt lat="22.39182278125" lon="114.07158279638672" /><trkpt lat="22.39173578125" lon="114.07159679638671" /><trkpt lat="22.39147678125" lon="114.07191279638671" /><trkpt lat="22.39138578125" lon="114.07196079638672" /><trkpt lat="22.39131878125" lon="114.07195979638672" /><trkpt lat="22.39127478125" lon="114.07193579638673" /><trkpt lat="22.39118778125" lon="114.07181779638672" /><trkpt lat="22.39112578125" lon="114.07176779638672" /><trkpt lat="22.39101078125" lon="114.07174979638671" /><trkpt lat="22.39074078125" lon="114.07176579638671" /><trkpt lat="22.39058178125" lon="114.07177679638671" /><trkpt lat="22.39042978125" lon="114.07184879638672" /><trkpt lat="22.39032378125" lon="114.07196179638672" /><trkpt lat="22.39020278125" lon="114.07213679638672" /><trkpt lat="22.39011078125" lon="114.07231479638672" /><trkpt lat="22.39000678125" lon="114.07272879638671" /><trkpt lat="22.38997378125" lon="114.07277579638672" /><trkpt lat="22.38990178125" lon="114.07281979638672" /><trkpt lat="22.38977378125" lon="114.07283179638672" /><trkpt lat="22.38966678125" lon="114.07280079638672" /><trkpt lat="22.38958778125" lon="114.07277479638672" /><trkpt lat="22.38942878125" lon="114.07276179638671" /><trkpt lat="22.38916878125" lon="114.07278579638673" /><trkpt lat="22.38900378125" lon="114.07305579638673" /><trkpt lat="22.38893378125" lon="114.07324779638672" /><trkpt lat="22.38867178125" lon="114.07356679638671" /><trkpt lat="22.38844978125" lon="114.07395079638673" /><trkpt lat="22.388320781250002" lon="114.07414579638672" /><trkpt lat="22.38818078125" lon="114.07416179638672" /><trkpt lat="22.38803378125" lon="114.07411379638671" /><trkpt lat="22.38783078125" lon="114.07409479638672" /><trkpt lat="22.38766278125" lon="114.07404279638672" /><trkpt lat="22.38749478125" lon="114.07404179638672" /><trkpt lat="22.38735678125" lon="114.07416179638672" /><trkpt lat="22.38735978125" lon="114.07426779638672" /><trkpt lat="22.38744178125" lon="114.07438179638672" /><trkpt lat="22.38744278125" lon="114.07451179638672" /><trkpt lat="22.38735078125" lon="114.07464979638672" /><trkpt lat="22.38726478125" lon="114.07490679638671" /><trkpt lat="22.38694378125" lon="114.07514179638672" /><trkpt lat="22.38690878125" lon="114.07558279638671" /><trkpt lat="22.38695278125" lon="114.07597879638672" /><trkpt lat="22.38701478125" lon="114.07629179638671" /><trkpt lat="22.38706378125" lon="114.07650279638672" /><trkpt lat="22.38713478125" lon="114.07665779638671" /><trkpt lat="22.38710178125" lon="114.07757379638672" /><trkpt lat="22.38716978125" lon="114.07799379638672" /><trkpt lat="22.38708078125" lon="114.07846879638672" /><trkpt lat="22.38708378125" lon="114.07868979638671" /><trkpt lat="22.38683378125" lon="114.07943879638673" /><trkpt lat="22.38664978125" lon="114.07971479638672" /><trkpt lat="22.38644778125" lon="114.08012379638672" /><trkpt lat="22.38643978125" lon="114.08115179638672" /><trkpt lat="22.38639778125" lon="114.08128779638672" /><trkpt lat="22.38637078125" lon="114.08133679638672" /><trkpt lat="22.38631078125" lon="114.08149479638672" /><trkpt lat="22.38630478125" lon="114.08166579638672" /><trkpt lat="22.38626478125" lon="114.08185579638672" /><trkpt lat="22.38605778125" lon="114.08207279638673" /><trkpt lat="22.38596078125" lon="114.08211379638672" /><trkpt lat="22.38570978125" lon="114.08239479638672" /><trkpt lat="22.38554278125" lon="114.08242479638672" /><trkpt lat="22.38543378125" lon="114.08254279638672" /><trkpt lat="22.38523378125" lon="114.08253779638672" /><trkpt lat="22.38508678125" lon="114.08260079638671" /><trkpt lat="22.38494478125" lon="114.08260579638672" /><trkpt lat="22.38434778125" lon="114.08317179638672" /><trkpt lat="22.38389678125" lon="114.08337479638672" /><trkpt lat="22.38360578125" lon="114.08365079638672" /><trkpt lat="22.383554781249998" lon="114.08406079638672" /><trkpt lat="22.38342178125" lon="114.08441079638672" /><trkpt lat="22.38335678125" lon="114.08454279638671" /><trkpt lat="22.38329178125" lon="114.08463279638671" /><trkpt lat="22.38314178125" lon="114.08473279638672" /><trkpt lat="22.38298478125" lon="114.08491279638672" /><trkpt lat="22.38287878125" lon="114.08499779638672" /><trkpt lat="22.38259778125" lon="114.08506179638673" /><trkpt lat="22.38243678125" lon="114.08515079638671" /><trkpt lat="22.38213478125" lon="114.08522079638672" /><trkpt lat="22.38201978125" lon="114.08536679638672" /><trkpt lat="22.38192278125" lon="114.08547479638672" /><trkpt lat="22.38174978125" lon="114.08538479638672" /><trkpt lat="22.38145078125" lon="114.08519879638672" /><trkpt lat="22.38132278125" lon="114.08528779638672" /><trkpt lat="22.38090378125" lon="114.08542879638672" /><trkpt lat="22.38073078125" lon="114.08544679638672" /><trkpt lat="22.38047078125" lon="114.08552379638672" /><trkpt lat="22.38029778125" lon="114.08565079638672" /><trkpt lat="22.38013578125" lon="114.08580079638672" /><trkpt lat="22.38008678125" lon="114.08598079638672" /><trkpt lat="22.38001578125" lon="114.08609979638672" /><trkpt lat="22.37995078125" lon="114.08616879638672" /><trkpt lat="22.37977678125" lon="114.08612679638672" /><trkpt lat="22.37959078125" lon="114.08615779638671" /><trkpt lat="22.37940778125" lon="114.08624079638672" /><trkpt lat="22.37925378125" lon="114.08634079638672" /><trkpt lat="22.37919278125" lon="114.08638779638672" /><trkpt lat="22.37923278125" lon="114.08654679638671" /><trkpt lat="22.37935678125" lon="114.08672179638671" /><trkpt lat="22.37939478125" lon="114.08675979638672" /><trkpt lat="22.37941678125" lon="114.08680979638672" /><trkpt lat="22.37942678125" lon="114.08687279638671" /><trkpt lat="22.37941878125" lon="114.08694079638671" /><trkpt lat="22.37942278125" lon="114.08700879638671" /><trkpt lat="22.37943578125" lon="114.08705279638671" /><trkpt lat="22.37945878125" lon="114.08708979638672" /><trkpt lat="22.37951478125" lon="114.08712779638672" /><trkpt lat="22.37955478125" lon="114.08716779638672" /><trkpt lat="22.37962978125" lon="114.08720079638672" /><trkpt lat="22.37973478125" lon="114.08731579638672" /><trkpt lat="22.37982178125" lon="114.08737979638671" /><trkpt lat="22.38008678125" lon="114.08736579638672" /><trkpt lat="22.38022278125" lon="114.08738279638672" /><trkpt lat="22.38037178125" lon="114.08740479638672" /><trkpt lat="22.38047378125" lon="114.08744979638672" /><trkpt lat="22.38052478125" lon="114.08744379638672" /><trkpt lat="22.38056478125" lon="114.08740879638673" /><trkpt lat="22.38069878125" lon="114.08735479638672" /><trkpt lat="22.38093378125" lon="114.08731979638672" /><trkpt lat="22.38105878125" lon="114.08732779638672" /><trkpt lat="22.38127378125" lon="114.08729979638672" /><trkpt lat="22.38144278125" lon="114.08742879638672" /><trkpt lat="22.38149878125" lon="114.08768479638672" /><trkpt lat="22.38177567420462" lon="114.08762458000444" /><trkpt lat="22.381915637501848" lon="114.0875901888461" /><trkpt lat="22.381897547307105" lon="114.08741266067693" /><trkpt lat="22.381822577060035" lon="114.08728521905243" /><trkpt lat="22.38170620052557" lon="114.08727119551475" /><trkpt lat="22.38130295265201" lon="114.08732206328692" /><trkpt lat="22.38127378125" lon="114.08729979638672" /><trkpt lat="22.38105878125" lon="114.08732779638672" /><trkpt lat="22.38093378125" lon="114.08731979638672" /><trkpt lat="22.38069878125" lon="114.08735479638672" /><trkpt lat="22.38056478125" lon="114.08740879638673" /><trkpt lat="22.38052478125" lon="114.08744379638672" /><trkpt lat="22.38047378125" lon="114.08744979638672" /><trkpt lat="22.38037178125" lon="114.08740479638672" /><trkpt lat="22.38022278125" lon="114.08738279638672" /><trkpt lat="22.38008678125" lon="114.08736579638672" /><trkpt lat="22.37982178125" lon="114.08737979638671" /><trkpt lat="22.37973478125" lon="114.08731579638672" /><trkpt lat="22.37962978125" lon="114.08720079638672" /><trkpt lat="22.37955478125" lon="114.08716779638672" /><trkpt lat="22.37951478125" lon="114.08712779638672" /><trkpt lat="22.37945878125" lon="114.08708979638672" /><trkpt lat="22.37943578125" lon="114.08705279638671" /><trkpt lat="22.37926178125" lon="114.08697879638672" /><trkpt lat="22.37908378125" lon="114.08694879638672" /><trkpt lat="22.37889378125" lon="114.08696279638671" /><trkpt lat="22.37888578125" lon="114.08703779638672" /><trkpt lat="22.37888478125" lon="114.08710479638673" /><trkpt lat="22.37883178125" lon="114.08732379638671" /><trkpt lat="22.37885378125" lon="114.08743679638673" /><trkpt lat="22.37883278125" lon="114.08759579638672" /><trkpt lat="22.37869478125" lon="114.08778679638672" /><trkpt lat="22.37867178125" lon="114.08785379638672" /><trkpt lat="22.37867678125" lon="114.08793979638672" /><trkpt lat="22.37877678125" lon="114.08806079638671" /><trkpt lat="22.37879478125" lon="114.08815379638672" /><trkpt lat="22.37876378125" lon="114.08825979638672" /><trkpt lat="22.37870678125" lon="114.08830079638672" /><trkpt lat="22.37858178125" lon="114.08835079638672" /><trkpt lat="22.37853278125" lon="114.08840679638672" /><trkpt lat="22.37847878125" lon="114.08853779638672" /><trkpt lat="22.37843778125" lon="114.08875479638672" /><trkpt lat="22.37848478125" lon="114.08890679638672" /><trkpt lat="22.37844878125" lon="114.08901079638672" /><trkpt lat="22.37841178125" lon="114.08904879638672" /><trkpt lat="22.37831678125" lon="114.08918179638673" /><trkpt lat="22.37831278125" lon="114.08934779638672" /><trkpt lat="22.37833578125" lon="114.08948479638671" /><trkpt lat="22.37826478125" lon="114.08961679638672" /><trkpt lat="22.37813978125" lon="114.08976679638671" /><trkpt lat="22.37813478125" lon="114.08979979638671" /><trkpt lat="22.37814078125" lon="114.08984379638672" /><trkpt lat="22.37819578125" lon="114.08994479638672" /><trkpt lat="22.37821178125" lon="114.09001579638672" /><trkpt lat="22.37818178125" lon="114.09006479638671" /><trkpt lat="22.37801978125" lon="114.09018779638672" /><trkpt lat="22.37789078125" lon="114.09046479638671" /><trkpt lat="22.37760978125" lon="114.09077079638672" /><trkpt lat="22.37759578125" lon="114.09084779638673" /><trkpt lat="22.37759078125" lon="114.09097079638671" /><trkpt lat="22.37761978125" lon="114.09109079638672" /><trkpt lat="22.37757878125" lon="114.09131579638672" /><trkpt lat="22.37757578125" lon="114.09155179638672" /><trkpt lat="22.37769378125" lon="114.09209979638672" /><trkpt lat="22.37770878125" lon="114.09219879638673" /><trkpt lat="22.37771578125" lon="114.09229279638672" /><trkpt lat="22.37769378125" lon="114.09251979638672" /><trkpt lat="22.37770278125" lon="114.09276179638672" /><trkpt lat="22.37774378125" lon="114.09300779638671" /><trkpt lat="22.37782678125" lon="114.09323079638672" /><trkpt lat="22.37785978125" lon="114.09381879638671" /><trkpt lat="22.37787278125" lon="114.09408479638672" /><trkpt lat="22.37784378125" lon="114.09420379638672" /><trkpt lat="22.37780778125" lon="114.09426579638672" /><trkpt lat="22.37770478125" lon="114.09440779638672" /><trkpt lat="22.37779378125" lon="114.09465279638673" /><trkpt lat="22.37785078125" lon="114.09476279638672" /><trkpt lat="22.37788078125" lon="114.09479979638672" /><trkpt lat="22.37837578125" lon="114.09519079638672" /><trkpt lat="22.37837778125" lon="114.09524479638672" /><trkpt lat="22.37831878125" lon="114.09544779638672" /><trkpt lat="22.37830578125" lon="114.09563179638671" /><trkpt lat="22.37829378125" lon="114.09567679638671" /><trkpt lat="22.37821978125" lon="114.09585279638672" /><trkpt lat="22.37821078125" lon="114.09624179638672" /><trkpt lat="22.37815378125" lon="114.09634079638671" /><trkpt lat="22.37815978125" lon="114.09665579638671" /><trkpt lat="22.37810978125" lon="114.09700079638672" /><trkpt lat="22.37812878125" lon="114.09710579638671" /><trkpt lat="22.37808978125" lon="114.09722279638672" /><trkpt lat="22.37805678125" lon="114.09751679638671" /><trkpt lat="22.37794378125" lon="114.09775279638671" /><trkpt lat="22.37793678125" lon="114.09790379638672" /><trkpt lat="22.37785378125" lon="114.09804679638673" /><trkpt lat="22.37769978125" lon="114.09816979638671" /><trkpt lat="22.37764278125" lon="114.09845179638671" /><trkpt lat="22.37751878125" lon="114.09866379638672" /><trkpt lat="22.37748378125" lon="114.09879179638672" /><trkpt lat="22.37742478125" lon="114.09890079638672" /><trkpt lat="22.37736378125" lon="114.09896079638672" /><trkpt lat="22.37718978125" lon="114.09909079638672" /><trkpt lat="22.37707878125" lon="114.09915979638672" /><trkpt lat="22.37691778125" lon="114.09929379638672" /><trkpt lat="22.37681978125" lon="114.09936979638672" /><trkpt lat="22.37670178125" lon="114.09944379638672" /><trkpt lat="22.37659678125" lon="114.09954279638671" /><trkpt lat="22.37629678125" lon="114.09978979638672" /><trkpt lat="22.37625778125" lon="114.09982879638672" /><trkpt lat="22.37608878125" lon="114.10024779638672" /><trkpt lat="22.37586278125" lon="114.10093479638672" /><trkpt lat="22.37585178125" lon="114.10102279638672" /><trkpt lat="22.37582678125" lon="114.10109379638672" /><trkpt lat="22.37581878125" lon="114.10123879638672" /><trkpt lat="22.37586578125" lon="114.10147579638672" /><trkpt lat="22.37581978125" lon="114.10164179638672" /><trkpt lat="22.37584178125" lon="114.10171579638671" /><trkpt lat="22.37590078125" lon="114.10178579638672" /><trkpt lat="22.37589178125" lon="114.10182679638672" /><trkpt lat="22.37583378125" lon="114.10193479638671" /><trkpt lat="22.37580678125" lon="114.10211279638672" /><trkpt lat="22.37567378125" lon="114.10235079638672" /><trkpt lat="22.37560278125" lon="114.10258079638672" /><trkpt lat="22.37558978125" lon="114.10270479638672" /><trkpt lat="22.37561978125" lon="114.10279079638671" /><trkpt lat="22.37569678125" lon="114.10289279638671" /><trkpt lat="22.37588178125" lon="114.10292879638672" /><trkpt lat="22.37591778125" lon="114.10304779638672" /><trkpt lat="22.37608578125" lon="114.10298979638672" /><trkpt lat="22.37613578125" lon="114.10310979638672" /><trkpt lat="22.37615178125" lon="114.10315979638672" /><trkpt lat="22.37611378125" lon="114.10317479638672" /><trkpt lat="22.37614678125" lon="114.10335279638672" /><trkpt lat="22.37615578125" lon="114.10343779638671" /><trkpt lat="22.37613978125" lon="114.10349279638672" /><trkpt lat="22.37618778125" lon="114.10355479638672" /><trkpt lat="22.37614478125" lon="114.10364079638671" /><trkpt lat="22.37611678125" lon="114.10373779638672" /><trkpt lat="22.37608678125" lon="114.10390979638672" /><trkpt lat="22.37615178125" lon="114.10395479638672" /><trkpt lat="22.37615178125" lon="114.10403279638672" /><trkpt lat="22.37617778125" lon="114.10416279638672" /><trkpt lat="22.37623378125" lon="114.10416879638672" /><trkpt lat="22.37630778125" lon="114.10451179638672" /><trkpt lat="22.3763882143264" lon="114.10472685164555" /></trkseg></trk></gpx>