<?xml version='1.0' encoding='UTF-8' ?><gpx version="1.1" creator="HikingTrailHK" xsi:schemaLocation="http://www.topografix.com/GPX/1/1 http://www.topografix.com/GPX/1/1/gpx.xsd https://hikingtrailhk.appspot.com/xml/gpxextensions/v1 https://hikingtrailhk.appspot.com/xml/gpxextensions/v1/gpxextensions.xsd" xmlns="http://www.topografix.com/GPX/1/1" xmlns:h="https://hikingtrailhk.appspot.com/xml/gpxextensions/v1" xmlns:xsi="http://www.w3.org/2001/XMLSchema-instance"><metadata><name>元荃古道半走 @ 2016-12-9</name><desc></desc><extensions><h:categoryid>ancient_trail</h:categoryid></extensions></metadata><trk><trkseg><trkpt lat="22.376356457832266" lon="114.1046419436567" /><trkpt lat="22.37630778125" lon="114.10451179638672" /><trkpt lat="22.37623378125" lon="114.10416879638672" /><trkpt lat="22.37611778125" lon="114.10415379638673" /><trkpt lat="22.37608878125" lon="114.10399079638673" /><trkpt lat="22.37603878125" lon="114.10391979638672" /><trkpt lat="22.37614478125" lon="114.10360179638671" /><trkpt lat="22.37607278125" lon="114.10354979638672" /><trkpt lat="22.37603678125" lon="114.10330379638673" /><trkpt lat="22.37608478125" lon="114.10326779638672" /><trkpt lat="22.37607378125" lon="114.10320079638672" /><trkpt lat="22.37603678125" lon="114.10303579638672" /><trkpt lat="22.37583378125" lon="114.10307179638671" /><trkpt lat="22.37561978125" lon="114.10271479638672" /><trkpt lat="22.37560278125" lon="114.10258079638672" /><trkpt lat="22.37580678125" lon="114.10211279638672" /><trkpt lat="22.37584478125" lon="114.10189379638672" /><trkpt lat="22.37583678125" lon="114.10173579638672" /><trkpt lat="22.37583778125" lon="114.10168379638672" /><trkpt lat="22.37583978125" lon="114.10162779638672" /><trkpt lat="22.37585178125" lon="114.10102279638672" /><trkpt lat="22.37595778125" lon="114.10067679638672" /><trkpt lat="22.37625978125" lon="114.10002079638672" /><trkpt lat="22.37634878125" lon="114.09983679638673" /><trkpt lat="22.376628781249998" lon="114.09950079638672" /><trkpt lat="22.37670078125" lon="114.09945279638671" /><trkpt lat="22.37743978125" lon="114.09890879638672" /><trkpt lat="22.37755078125" lon="114.09874679638672" /><trkpt lat="22.37774078125" lon="114.09819179638671" /><trkpt lat="22.37791278125" lon="114.09794179638672" /><trkpt lat="22.37804978125" lon="114.09727979638672" /><trkpt lat="22.37809478125" lon="114.09710779638672" /><trkpt lat="22.37814978125" lon="114.09657679638671" /><trkpt lat="22.37813478125" lon="114.09632479638672" /><trkpt lat="22.37837178125" lon="114.09523579638672" /><trkpt lat="22.37838478125" lon="114.09517579638671" /><trkpt lat="22.37833578125" lon="114.09508879638672" /><trkpt lat="22.37785278125" lon="114.09475779638672" /><trkpt lat="22.37771078125" lon="114.09440779638672" /><trkpt lat="22.37773678125" lon="114.09430479638672" /><trkpt lat="22.37787578125" lon="114.09414479638671" /><trkpt lat="22.37785978125" lon="114.09381879638671" /><trkpt lat="22.37780178125" lon="114.09322879638673" /><trkpt lat="22.37767278125" lon="114.09275079638672" /><trkpt lat="22.37769378125" lon="114.09251979638672" /><trkpt lat="22.37772478125" lon="114.09219079638672" /><trkpt lat="22.37772278125" lon="114.09211579638672" /><trkpt lat="22.37759978125" lon="114.09155979638672" /><trkpt lat="22.37762178125" lon="114.09077779638672" /><trkpt lat="22.37790478125" lon="114.09046379638671" /><trkpt lat="22.37804678125" lon="114.09018379638673" /><trkpt lat="22.37824378125" lon="114.09002379638672" /><trkpt lat="22.37813878125" lon="114.08987779638672" /><trkpt lat="22.37814478125" lon="114.08973779638671" /><trkpt lat="22.37831678125" lon="114.08948079638672" /><trkpt lat="22.37831178125" lon="114.08913779638672" /><trkpt lat="22.37850178125" lon="114.08893079638672" /><trkpt lat="22.37845778125" lon="114.08880079638672" /><trkpt lat="22.37854678125" lon="114.08842879638672" /><trkpt lat="22.37872178125" lon="114.08831579638672" /><trkpt lat="22.37877778125" lon="114.08811279638672" /><trkpt lat="22.37868778125" lon="114.08787179638672" /><trkpt lat="22.37885278125" lon="114.08750479638672" /><trkpt lat="22.37885678125" lon="114.08729979638672" /><trkpt lat="22.37890978125" lon="114.08704379638672" /><trkpt lat="22.37889078125" lon="114.08696179638672" /><trkpt lat="22.37908378125" lon="114.08694879638672" /><trkpt lat="22.37926178125" lon="114.08697879638672" /><trkpt lat="22.37943578125" lon="114.08705279638671" /><trkpt lat="22.37945878125" lon="114.08708979638672" /><trkpt lat="22.37951478125" lon="114.08712779638672" /><trkpt lat="22.37955478125" lon="114.08716779638672" /><trkpt lat="22.37962978125" lon="114.08720079638672" /><trkpt lat="22.37973478125" lon="114.08731579638672" /><trkpt lat="22.37982178125" lon="114.08737979638671" /><trkpt lat="22.38008678125" lon="114.08736579638672" /><trkpt lat="22.38022278125" lon="114.08738279638672" /><trkpt lat="22.38037178125" lon="114.08740479638672" /><trkpt lat="22.38047378125" lon="114.08744979638672" /><trkpt lat="22.38052478125" lon="114.08744379638672" /><trkpt lat="22.38056478125" lon="114.08740879638673" /><trkpt lat="22.38069878125" lon="114.08735479638672" /><trkpt lat="22.38093378125" lon="114.08731979638672" /><trkpt lat="22.38105878125" lon="114.08732779638672" /><trkpt lat="22.38127378125" lon="114.08729979638672" /><trkpt lat="22.38144278125" lon="114.08742879638672" /><trkpt lat="22.38149878125" lon="114.08768479638672" /><trkpt lat="22.381876389525157" lon="114.08760267721156" /><trkpt lat="22.38190505519853" lon="114.0875301169575" /><trkpt lat="22.381887476782467" lon="114.08742399682465" /><trkpt lat="22.381768811062685" lon="114.08733817104745" /><trkpt lat="22.38168501784655" lon="114.08731267303607" /><trkpt lat="22.381471123316615" lon="114.08730796803808" /><trkpt lat="22.381381085930528" lon="114.0873252254272" /><trkpt lat="22.381356941326587" lon="114.0873252254272" /><trkpt lat="22.381340366537568" lon="114.08735062179616" /><trkpt lat="22.38127378125" lon="114.08729979638672" /><trkpt lat="22.38105878125" lon="114.08732779638672" /><trkpt lat="22.38093378125" lon="114.08731979638672" /><trkpt lat="22.38069878125" lon="114.08735479638672" /><trkpt lat="22.38056478125" lon="114.08740879638673" /><trkpt lat="22.38052478125" lon="114.08744379638672" /><trkpt lat="22.38047378125" lon="114.08744979638672" /><trkpt lat="22.38037178125" lon="114.08740479638672" /><trkpt lat="22.38022278125" lon="114.08738279638672" /><trkpt lat="22.38008678125" lon="114.08736579638672" /><trkpt lat="22.37982178125" lon="114.08737979638671" /><trkpt lat="22.37973478125" lon="114.08731579638672" /><trkpt lat="22.37962978125" lon="114.08720079638672" /><trkpt lat="22.37955478125" lon="114.08716779638672" /><trkpt lat="22.37951478125" lon="114.08712779638672" /><trkpt lat="22.37945878125" lon="114.08708979638672" /><trkpt lat="22.37943578125" lon="114.08705279638671" /><trkpt lat="22.37942278125" lon="114.08700879638671" /><trkpt lat="22.37941878125" lon="114.08694079638671" /><trkpt lat="22.37942678125" lon="114.08687279638671" /><trkpt lat="22.37941678125" lon="114.08680979638672" /><trkpt lat="22.37939478125" lon="114.08675979638672" /><trkpt lat="22.37935678125" lon="114.08672179638671" /><trkpt lat="22.37923278125" lon="114.08654679638671" /><trkpt lat="22.37919078125" lon="114.08638279638672" /><trkpt lat="22.37959678125" lon="114.08614679638671" /><trkpt lat="22.37974778125" lon="114.08611779638672" /><trkpt lat="22.37995778125" lon="114.08616079638672" /><trkpt lat="22.38004578125" lon="114.08602879638671" /><trkpt lat="22.38012878125" lon="114.08583079638672" /><trkpt lat="22.38045778125" lon="114.08552379638672" /><trkpt lat="22.38130078125" lon="114.08530579638672" /><trkpt lat="22.38147278125" lon="114.08517879638671" /><trkpt lat="22.38190078125" lon="114.08546179638672" /><trkpt lat="22.38202178125" lon="114.08534479638672" /><trkpt lat="22.38213978125" lon="114.08522079638672" /><trkpt lat="22.38238578125" lon="114.08516879638672" /><trkpt lat="22.38291278125" lon="114.08495679638672" /><trkpt lat="22.38313378125" lon="114.08473679638672" /><trkpt lat="22.38326378125" lon="114.08466179638671" /><trkpt lat="22.38339878125" lon="114.08440879638673" /><trkpt lat="22.383554781249998" lon="114.08406079638672" /><trkpt lat="22.38360578125" lon="114.08365079638672" /><trkpt lat="22.38389678125" lon="114.08337479638672" /><trkpt lat="22.38434778125" lon="114.08317179638672" /><trkpt lat="22.38494478125" lon="114.08260579638672" /><trkpt lat="22.38508678125" lon="114.08260079638671" /><trkpt lat="22.38523378125" lon="114.08253779638672" /><trkpt lat="22.38543378125" lon="114.08254279638672" /><trkpt lat="22.38554278125" lon="114.08242479638672" /><trkpt lat="22.38570978125" lon="114.08239479638672" /><trkpt lat="22.38596078125" lon="114.08211379638672" /><trkpt lat="22.38605778125" lon="114.08207279638673" /><trkpt lat="22.38626478125" lon="114.08185579638672" /><trkpt lat="22.38630478125" lon="114.08166579638672" /><trkpt lat="22.38631078125" lon="114.08149479638672" /><trkpt lat="22.38637078125" lon="114.08133679638672" /><trkpt lat="22.38639778125" lon="114.08128779638672" /><trkpt lat="22.38643978125" lon="114.08115179638672" /><trkpt lat="22.38644778125" lon="114.08012379638672" /><trkpt lat="22.38664978125" lon="114.07971479638672" /><trkpt lat="22.38683378125" lon="114.07943879638673" /><trkpt lat="22.38708378125" lon="114.07868979638671" /><trkpt lat="22.38708078125" lon="114.07846879638672" /><trkpt lat="22.38716978125" lon="114.07799379638672" /><trkpt lat="22.38710178125" lon="114.07757379638672" /><trkpt lat="22.38713478125" lon="114.07665779638671" /><trkpt lat="22.38706378125" lon="114.07650279638672" /><trkpt lat="22.38701478125" lon="114.07629179638671" /><trkpt lat="22.38695278125" lon="114.07597879638672" /><trkpt lat="22.38690878125" lon="114.07558279638671" /><trkpt lat="22.38694378125" lon="114.07514179638672" /><trkpt lat="22.38726478125" lon="114.07490679638671" /><trkpt lat="22.38735078125" lon="114.07464979638672" /><trkpt lat="22.38744278125" lon="114.07451179638672" /><trkpt lat="22.38744178125" lon="114.07438179638672" /><trkpt lat="22.38735978125" lon="114.07426779638672" /><trkpt lat="22.38735678125" lon="114.07416179638672" /><trkpt lat="22.38749478125" lon="114.07404179638672" /><trkpt lat="22.38766278125" lon="114.07404279638672" /><trkpt lat="22.38783078125" lon="114.07409479638672" /><trkpt lat="22.38803378125" lon="114.07411379638671" /><trkpt lat="22.38818078125" lon="114.07416179638672" /><trkpt lat="22.388320781250002" lon="114.07414579638672" /><trkpt lat="22.38844978125" lon="114.07395079638673" /><trkpt lat="22.38867178125" lon="114.07356679638671" /><trkpt lat="22.38893378125" lon="114.07324779638672" /><trkpt lat="22.38900378125" lon="114.07305579638673" /><trkpt lat="22.38916878125" lon="114.07278579638673" /><trkpt lat="22.38888378125" lon="114.07282679638672" /><trkpt lat="22.38875278125" lon="114.07280979638672" /><trkpt lat="22.38854378125" lon="114.07268679638672" /><trkpt lat="22.38845478125" lon="114.07265879638672" /><trkpt lat="22.38831478125" lon="114.07265679638672" /><trkpt lat="22.38824678125" lon="114.07264579638672" /><trkpt lat="22.38819578125" lon="114.07262479638672" /><trkpt lat="22.38786478125" lon="114.07242079638672" /><trkpt lat="22.38782178125" lon="114.07238579638671" /><trkpt lat="22.38780278125" lon="114.07234479638672" /><trkpt lat="22.38773878125" lon="114.07215579638672" /><trkpt lat="22.38771078125" lon="114.07209379638672" /><trkpt lat="22.38766578125" lon="114.07205079638672" /><trkpt lat="22.38707978125" lon="114.07174179638672" /><trkpt lat="22.38698878125" lon="114.07168179638671" /><trkpt lat="22.38694078125" lon="114.07162879638672" /><trkpt lat="22.38692578125" lon="114.07156379638671" /><trkpt lat="22.38696178125" lon="114.07151079638672" /><trkpt lat="22.38708678125" lon="114.07143779638672" /><trkpt lat="22.38714278125" lon="114.07139679638672" /><trkpt lat="22.38719278125" lon="114.07131079638671" /><trkpt lat="22.38719078125" lon="114.07117379638672" /><trkpt lat="22.38715478125" lon="114.07101579638672" /><trkpt lat="22.387138781250002" lon="114.07095279638672" /><trkpt lat="22.38683578125" lon="114.07008479638672" /><trkpt lat="22.38663678125" lon="114.06952179638672" /><trkpt lat="22.38661978125" lon="114.06946279638672" /><trkpt lat="22.38662478125" lon="114.06940179638671" /><trkpt lat="22.38664778125" lon="114.06932979638673" /><trkpt lat="22.38672978125" lon="114.06911479638671" /><trkpt lat="22.38690678125" lon="114.06875079638672" /><trkpt lat="22.38698678125" lon="114.06860479638672" /><trkpt lat="22.38718078125" lon="114.06835779638672" /><trkpt lat="22.38722978125" lon="114.06827579638671" /><trkpt lat="22.38725178125" lon="114.06821679638672" /><trkpt lat="22.38724278125" lon="114.06815379638672" /><trkpt lat="22.38717478125" lon="114.06807779638672" /><trkpt lat="22.38711178125" lon="114.06803379638671" /><trkpt lat="22.38688678125" lon="114.06797379638672" /><trkpt lat="22.38675178125" lon="114.06797079638672" /><trkpt lat="22.38670978125" lon="114.06797879638673" /><trkpt lat="22.38668078125" lon="114.06800179638672" /><trkpt lat="22.38639178125" lon="114.06828579638672" /><trkpt lat="22.38635078125" lon="114.06831079638673" /><trkpt lat="22.38630478125" lon="114.06831079638673" /><trkpt lat="22.38588378125" lon="114.06821679638672" /><trkpt lat="22.38582178125" lon="114.06822279638672" /><trkpt lat="22.38573878125" lon="114.06824279638671" /><trkpt lat="22.38527078125" lon="114.06842379638672" /><trkpt lat="22.38507178125" lon="114.06846679638672" /><trkpt lat="22.38500978125" lon="114.06844879638672" /><trkpt lat="22.38493178125" lon="114.06841279638672" /><trkpt lat="22.38486378125" lon="114.06835079638672" /><trkpt lat="22.38480878125" lon="114.06826679638672" /><trkpt lat="22.38477078125" lon="114.06817179638672" /><trkpt lat="22.38474378125" lon="114.06805779638673" /><trkpt lat="22.38469178125" lon="114.06772379638672" /><trkpt lat="22.38466078125" lon="114.06762779638672" /><trkpt lat="22.38457078125" lon="114.06749679638672" /><trkpt lat="22.38423478125" lon="114.06709979638671" /><trkpt lat="22.38420378125" lon="114.06701779638672" /><trkpt lat="22.38420278125" lon="114.06693079638671" /><trkpt lat="22.38420978125" lon="114.06686379638671" /><trkpt lat="22.38424978125" lon="114.06667179638671" /><trkpt lat="22.38425978125" lon="114.06656879638672" /><trkpt lat="22.38424478125" lon="114.06641279638671" /><trkpt lat="22.38413678125" lon="114.06599379638672" /><trkpt lat="22.38412578125" lon="114.06591379638672" /><trkpt lat="22.38414778125" lon="114.06582779638671" /><trkpt lat="22.38420278125" lon="114.06575879638672" /><trkpt lat="22.38431078125" lon="114.06569479638672" /><trkpt lat="22.38457178125" lon="114.06556079638672" /><trkpt lat="22.38472178125" lon="114.06547779638672" /><trkpt lat="22.38503478125" lon="114.06516279638672" /><trkpt lat="22.38516878125" lon="114.06502779638672" /><trkpt lat="22.38527778125" lon="114.06488279638671" /><trkpt lat="22.38536278125" lon="114.06472179638672" /><trkpt lat="22.38538278125" lon="114.06464979638672" /><trkpt lat="22.38538278125" lon="114.06460879638672" /><trkpt lat="22.38534878125" lon="114.06456979638672" /><trkpt lat="22.38520378125" lon="114.06446679638672" /><trkpt lat="22.38517978125" lon="114.06440079638672" /><trkpt lat="22.38518278125" lon="114.06430379638672" /><trkpt lat="22.38524978125" lon="114.06398579638672" /><trkpt lat="22.38534478125" lon="114.06378779638672" /><trkpt lat="22.38548078125" lon="114.06369279638672" /><trkpt lat="22.38558978125" lon="114.06367279638673" /><trkpt lat="22.38574378125" lon="114.06367979638672" /><trkpt lat="22.38587978125" lon="114.06371779638671" /><trkpt lat="22.38600178125" lon="114.06379979638672" /><trkpt lat="22.38607578125" lon="114.06380479638672" /><trkpt lat="22.38618578125" lon="114.06378179638672" /><trkpt lat="22.38622478125" lon="114.06376179638671" /><trkpt lat="22.38624478125" lon="114.06370779638672" /><trkpt lat="22.38627378125" lon="114.06345279638671" /><trkpt lat="22.38626478125" lon="114.06339579638671" /><trkpt lat="22.38621578125" lon="114.06336679638672" /><trkpt lat="22.38611578125" lon="114.06337479638673" /><trkpt lat="22.38595978125" lon="114.06342579638672" /><trkpt lat="22.38577678125" lon="114.06346279638672" /><trkpt lat="22.38570978125" lon="114.06345979638672" /><trkpt lat="22.38563578125" lon="114.06343479638672" /><trkpt lat="22.38559478125" lon="114.06336979638672" /><trkpt lat="22.38557578125" lon="114.06329879638672" /><trkpt lat="22.38560178125" lon="114.06305179638672" /><trkpt lat="22.38572478125" lon="114.06259479638672" /><trkpt lat="22.38573778125" lon="114.06250079638671" /><trkpt lat="22.38572578125" lon="114.06241279638672" /><trkpt lat="22.38561278125" lon="114.06219579638672" /><trkpt lat="22.38547778125" lon="114.06197879638673" /><trkpt lat="22.38545278125" lon="114.06188179638671" /><trkpt lat="22.38543178125" lon="114.06172379638672" /><trkpt lat="22.38538878125" lon="114.06158779638672" /><trkpt lat="22.38503878125" lon="114.06116479638672" /><trkpt lat="22.38494878125" lon="114.06101179638672" /><trkpt lat="22.38492078125" lon="114.06090479638672" /><trkpt lat="22.38491078125" lon="114.06079479638672" /><trkpt lat="22.38489778125" lon="114.06065779638672" /><trkpt lat="22.38489478125" lon="114.06050479638672" /><trkpt lat="22.38488778125" lon="114.06026979638672" /><trkpt lat="22.38469078125" lon="114.06022679638671" /><trkpt lat="22.38447078125" lon="114.06008079638671" /><trkpt lat="22.38425278125" lon="114.06005879638671" /><trkpt lat="22.38388478125" lon="114.06029079638672" /><trkpt lat="22.38367278125" lon="114.06040979638672" /><trkpt lat="22.38350778125" lon="114.06065179638672" /><trkpt lat="22.38315578125" lon="114.06073479638673" /><trkpt lat="22.38278178125" lon="114.06088879638672" /><trkpt lat="22.38269778125" lon="114.06100979638671" /><trkpt lat="22.38231878125" lon="114.06160379638672" /><trkpt lat="22.38210478125" lon="114.06182579638671" /><trkpt lat="22.38154078125" lon="114.06194679638672" /><trkpt lat="22.38129178125" lon="114.06192079638672" /><trkpt lat="22.38112578125" lon="114.06195179638672" /><trkpt lat="22.38087278125" lon="114.06194379638671" /><trkpt lat="22.38081578125" lon="114.06194979638671" /><trkpt lat="22.38039178125" lon="114.06203079638672" /><trkpt lat="22.38010778125" lon="114.06189179638672" /><trkpt lat="22.37974578125" lon="114.06187879638672" /><trkpt lat="22.37961578125" lon="114.06177979638672" /><trkpt lat="22.37948078125" lon="114.06176379638671" /><trkpt lat="22.37925178125" lon="114.06174779638671" /><trkpt lat="22.37912378125" lon="114.06169179638673" /><trkpt lat="22.37906978125" lon="114.06159579638671" /><trkpt lat="22.37897478125" lon="114.06146279638672" /><trkpt lat="22.37873978125" lon="114.06134679638672" /><trkpt lat="22.37858278125" lon="114.06131379638671" /><trkpt lat="22.37846878125" lon="114.06136479638671" /><trkpt lat="22.37845278125" lon="114.06149579638672" /><trkpt lat="22.37856778125" lon="114.06169979638672" /><trkpt lat="22.37856778125" lon="114.06182879638672" /><trkpt lat="22.37830778125" lon="114.06166379638672" /><trkpt lat="22.37796578125" lon="114.06148379638672" /><trkpt lat="22.37776378125" lon="114.06147179638671" /><trkpt lat="22.37764178125" lon="114.06142079638671" /><trkpt lat="22.37746078125" lon="114.06129879638672" /><trkpt lat="22.37732778125" lon="114.06126179638672" /><trkpt lat="22.37724578125" lon="114.06131079638672" /><trkpt lat="22.37717778125" lon="114.06143879638672" /><trkpt lat="22.37715178125" lon="114.06159679638672" /><trkpt lat="22.37711278125" lon="114.06164379638672" /><trkpt lat="22.37704778125" lon="114.06164579638671" /><trkpt lat="22.376628781249998" lon="114.06142379638672" /><trkpt lat="22.37653478125" lon="114.06132579638673" /><trkpt lat="22.37645178125" lon="114.06128979638672" /><trkpt lat="22.37635078125" lon="114.06132279638672" /><trkpt lat="22.37627178125" lon="114.06141179638672" /><trkpt lat="22.37621878125" lon="114.06154379638672" /><trkpt lat="22.37608178125" lon="114.06159879638672" /><trkpt lat="22.37600078125" lon="114.06166279638671" /><trkpt lat="22.37591078125" lon="114.06178479638672" /><trkpt lat="22.37582478125" lon="114.06183279638672" /><trkpt lat="22.37570178125" lon="114.06181179638672" /><trkpt lat="22.37557078125" lon="114.06183279638672" /><trkpt lat="22.37554178125" lon="114.06193779638672" /><trkpt lat="22.37541378125" lon="114.06206879638673" /><trkpt lat="22.37529978125" lon="114.06209779638672" /><trkpt lat="22.37528078125" lon="114.06214879638672" /><trkpt lat="22.37525478125" lon="114.06226579638673" /><trkpt lat="22.37513278125" lon="114.06229679638672" /><trkpt lat="22.37510778125" lon="114.06232079638671" /><trkpt lat="22.37514178125" lon="114.06245979638672" /><trkpt lat="22.37511378125" lon="114.06251779638671" /><trkpt lat="22.37499178125" lon="114.06258079638671" /><trkpt lat="22.37491678125" lon="114.06264979638672" /><trkpt lat="22.37489678125" lon="114.06273479638672" /><trkpt lat="22.37484478125" lon="114.06276779638672" /><trkpt lat="22.37479078125" lon="114.06285279638672" /><trkpt lat="22.37479478125" lon="114.06296279638671" /><trkpt lat="22.37483278125" lon="114.06314479638672" /><trkpt lat="22.37481878125" lon="114.06320979638672" /><trkpt lat="22.37476278125" lon="114.06326079638671" /><trkpt lat="22.37468878125" lon="114.06325579638671" /><trkpt lat="22.37449778125" lon="114.06309279638671" /><trkpt lat="22.37446078125" lon="114.06295679638671" /><trkpt lat="22.37444578125" lon="114.06290079638671" /><trkpt lat="22.37438378125" lon="114.06288779638672" /><trkpt lat="22.37425478125" lon="114.06289779638672" /><trkpt lat="22.37415778125" lon="114.06299879638672" /><trkpt lat="22.37413178125" lon="114.06304579638672" /><trkpt lat="22.37415278125" lon="114.06312879638672" /><trkpt lat="22.37414478125" lon="114.06320779638672" /><trkpt lat="22.37401778125" lon="114.06339079638671" /><trkpt lat="22.37397778125" lon="114.06342479638671" /><trkpt lat="22.37387478125" lon="114.06332179638672" /><trkpt lat="22.37378878125" lon="114.06329379638672" /><trkpt lat="22.37367778125" lon="114.06331179638671" /><trkpt lat="22.37359278125" lon="114.06339079638671" /><trkpt lat="22.37355178125" lon="114.06349879638672" /><trkpt lat="22.37348778125" lon="114.06354279638671" /><trkpt lat="22.37346178125" lon="114.06358979638672" /><trkpt lat="22.37344178125" lon="114.06368179638672" /><trkpt lat="22.37337178125" lon="114.06371979638672" /><trkpt lat="22.37329278125" lon="114.06368479638672" /><trkpt lat="22.37322178125" lon="114.06361379638672" /><trkpt lat="22.37312978125" lon="114.06360179638672" /><trkpt lat="22.37297178125" lon="114.06367879638672" /><trkpt lat="22.37293978125" lon="114.06375179638673" /><trkpt lat="22.37287278125" lon="114.06384179638673" /><trkpt lat="22.37271478125" lon="114.06383079638672" /><trkpt lat="22.37255478125" lon="114.06372279638671" /><trkpt lat="22.37244978125" lon="114.06351279638672" /><trkpt lat="22.37229778125" lon="114.06343479638672" /><trkpt lat="22.37224378125" lon="114.06343779638672" /><trkpt lat="22.37205378125" lon="114.06343179638672" /><trkpt lat="22.37192678125" lon="114.06336879638671" /><trkpt lat="22.37157778125" lon="114.06319679638672" /><trkpt lat="22.37132478125" lon="114.06328579638672" /><trkpt lat="22.37105478125" lon="114.06317679638671" /><trkpt lat="22.37096778125" lon="114.06312679638671" /><trkpt lat="22.37083578125" lon="114.06292579638672" /><trkpt lat="22.37053678125" lon="114.06265079638672" /><trkpt lat="22.37028178125" lon="114.06231779638672" /><trkpt lat="22.37013078125" lon="114.06204079638673" /><trkpt lat="22.37001578125" lon="114.06187779638672" /><trkpt lat="22.36985578125" lon="114.06172179638672" /><trkpt lat="22.36970478125" lon="114.06124279638672" /><trkpt lat="22.36956078125" lon="114.06097779638672" /><trkpt lat="22.36940078125" lon="114.06085479638672" /><trkpt lat="22.369308781249998" lon="114.06064079638672" /><trkpt lat="22.36917578125" lon="114.06044779638673" /><trkpt lat="22.36892478125" lon="114.05999279638672" /><trkpt lat="22.36873978125" lon="114.05969879638671" /><trkpt lat="22.36823978125" lon="114.05983779638672" /><trkpt lat="22.36809678125" lon="114.05988379638671" /><trkpt lat="22.368065868058043" lon="114.05993395747268" /></trkseg></trk></gpx>