<?xml version='1.0' encoding='UTF-8' ?><gpx version="1.1" creator="HikingTrailHK" xsi:schemaLocation="http://www.topografix.com/GPX/1/1 http://www.topografix.com/GPX/1/1/gpx.xsd" xmlns="http://www.topografix.com/GPX/1/1" xmlns:xsi="http://www.w3.org/2001/XMLSchema-instance"><metadata><name>公庵山 @ 2017-3-21</name><desc></desc></metadata><trk><trkseg><trkpt lat="22.429383237012008" lon="113.99222550393951" /><trkpt lat="22.42909478125" lon="113.99189779638672" /><trkpt lat="22.42881678125" lon="113.99157779638672" /><trkpt lat="22.42865178125" lon="113.99140279638672" /><trkpt lat="22.42762278125" lon="113.99044779638672" /><trkpt lat="22.42723178125" lon="113.99008079638672" /><trkpt lat="22.42716778125" lon="113.99014879638672" /><trkpt lat="22.42626278125" lon="113.98928679638672" /><trkpt lat="22.42621578125" lon="113.98934279638672" /><trkpt lat="22.42553578125" lon="113.99016579638672" /><trkpt lat="22.42545578125" lon="113.99025279638671" /><trkpt lat="22.42524078125" lon="113.99048879638671" /><trkpt lat="22.42485878125" lon="113.99085879638672" /><trkpt lat="22.42459378125" lon="113.99111579638672" /><trkpt lat="22.42438478125" lon="113.99131879638672" /><trkpt lat="22.42436178125" lon="113.99134079638672" /><trkpt lat="22.42409278125" lon="113.99165179638672" /><trkpt lat="22.42394478125" lon="113.99185379638672" /><trkpt lat="22.42380778125" lon="113.99206079638672" /><trkpt lat="22.42367478125" lon="113.99232879638672" /><trkpt lat="22.42355578125" lon="113.99261679638671" /><trkpt lat="22.42341578125" lon="113.99301479638672" /><trkpt lat="22.42313778125" lon="113.99398079638672" /><trkpt lat="22.42286978125" lon="113.99416479638671" /><trkpt lat="22.42285778125" lon="113.99421079638672" /><trkpt lat="22.42288778125" lon="113.99425879638672" /><trkpt lat="22.42303978125" lon="113.99426679638673" /><trkpt lat="22.42296378125" lon="113.99448179638672" /><trkpt lat="22.42294478125" lon="113.99453479638672" /><trkpt lat="22.42270778125" lon="113.99500279638671" /><trkpt lat="22.42265978125" lon="113.99510879638672" /><trkpt lat="22.42237378125" lon="113.99574779638672" /><trkpt lat="22.42203778125" lon="113.99692279638671" /><trkpt lat="22.42187678125" lon="113.99691479638672" /><trkpt lat="22.42183178125" lon="113.99699979638672" /><trkpt lat="22.42168578125" lon="113.99699679638672" /><trkpt lat="22.42147478125" lon="113.99708279638672" /><trkpt lat="22.42137078125" lon="113.99701079638672" /><trkpt lat="22.42119478125" lon="113.99702679638672" /><trkpt lat="22.42110578125" lon="113.99697079638672" /><trkpt lat="22.42103578125" lon="113.99694879638672" /><trkpt lat="22.42096878125" lon="113.99699279638672" /><trkpt lat="22.42084778125" lon="113.99702979638671" /><trkpt lat="22.42079078125" lon="113.99710679638672" /><trkpt lat="22.42071878125" lon="113.99711679638672" /><trkpt lat="22.42063878125" lon="113.99710579638672" /><trkpt lat="22.42057478125" lon="113.99717579638671" /><trkpt lat="22.42052078125" lon="113.99735379638672" /><trkpt lat="22.42040378125" lon="113.99749579638672" /><trkpt lat="22.42044378125" lon="113.99756079638672" /><trkpt lat="22.42035178125" lon="113.99768679638672" /><trkpt lat="22.42023978125" lon="113.99776679638671" /><trkpt lat="22.42018578125" lon="113.99773579638672" /><trkpt lat="22.42011378125" lon="113.99770479638671" /><trkpt lat="22.42006878125" lon="113.99771879638672" /><trkpt lat="22.41994978125" lon="113.99776679638671" /><trkpt lat="22.41978678125" lon="113.99782879638671" /><trkpt lat="22.41958778125" lon="113.99787379638671" /><trkpt lat="22.41946778125" lon="113.99776579638672" /><trkpt lat="22.41933878125" lon="113.99776579638672" /><trkpt lat="22.41924378125" lon="113.99783079638672" /><trkpt lat="22.41909678125" lon="113.99783979638671" /><trkpt lat="22.41890378125" lon="113.99796779638672" /><trkpt lat="22.41879978125" lon="113.99789579638671" /><trkpt lat="22.41870078125" lon="113.99785279638672" /><trkpt lat="22.41861378125" lon="113.99788479638671" /><trkpt lat="22.41852678125" lon="113.99788079638672" /><trkpt lat="22.41836778125" lon="113.99791479638672" /><trkpt lat="22.41820678125" lon="113.99788179638672" /><trkpt lat="22.41804578125" lon="113.99781479638672" /><trkpt lat="22.41789678125" lon="113.99777779638671" /><trkpt lat="22.41767878125" lon="113.99776579638672" /><trkpt lat="22.41744278125" lon="113.99773779638672" /><trkpt lat="22.41723978125" lon="113.99768779638671" /><trkpt lat="22.41698178125" lon="113.99769279638672" /><trkpt lat="22.41679378125" lon="113.99771079638671" /><trkpt lat="22.41665678125" lon="113.99773179638672" /><trkpt lat="22.41642878125" lon="113.99775479638672" /><trkpt lat="22.41630778125" lon="113.99782879638671" /><trkpt lat="22.41621378125" lon="113.99789079638671" /><trkpt lat="22.41613678125" lon="113.99789879638672" /><trkpt lat="22.41601278125" lon="113.99789979638672" /><trkpt lat="22.41587078125" lon="113.99786079638672" /><trkpt lat="22.41558578125" lon="113.99785779638673" /><trkpt lat="22.41543978125" lon="113.99780179638672" /><trkpt lat="22.41528578125" lon="113.99778179638672" /><trkpt lat="22.41508478125" lon="113.99782579638672" /><trkpt lat="22.41492878125" lon="113.99785679638671" /><trkpt lat="22.41488178125" lon="113.99781479638672" /><trkpt lat="22.41479978125" lon="113.99777479638672" /><trkpt lat="22.41470578125" lon="113.99776279638672" /><trkpt lat="22.41465578125" lon="113.99772979638672" /><trkpt lat="22.41450478125" lon="113.99769979638671" /><trkpt lat="22.41443578125" lon="113.99764479638672" /><trkpt lat="22.41437378125" lon="113.99764479638672" /><trkpt lat="22.41428378125" lon="113.99768279638671" /><trkpt lat="22.41419478125" lon="113.99770279638672" /><trkpt lat="22.41397478125" lon="113.99777779638671" /><trkpt lat="22.41385478125" lon="113.99778679638672" /><trkpt lat="22.41385478125" lon="113.99804979638672" /><trkpt lat="22.41388078125" lon="113.99845079638672" /><trkpt lat="22.41373778125" lon="113.99839179638671" /><trkpt lat="22.41358478125" lon="113.99845679638672" /><trkpt lat="22.41350578125" lon="113.99842879638672" /><trkpt lat="22.41337378125" lon="113.99829079638671" /><trkpt lat="22.41330378125" lon="113.99829279638672" /><trkpt lat="22.41312578125" lon="113.99832879638672" /><trkpt lat="22.41305178125" lon="113.99836479638672" /><trkpt lat="22.41303378125" lon="113.99842379638672" /><trkpt lat="22.41298978125" lon="113.99852079638671" /><trkpt lat="22.41307878125" lon="113.99861779638672" /><trkpt lat="22.41317678125" lon="113.99868279638672" /><trkpt lat="22.41329678125" lon="113.99877679638672" /><trkpt lat="22.41340278125" lon="113.99902279638673" /><trkpt lat="22.41350278125" lon="113.99917079638672" /><trkpt lat="22.41354978125" lon="113.99916179638672" /><trkpt lat="22.41362478125" lon="113.99924579638672" /><trkpt lat="22.41365778125" lon="113.99929779638671" /><trkpt lat="22.41369878125" lon="113.99937679638671" /><trkpt lat="22.41386878125" lon="113.99955279638672" /><trkpt lat="22.41391478125" lon="113.99973579638672" /><trkpt lat="22.41405478125" lon="113.99999079638673" /><trkpt lat="22.41397078125" lon="114.00018279638672" /><trkpt lat="22.41394178125" lon="114.00044979638672" /><trkpt lat="22.41399878125" lon="114.00063379638672" /><trkpt lat="22.41386378125" lon="114.00070979638672" /><trkpt lat="22.41372678125" lon="114.00084679638672" /><trkpt lat="22.41358378125" lon="114.00097679638672" /><trkpt lat="22.41345478125" lon="114.00106979638672" /><trkpt lat="22.41342578125" lon="114.00109479638672" /><trkpt lat="22.41327078125" lon="114.00097679638672" /><trkpt lat="22.41312578125" lon="114.00086979638672" /><trkpt lat="22.41303378125" lon="114.00082979638672" /><trkpt lat="22.41300178125" lon="114.00081579638672" /><trkpt lat="22.41281878125" lon="114.00090779638671" /><trkpt lat="22.41270378125" lon="114.00099879638672" /><trkpt lat="22.41262378125" lon="114.00112179638671" /><trkpt lat="22.41242778125" lon="114.00122779638671" /><trkpt lat="22.41228278125" lon="114.00123579638672" /><trkpt lat="22.41220478125" lon="114.00105979638671" /><trkpt lat="22.41201578125" lon="114.00107579638671" /><trkpt lat="22.41187678125" lon="114.00109079638672" /><trkpt lat="22.41174878125" lon="114.00110579638672" /><trkpt lat="22.41161078125" lon="114.00109679638672" /><trkpt lat="22.41146978125" lon="114.00119779638672" /><trkpt lat="22.41129078125" lon="114.00123579638672" /><trkpt lat="22.41112678125" lon="114.00127379638671" /><trkpt lat="22.41095878125" lon="114.00129679638673" /><trkpt lat="22.41073578125" lon="114.00130479638672" /><trkpt lat="22.41064278125" lon="114.00124379638672" /><trkpt lat="22.41056278125" lon="114.00125879638672" /><trkpt lat="22.41044778125" lon="114.00137279638672" /><trkpt lat="22.41035778125" lon="114.00146479638671" /><trkpt lat="22.41027978125" lon="114.00155579638673" /><trkpt lat="22.41019378125" lon="114.00167779638672" /><trkpt lat="22.41010678125" lon="114.00182279638672" /><trkpt lat="22.40994578125" lon="114.00196779638672" /><trkpt lat="22.40982778125" lon="114.00209779638672" /><trkpt lat="22.40966978125" lon="114.00225779638671" /><trkpt lat="22.40963878125" lon="114.00244079638672" /><trkpt lat="22.40955478125" lon="114.00266279638672" /><trkpt lat="22.40949978125" lon="114.00286879638672" /><trkpt lat="22.40935078125" lon="114.00306679638672" /><trkpt lat="22.40928278125" lon="114.00338679638672" /><trkpt lat="22.40925178125" lon="114.00365379638671" /><trkpt lat="22.40908378125" lon="114.00382979638673" /><trkpt lat="22.40898478125" lon="114.00402079638671" /><trkpt lat="22.40884578125" lon="114.00421079638672" /><trkpt lat="22.40874278125" lon="114.00434879638672" /><trkpt lat="22.40861878125" lon="114.00452379638672" /><trkpt lat="22.40856878125" lon="114.00474479638672" /><trkpt lat="22.40854778125" lon="114.00494379638671" /><trkpt lat="22.40850378125" lon="114.00508079638672" /><trkpt lat="22.40840878125" lon="114.00524079638672" /><trkpt lat="22.40827178125" lon="114.00537079638671" /><trkpt lat="22.40806778125" lon="114.00550079638671" /><trkpt lat="22.40799678125" lon="114.00566079638672" /><trkpt lat="22.40790878125" lon="114.00582079638671" /><trkpt lat="22.40790878125" lon="114.00606479638672" /><trkpt lat="22.40787178125" lon="114.00635379638672" /><trkpt lat="22.40796378125" lon="114.00635279638672" /><trkpt lat="22.40819478125" lon="114.00647779638672" /><trkpt lat="22.40832278125" lon="114.00646079638672" /><trkpt lat="22.40840078125" lon="114.00645179638671" /><trkpt lat="22.40854878125" lon="114.00647579638672" /><trkpt lat="22.40869478125" lon="114.00649979638672" /><trkpt lat="22.40891978125" lon="114.00667179638671" /><trkpt lat="22.40890978125" lon="114.00678579638672" /><trkpt lat="22.40902878125" lon="114.00690979638672" /><trkpt lat="22.40912678125" lon="114.00708379638672" /><trkpt lat="22.40930278125" lon="114.00721079638672" /><trkpt lat="22.40936778125" lon="114.00709279638671" /><trkpt lat="22.40947178125" lon="114.00717879638673" /><trkpt lat="22.40955478125" lon="114.00728579638672" /><trkpt lat="22.40966978125" lon="114.00733879638672" /><trkpt lat="22.40980278125" lon="114.00739279638672" /><trkpt lat="22.40996678125" lon="114.00746879638672" /><trkpt lat="22.41004178125" lon="114.00745379638671" /><trkpt lat="22.41019078125" lon="114.00751479638672" /><trkpt lat="22.41030278125" lon="114.00759079638672" /><trkpt lat="22.41046678125" lon="114.00757579638672" /><trkpt lat="22.41061178125" lon="114.00764479638671" /><trkpt lat="22.41074178125" lon="114.00770579638672" /><trkpt lat="22.41085378125" lon="114.00772879638671" /><trkpt lat="22.41100278125" lon="114.00778979638672" /><trkpt lat="22.41113878125" lon="114.00785079638672" /><trkpt lat="22.411265781250002" lon="114.00803379638671" /><trkpt lat="22.41142478125" lon="114.00811779638671" /><trkpt lat="22.41158878125" lon="114.00818579638671" /><trkpt lat="22.41174278125" lon="114.00814779638672" /><trkpt lat="22.41192578125" lon="114.00816279638671" /><trkpt lat="22.41215878125" lon="114.00830779638672" /><trkpt lat="22.41233278125" lon="114.00836179638672" /><trkpt lat="22.41247178125" lon="114.00836879638672" /><trkpt lat="22.41257078125" lon="114.00847579638672" /><trkpt lat="22.41260078125" lon="114.00860579638672" /><trkpt lat="22.41264878125" lon="114.00878079638672" /><trkpt lat="22.41276378125" lon="114.00892579638672" /><trkpt lat="22.41286778125" lon="114.00904079638671" /><trkpt lat="22.41300178125" lon="114.00909379638672" /><trkpt lat="22.41314078125" lon="114.00920079638672" /><trkpt lat="22.41322478125" lon="114.00927679638671" /><trkpt lat="22.41334278125" lon="114.00934579638673" /><trkpt lat="22.41352778125" lon="114.00941479638672" /><trkpt lat="22.41363678125" lon="114.00950579638672" /><trkpt lat="22.41376678125" lon="114.00952879638672" /><trkpt lat="22.41386978125" lon="114.00951379638671" /><trkpt lat="22.41394378125" lon="114.00943779638672" /><trkpt lat="22.41403378125" lon="114.00955179638672" /><trkpt lat="22.41406378125" lon="114.00970479638671" /><trkpt lat="22.41411778125" lon="114.00980379638672" /><trkpt lat="22.41425778125" lon="114.00996079638672" /><trkpt lat="22.41421578125" lon="114.01017579638672" /><trkpt lat="22.41430778125" lon="114.01030979638672" /><trkpt lat="22.41442278125" lon="114.01044579638672" /><trkpt lat="22.41453578125" lon="114.01051279638672" /><trkpt lat="22.41456978125" lon="114.01066579638672" /><trkpt lat="22.41467478125" lon="114.01077279638672" /><trkpt lat="22.41480578125" lon="114.01094079638672" /><trkpt lat="22.41496678125" lon="114.01108579638672" /><trkpt lat="22.41508478125" lon="114.01121479638672" /><trkpt lat="22.41520278125" lon="114.01133679638671" /><trkpt lat="22.41530178125" lon="114.01142079638672" /><trkpt lat="22.41545278125" lon="114.01148779638672" /><trkpt lat="22.41548578125" lon="114.01141179638672" /><trkpt lat="22.41548078125" lon="114.01132979638672" /><trkpt lat="22.41561578125" lon="114.01114279638672" /><trkpt lat="22.41564278125" lon="114.01102279638671" /><trkpt lat="22.41568778125" lon="114.01093179638671" /><trkpt lat="22.41575478125" lon="114.01082479638671" /><trkpt lat="22.41593278125" lon="114.01072579638672" /><trkpt lat="22.41596978125" lon="114.01064079638672" /><trkpt lat="22.41604878125" lon="114.01064179638672" /><trkpt lat="22.41604878125" lon="114.01052879638672" /><trkpt lat="22.41611778125" lon="114.01051579638671" /><trkpt lat="22.41622778125" lon="114.01053479638672" /><trkpt lat="22.41628478125" lon="114.01045979638671" /><trkpt lat="22.41642478125" lon="114.01051379638672" /><trkpt lat="22.41646678125" lon="114.01056279638672" /><trkpt lat="22.41672478125" lon="114.01064779638672" /><trkpt lat="22.41688678125" lon="114.01056979638672" /><trkpt lat="22.41692778125" lon="114.01047879638672" /><trkpt lat="22.41693278125" lon="114.01033279638672" /><trkpt lat="22.41700778125" lon="114.01023879638672" /><trkpt lat="22.41715278125" lon="114.00998979638672" /><trkpt lat="22.41722578125" lon="114.00990679638672" /><trkpt lat="22.41723778125" lon="114.00981579638672" /><trkpt lat="22.41731278125" lon="114.00968079638672" /><trkpt lat="22.41741378125" lon="114.00953879638672" /><trkpt lat="22.41748878125" lon="114.00941879638673" /><trkpt lat="22.41754278125" lon="114.00929079638672" /><trkpt lat="22.41746078125" lon="114.00910579638672" /><trkpt lat="22.41756578125" lon="114.00879779638672" /><trkpt lat="22.41763278125" lon="114.00862379638671" /><trkpt lat="22.41767678125" lon="114.00854579638671" /><trkpt lat="22.41774378125" lon="114.00845679638672" /><trkpt lat="22.41781178125" lon="114.00842579638672" /><trkpt lat="22.41797678125" lon="114.00844079638672" /><trkpt lat="22.41818978125" lon="114.00835779638672" /><trkpt lat="22.41825878125" lon="114.00827579638671" /><trkpt lat="22.41834478125" lon="114.00822479638671" /><trkpt lat="22.41843378125" lon="114.00813679638672" /><trkpt lat="22.41851078125" lon="114.00806679638671" /><trkpt lat="22.41856778125" lon="114.00797679638671" /><trkpt lat="22.41860178125" lon="114.00788079638671" /><trkpt lat="22.41863278125" lon="114.00777679638672" /><trkpt lat="22.41864278125" lon="114.00770279638672" /><trkpt lat="22.41859478125" lon="114.00754379638671" /><trkpt lat="22.41871178125" lon="114.00741979638671" /><trkpt lat="22.41881178125" lon="114.00727079638672" /><trkpt lat="22.41888878125" lon="114.00719179638672" /><trkpt lat="22.41895378125" lon="114.00715679638672" /><trkpt lat="22.41904778125" lon="114.00711179638672" /><trkpt lat="22.41908478125" lon="114.00714479638673" /><trkpt lat="22.41918378125" lon="114.00719079638672" /><trkpt lat="22.41925678125" lon="114.00718179638672" /><trkpt lat="22.41938678125" lon="114.00713979638672" /><trkpt lat="22.41948278125" lon="114.00713779638671" /><trkpt lat="22.41964978125" lon="114.00714679638672" /><trkpt lat="22.41978078125" lon="114.00716179638673" /><trkpt lat="22.41989278125" lon="114.00718179638672" /><trkpt lat="22.42003178125" lon="114.00720479638672" /><trkpt lat="22.42012478125" lon="114.00722079638672" /><trkpt lat="22.42021778125" lon="114.00727379638671" /><trkpt lat="22.42028178125" lon="114.00739479638672" /><trkpt lat="22.42039278125" lon="114.00750679638672" /><trkpt lat="22.42050278125" lon="114.00755679638672" /><trkpt lat="22.42063578125" lon="114.00750479638671" /><trkpt lat="22.42075378125" lon="114.00739179638671" /><trkpt lat="22.42096678125" lon="114.00730279638672" /><trkpt lat="22.42101578125" lon="114.00704279638671" /><trkpt lat="22.42120978125" lon="114.00695979638672" /><trkpt lat="22.42136478125" lon="114.00681379638672" /><trkpt lat="22.42149078125" lon="114.00669179638672" /><trkpt lat="22.42169578125" lon="114.00672679638672" /><trkpt lat="22.42199778125" lon="114.00686279638671" /><trkpt lat="22.42216578125" lon="114.00665679638672" /><trkpt lat="22.42228878125" lon="114.00646579638672" /><trkpt lat="22.42237478125" lon="114.00623379638672" /><trkpt lat="22.42252478125" lon="114.00605779638671" /><trkpt lat="22.42266578125" lon="114.00589779638672" /><trkpt lat="22.42279778125" lon="114.00575779638672" /><trkpt lat="22.42287678125" lon="114.00562279638672" /><trkpt lat="22.42291478125" lon="114.00535579638672" /><trkpt lat="22.42311278125" lon="114.00526579638672" /><trkpt lat="22.42331678125" lon="114.00519279638672" /><trkpt lat="22.42343478125" lon="114.00521379638671" /><trkpt lat="22.42379978125" lon="114.00514179638672" /><trkpt lat="22.42415578125" lon="114.00515179638671" /><trkpt lat="22.42438978125" lon="114.00518179638672" /><trkpt lat="22.42451278125" lon="114.00507179638672" /><trkpt lat="22.42468678125" lon="114.00511579638672" /><trkpt lat="22.42475978125" lon="114.00496379638672" /><trkpt lat="22.42491878125" lon="114.00472379638671" /><trkpt lat="22.42509178125" lon="114.00464279638672" /><trkpt lat="22.42526478125" lon="114.00463879638671" /><trkpt lat="22.42546378125" lon="114.00469479638672" /><trkpt lat="22.42564178125" lon="114.00469079638673" /><trkpt lat="22.42582078125" lon="114.00469679638672" /><trkpt lat="22.42598378125" lon="114.00455279638672" /><trkpt lat="22.42613878125" lon="114.00443279638672" /><trkpt lat="22.42629278125" lon="114.00437379638672" /><trkpt lat="22.42646678125" lon="114.00445879638671" /><trkpt lat="22.42681178125" lon="114.00461679638671" /><trkpt lat="22.42702578125" lon="114.00465779638672" /><trkpt lat="22.42727478125" lon="114.00467979638672" /><trkpt lat="22.42741778125" lon="114.00465179638672" /><trkpt lat="22.42751778125" lon="114.00468579638672" /><trkpt lat="22.42761678125" lon="114.00475479638672" /><trkpt lat="22.42778978125" lon="114.00492479638672" /><trkpt lat="22.42781478125" lon="114.00482079638672" /><trkpt lat="22.42792778125" lon="114.00468179638672" /><trkpt lat="22.42797178125" lon="114.00451679638672" /><trkpt lat="22.42784078125" lon="114.00441579638672" /><trkpt lat="22.42768778125" lon="114.00445179638672" /><trkpt lat="22.42743678125" lon="114.00443979638672" /><trkpt lat="22.427249405760715" lon="114.004379502287" /><trkpt lat="22.42737335386782" lon="114.00389638066395" /><trkpt lat="22.427385708181305" lon="114.00364190772075" /><trkpt lat="22.427364798459692" lon="114.00349159760503" /><trkpt lat="22.427365873484817" lon="114.00349159760503" /><trkpt lat="22.42736309169827" lon="114.00342962058649" /><trkpt lat="22.42732078125" lon="114.00341579638672" /><trkpt lat="22.42634678125" lon="114.00249279638672" /><trkpt lat="22.42630178125" lon="114.00240179638672" /><trkpt lat="22.42631378125" lon="114.00227879638672" /><trkpt lat="22.42637678125" lon="114.00216779638671" /><trkpt lat="22.42644078125" lon="114.00210879638672" /><trkpt lat="22.42654078125" lon="114.00201779638672" /><trkpt lat="22.42656978125" lon="114.00196479638672" /><trkpt lat="22.42663578125" lon="114.00192879638672" /><trkpt lat="22.42667278125" lon="114.00187379638672" /><trkpt lat="22.42665578125" lon="114.00164179638672" /><trkpt lat="22.42666278125" lon="114.00148379638672" /><trkpt lat="22.42672778125" lon="114.00120879638672" /><trkpt lat="22.42676178125" lon="114.00099079638672" /><trkpt lat="22.42672778125" lon="114.00086879638671" /><trkpt lat="22.426693781250002" lon="114.00077779638671" /><trkpt lat="22.42670278125" lon="114.00065879638672" /><trkpt lat="22.42672778125" lon="114.00060279638672" /><trkpt lat="22.42691778125" lon="114.00060479638672" /><trkpt lat="22.427431007523083" lon="114.00049235071515" /><trkpt lat="22.427523443872204" lon="114.00036766466678" /><trkpt lat="22.42752784868574" lon="114.00034810307284" /><trkpt lat="22.42752784868574" lon="114.00025621040209" /><trkpt lat="22.427512972678883" lon="114.00026693923814" /><trkpt lat="22.42755370960063" lon="114.00029011525885" /><trkpt lat="22.42759178125" lon="114.00021179638672" /><trkpt lat="22.42760778125" lon="113.99999879638672" /><trkpt lat="22.42754978125" lon="113.99985279638672" /><trkpt lat="22.42715978125" lon="113.99939779638672" /><trkpt lat="22.42707378125" lon="113.99927879638672" /><trkpt lat="22.42709578125" lon="113.99914979638672" /><trkpt lat="22.42737878125" lon="113.99877679638672" /><trkpt lat="22.42769778125" lon="113.99825079638671" /><trkpt lat="22.42846478125" lon="113.99861679638671" /><trkpt lat="22.42865178125" lon="113.99870479638672" /><trkpt lat="22.42883778125" lon="113.99884179638671" /><trkpt lat="22.42901978125" lon="113.99888579638672" /><trkpt lat="22.42917678125" lon="113.99888379638672" /><trkpt lat="22.42927978125" lon="113.99886479638671" /><trkpt lat="22.43010178125" lon="113.99863979638671" /><trkpt lat="22.43027078125" lon="113.99860479638672" /><trkpt lat="22.43122578125" lon="113.99844279638671" /><trkpt lat="22.43142778125" lon="113.99837279638672" /><trkpt lat="22.43148378125" lon="113.99832779638672" /><trkpt lat="22.43182778125" lon="113.99798679638671" /><trkpt lat="22.43186778125" lon="113.99794779638673" /><trkpt lat="22.43209478125" lon="113.99774379638671" /><trkpt lat="22.43247078125" lon="113.99736879638672" /><trkpt lat="22.43260778125" lon="113.99723479638672" /><trkpt lat="22.43289178125" lon="113.99698179638672" /><trkpt lat="22.43298278125" lon="113.99688779638672" /><trkpt lat="22.43299578125" lon="113.99685979638672" /><trkpt lat="22.43300078125" lon="113.99683279638671" /><trkpt lat="22.43300178125" lon="113.99680479638671" /><trkpt lat="22.433016017540584" lon="113.99674851671601" /><trkpt lat="22.433314961491757" lon="113.9971834535094" /></trkseg></trk></gpx>