<?xml version='1.0' encoding='UTF-8' ?><gpx version="1.1" creator="HikingTrailHK" xsi:schemaLocation="http://www.topografix.com/GPX/1/1 http://www.topografix.com/GPX/1/1/gpx.xsd" xmlns="http://www.topografix.com/GPX/1/1" xmlns:xsi="http://www.w3.org/2001/XMLSchema-instance"><metadata><name>分流 @ 2016-8-30</name><desc></desc></metadata><trk><trkseg><trkpt lat="22.22834378125" lon="113.89085179638671" /><trkpt lat="22.22831478125" lon="113.89081879638672" /><trkpt lat="22.22826478125" lon="113.89080779638672" /><trkpt lat="22.22820578125" lon="113.89081979638672" /><trkpt lat="22.22804178125" lon="113.89101379638672" /><trkpt lat="22.22793978125" lon="113.89108279638671" /><trkpt lat="22.22772178125" lon="113.89111179638672" /><trkpt lat="22.22751478125" lon="113.89105179638672" /><trkpt lat="22.22734378125" lon="113.89104979638672" /><trkpt lat="22.22721178125" lon="113.89112679638671" /><trkpt lat="22.22713378125" lon="113.89122679638672" /><trkpt lat="22.22700578125" lon="113.89134279638672" /><trkpt lat="22.22672478125" lon="113.89137179638672" /><trkpt lat="22.22644278125" lon="113.89138379638672" /><trkpt lat="22.22633678125" lon="113.89132379638671" /><trkpt lat="22.22616678125" lon="113.89115279638672" /><trkpt lat="22.22579578125" lon="113.89087279638672" /><trkpt lat="22.22578178125" lon="113.89077179638672" /><trkpt lat="22.22578878125" lon="113.89068179638672" /><trkpt lat="22.22574978125" lon="113.89060579638672" /><trkpt lat="22.22555578125" lon="113.89048379638672" /><trkpt lat="22.22546378125" lon="113.89038579638672" /><trkpt lat="22.22538878125" lon="113.89030279638672" /><trkpt lat="22.22534478125" lon="113.89025179638672" /><trkpt lat="22.22502578125" lon="113.88984679638672" /><trkpt lat="22.22491978125" lon="113.88977779638672" /><trkpt lat="22.22482078125" lon="113.88975179638672" /><trkpt lat="22.22469978125" lon="113.88973079638671" /><trkpt lat="22.22459578125" lon="113.88967979638672" /><trkpt lat="22.22453678125" lon="113.88956479638672" /><trkpt lat="22.22451578125" lon="113.88943679638672" /><trkpt lat="22.22455578125" lon="113.88934579638672" /><trkpt lat="22.22464778125" lon="113.88924979638672" /><trkpt lat="22.22472878125" lon="113.88923179638672" /><trkpt lat="22.22484278125" lon="113.88924579638672" /><trkpt lat="22.22499278125" lon="113.88924279638672" /><trkpt lat="22.22512078125" lon="113.88920879638673" /><trkpt lat="22.22521178125" lon="113.88910779638672" /><trkpt lat="22.22534278125" lon="113.88878179638672" /><trkpt lat="22.22543678125" lon="113.88855079638672" /><trkpt lat="22.22562578125" lon="113.88830379638672" /><trkpt lat="22.22555578125" lon="113.88809979638671" /><trkpt lat="22.22544178125" lon="113.88800379638671" /><trkpt lat="22.22525078125" lon="113.88782279638671" /><trkpt lat="22.22495978125" lon="113.88756379638671" /><trkpt lat="22.22468678125" lon="113.88733879638671" /><trkpt lat="22.22456778125" lon="113.88704379638672" /><trkpt lat="22.22440378125" lon="113.88673179638671" /><trkpt lat="22.22436878125" lon="113.88646379638672" /><trkpt lat="22.22442378125" lon="113.88602379638672" /><trkpt lat="22.22432278125" lon="113.88576479638672" /><trkpt lat="22.22410978125" lon="113.88536779638672" /><trkpt lat="22.22397678125" lon="113.88504879638671" /><trkpt lat="22.22404378125" lon="113.88479179638672" /><trkpt lat="22.22412278125" lon="113.88450079638672" /><trkpt lat="22.22402178125" lon="113.88409779638671" /><trkpt lat="22.22418078125" lon="113.88385179638672" /><trkpt lat="22.22419978125" lon="113.88356179638672" /><trkpt lat="22.22411778125" lon="113.88317079638672" /><trkpt lat="22.22405278125" lon="113.88289679638672" /><trkpt lat="22.22404578125" lon="113.88261179638671" /><trkpt lat="22.22405078125" lon="113.88253679638672" /><trkpt lat="22.22415978125" lon="113.88216779638672" /><trkpt lat="22.22410078125" lon="113.88183179638672" /><trkpt lat="22.22398578125" lon="113.88138179638672" /><trkpt lat="22.22399578125" lon="113.88121579638671" /><trkpt lat="22.22400178125" lon="113.88110479638672" /><trkpt lat="22.22410078125" lon="113.88071379638671" /><trkpt lat="22.22400178125" lon="113.88049379638672" /><trkpt lat="22.22365178125" lon="113.88039179638672" /><trkpt lat="22.22344878125" lon="113.88023579638671" /><trkpt lat="22.22331878125" lon="113.88025079638672" /><trkpt lat="22.22324878125" lon="113.88026079638672" /><trkpt lat="22.22296878125" lon="113.88031179638672" /><trkpt lat="22.22272178125" lon="113.88004579638672" /><trkpt lat="22.22245378125" lon="113.87993879638672" /><trkpt lat="22.22218778125" lon="113.88000979638672" /><trkpt lat="22.22196078125" lon="113.88002879638672" /><trkpt lat="22.22157378125" lon="113.87999779638672" /><trkpt lat="22.22105978125" lon="113.88041979638672" /><trkpt lat="22.22086878125" lon="113.88029879638673" /><trkpt lat="22.22066578125" lon="113.88018279638672" /><trkpt lat="22.22050078125" lon="113.88029079638672" /><trkpt lat="22.22045878125" lon="113.88050079638671" /><trkpt lat="22.22045378125" lon="113.88110679638672" /><trkpt lat="22.22040878125" lon="113.88137079638672" /><trkpt lat="22.22016278125" lon="113.88151679638672" /><trkpt lat="22.21994478125" lon="113.88144779638672" /><trkpt lat="22.21983278125" lon="113.88127079638672" /><trkpt lat="22.21952178125" lon="113.88093679638672" /><trkpt lat="22.21933578125" lon="113.88096279638673" /><trkpt lat="22.21913578125" lon="113.88096279638673" /><trkpt lat="22.21902778125" lon="113.88081779638672" /><trkpt lat="22.21895278125" lon="113.88070079638672" /><trkpt lat="22.21875978125" lon="113.88059179638672" /><trkpt lat="22.21864378125" lon="113.88060779638671" /><trkpt lat="22.21849678125" lon="113.88053379638671" /><trkpt lat="22.21829778125" lon="113.88017379638671" /><trkpt lat="22.21809478125" lon="113.87979179638671" /><trkpt lat="22.21776678125" lon="113.87944379638672" /><trkpt lat="22.21753578125" lon="113.87918179638672" /><trkpt lat="22.21738078125" lon="113.87903879638672" /><trkpt lat="22.21709878125" lon="113.87899879638672" /><trkpt lat="22.21679378125" lon="113.87857479638672" /><trkpt lat="22.21673378125" lon="113.87829579638672" /><trkpt lat="22.21675378125" lon="113.87804979638672" /><trkpt lat="22.21670278125" lon="113.87784879638671" /><trkpt lat="22.21660278125" lon="113.87781679638672" /><trkpt lat="22.21630578125" lon="113.87794679638672" /><trkpt lat="22.21612778125" lon="113.87786679638671" /><trkpt lat="22.21596878125" lon="113.87753379638671" /><trkpt lat="22.21572078125" lon="113.87693379638672" /><trkpt lat="22.21566078125" lon="113.87662279638671" /><trkpt lat="22.21576278125" lon="113.87631879638671" /><trkpt lat="22.21574478125" lon="113.87613879638671" /><trkpt lat="22.21573078125" lon="113.87589779638672" /><trkpt lat="22.21550178125" lon="113.87560379638671" /><trkpt lat="22.21537078125" lon="113.87519279638671" /><trkpt lat="22.21533278125" lon="113.87483079638672" /><trkpt lat="22.21532178125" lon="113.87474779638671" /><trkpt lat="22.21530978125" lon="113.87462879638672" /><trkpt lat="22.21529578125" lon="113.87449279638672" /><trkpt lat="22.21521978125" lon="113.87436279638672" /><trkpt lat="22.21486878125" lon="113.87395879638672" /><trkpt lat="22.21469778125" lon="113.87399779638672" /><trkpt lat="22.21452878125" lon="113.87432679638673" /><trkpt lat="22.21440978125" lon="113.87453079638672" /><trkpt lat="22.21419878125" lon="113.87468879638672" /><trkpt lat="22.21389178125" lon="113.87453879638672" /><trkpt lat="22.21387278125" lon="113.87436979638672" /><trkpt lat="22.21381978125" lon="113.87398079638672" /><trkpt lat="22.21371478125" lon="113.87364779638672" /><trkpt lat="22.21344578125" lon="113.87361179638673" /><trkpt lat="22.21314578125" lon="113.87347279638672" /><trkpt lat="22.21292978125" lon="113.87330779638671" /><trkpt lat="22.21252278125" lon="113.87323179638672" /><trkpt lat="22.21234378125" lon="113.87310379638672" /><trkpt lat="22.21227378125" lon="113.87283479638671" /><trkpt lat="22.21228378125" lon="113.87270679638672" /><trkpt lat="22.21233778125" lon="113.87230179638672" /><trkpt lat="22.21219978125" lon="113.87220579638672" /><trkpt lat="22.21210578125" lon="113.87223879638672" /><trkpt lat="22.21191478125" lon="113.87236579638672" /><trkpt lat="22.21176378125" lon="113.87237379638673" /><trkpt lat="22.21154878125" lon="113.87219379638672" /><trkpt lat="22.21134578125" lon="113.87224279638671" /><trkpt lat="22.21118878125" lon="113.87215179638672" /><trkpt lat="22.21112378125" lon="113.87190379638672" /><trkpt lat="22.21104278125" lon="113.87166579638672" /><trkpt lat="22.21125378125" lon="113.87142679638671" /><trkpt lat="22.21128478125" lon="113.87131379638672" /><trkpt lat="22.21127778125" lon="113.87099979638671" /><trkpt lat="22.21132478125" lon="113.87088679638671" /><trkpt lat="22.21134778125" lon="113.87068479638671" /><trkpt lat="22.21118678125" lon="113.87051279638672" /><trkpt lat="22.21099978125" lon="113.87016579638671" /><trkpt lat="22.21070978125" lon="113.86999379638672" /><trkpt lat="22.21047278125" lon="113.86974479638671" /><trkpt lat="22.21012778125" lon="113.86968179638671" /><trkpt lat="22.20978078125" lon="113.86932679638672" /><trkpt lat="22.20963178125" lon="113.86911279638672" /><trkpt lat="22.20943278125" lon="113.86891879638672" /><trkpt lat="22.20927478125" lon="113.86868279638672" /><trkpt lat="22.20915478125" lon="113.86857079638672" /><trkpt lat="22.20888678125" lon="113.86853279638672" /><trkpt lat="22.20870678125" lon="113.86856079638672" /><trkpt lat="22.20857278125" lon="113.86855979638672" /><trkpt lat="22.20849478125" lon="113.86855779638672" /><trkpt lat="22.20835678125" lon="113.86850079638671" /><trkpt lat="22.20809278125" lon="113.86822179638672" /><trkpt lat="22.20788378125" lon="113.86802879638672" /><trkpt lat="22.20760578125" lon="113.86772879638671" /><trkpt lat="22.20741278125" lon="113.86751079638672" /><trkpt lat="22.20732278125" lon="113.86732079638672" /><trkpt lat="22.20733178125" lon="113.86717979638672" /><trkpt lat="22.20728478125" lon="113.86712479638672" /><trkpt lat="22.20729478125" lon="113.86708679638672" /><trkpt lat="22.20717778125" lon="113.86700879638671" /><trkpt lat="22.20703478125" lon="113.86684779638672" /><trkpt lat="22.20689778125" lon="113.86685779638672" /><trkpt lat="22.20677678125" lon="113.86684479638672" /><trkpt lat="22.20663278125" lon="113.86684679638672" /><trkpt lat="22.20649678125" lon="113.86680279638672" /><trkpt lat="22.20632578125" lon="113.86665479638671" /><trkpt lat="22.20606578125" lon="113.86684879638672" /><trkpt lat="22.20575778125" lon="113.86699879638672" /><trkpt lat="22.20561878125" lon="113.86699879638672" /><trkpt lat="22.20549978125" lon="113.86697779638672" /><trkpt lat="22.20535178125" lon="113.86714879638672" /><trkpt lat="22.20526378125" lon="113.86711679638672" /><trkpt lat="22.20511678125" lon="113.86700279638671" /><trkpt lat="22.20494378125" lon="113.86684679638672" /><trkpt lat="22.20473078125" lon="113.86667779638672" /><trkpt lat="22.20453578125" lon="113.86651579638672" /><trkpt lat="22.20437278125" lon="113.86646379638672" /><trkpt lat="22.20430321036902" lon="113.86643138939642" /><trkpt lat="22.20418678127089" lon="113.86645572915904" /><trkpt lat="22.204241344840966" lon="113.8665554197828" /><trkpt lat="22.204361869579586" lon="113.8666053685588" /><trkpt lat="22.204507537616237" lon="113.86671153747693" /><trkpt lat="22.204590051799414" lon="113.86669924587432" /><trkpt lat="22.204662253223475" lon="113.86666705936614" /><trkpt lat="22.20468528255693" lon="113.86663999742031" /><trkpt lat="22.20473078125" lon="113.86667779638672" /><trkpt lat="22.20494378125" lon="113.86684679638672" /><trkpt lat="22.20511678125" lon="113.86700279638671" /><trkpt lat="22.20526378125" lon="113.86711679638672" /><trkpt lat="22.20535178125" lon="113.86714879638672" /><trkpt lat="22.20549978125" lon="113.86697779638672" /><trkpt lat="22.20561878125" lon="113.86699879638672" /><trkpt lat="22.20549678125" lon="113.86731479638672" /><trkpt lat="22.20531178125" lon="113.86729379638672" /><trkpt lat="22.20508378125" lon="113.86727679638672" /><trkpt lat="22.20485378125" lon="113.86732079638672" /><trkpt lat="22.20460578125" lon="113.86725579638671" /><trkpt lat="22.20454178125" lon="113.86715279638672" /><trkpt lat="22.20423178125" lon="113.86716279638672" /><trkpt lat="22.20393778125" lon="113.86701979638671" /><trkpt lat="22.20367978125" lon="113.86712179638671" /><trkpt lat="22.20333878125" lon="113.86688579638673" /><trkpt lat="22.20326878125" lon="113.86682979638672" /><trkpt lat="22.20324678125" lon="113.86669279638672" /><trkpt lat="22.20319578125" lon="113.86648779638672" /><trkpt lat="22.20328178125" lon="113.86643079638672" /><trkpt lat="22.20324678125" lon="113.86622179638672" /><trkpt lat="22.20340178125" lon="113.86587979638672" /><trkpt lat="22.20343578125" lon="113.86583579638672" /><trkpt lat="22.20358278125" lon="113.86595779638672" /><trkpt lat="22.20366078125" lon="113.86618979638672" /><trkpt lat="22.20370078125" lon="113.86631079638671" /><trkpt lat="22.20383178125" lon="113.86638979638671" /><trkpt lat="22.20413878125" lon="113.86635479638672" /><trkpt lat="22.20437278125" lon="113.86646379638672" /><trkpt lat="22.20453578125" lon="113.86651579638672" /><trkpt lat="22.20473078125" lon="113.86667779638672" /><trkpt lat="22.20494378125" lon="113.86684679638672" /><trkpt lat="22.20511678125" lon="113.86700279638671" /><trkpt lat="22.20526378125" lon="113.86711679638672" /><trkpt lat="22.20535178125" lon="113.86714879638672" /><trkpt lat="22.20549978125" lon="113.86697779638672" /><trkpt lat="22.20561878125" lon="113.86699879638672" /><trkpt lat="22.20575778125" lon="113.86699879638672" /><trkpt lat="22.20606578125" lon="113.86684879638672" /><trkpt lat="22.20632578125" lon="113.86665479638671" /><trkpt lat="22.20614578125" lon="113.86663379638672" /><trkpt lat="22.20599678125" lon="113.86666579638671" /><trkpt lat="22.20581778125" lon="113.86658079638671" /><trkpt lat="22.20562378125" lon="113.86649279638672" /><trkpt lat="22.20546078125" lon="113.86627779638673" /><trkpt lat="22.20554778125" lon="113.86615879638671" /><trkpt lat="22.20551078125" lon="113.86600879638672" /><trkpt lat="22.20554478125" lon="113.86584979638671" /><trkpt lat="22.20545278125" lon="113.86569479638672" /><trkpt lat="22.20535478125" lon="113.86562979638671" /><trkpt lat="22.20519978125" lon="113.86531079638672" /><trkpt lat="22.20499578125" lon="113.86496779638672" /><trkpt lat="22.20485478125" lon="113.86483879638672" /><trkpt lat="22.20472478125" lon="113.86469179638672" /><trkpt lat="22.20449678125" lon="113.86458479638672" /><trkpt lat="22.20446678125" lon="113.86446679638672" /><trkpt lat="22.20456578125" lon="113.86433779638672" /><trkpt lat="22.20466378125" lon="113.86434979638672" /><trkpt lat="22.20474478125" lon="113.86435979638672" /><trkpt lat="22.20488378125" lon="113.86436979638673" /><trkpt lat="22.20498278125" lon="113.86436979638673" /><trkpt lat="22.20522478125" lon="113.86419079638672" /><trkpt lat="22.20507578125" lon="113.86413179638672" /><trkpt lat="22.20500378125" lon="113.86403579638672" /><trkpt lat="22.20515078125" lon="113.86394279638672" /><trkpt lat="22.20527578125" lon="113.86377079638672" /><trkpt lat="22.20533078125" lon="113.86353979638672" /><trkpt lat="22.20548778125" lon="113.86334879638672" /><trkpt lat="22.20559978125" lon="113.86329079638672" /><trkpt lat="22.20567278125" lon="113.86319779638671" /><trkpt lat="22.20573478125" lon="113.86296979638672" /><trkpt lat="22.20584778125" lon="113.86279479638672" /><trkpt lat="22.20578078125" lon="113.86255579638672" /><trkpt lat="22.20578578125" lon="113.86222679638672" /><trkpt lat="22.20564278125" lon="113.86186679638672" /><trkpt lat="22.20568078125" lon="113.86159479638673" /><trkpt lat="22.20590778125" lon="113.86113479638672" /><trkpt lat="22.20601578125" lon="113.86074479638671" /><trkpt lat="22.20597378125" lon="113.86060479638672" /><trkpt lat="22.20600078125" lon="113.86035979638672" /><trkpt lat="22.20599378125" lon="113.86016479638671" /><trkpt lat="22.20599978125" lon="113.86006679638672" /><trkpt lat="22.20581478125" lon="113.85998279638672" /><trkpt lat="22.20542678125" lon="113.85982179638673" /><trkpt lat="22.20516378125" lon="113.85964479638672" /><trkpt lat="22.20497478125" lon="113.85930179638672" /><trkpt lat="22.20497878125" lon="113.85895479638671" /><trkpt lat="22.20510278125" lon="113.85851679638672" /><trkpt lat="22.20511778125" lon="113.85829779638672" /><trkpt lat="22.20505978125" lon="113.85819679638672" /><trkpt lat="22.20493978125" lon="113.85821279638672" /><trkpt lat="22.20474178125" lon="113.85829279638672" /><trkpt lat="22.20456778125" lon="113.85829879638672" /><trkpt lat="22.20437078125" lon="113.85834179638672" /><trkpt lat="22.20431578125" lon="113.85819279638672" /><trkpt lat="22.20431478125" lon="113.85794679638671" /><trkpt lat="22.20426078125" lon="113.85783979638671" /><trkpt lat="22.20424278125" lon="113.85773179638672" /><trkpt lat="22.20425078125" lon="113.85760679638672" /><trkpt lat="22.20428678125" lon="113.85748479638671" /><trkpt lat="22.20418278125" lon="113.85719479638672" /><trkpt lat="22.20415278125" lon="113.85696779638671" /><trkpt lat="22.20407478125" lon="113.85688379638673" /><trkpt lat="22.20406478125" lon="113.85680479638673" /><trkpt lat="22.20406078125" lon="113.85669279638672" /><trkpt lat="22.20393778125" lon="113.85655179638673" /><trkpt lat="22.20384178125" lon="113.85636979638672" /><trkpt lat="22.20364378125" lon="113.85622479638671" /><trkpt lat="22.20358278125" lon="113.85601279638672" /><trkpt lat="22.20344278125" lon="113.85594579638672" /><trkpt lat="22.20332478125" lon="113.85580879638673" /><trkpt lat="22.20348278125" lon="113.85577179638672" /><trkpt lat="22.20340678125" lon="113.85545479638672" /><trkpt lat="22.20331178125" lon="113.85536679638672" /><trkpt lat="22.20330678125" lon="113.85520279638672" /><trkpt lat="22.20319178125" lon="113.85515479638671" /><trkpt lat="22.20312778125" lon="113.85491079638672" /><trkpt lat="22.20298878125" lon="113.85494379638672" /><trkpt lat="22.20286278125" lon="113.85474279638672" /><trkpt lat="22.20275778125" lon="113.85464079638672" /><trkpt lat="22.20273378125" lon="113.85453779638672" /><trkpt lat="22.20246478125" lon="113.85433279638671" /><trkpt lat="22.20238878125" lon="113.85419179638671" /><trkpt lat="22.20224578125" lon="113.85410879638673" /><trkpt lat="22.20207978125" lon="113.85408579638671" /><trkpt lat="22.20158778125" lon="113.85353579638672" /><trkpt lat="22.20129078125" lon="113.85330879638671" /><trkpt lat="22.20095578125" lon="113.85311379638672" /><trkpt lat="22.20050478125" lon="113.85284879638672" /><trkpt lat="22.20021778125" lon="113.85277279638672" /><trkpt lat="22.19995778125" lon="113.85273579638672" /><trkpt lat="22.19965278125" lon="113.85271679638672" /><trkpt lat="22.19914778125" lon="113.85268779638672" /><trkpt lat="22.19902978125" lon="113.85262879638672" /><trkpt lat="22.19890278125" lon="113.85260079638672" /><trkpt lat="22.19883778125" lon="113.85276679638672" /><trkpt lat="22.19872678125" lon="113.85282679638672" /><trkpt lat="22.19849178125" lon="113.85299879638671" /><trkpt lat="22.19835178125" lon="113.85341179638672" /><trkpt lat="22.19834378125" lon="113.85371379638671" /><trkpt lat="22.19826778125" lon="113.85376979638671" /><trkpt lat="22.19812578125" lon="113.85361479638672" /><trkpt lat="22.19806978125" lon="113.85331979638671" /><trkpt lat="22.19801678125" lon="113.85312379638673" /><trkpt lat="22.19811278125" lon="113.85290179638672" /><trkpt lat="22.19808478125" lon="113.85269179638672" /><trkpt lat="22.19816878125" lon="113.85237879638672" /><trkpt lat="22.19814678125" lon="113.85226779638671" /><trkpt lat="22.19777878125" lon="113.85206279638672" /><trkpt lat="22.19766778125" lon="113.85189379638672" /><trkpt lat="22.19770578125" lon="113.85166079638672" /><trkpt lat="22.19781378125" lon="113.85156779638672" /><trkpt lat="22.19819778125" lon="113.85156479638673" /><trkpt lat="22.19837178125" lon="113.85160079638672" /><trkpt lat="22.19855478125" lon="113.85148379638672" /><trkpt lat="22.19875478125" lon="113.85127579638672" /><trkpt lat="22.19877278125" lon="113.85119279638671" /><trkpt lat="22.19883478125" lon="113.85099179638672" /><trkpt lat="22.19887778125" lon="113.85080579638672" /><trkpt lat="22.19892878125" lon="113.85063379638672" /><trkpt lat="22.19915678125" lon="113.85043779638671" /><trkpt lat="22.19917678125" lon="113.85034979638672" /><trkpt lat="22.19908278125" lon="113.85009579638673" /><trkpt lat="22.19907978125" lon="113.84987279638672" /><trkpt lat="22.19912378125" lon="113.84975579638672" /><trkpt lat="22.19912078125" lon="113.84950579638672" /><trkpt lat="22.19902578125" lon="113.84936579638672" /><trkpt lat="22.19901278125" lon="113.84922779638671" /><trkpt lat="22.19888278125" lon="113.84901179638672" /><trkpt lat="22.19888678125" lon="113.84876579638672" /><trkpt lat="22.19882778125" lon="113.84859679638672" /><trkpt lat="22.19864778125" lon="113.84833579638672" /><trkpt lat="22.19859678125" lon="113.84820279638672" /><trkpt lat="22.19859778125" lon="113.84807479638671" /><trkpt lat="22.19848978125" lon="113.84803979638671" /><trkpt lat="22.19842378125" lon="113.84794779638672" /><trkpt lat="22.19826078125" lon="113.84790879638672" /><trkpt lat="22.19820178125" lon="113.84777579638671" /><trkpt lat="22.19811578125" lon="113.84770279638671" /><trkpt lat="22.19793378125" lon="113.84782479638672" /><trkpt lat="22.19783978125" lon="113.84789879638672" /><trkpt lat="22.19775778125" lon="113.84797179638672" /><trkpt lat="22.19775878125" lon="113.84804579638671" /><trkpt lat="22.19776878125" lon="113.84811279638672" /><trkpt lat="22.19773378125" lon="113.84817479638672" /><trkpt lat="22.19766878125" lon="113.84817679638672" /><trkpt lat="22.19759778125" lon="113.84816879638672" /><trkpt lat="22.19741778125" lon="113.84817779638672" /><trkpt lat="22.19732839762362" lon="113.84812881361677" /><trkpt lat="22.19736406836691" lon="113.84806273262393" /><trkpt lat="22.197464493953575" lon="113.8481282820535" /><trkpt lat="22.197445489880348" lon="113.84817641095673" /><trkpt lat="22.19759778125" lon="113.84816879638672" /><trkpt lat="22.19766878125" lon="113.84817679638672" /><trkpt lat="22.19773378125" lon="113.84817479638672" /><trkpt lat="22.19776878125" lon="113.84811279638672" /><trkpt lat="22.19775878125" lon="113.84804579638671" /><trkpt lat="22.19775778125" lon="113.84797179638672" /><trkpt lat="22.19783978125" lon="113.84789879638672" /><trkpt lat="22.19793378125" lon="113.84782479638672" /><trkpt lat="22.19811578125" lon="113.84770279638671" /><trkpt lat="22.19820178125" lon="113.84777579638671" /><trkpt lat="22.19826078125" lon="113.84790879638672" /><trkpt lat="22.19842378125" lon="113.84794779638672" /><trkpt lat="22.19862278125" lon="113.84793079638672" /><trkpt lat="22.19869278125" lon="113.84778779638673" /><trkpt lat="22.19886278125" lon="113.84773979638672" /><trkpt lat="22.19911278125" lon="113.84754579638673" /><trkpt lat="22.19942078125" lon="113.84745079638672" /><trkpt lat="22.19956778125" lon="113.84744579638672" /><trkpt lat="22.19966278125" lon="113.84742079638671" /><trkpt lat="22.19979978125" lon="113.84745479638671" /><trkpt lat="22.20005378125" lon="113.84741379638672" /><trkpt lat="22.20020078125" lon="113.84746479638672" /><trkpt lat="22.20047178125" lon="113.84762379638671" /><trkpt lat="22.20063078125" lon="113.84776179638672" /><trkpt lat="22.20079078125" lon="113.84785479638671" /><trkpt lat="22.20090178125" lon="113.84801979638672" /><trkpt lat="22.20102178125" lon="113.84808679638672" /><trkpt lat="22.20112478125" lon="113.84820279638672" /><trkpt lat="22.20143378125" lon="113.84832279638673" /><trkpt lat="22.20153578125" lon="113.84848779638672" /><trkpt lat="22.20174878125" lon="113.84857179638672" /><trkpt lat="22.20187178125" lon="113.84867179638672" /><trkpt lat="22.20215178125" lon="113.84885279638672" /><trkpt lat="22.20223578125" lon="113.84892579638672" /><trkpt lat="22.20260978125" lon="113.84904579638672" /><trkpt lat="22.20272178125" lon="113.84905479638672" /><trkpt lat="22.20291678125" lon="113.84907079638671" /><trkpt lat="22.20297878125" lon="113.84907379638672" /><trkpt lat="22.20317578125" lon="113.84908179638671" /><trkpt lat="22.20320478125" lon="113.84922079638672" /><trkpt lat="22.20317378125" lon="113.84930079638671" /><trkpt lat="22.20325178125" lon="113.84941079638672" /><trkpt lat="22.20369878125" lon="113.84940479638672" /><trkpt lat="22.20381278125" lon="113.84932879638671" /><trkpt lat="22.20404178125" lon="113.84918479638672" /><trkpt lat="22.20422478125" lon="113.84920579638671" /><trkpt lat="22.20425378125" lon="113.84918579638672" /><trkpt lat="22.20460578125" lon="113.84894179638673" /><trkpt lat="22.20476578125" lon="113.84870079638672" /><trkpt lat="22.20506478125" lon="113.84841179638671" /><trkpt lat="22.20525878125" lon="113.84820579638672" /><trkpt lat="22.20538678125" lon="113.84808979638672" /><trkpt lat="22.20559578125" lon="113.84802579638672" /><trkpt lat="22.20577778125" lon="113.84795479638672" /><trkpt lat="22.20615478125" lon="113.84773379638672" /><trkpt lat="22.20634578125" lon="113.84761779638671" /><trkpt lat="22.20668878125" lon="113.84732279638672" /><trkpt lat="22.20691478125" lon="113.84717779638672" /><trkpt lat="22.20714778125" lon="113.84709179638672" /><trkpt lat="22.20737378125" lon="113.84683479638672" /><trkpt lat="22.20777478125" lon="113.84647479638672" /><trkpt lat="22.20819878125" lon="113.84609979638672" /><trkpt lat="22.20843678125" lon="113.84586379638672" /><trkpt lat="22.20882878125" lon="113.84562279638672" /><trkpt lat="22.20938578125" lon="113.84549379638672" /><trkpt lat="22.20996178125" lon="113.84526879638672" /><trkpt lat="22.21025978125" lon="113.84523079638672" /><trkpt lat="22.21041378125" lon="113.84526879638672" /><trkpt lat="22.21064178125" lon="113.84537079638672" /><trkpt lat="22.21082078125" lon="113.84545579638672" /><trkpt lat="22.21091978125" lon="113.84542379638673" /><trkpt lat="22.21118178125" lon="113.84528379638672" /><trkpt lat="22.21163478125" lon="113.84500579638672" /><trkpt lat="22.21180378125" lon="113.84487679638671" /><trkpt lat="22.21197278125" lon="113.84469979638672" /><trkpt lat="22.21232378125" lon="113.84438279638672" /><trkpt lat="22.21275278125" lon="113.84414679638672" /><trkpt lat="22.21321978125" lon="113.84368079638672" /><trkpt lat="22.21352778125" lon="113.84366979638672" /><trkpt lat="22.21385978125" lon="113.84364279638672" /><trkpt lat="22.21408378125" lon="113.84369679638672" /><trkpt lat="22.21436178125" lon="113.84384179638671" /><trkpt lat="22.21461978125" lon="113.84391679638672" /><trkpt lat="22.21470378125" lon="113.84393279638672" /><trkpt lat="22.21485278125" lon="113.84401279638672" /><trkpt lat="22.21503678125" lon="113.84397579638672" /><trkpt lat="22.21518078125" lon="113.84398679638672" /><trkpt lat="22.21554378125" lon="113.84406179638673" /><trkpt lat="22.21578178125" lon="113.84402379638672" /><trkpt lat="22.21607478125" lon="113.84384179638671" /><trkpt lat="22.21637778125" lon="113.84369679638672" /><trkpt lat="22.21665078125" lon="113.84361079638671" /><trkpt lat="22.21681978125" lon="113.84362179638671" /><trkpt lat="22.21700878125" lon="113.84364279638672" /><trkpt lat="22.21722178125" lon="113.84364879638672" /><trkpt lat="22.21745578125" lon="113.84384179638671" /><trkpt lat="22.21759978125" lon="113.84390079638672" /><trkpt lat="22.21777378125" lon="113.84380979638672" /><trkpt lat="22.21798678125" lon="113.84367479638672" /><trkpt lat="22.21814078125" lon="113.84353079638672" /><trkpt lat="22.21844378125" lon="113.84346079638672" /><trkpt lat="22.21872678125" lon="113.84350379638671" /><trkpt lat="22.21896978125" lon="113.84363179638672" /><trkpt lat="22.21918878125" lon="113.84373379638672" /><trkpt lat="22.21973978125" lon="113.84386279638672" /><trkpt lat="22.22015178125" lon="113.84414179638672" /><trkpt lat="22.22039078125" lon="113.84436679638672" /><trkpt lat="22.22057778125" lon="113.84447979638672" /><trkpt lat="22.22087178125" lon="113.84465679638672" /><trkpt lat="22.22107578125" lon="113.84483379638672" /><trkpt lat="22.22117478125" lon="113.84506479638672" /><trkpt lat="22.22129878125" lon="113.84514479638672" /><trkpt lat="22.22134378125" lon="113.84527379638672" /><trkpt lat="22.22133378125" lon="113.84536479638672" /><trkpt lat="22.22157778125" lon="113.84550979638672" /><trkpt lat="22.22170178125" lon="113.84573479638672" /><trkpt lat="22.22208878125" lon="113.84586879638672" /><trkpt lat="22.22215378125" lon="113.84607879638672" /><trkpt lat="22.22212378125" lon="113.84641679638672" /><trkpt lat="22.22227278125" lon="113.84660979638672" /><trkpt lat="22.22227778125" lon="113.84680279638673" /><trkpt lat="22.22241678125" lon="113.84689879638672" /><trkpt lat="22.22253578125" lon="113.84695279638672" /><trkpt lat="22.22276978125" lon="113.84697079638671" /><trkpt lat="22.22303778125" lon="113.84696879638672" /><trkpt lat="22.22318178125" lon="113.84702279638672" /><trkpt lat="22.22323578125" lon="113.84716779638671" /><trkpt lat="22.22335478125" lon="113.84717779638672" /><trkpt lat="22.22352878125" lon="113.84714579638671" /><trkpt lat="22.22358378125" lon="113.84707579638672" /><trkpt lat="22.22366778125" lon="113.84713479638671" /><trkpt lat="22.22385678125" lon="113.84717779638672" /><trkpt lat="22.22397078125" lon="113.84729579638672" /><trkpt lat="22.22405078125" lon="113.84731179638672" /><trkpt lat="22.22423378125" lon="113.84739779638672" /><trkpt lat="22.22441778125" lon="113.84756479638672" /><trkpt lat="22.22460178125" lon="113.84793979638673" /><trkpt lat="22.22457678125" lon="113.84803679638672" /><trkpt lat="22.22473578125" lon="113.84830479638671" /><trkpt lat="22.22490978125" lon="113.84827279638672" /><trkpt lat="22.22513778125" lon="113.84841179638671" /><trkpt lat="22.22535178125" lon="113.84845479638672" /><trkpt lat="22.22561978125" lon="113.84840679638671" /><trkpt lat="22.22571378125" lon="113.84842779638672" /><trkpt lat="22.22574378125" lon="113.84835879638672" /><trkpt lat="22.22583778125" lon="113.84835279638672" /><trkpt lat="22.22585278125" lon="113.84822379638672" /><trkpt lat="22.22602178125" lon="113.84815479638672" /><trkpt lat="22.22612578125" lon="113.84799379638672" /><trkpt lat="22.22624978125" lon="113.84791279638672" /><trkpt lat="22.22641878125" lon="113.84791279638672" /><trkpt lat="22.22688078125" lon="113.84810079638672" /><trkpt lat="22.22747078125" lon="113.84835279638672" /><trkpt lat="22.22808378125" lon="113.84859079638672" /><trkpt lat="22.22836078125" lon="113.84881479638672" /><trkpt lat="22.22882278125" lon="113.84900779638672" /><trkpt lat="22.22897678125" lon="113.84891579638672" /><trkpt lat="22.22905078125" lon="113.84902379638672" /><trkpt lat="22.22916278125" lon="113.84907579638671" /><trkpt lat="22.22932378125" lon="113.84918979638672" /><trkpt lat="22.22946778125" lon="113.84931879638673" /><trkpt lat="22.22958278125" lon="113.84948179638671" /><trkpt lat="22.22979578125" lon="113.84953279638673" /><trkpt lat="22.22995078125" lon="113.84950279638672" /><trkpt lat="22.23036178125" lon="113.84937779638672" /><trkpt lat="22.23062978125" lon="113.84940479638672" /><trkpt lat="22.23071478125" lon="113.84946379638671" /><trkpt lat="22.23064278125" lon="113.84974079638671" /><trkpt lat="22.23063478125" lon="113.84992979638672" /><trkpt lat="22.23069478125" lon="113.85005379638672" /><trkpt lat="22.23073478125" lon="113.85055279638672" /><trkpt lat="22.23071478125" lon="113.85073479638672" /><trkpt lat="22.23080378125" lon="113.85094379638672" /><trkpt lat="22.23089878125" lon="113.85109979638672" /><trkpt lat="22.23104678125" lon="113.85117479638672" /><trkpt lat="22.23127178125" lon="113.85120879638671" /><trkpt lat="22.23142978125" lon="113.85127079638671" /><trkpt lat="22.23139978125" lon="113.85139979638672" /><trkpt lat="22.23157878125" lon="113.85150179638671" /><trkpt lat="22.23171278125" lon="113.85156579638672" /><trkpt lat="22.23180178125" lon="113.85175379638672" /><trkpt lat="22.23194578125" lon="113.85197379638672" /><trkpt lat="22.23248178125" lon="113.85227479638672" /><trkpt lat="22.23291578125" lon="113.85261079638671" /><trkpt lat="22.23271878125" lon="113.85298979638672" /><trkpt lat="22.23248478125" lon="113.85316079638672" /><trkpt lat="22.232425756192512" lon="113.85340313183542" /><trkpt lat="22.232388280145003" lon="113.85333576523544" /><trkpt lat="22.23224958728332" lon="113.85340761844554" /><trkpt lat="22.232157195411176" lon="113.85353176883791" /><trkpt lat="22.23209530883132" lon="113.8537633274259" /><trkpt lat="22.23222730869007" lon="113.85366995957293" /><trkpt lat="22.23231646668492" lon="113.85335682574942" /><trkpt lat="22.23247522375975" lon="113.85333825328553" /><trkpt lat="22.232482626708887" lon="113.85330898276288" /><trkpt lat="22.23249255792244" lon="113.85328805878225" /><trkpt lat="22.23249255792244" lon="113.85324169376099" /><trkpt lat="22.232497523528963" lon="113.85323632934296" /><trkpt lat="22.232497523528963" lon="113.85322023608887" /><trkpt lat="22.232467325854312" lon="113.85320688960199" /><trkpt lat="22.23248478125" lon="113.85316079638672" /><trkpt lat="22.23271878125" lon="113.85298979638672" /><trkpt lat="22.23291578125" lon="113.85261079638671" /><trkpt lat="22.23299378125" lon="113.85267179638672" /><trkpt lat="22.23317278125" lon="113.85271379638672" /><trkpt lat="22.23337078125" lon="113.85264979638671" /><trkpt lat="22.23353478125" lon="113.85276279638671" /><trkpt lat="22.23367878125" lon="113.85279479638672" /><trkpt lat="22.23403678125" lon="113.85282179638672" /><trkpt lat="22.23441378125" lon="113.85276779638671" /><trkpt lat="22.23458778125" lon="113.85276779638671" /><trkpt lat="22.23471678125" lon="113.85275679638671" /><trkpt lat="22.23499478125" lon="113.85275679638671" /><trkpt lat="22.23516378125" lon="113.85276279638671" /><trkpt lat="22.23527778125" lon="113.85270879638672" /><trkpt lat="22.23542178125" lon="113.85273579638672" /><trkpt lat="22.23576478125" lon="113.85268779638672" /><trkpt lat="22.23616178125" lon="113.85275179638671" /><trkpt lat="22.23636978125" lon="113.85273079638672" /><trkpt lat="22.23668878125" lon="113.85269779638672" /><trkpt lat="22.23685678125" lon="113.85261279638672" /><trkpt lat="22.23703078125" lon="113.85259579638672" /><trkpt lat="22.23735878125" lon="113.85246179638672" /><trkpt lat="22.23781978125" lon="113.85238679638672" /><trkpt lat="22.23830178125" lon="113.85246779638672" /><trkpt lat="22.23856978125" lon="113.85263879638671" /><trkpt lat="22.23877378125" lon="113.85262279638673" /><trkpt lat="22.23893778125" lon="113.85252679638671" /><trkpt lat="22.23909178125" lon="113.85240279638671" /><trkpt lat="22.23949378125" lon="113.85223679638672" /><trkpt lat="22.23972178125" lon="113.85200079638672" /><trkpt lat="22.24005478125" lon="113.85172179638671" /><trkpt lat="22.24046778125" lon="113.85163579638672" /><trkpt lat="22.24069578125" lon="113.85158279638672" /><trkpt lat="22.24103778125" lon="113.85148579638673" /><trkpt lat="22.24122178125" lon="113.85150179638671" /><trkpt lat="22.24156978125" lon="113.85159279638673" /><trkpt lat="22.24171278125" lon="113.85153979638672" /><trkpt lat="22.24196178125" lon="113.85151779638672" /><trkpt lat="22.24218578125" lon="113.85151279638671" /><trkpt lat="22.24247878125" lon="113.85151779638672" /><trkpt lat="22.24281578125" lon="113.85171079638671" /><trkpt lat="22.24289978125" lon="113.85180779638672" /><trkpt lat="22.24299478125" lon="113.85201679638672" /><trkpt lat="22.24309878125" lon="113.85207079638671" /><trkpt lat="22.24341078125" lon="113.85240279638671" /><trkpt lat="22.24349078125" lon="113.85263879638671" /><trkpt lat="22.24357478125" lon="113.85268179638672" /><trkpt lat="22.24390278125" lon="113.85309479638671" /><trkpt lat="22.24394278125" lon="113.85325579638672" /><trkpt lat="22.24408678125" lon="113.85355079638671" /><trkpt lat="22.24410078125" lon="113.85378679638671" /><trkpt lat="22.24423078125" lon="113.85416779638672" /><trkpt lat="22.24434478125" lon="113.85432379638672" /><trkpt lat="22.24441378125" lon="113.85457079638672" /><trkpt lat="22.24449378125" lon="113.85468879638672" /><trkpt lat="22.24460778125" lon="113.85488679638672" /><trkpt lat="22.24463778125" lon="113.85544979638672" /><trkpt lat="22.24478678125" lon="113.85579879638672" /><trkpt lat="22.24486578125" lon="113.85643179638672" /><trkpt lat="22.24480678125" lon="113.85658179638672" /><trkpt lat="22.24487078125" lon="113.85690879638672" /><trkpt lat="22.24490078125" lon="113.85728479638672" /><trkpt lat="22.24485078125" lon="113.85737579638672" /><trkpt lat="22.24509478125" lon="113.85826079638672" /><trkpt lat="22.24521878125" lon="113.85869579638671" /><trkpt lat="22.24519878125" lon="113.85880279638671" /><trkpt lat="22.24529778125" lon="113.85902779638671" /><trkpt lat="22.24538678125" lon="113.85906579638672" /><trkpt lat="22.24552178125" lon="113.85926979638671" /><trkpt lat="22.24558378125" lon="113.85955879638672" /><trkpt lat="22.24564578125" lon="113.85978979638672" /><trkpt lat="22.24569778125" lon="113.85998879638672" /><trkpt lat="22.24574678125" lon="113.86012479638671" /><trkpt lat="22.24581378125" lon="113.86033979638673" /><trkpt lat="22.24587178125" lon="113.86041279638673" /><trkpt lat="22.24594778125" lon="113.86068979638672" /><trkpt lat="22.24606178125" lon="113.86090979638672" /><trkpt lat="22.24615778125" lon="113.86097979638672" /><trkpt lat="22.24622678125" lon="113.86103779638673" /><trkpt lat="22.24643078125" lon="113.86131079638672" /><trkpt lat="22.24662278125" lon="113.86147479638672" /><trkpt lat="22.24675078125" lon="113.86174479638672" /><trkpt lat="22.24690778125" lon="113.86199279638672" /><trkpt lat="22.24713378125" lon="113.86206579638672" /><trkpt lat="22.24729678125" lon="113.86200979638672" /><trkpt lat="22.24731478125" lon="113.86205479638672" /><trkpt lat="22.24738778125" lon="113.86207679638672" /><trkpt lat="22.24789578125" lon="113.86304979638672" /><trkpt lat="22.24819378125" lon="113.86329379638671" /><trkpt lat="22.24860378125" lon="113.86344679638673" /><trkpt lat="22.24880778125" lon="113.86337979638672" /><trkpt lat="22.24896778125" lon="113.86335579638671" /><trkpt lat="22.24939378125" lon="113.86329379638671" /><trkpt lat="22.25007878125" lon="113.86320779638672" /><trkpt lat="22.25094278125" lon="113.86305779638671" /><trkpt lat="22.25202478125" lon="113.86291779638672" /><trkpt lat="22.25225578125" lon="113.86295879638672" /><trkpt lat="22.25250778125" lon="113.86303479638671" /><trkpt lat="22.25270678125" lon="113.86306679638672" /><trkpt lat="22.252776026922547" lon="113.86259674156497" /></trkseg></trk></gpx>