<?xml version='1.0' encoding='UTF-8' ?><gpx version="1.1" creator="HikingTrailHK" xsi:schemaLocation="http://www.topografix.com/GPX/1/1 http://www.topografix.com/GPX/1/1/gpx.xsd" xmlns="http://www.topografix.com/GPX/1/1" xmlns:xsi="http://www.w3.org/2001/XMLSchema-instance"><metadata><name>北港古道 @ 2024-12-25</name><desc></desc></metadata><trk><trkseg><trkpt lat="22.375058035491666" lon="114.2615519869844" /><trkpt lat="22.37519678125" lon="114.26143279638671" /><trkpt lat="22.37544078125" lon="114.26122279638672" /><trkpt lat="22.37547478125" lon="114.26119979638672" /><trkpt lat="22.37551578125" lon="114.26117679638672" /><trkpt lat="22.37555878125" lon="114.26115879638672" /><trkpt lat="22.37561778125" lon="114.26113779638672" /><trkpt lat="22.37565378125" lon="114.26112779638672" /><trkpt lat="22.37568478125" lon="114.26112279638672" /><trkpt lat="22.37571878125" lon="114.26111579638672" /><trkpt lat="22.37577978125" lon="114.26110579638672" /><trkpt lat="22.37584578125" lon="114.26109779638672" /><trkpt lat="22.37609878125" lon="114.26106579638672" /><trkpt lat="22.37638778125" lon="114.26103079638672" /><trkpt lat="22.37644278125" lon="114.26101779638672" /><trkpt lat="22.37649578125" lon="114.26100079638672" /><trkpt lat="22.37669078125" lon="114.26093579638672" /><trkpt lat="22.37675378125" lon="114.26091279638672" /><trkpt lat="22.37703378125" lon="114.26078479638672" /><trkpt lat="22.37732978125" lon="114.26061979638672" /><trkpt lat="22.37776578125" lon="114.26033179638672" /><trkpt lat="22.37790978125" lon="114.26023579638672" /><trkpt lat="22.37795978125" lon="114.26019979638671" /><trkpt lat="22.37800978125" lon="114.26015779638672" /><trkpt lat="22.37848978125" lon="114.25974279638672" /><trkpt lat="22.37861978125" lon="114.25962379638672" /><trkpt lat="22.37865978125" lon="114.25957979638672" /><trkpt lat="22.37869478125" lon="114.25953979638672" /><trkpt lat="22.37872878125" lon="114.25948979638672" /><trkpt lat="22.37875478125" lon="114.25944079638671" /><trkpt lat="22.37877678125" lon="114.25939079638673" /><trkpt lat="22.37879678125" lon="114.25933979638671" /><trkpt lat="22.37881178125" lon="114.25928979638672" /><trkpt lat="22.37882478125" lon="114.25922979638672" /><trkpt lat="22.37882978125" lon="114.25917979638672" /><trkpt lat="22.37882878125" lon="114.25913979638672" /><trkpt lat="22.37882178125" lon="114.25907979638671" /><trkpt lat="22.37880978125" lon="114.25901979638672" /><trkpt lat="22.37879178125" lon="114.25895979638672" /><trkpt lat="22.37877078125" lon="114.25890479638672" /><trkpt lat="22.37874678125" lon="114.25885279638672" /><trkpt lat="22.37872178125" lon="114.25881179638672" /><trkpt lat="22.37869978125" lon="114.25877979638672" /><trkpt lat="22.37851778125" lon="114.25854979638672" /><trkpt lat="22.37849978125" lon="114.25852279638671" /><trkpt lat="22.37847678125" lon="114.25848279638672" /><trkpt lat="22.37846278125" lon="114.25844879638672" /><trkpt lat="22.37844578125" lon="114.25840679638672" /><trkpt lat="22.37844278125" lon="114.25836779638672" /><trkpt lat="22.37844178125" lon="114.25830379638671" /><trkpt lat="22.37844678125" lon="114.25826679638672" /><trkpt lat="22.37845578125" lon="114.25822579638672" /><trkpt lat="22.37846378125" lon="114.25819879638672" /><trkpt lat="22.37847778125" lon="114.25816879638671" /><trkpt lat="22.37849878125" lon="114.25813779638672" /><trkpt lat="22.37852978125" lon="114.25809979638672" /><trkpt lat="22.37875678125" lon="114.25786879638672" /><trkpt lat="22.37884278125" lon="114.25777779638672" /><trkpt lat="22.37901278125" lon="114.25760479638672" /><trkpt lat="22.37905378125" lon="114.25755879638672" /><trkpt lat="22.37907578125" lon="114.25753579638672" /><trkpt lat="22.37909978125" lon="114.25751379638672" /><trkpt lat="22.37912678125" lon="114.25748779638671" /><trkpt lat="22.37915478125" lon="114.25746479638671" /><trkpt lat="22.37918378125" lon="114.25744379638672" /><trkpt lat="22.37921578125" lon="114.25742279638672" /><trkpt lat="22.37977078125" lon="114.25709679638672" /><trkpt lat="22.37982778125" lon="114.25705279638672" /><trkpt lat="22.37987278125" lon="114.25700279638671" /><trkpt lat="22.37991278125" lon="114.25694479638672" /><trkpt lat="22.37993178125" lon="114.25691479638672" /><trkpt lat="22.37995078125" lon="114.25688279638672" /><trkpt lat="22.37996678125" lon="114.25684679638672" /><trkpt lat="22.37998278125" lon="114.25680779638672" /><trkpt lat="22.37999378125" lon="114.25677779638671" /><trkpt lat="22.38000478125" lon="114.25674279638672" /><trkpt lat="22.38001378125" lon="114.25670379638672" /><trkpt lat="22.38002178125" lon="114.25665379638671" /><trkpt lat="22.38002178125" lon="114.25658979638672" /><trkpt lat="22.38001778125" lon="114.25653479638672" /><trkpt lat="22.38000978125" lon="114.25647079638672" /><trkpt lat="22.37999378125" lon="114.25641679638672" /><trkpt lat="22.37997278125" lon="114.25636179638671" /><trkpt lat="22.37994978125" lon="114.25630679638672" /><trkpt lat="22.37992578125" lon="114.25626279638672" /><trkpt lat="22.37990178125" lon="114.25622579638672" /><trkpt lat="22.37986778125" lon="114.25617479638672" /><trkpt lat="22.37969278125" lon="114.25591979638672" /><trkpt lat="22.37966878125" lon="114.25587679638672" /><trkpt lat="22.37965678125" lon="114.25585079638672" /><trkpt lat="22.37964378125" lon="114.25581579638671" /><trkpt lat="22.37962878125" lon="114.25577279638672" /><trkpt lat="22.37960978125" lon="114.25569879638672" /><trkpt lat="22.37960178125" lon="114.25565979638672" /><trkpt lat="22.37959578125" lon="114.25561779638672" /><trkpt lat="22.37959478125" lon="114.25557679638672" /><trkpt lat="22.37959578125" lon="114.25553279638672" /><trkpt lat="22.37959678125" lon="114.25549779638672" /><trkpt lat="22.37960078125" lon="114.25546479638672" /><trkpt lat="22.37961078125" lon="114.25542179638671" /><trkpt lat="22.37963278125" lon="114.25534579638672" /><trkpt lat="22.37965578125" lon="114.25527479638671" /><trkpt lat="22.37974778125" lon="114.25501379638672" /><trkpt lat="22.37978078125" lon="114.25491979638672" /><trkpt lat="22.37983178125" lon="114.25477479638671" /><trkpt lat="22.37984578125" lon="114.25473279638672" /><trkpt lat="22.37986278125" lon="114.25467979638672" /><trkpt lat="22.37986678125" lon="114.25463779638672" /><trkpt lat="22.37987078125" lon="114.25459279638672" /><trkpt lat="22.37987478125" lon="114.25452379638672" /><trkpt lat="22.37987178125" lon="114.25444579638672" /><trkpt lat="22.37986078125" lon="114.25438479638672" /><trkpt lat="22.37984378125" lon="114.25432979638671" /><trkpt lat="22.37982078125" lon="114.25427679638672" /><trkpt lat="22.37979278125" lon="114.25423279638672" /><trkpt lat="22.37957378125" lon="114.25393479638672" /><trkpt lat="22.37950578125" lon="114.25383479638671" /><trkpt lat="22.37949278125" lon="114.25380679638671" /><trkpt lat="22.37948078125" lon="114.25377679638672" /><trkpt lat="22.37947078125" lon="114.25374579638672" /><trkpt lat="22.37946178125" lon="114.25371479638672" /><trkpt lat="22.37945778125" lon="114.25369179638672" /><trkpt lat="22.37945478125" lon="114.25366779638672" /><trkpt lat="22.37945178125" lon="114.25364279638671" /><trkpt lat="22.37945078125" lon="114.25361779638672" /><trkpt lat="22.37945278125" lon="114.25358779638673" /><trkpt lat="22.37945578125" lon="114.25355779638672" /><trkpt lat="22.37945978125" lon="114.25353479638672" /><trkpt lat="22.37946778125" lon="114.25350479638672" /><trkpt lat="22.37947278125" lon="114.25348379638672" /><trkpt lat="22.37947878125" lon="114.25346279638671" /><trkpt lat="22.37948578125" lon="114.25344279638672" /><trkpt lat="22.37949378125" lon="114.25342179638672" /><trkpt lat="22.37955978125" lon="114.25328779638672" /><trkpt lat="22.37962278125" lon="114.25315979638673" /><trkpt lat="22.37960378125" lon="114.25331479638672" /><trkpt lat="22.37957678125" lon="114.25353979638672" /><trkpt lat="22.37957378125" lon="114.25359679638672" /><trkpt lat="22.37957878125" lon="114.25365479638671" /><trkpt lat="22.37959278125" lon="114.25370479638671" /><trkpt lat="22.37961378125" lon="114.25375079638673" /><trkpt lat="22.37964478125" lon="114.25380679638671" /><trkpt lat="22.37967578125" lon="114.25385079638671" /><trkpt lat="22.37971478125" lon="114.25389879638672" /><trkpt lat="22.37973178125" lon="114.25391979638673" /><trkpt lat="22.37974778125" lon="114.25393479638672" /><trkpt lat="22.37976478125" lon="114.25394579638672" /><trkpt lat="22.38019378125" lon="114.25413579638672" /><trkpt lat="22.38020478125" lon="114.25410979638671" /><trkpt lat="22.38022278125" lon="114.25407179638673" /><trkpt lat="22.38022678125" lon="114.25406479638671" /><trkpt lat="22.38023478125" lon="114.25405479638673" /><trkpt lat="22.38024278125" lon="114.25404579638672" /><trkpt lat="22.38024878125" lon="114.25403979638672" /><trkpt lat="22.38025778125" lon="114.25403379638672" /><trkpt lat="22.38027278125" lon="114.25402579638671" /><trkpt lat="22.38029978125" lon="114.25401379638672" /><trkpt lat="22.38035478125" lon="114.25399779638671" /><trkpt lat="22.38038178125" lon="114.25398379638672" /><trkpt lat="22.38040778125" lon="114.25396579638672" /><trkpt lat="22.38042878125" lon="114.25394979638672" /><trkpt lat="22.38045078125" lon="114.25393079638671" /><trkpt lat="22.38052278125" lon="114.25385879638672" /><trkpt lat="22.38057778125" lon="114.25380479638672" /><trkpt lat="22.38067178125" lon="114.25374179638672" /><trkpt lat="22.38068978125" lon="114.25372579638672" /><trkpt lat="22.38069978125" lon="114.25370779638672" /><trkpt lat="22.38070778125" lon="114.25368279638671" /><trkpt lat="22.38072578125" lon="114.25363979638672" /><trkpt lat="22.38073778125" lon="114.25361679638672" /><trkpt lat="22.38075178125" lon="114.25359679638672" /><trkpt lat="22.38078778125" lon="114.25355779638672" /><trkpt lat="22.38080378125" lon="114.25354379638672" /><trkpt lat="22.38082078125" lon="114.25353279638672" /><trkpt lat="22.38085678125" lon="114.25351479638672" /><trkpt lat="22.38087278125" lon="114.25350379638672" /><trkpt lat="22.38089178125" lon="114.25348779638672" /><trkpt lat="22.38090878125" lon="114.25346979638672" /><trkpt lat="22.38092378125" lon="114.25345079638672" /><trkpt lat="22.38094478125" lon="114.25341979638672" /><trkpt lat="22.38095778125" lon="114.25339679638672" /><trkpt lat="22.38096478125" lon="114.25338179638672" /><trkpt lat="22.38097078125" lon="114.25336479638672" /><trkpt lat="22.38097278125" lon="114.25333979638671" /><trkpt lat="22.38097478125" lon="114.25330979638672" /><trkpt lat="22.38097578125" lon="114.25329379638671" /><trkpt lat="22.38097978125" lon="114.25327779638671" /><trkpt lat="22.38099178125" lon="114.25326179638672" /><trkpt lat="22.38100478125" lon="114.25324779638672" /><trkpt lat="22.38101678125" lon="114.25323679638672" /><trkpt lat="22.38102878125" lon="114.25322779638672" /><trkpt lat="22.38104278125" lon="114.25322179638673" /><trkpt lat="22.38107978125" lon="114.25321379638672" /><trkpt lat="22.38110078125" lon="114.25320779638672" /><trkpt lat="22.38111078125" lon="114.25320279638672" /><trkpt lat="22.38113678125" lon="114.25317979638672" /><trkpt lat="22.38116478125" lon="114.25314979638672" /><trkpt lat="22.38118378125" lon="114.25313179638673" /><trkpt lat="22.38120178125" lon="114.25311479638673" /><trkpt lat="22.38129078125" lon="114.25299279638672" /><trkpt lat="22.38131078125" lon="114.25296179638671" /><trkpt lat="22.38132478125" lon="114.25293579638672" /><trkpt lat="22.38133778125" lon="114.25290579638671" /><trkpt lat="22.38134778125" lon="114.25287279638673" /><trkpt lat="22.38135478125" lon="114.25284279638672" /><trkpt lat="22.38135878125" lon="114.25281079638673" /><trkpt lat="22.38135978125" lon="114.25277979638672" /><trkpt lat="22.38136078125" lon="114.25275679638672" /><trkpt lat="22.38136578125" lon="114.25272079638673" /><trkpt lat="22.38137178125" lon="114.25267779638672" /><trkpt lat="22.38137378125" lon="114.25264979638672" /><trkpt lat="22.38137478125" lon="114.25252179638672" /><trkpt lat="22.38137678125" lon="114.25249779638672" /><trkpt lat="22.38138078125" lon="114.25247679638672" /><trkpt lat="22.38139178125" lon="114.25244979638671" /><trkpt lat="22.38139878125" lon="114.25243779638672" /><trkpt lat="22.38140678125" lon="114.25242679638671" /><trkpt lat="22.38145278125" lon="114.25237179638673" /><trkpt lat="22.38146878125" lon="114.25235379638671" /><trkpt lat="22.38153478125" lon="114.25229879638673" /><trkpt lat="22.38156578125" lon="114.25224979638672" /><trkpt lat="22.38160278125" lon="114.25206579638672" /><trkpt lat="22.38160478125" lon="114.25205279638672" /><trkpt lat="22.38161178125" lon="114.25200979638672" /><trkpt lat="22.38161978125" lon="114.25197679638671" /><trkpt lat="22.38163378125" lon="114.25193279638673" /><trkpt lat="22.38166978125" lon="114.25185979638673" /><trkpt lat="22.38171278125" lon="114.25178779638672" /><trkpt lat="22.38174178125" lon="114.25174979638672" /><trkpt lat="22.38176678125" lon="114.25172279638672" /><trkpt lat="22.38178278125" lon="114.25170179638671" /><trkpt lat="22.38179578125" lon="114.25167779638672" /><trkpt lat="22.38179978125" lon="114.25165879638672" /><trkpt lat="22.38180378125" lon="114.25163579638672" /><trkpt lat="22.38180678125" lon="114.25162279638671" /><trkpt lat="22.38181578125" lon="114.25160279638672" /><trkpt lat="22.38182878125" lon="114.25158379638673" /><trkpt lat="22.38186978125" lon="114.25154079638672" /><trkpt lat="22.38188378125" lon="114.25152379638672" /><trkpt lat="22.38192178125" lon="114.25147079638671" /><trkpt lat="22.38193778125" lon="114.25145179638672" /><trkpt lat="22.38195678125" lon="114.25142979638672" /><trkpt lat="22.38197478125" lon="114.25140679638672" /><trkpt lat="22.38200978125" lon="114.25135479638672" /><trkpt lat="22.38204778125" lon="114.25128479638671" /><trkpt lat="22.38208378125" lon="114.25123179638672" /><trkpt lat="22.38210678125" lon="114.25120679638673" /><trkpt lat="22.38214578125" lon="114.25116179638673" /><trkpt lat="22.38220378125" lon="114.25106779638672" /><trkpt lat="22.38224678125" lon="114.25102679638672" /><trkpt lat="22.38225378125" lon="114.25101879638672" /><trkpt lat="22.382258781250002" lon="114.25100979638673" /><trkpt lat="22.38226878125" lon="114.25098679638671" /><trkpt lat="22.38228178125" lon="114.25096279638672" /><trkpt lat="22.38228678125" lon="114.25095579638672" /><trkpt lat="22.38229978125" lon="114.25094179638671" /><trkpt lat="22.38230478125" lon="114.25093279638672" /><trkpt lat="22.38230778125" lon="114.25091779638672" /><trkpt lat="22.38231278125" lon="114.25090679638672" /><trkpt lat="22.38231778125" lon="114.25089579638671" /><trkpt lat="22.38232378125" lon="114.25088879638672" /><trkpt lat="22.38233378125" lon="114.25087879638671" /><trkpt lat="22.38234178125" lon="114.25086979638672" /><trkpt lat="22.38236878125" lon="114.25083679638672" /><trkpt lat="22.38238278125" lon="114.25080879638672" /><trkpt lat="22.38238978125" lon="114.25077279638671" /><trkpt lat="22.38238478125" lon="114.25074079638672" /><trkpt lat="22.38238778125" lon="114.25070979638672" /><trkpt lat="22.38238478125" lon="114.25070079638672" /><trkpt lat="22.38238378125" lon="114.25069279638672" /><trkpt lat="22.38238378125" lon="114.25068379638672" /><trkpt lat="22.38238678125" lon="114.25067179638671" /><trkpt lat="22.38239078125" lon="114.25065779638672" /><trkpt lat="22.38239378125" lon="114.25063479638672" /><trkpt lat="22.38239578125" lon="114.25060479638672" /><trkpt lat="22.38239878125" lon="114.25059179638671" /><trkpt lat="22.38240578125" lon="114.25056479638671" /><trkpt lat="22.38241078125" lon="114.25052579638673" /><trkpt lat="22.38241578125" lon="114.25050379638672" /><trkpt lat="22.38241778125" lon="114.25049279638672" /><trkpt lat="22.38241778125" lon="114.25047579638672" /><trkpt lat="22.38241778125" lon="114.25045779638671" /><trkpt lat="22.38241678125" lon="114.25042979638671" /><trkpt lat="22.38241678125" lon="114.25041579638672" /><trkpt lat="22.38241778125" lon="114.25039579638671" /><trkpt lat="22.38242378125" lon="114.25036279638672" /><trkpt lat="22.38243678125" lon="114.25032879638673" /><trkpt lat="22.38243978125" lon="114.25031979638672" /><trkpt lat="22.38244178125" lon="114.25031079638671" /><trkpt lat="22.38244378125" lon="114.25029579638672" /><trkpt lat="22.38244378125" lon="114.25028079638672" /><trkpt lat="22.38244278125" lon="114.25026979638672" /><trkpt lat="22.38244278125" lon="114.25025979638671" /><trkpt lat="22.38244078125" lon="114.25024879638671" /><trkpt lat="22.38243878125" lon="114.25024079638672" /><trkpt lat="22.38243578125" lon="114.25021979638672" /><trkpt lat="22.38243378125" lon="114.25020879638672" /><trkpt lat="22.38243278125" lon="114.25020079638672" /><trkpt lat="22.38243678125" lon="114.25019179638672" /><trkpt lat="22.38244178125" lon="114.25018079638672" /><trkpt lat="22.38244878125" lon="114.25016779638672" /><trkpt lat="22.38245278125" lon="114.25016179638672" /><trkpt lat="22.38245878125" lon="114.25015779638672" /><trkpt lat="22.38248078125" lon="114.25014379638672" /><trkpt lat="22.38249178125" lon="114.25013579638672" /><trkpt lat="22.38249778125" lon="114.25013079638671" /><trkpt lat="22.38250178125" lon="114.25012279638672" /><trkpt lat="22.38250378125" lon="114.25011579638672" /><trkpt lat="22.38250578125" lon="114.25010879638671" /><trkpt lat="22.38250578125" lon="114.25009779638673" /><trkpt lat="22.38250678125" lon="114.25008579638671" /><trkpt lat="22.38250578125" lon="114.25007579638672" /><trkpt lat="22.38250478125" lon="114.25006379638671" /><trkpt lat="22.38249978125" lon="114.25004379638672" /><trkpt lat="22.38248178125" lon="114.24997779638672" /><trkpt lat="22.38247878125" lon="114.24996279638673" /><trkpt lat="22.38247478125" lon="114.24994979638672" /><trkpt lat="22.38247278125" lon="114.24993979638671" /><trkpt lat="22.38247178125" lon="114.24992779638671" /><trkpt lat="22.38247278125" lon="114.24988579638672" /><trkpt lat="22.38247278125" lon="114.24987279638673" /><trkpt lat="22.38247378125" lon="114.24986179638672" /><trkpt lat="22.38247678125" lon="114.24985179638672" /><trkpt lat="22.38248278125" lon="114.24983479638672" /><trkpt lat="22.38248478125" lon="114.24981779638672" /><trkpt lat="22.38248478125" lon="114.24980679638672" /><trkpt lat="22.38248078125" lon="114.24978179638671" /><trkpt lat="22.38248178125" lon="114.24977179638672" /><trkpt lat="22.38248378125" lon="114.24976379638672" /><trkpt lat="22.38249278125" lon="114.24974679638672" /><trkpt lat="22.38249578125" lon="114.24973879638672" /><trkpt lat="22.38249778125" lon="114.24973079638671" /><trkpt lat="22.38249878125" lon="114.24971779638672" /><trkpt lat="22.38249778125" lon="114.24971079638672" /><trkpt lat="22.38249778125" lon="114.24970279638671" /><trkpt lat="22.38249778125" lon="114.24969179638671" /><trkpt lat="22.38249778125" lon="114.24968179638672" /><trkpt lat="22.38249978125" lon="114.24966879638671" /><trkpt lat="22.38250378125" lon="114.24965679638672" /><trkpt lat="22.38251478125" lon="114.24963079638673" /><trkpt lat="22.38251778125" lon="114.24961979638672" /><trkpt lat="22.38251778125" lon="114.24960779638671" /><trkpt lat="22.38251578125" lon="114.24960079638672" /><trkpt lat="22.38251578125" lon="114.24959379638672" /><trkpt lat="22.38251678125" lon="114.24958479638671" /><trkpt lat="22.38252178125" lon="114.24955479638672" /><trkpt lat="22.38252278125" lon="114.24954479638672" /><trkpt lat="22.38252178125" lon="114.24947179638671" /><trkpt lat="22.38251978125" lon="114.24939279638672" /><trkpt lat="22.38252078125" lon="114.24932879638672" /><trkpt lat="22.38252078125" lon="114.24930979638673" /><trkpt lat="22.38250878125" lon="114.24917679638672" /><trkpt lat="22.38250678125" lon="114.24915979638672" /><trkpt lat="22.38249478125" lon="114.24913179638672" /><trkpt lat="22.38248378125" lon="114.24909979638672" /><trkpt lat="22.38247978125" lon="114.24905979638672" /><trkpt lat="22.38247878125" lon="114.24903879638671" /><trkpt lat="22.38247778125" lon="114.24902179638671" /><trkpt lat="22.38247978125" lon="114.24900979638672" /><trkpt lat="22.38248378125" lon="114.24899579638672" /><trkpt lat="22.38250178125" lon="114.24896279638672" /><trkpt lat="22.38251078125" lon="114.24894879638671" /><trkpt lat="22.38252678125" lon="114.24887779638672" /><trkpt lat="22.38256378125" lon="114.24883479638672" /><trkpt lat="22.38257678125" lon="114.24882179638672" /><trkpt lat="22.38261878125" lon="114.24879579638672" /><trkpt lat="22.38266178125" lon="114.24876579638672" /><trkpt lat="22.38268078125" lon="114.24875679638671" /><trkpt lat="22.38271278125" lon="114.24873779638672" /><trkpt lat="22.38272878125" lon="114.24872779638672" /><trkpt lat="22.38275378125" lon="114.24870479638672" /><trkpt lat="22.38277178125" lon="114.24869379638672" /><trkpt lat="22.38281778125" lon="114.24867179638672" /><trkpt lat="22.38287478125" lon="114.24863779638672" /><trkpt lat="22.38288378125" lon="114.24862979638672" /><trkpt lat="22.38289078125" lon="114.24862279638671" /><trkpt lat="22.38290978125" lon="114.24859179638672" /><trkpt lat="22.38291378125" lon="114.24858679638672" /><trkpt lat="22.38294678125" lon="114.24857979638672" /><trkpt lat="22.38295178125" lon="114.24855979638671" /><trkpt lat="22.38295178125" lon="114.24855379638672" /><trkpt lat="22.38294878125" lon="114.24854279638672" /><trkpt lat="22.38294778125" lon="114.24853779638671" /><trkpt lat="22.38297178125" lon="114.24845079638672" /><trkpt lat="22.38297978125" lon="114.24840879638671" /><trkpt lat="22.38298378125" lon="114.24838679638673" /><trkpt lat="22.38300678125" lon="114.24833779638672" /><trkpt lat="22.38301078125" lon="114.24831579638672" /><trkpt lat="22.38302978125" lon="114.24826379638672" /><trkpt lat="22.38303878125" lon="114.24823479638673" /><trkpt lat="22.38304078125" lon="114.24820779638672" /><trkpt lat="22.38306978125" lon="114.24814079638672" /><trkpt lat="22.38309778125" lon="114.24809179638672" /><trkpt lat="22.38311878125" lon="114.24801979638671" /><trkpt lat="22.38312778125" lon="114.24797479638671" /><trkpt lat="22.38312878125" lon="114.24794379638672" /><trkpt lat="22.38313178125" lon="114.24789979638672" /><trkpt lat="22.38313778125" lon="114.24787079638672" /><trkpt lat="22.38314178125" lon="114.24784079638673" /><trkpt lat="22.38314778125" lon="114.24772079638672" /><trkpt lat="22.38314978125" lon="114.24767679638671" /><trkpt lat="22.38314878125" lon="114.24766279638672" /><trkpt lat="22.38314678125" lon="114.24765079638672" /><trkpt lat="22.38313178125" lon="114.24760079638672" /><trkpt lat="22.38312878125" lon="114.24755879638671" /><trkpt lat="22.38313778125" lon="114.24751179638672" /><trkpt lat="22.38313978125" lon="114.24747679638672" /><trkpt lat="22.38314078125" lon="114.24743179638672" /><trkpt lat="22.38315378125" lon="114.24734379638672" /><trkpt lat="22.38315178125" lon="114.24730479638671" /><trkpt lat="22.38312378125" lon="114.24712479638671" /><trkpt lat="22.38311678125" lon="114.24708879638672" /><trkpt lat="22.38311378125" lon="114.24706779638672" /><trkpt lat="22.38311478125" lon="114.24705279638673" /><trkpt lat="22.38311378125" lon="114.24704679638671" /><trkpt lat="22.38311078125" lon="114.24704079638671" /><trkpt lat="22.38310878125" lon="114.24703679638672" /><trkpt lat="22.38310778125" lon="114.24702979638671" /><trkpt lat="22.38310678125" lon="114.24702179638672" /><trkpt lat="22.38310978125" lon="114.24698979638671" /><trkpt lat="22.38310978125" lon="114.24698079638672" /><trkpt lat="22.38310878125" lon="114.24697179638672" /><trkpt lat="22.38309578125" lon="114.24691679638671" /><trkpt lat="22.38308578125" lon="114.24688279638671" /><trkpt lat="22.38307778125" lon="114.24684879638671" /><trkpt lat="22.38307778125" lon="114.24683379638672" /><trkpt lat="22.38307878125" lon="114.24681679638672" /><trkpt lat="22.38308378125" lon="114.24680179638672" /><trkpt lat="22.38312378125" lon="114.24670979638672" /><trkpt lat="22.38325281260545" lon="114.24651206058007" /><trkpt lat="22.383239790852727" lon="114.24672977046669" /><trkpt lat="22.383113927580737" lon="114.24681866361249" /><trkpt lat="22.38308148404649" lon="114.24680869456813" /><trkpt lat="22.38307878125" lon="114.24681679638672" /><trkpt lat="22.38307778125" lon="114.24683379638672" /><trkpt lat="22.38307778125" lon="114.24684879638671" /><trkpt lat="22.38308578125" lon="114.24688279638671" /><trkpt lat="22.38309578125" lon="114.24691679638671" /><trkpt lat="22.38310878125" lon="114.24697179638672" /><trkpt lat="22.38310978125" lon="114.24698079638672" /><trkpt lat="22.38310978125" lon="114.24698979638671" /><trkpt lat="22.38310678125" lon="114.24702179638672" /><trkpt lat="22.38310778125" lon="114.24702979638671" /><trkpt lat="22.38310878125" lon="114.24703679638672" /><trkpt lat="22.38311078125" lon="114.24704079638671" /><trkpt lat="22.38311378125" lon="114.24704679638671" /><trkpt lat="22.38311478125" lon="114.24705279638673" /><trkpt lat="22.38311378125" lon="114.24706779638672" /><trkpt lat="22.38311678125" lon="114.24708879638672" /><trkpt lat="22.38312378125" lon="114.24712479638671" /><trkpt lat="22.38315178125" lon="114.24730479638671" /><trkpt lat="22.38315378125" lon="114.24734379638672" /><trkpt lat="22.38314078125" lon="114.24743179638672" /><trkpt lat="22.38313978125" lon="114.24747679638672" /><trkpt lat="22.38313778125" lon="114.24751179638672" /><trkpt lat="22.38312878125" lon="114.24755879638671" /><trkpt lat="22.38313178125" lon="114.24760079638672" /><trkpt lat="22.38314678125" lon="114.24765079638672" /><trkpt lat="22.38314878125" lon="114.24766279638672" /><trkpt lat="22.38314978125" lon="114.24767679638671" /><trkpt lat="22.38314778125" lon="114.24772079638672" /><trkpt lat="22.38314178125" lon="114.24784079638673" /><trkpt lat="22.38313778125" lon="114.24787079638672" /><trkpt lat="22.38313178125" lon="114.24789979638672" /><trkpt lat="22.38312878125" lon="114.24794379638672" /><trkpt lat="22.38312778125" lon="114.24797479638671" /><trkpt lat="22.38311878125" lon="114.24801979638671" /><trkpt lat="22.38309778125" lon="114.24809179638672" /><trkpt lat="22.38306978125" lon="114.24814079638672" /><trkpt lat="22.38304078125" lon="114.24820779638672" /><trkpt lat="22.38303878125" lon="114.24823479638673" /><trkpt lat="22.38302978125" lon="114.24826379638672" /><trkpt lat="22.38301078125" lon="114.24831579638672" /><trkpt lat="22.38300678125" lon="114.24833779638672" /><trkpt lat="22.38298378125" lon="114.24838679638673" /><trkpt lat="22.38297978125" lon="114.24840879638671" /><trkpt lat="22.38297178125" lon="114.24845079638672" /><trkpt lat="22.38294778125" lon="114.24853779638671" /><trkpt lat="22.38294878125" lon="114.24854279638672" /><trkpt lat="22.38294678125" lon="114.24857979638672" /><trkpt lat="22.38292878125" lon="114.24863079638672" /><trkpt lat="22.38291078125" lon="114.24867079638672" /><trkpt lat="22.38289178125" lon="114.24870379638672" /><trkpt lat="22.38288678125" lon="114.24871479638672" /><trkpt lat="22.38288078125" lon="114.24873479638671" /><trkpt lat="22.38287678125" lon="114.24875579638672" /><trkpt lat="22.38287878125" lon="114.24877579638672" /><trkpt lat="22.38288178125" lon="114.24879679638671" /><trkpt lat="22.38288778125" lon="114.24881479638672" /><trkpt lat="22.38289478125" lon="114.24882879638672" /><trkpt lat="22.38290078125" lon="114.24883879638672" /><trkpt lat="22.38292078125" lon="114.24886579638672" /><trkpt lat="22.38292778125" lon="114.24887379638672" /><trkpt lat="22.38294478125" lon="114.24888779638673" /><trkpt lat="22.38295478125" lon="114.24889479638672" /><trkpt lat="22.38298878125" lon="114.24890879638671" /><trkpt lat="22.38301578125" lon="114.24891679638672" /><trkpt lat="22.38302678125" lon="114.24892379638672" /><trkpt lat="22.38305778125" lon="114.24894279638671" /><trkpt lat="22.38309378125" lon="114.24896679638672" /><trkpt lat="22.38310478125" lon="114.24897479638672" /><trkpt lat="22.38311678125" lon="114.24898079638672" /><trkpt lat="22.38314078125" lon="114.24898579638672" /><trkpt lat="22.38315578125" lon="114.24899179638672" /><trkpt lat="22.38316978125" lon="114.24900079638672" /><trkpt lat="22.38318078125" lon="114.24901379638672" /><trkpt lat="22.38318878125" lon="114.24902679638672" /><trkpt lat="22.38320678125" lon="114.24907579638672" /><trkpt lat="22.38321878125" lon="114.24912679638672" /><trkpt lat="22.38321878125" lon="114.24913779638672" /><trkpt lat="22.38321978125" lon="114.24917379638671" /><trkpt lat="22.38322078125" lon="114.24918379638672" /><trkpt lat="22.38322878125" lon="114.24921779638672" /><trkpt lat="22.38323278125" lon="114.24922879638672" /><trkpt lat="22.38323978125" lon="114.24923779638672" /><trkpt lat="22.38327478125" lon="114.24927679638672" /><trkpt lat="22.38332278125" lon="114.24931679638672" /><trkpt lat="22.38340378125" lon="114.24935179638672" /><trkpt lat="22.38348178125" lon="114.24939379638671" /><trkpt lat="22.38355678125" lon="114.24946179638673" /><trkpt lat="22.38363678125" lon="114.24953579638672" /><trkpt lat="22.38371878125" lon="114.24958279638672" /><trkpt lat="22.38382378125" lon="114.24958479638671" /><trkpt lat="22.38393178125" lon="114.24953679638672" /><trkpt lat="22.38403478125" lon="114.24952079638672" /><trkpt lat="22.38415778125" lon="114.24952879638671" /><trkpt lat="22.38426678125" lon="114.24953879638672" /><trkpt lat="22.38437478125" lon="114.24954279638672" /><trkpt lat="22.38450578125" lon="114.24955179638673" /><trkpt lat="22.38462278125" lon="114.24955679638671" /><trkpt lat="22.38477478125" lon="114.24952679638672" /><trkpt lat="22.38490078125" lon="114.24951379638672" /><trkpt lat="22.38489878125" lon="114.24955079638671" /><trkpt lat="22.38489478125" lon="114.24962179638672" /><trkpt lat="22.38490878125" lon="114.24972879638672" /><trkpt lat="22.38495278125" lon="114.24982879638672" /><trkpt lat="22.38495678125" lon="114.24993679638672" /><trkpt lat="22.38496578125" lon="114.25006079638672" /><trkpt lat="22.38494678125" lon="114.25016379638672" /><trkpt lat="22.38490678125" lon="114.25024579638672" /><trkpt lat="22.38485978125" lon="114.25034479638671" /><trkpt lat="22.38484778125" lon="114.25045279638672" /><trkpt lat="22.38484678125" lon="114.25054979638672" /><trkpt lat="22.38484278125" lon="114.25065979638671" /><trkpt lat="22.38485578125" lon="114.25075579638671" /><trkpt lat="22.38487778125" lon="114.25084879638672" /><trkpt lat="22.38488978125" lon="114.25094979638672" /><trkpt lat="22.38491878125" lon="114.25104879638671" /><trkpt lat="22.38489478125" lon="114.25114579638672" /><trkpt lat="22.38487678125" lon="114.25124279638672" /><trkpt lat="22.38485278125" lon="114.25133879638672" /><trkpt lat="22.38481078125" lon="114.25142679638672" /><trkpt lat="22.38481278125" lon="114.25152479638672" /><trkpt lat="22.38475678125" lon="114.25160779638672" /><trkpt lat="22.38474478125" lon="114.25169079638673" /><trkpt lat="22.38471978125" lon="114.25178279638672" /><trkpt lat="22.38472478125" lon="114.25187179638672" /><trkpt lat="22.38467878125" lon="114.25197379638672" /><trkpt lat="22.38467978125" lon="114.25206879638672" /><trkpt lat="22.38471078125" lon="114.25214379638672" /><trkpt lat="22.38474378125" lon="114.25221279638671" /><trkpt lat="22.38471878125" lon="114.25231279638672" /><trkpt lat="22.38471578125" lon="114.25241979638672" /><trkpt lat="22.38470578125" lon="114.25252979638672" /><trkpt lat="22.38467378125" lon="114.25267879638672" /><trkpt lat="22.38464278125" lon="114.25279679638672" /><trkpt lat="22.38462878125" lon="114.25291779638673" /><trkpt lat="22.38463078125" lon="114.25304179638673" /><trkpt lat="22.38460078125" lon="114.25314879638672" /><trkpt lat="22.38465378125" lon="114.25325479638671" /><trkpt lat="22.38473278125" lon="114.25332979638672" /><trkpt lat="22.38468378125" lon="114.25345979638672" /><trkpt lat="22.38462578125" lon="114.25356979638671" /><trkpt lat="22.38455478125" lon="114.25363679638671" /><trkpt lat="22.38447078125" lon="114.25370379638672" /><trkpt lat="22.38439478125" lon="114.25376979638672" /><trkpt lat="22.38440578125" lon="114.25388279638672" /><trkpt lat="22.38436078125" lon="114.25397779638672" /><trkpt lat="22.38429278125" lon="114.25404879638671" /><trkpt lat="22.38421578125" lon="114.25412379638672" /><trkpt lat="22.38413278125" lon="114.25417979638672" /><trkpt lat="22.38409678125" lon="114.25427379638671" /><trkpt lat="22.38410178125" lon="114.25437879638672" /><trkpt lat="22.38412678125" lon="114.25448079638672" /><trkpt lat="22.38414678125" lon="114.25459279638672" /><trkpt lat="22.38413678125" lon="114.25471879638671" /><trkpt lat="22.38412278125" lon="114.25483379638672" /><trkpt lat="22.38412478125" lon="114.25495279638672" /><trkpt lat="22.38414778125" lon="114.25507779638671" /><trkpt lat="22.38418978125" lon="114.25519779638672" /><trkpt lat="22.38418578125" lon="114.25533179638671" /><trkpt lat="22.38412878125" lon="114.25543279638671" /><trkpt lat="22.38409778125" lon="114.25552379638673" /><trkpt lat="22.38407078125" lon="114.25561879638671" /><trkpt lat="22.38404178125" lon="114.25571279638672" /><trkpt lat="22.38411278125" lon="114.25578379638672" /><trkpt lat="22.38420378125" lon="114.25583479638672" /><trkpt lat="22.38428278125" lon="114.25591679638671" /><trkpt lat="22.38427978125" lon="114.25601279638671" /><trkpt lat="22.38424778125" lon="114.25610879638671" /><trkpt lat="22.38420178125" lon="114.25619079638672" /><trkpt lat="22.38414278125" lon="114.25625979638671" /><trkpt lat="22.38416378125" lon="114.25634479638671" /><trkpt lat="22.38423078125" lon="114.25641179638671" /><trkpt lat="22.38429578125" lon="114.25647979638671" /><trkpt lat="22.38435778125" lon="114.25656079638672" /><trkpt lat="22.38440178125" lon="114.25664279638671" /><trkpt lat="22.38439978125" lon="114.25673079638672" /><trkpt lat="22.38438778125" lon="114.25684779638672" /><trkpt lat="22.38439678125" lon="114.25696179638672" /><trkpt lat="22.38436278125" lon="114.25706079638672" /><trkpt lat="22.38433378125" lon="114.25716179638673" /><trkpt lat="22.38431078125" lon="114.25726079638672" /><trkpt lat="22.38423378125" lon="114.25734779638672" /><trkpt lat="22.38415578125" lon="114.25743879638672" /><trkpt lat="22.38409178125" lon="114.25754279638672" /><trkpt lat="22.38402378125" lon="114.25763479638672" /><trkpt lat="22.38397578125" lon="114.25771879638671" /><trkpt lat="22.38392878125" lon="114.25780579638672" /><trkpt lat="22.38390878125" lon="114.25790979638671" /><trkpt lat="22.38388578125" lon="114.25800379638672" /><trkpt lat="22.38391078125" lon="114.25810179638673" /><trkpt lat="22.38399878125" lon="114.25814979638672" /><trkpt lat="22.38408278125" lon="114.25821279638672" /><trkpt lat="22.38410378125" lon="114.25830079638672" /><trkpt lat="22.38408478125" lon="114.25840679638672" /><trkpt lat="22.38406478125" lon="114.25851979638672" /><trkpt lat="22.38407078125" lon="114.25864379638672" /><trkpt lat="22.38411078125" lon="114.25871279638672" /><trkpt lat="22.38412978125" lon="114.25882079638671" /><trkpt lat="22.38417778125" lon="114.25893079638672" /><trkpt lat="22.38423278125" lon="114.25904079638671" /><trkpt lat="22.38434478125" lon="114.25912379638672" /><trkpt lat="22.38448678125" lon="114.25917479638672" /><trkpt lat="22.38466178125" lon="114.25929379638671" /><trkpt lat="22.38476378125" lon="114.25939279638672" /><trkpt lat="22.38483578125" lon="114.25948579638671" /><trkpt lat="22.38490378125" lon="114.25959579638672" /><trkpt lat="22.38499578125" lon="114.25965779638672" /><trkpt lat="22.38511678125" lon="114.25975879638672" /><trkpt lat="22.38517978125" lon="114.25987079638672" /><trkpt lat="22.38521678125" lon="114.25996279638672" /><trkpt lat="22.38523778125" lon="114.26000679638672" /><trkpt lat="22.38526178125" lon="114.26003379638672" /><trkpt lat="22.38543278125" lon="114.26028579638673" /><trkpt lat="22.38541578125" lon="114.26033679638672" /><trkpt lat="22.38548878125" lon="114.26056379638672" /><trkpt lat="22.38556978125" lon="114.26058479638672" /><trkpt lat="22.38564978125" lon="114.26075779638671" /><trkpt lat="22.38555578125" lon="114.26089179638672" /><trkpt lat="22.38559178125" lon="114.26110379638672" /><trkpt lat="22.38552378125" lon="114.26126179638672" /><trkpt lat="22.38531578125" lon="114.26154479638672" /><trkpt lat="22.38521678125" lon="114.26166179638672" /><trkpt lat="22.38508278125" lon="114.26179279638671" /><trkpt lat="22.38492878125" lon="114.26191579638672" /><trkpt lat="22.38476178125" lon="114.26205179638671" /><trkpt lat="22.38450878125" lon="114.26235079638671" /><trkpt lat="22.38431378125" lon="114.26252779638672" /><trkpt lat="22.38411878125" lon="114.26270579638671" /><trkpt lat="22.38383578125" lon="114.26296279638672" /><trkpt lat="22.38343978125" lon="114.26348579638672" /><trkpt lat="22.38325478125" lon="114.26367579638672" /><trkpt lat="22.38318678125" lon="114.26374579638671" /><trkpt lat="22.38278978125" lon="114.26399279638672" /><trkpt lat="22.38267478125" lon="114.26418479638671" /><trkpt lat="22.38262078125" lon="114.26431779638672" /><trkpt lat="22.38260378125" lon="114.26437979638672" /><trkpt lat="22.38259478125" lon="114.26444679638672" /><trkpt lat="22.382623492873595" lon="114.26448205300537" /><trkpt lat="22.38270178125" lon="114.26446979638672" /><trkpt lat="22.38253878125" lon="114.26467979638672" /><trkpt lat="22.38253778125" lon="114.26472179638672" /><trkpt lat="22.38253278125" lon="114.26493179638672" /><trkpt lat="22.38252978125" lon="114.26506879638671" /><trkpt lat="22.38252578125" lon="114.26527079638672" /><trkpt lat="22.38248778125" lon="114.26542479638672" /><trkpt lat="22.38223878125" lon="114.26587779638672" /><trkpt lat="22.38218378125" lon="114.26599979638672" /><trkpt lat="22.38244978125" lon="114.26589279638672" /><trkpt lat="22.38261778125" lon="114.26591479638672" /><trkpt lat="22.38270978125" lon="114.26593479638672" /><trkpt lat="22.38277778125" lon="114.26601079638672" /><trkpt lat="22.38280578125" lon="114.26614279638672" /><trkpt lat="22.38275878125" lon="114.26636579638672" /><trkpt lat="22.38275978125" lon="114.26654479638673" /><trkpt lat="22.38277678125" lon="114.26669879638672" /><trkpt lat="22.38281878125" lon="114.26685779638672" /><trkpt lat="22.38288778125" lon="114.26698479638672" /><trkpt lat="22.38328478125" lon="114.26742079638672" /><trkpt lat="22.38337178125" lon="114.26748379638671" /><trkpt lat="22.38343478125" lon="114.26753679638672" /><trkpt lat="22.38345978125" lon="114.26758379638672" /><trkpt lat="22.38347878125" lon="114.26780679638672" /><trkpt lat="22.38351178125" lon="114.26803179638672" /><trkpt lat="22.38350178125" lon="114.26820879638672" /><trkpt lat="22.38337378125" lon="114.26844879638672" /><trkpt lat="22.38325878125" lon="114.26879879638672" /><trkpt lat="22.38315078125" lon="114.26902879638672" /><trkpt lat="22.38351178125" lon="114.26917879638673" /><trkpt lat="22.38352978125" lon="114.26920479638672" /><trkpt lat="22.38349278125" lon="114.26923579638672" /><trkpt lat="22.38348078125" lon="114.26927379638671" /><trkpt lat="22.38345078125" lon="114.26960679638673" /><trkpt lat="22.38337278125" lon="114.26985179638672" /><trkpt lat="22.38337178125" lon="114.27002579638672" /><trkpt lat="22.38345478125" lon="114.27020879638673" /><trkpt lat="22.38350478125" lon="114.27030779638672" /><trkpt lat="22.38342078125" lon="114.27039779638672" /><trkpt lat="22.38322478125" lon="114.27060679638672" /><trkpt lat="22.38312878125" lon="114.27074379638672" /><trkpt lat="22.38314678125" lon="114.27084179638672" /><trkpt lat="22.383159456396395" lon="114.27083931620265" /></trkseg></trk></gpx>