<?xml version='1.0' encoding='UTF-8' ?><gpx version="1.1" creator="HikingTrailHK" xsi:schemaLocation="http://www.topografix.com/GPX/1/1 http://www.topografix.com/GPX/1/1/gpx.xsd" xmlns="http://www.topografix.com/GPX/1/1" xmlns:xsi="http://www.w3.org/2001/XMLSchema-instance"><metadata><name>南丫島 @ 2024-05-11</name><desc></desc></metadata><trk><trkseg><trkpt lat="22.2063790501766" lon="114.13108009488843" /><trkpt lat="22.20615778125" lon="114.13146779638672" /><trkpt lat="22.20611278125" lon="114.13154379638672" /><trkpt lat="22.20608778125" lon="114.13157379638672" /><trkpt lat="22.20604578125" lon="114.13155279638671" /><trkpt lat="22.20594878125" lon="114.13151279638672" /><trkpt lat="22.20554378125" lon="114.13134079638672" /><trkpt lat="22.20457978125" lon="114.13100079638672" /><trkpt lat="22.20429278125" lon="114.13084379638671" /><trkpt lat="22.20414678125" lon="114.13072779638672" /><trkpt lat="22.20408478125" lon="114.13082279638672" /><trkpt lat="22.20401378125" lon="114.13080679638672" /><trkpt lat="22.20390478125" lon="114.13078179638671" /><trkpt lat="22.20378078125" lon="114.13079679638672" /><trkpt lat="22.20333878125" lon="114.13086779638672" /><trkpt lat="22.20327578125" lon="114.13096479638672" /><trkpt lat="22.20315378125" lon="114.13099579638671" /><trkpt lat="22.20295378125" lon="114.13098479638671" /><trkpt lat="22.20283478125" lon="114.13091679638671" /><trkpt lat="22.20272878125" lon="114.13091379638672" /><trkpt lat="22.20253778125" lon="114.13096079638672" /><trkpt lat="22.20239278125" lon="114.13123879638673" /><trkpt lat="22.20235778125" lon="114.13141179638671" /><trkpt lat="22.20228678125" lon="114.13157379638672" /><trkpt lat="22.20214578125" lon="114.13171279638672" /><trkpt lat="22.20198478125" lon="114.13197979638672" /><trkpt lat="22.20187778125" lon="114.13201179638672" /><trkpt lat="22.20168078125" lon="114.13196279638672" /><trkpt lat="22.20157478125" lon="114.13202979638672" /><trkpt lat="22.20144178125" lon="114.13223379638671" /><trkpt lat="22.20126378125" lon="114.13230579638672" /><trkpt lat="22.20105478125" lon="114.13246479638671" /><trkpt lat="22.20084278125" lon="114.13257979638672" /><trkpt lat="22.20066478125" lon="114.13276879638671" /><trkpt lat="22.20056678125" lon="114.13287679638673" /><trkpt lat="22.20055478125" lon="114.13311379638672" /><trkpt lat="22.20026578125" lon="114.13350379638672" /><trkpt lat="22.19995878125" lon="114.13378679638672" /><trkpt lat="22.19972478125" lon="114.13397679638672" /><trkpt lat="22.199441781250002" lon="114.13412579638671" /><trkpt lat="22.19906778125" lon="114.13438079638672" /><trkpt lat="22.19887178125" lon="114.13463979638672" /><trkpt lat="22.19860278125" lon="114.13462279638672" /><trkpt lat="22.19850378125" lon="114.13468179638672" /><trkpt lat="22.19829578125" lon="114.13467979638672" /><trkpt lat="22.19826578125" lon="114.13464079638672" /><trkpt lat="22.19821278125" lon="114.13461279638672" /><trkpt lat="22.19815078125" lon="114.13448079638673" /><trkpt lat="22.19806178125" lon="114.13437179638672" /><trkpt lat="22.19790178125" lon="114.13440179638671" /><trkpt lat="22.19768478125" lon="114.13446079638672" /><trkpt lat="22.19764278125" lon="114.13443879638672" /><trkpt lat="22.19762078125" lon="114.13440879638672" /><trkpt lat="22.19760278125" lon="114.13441479638672" /><trkpt lat="22.19755978125" lon="114.13443979638672" /><trkpt lat="22.19755378125" lon="114.13444379638672" /><trkpt lat="22.19747678125" lon="114.13440279638672" /><trkpt lat="22.19747978125" lon="114.13433779638672" /><trkpt lat="22.19735078125" lon="114.13433579638672" /><trkpt lat="22.19710178125" lon="114.13403979638672" /><trkpt lat="22.19696078125" lon="114.13379079638672" /><trkpt lat="22.19686478125" lon="114.13375179638672" /><trkpt lat="22.19686278125" lon="114.13364479638672" /><trkpt lat="22.19674778125" lon="114.13357779638672" /><trkpt lat="22.19665278125" lon="114.13354779638672" /><trkpt lat="22.19643478125" lon="114.13356379638672" /><trkpt lat="22.19640178125" lon="114.13354279638672" /><trkpt lat="22.19640178125" lon="114.13345279638672" /><trkpt lat="22.19631878125" lon="114.13337279638672" /><trkpt lat="22.19630778125" lon="114.13332079638671" /><trkpt lat="22.19621578125" lon="114.13329079638672" /><trkpt lat="22.19614978125" lon="114.13330979638671" /><trkpt lat="22.19609778125" lon="114.13330079638672" /><trkpt lat="22.19605178125" lon="114.13331379638672" /><trkpt lat="22.19598278125" lon="114.13323779638672" /><trkpt lat="22.19575678125" lon="114.13316279638671" /><trkpt lat="22.19566378125" lon="114.13305879638672" /><trkpt lat="22.19546978125" lon="114.13294779638672" /><trkpt lat="22.19540478125" lon="114.13288279638672" /><trkpt lat="22.19542578125" lon="114.13280679638672" /><trkpt lat="22.19541678125" lon="114.13270779638673" /><trkpt lat="22.19544478125" lon="114.13255579638673" /><trkpt lat="22.19546978125" lon="114.13248279638672" /><trkpt lat="22.19533178125" lon="114.13229579638671" /><trkpt lat="22.19538178125" lon="114.13212379638672" /><trkpt lat="22.19533778125" lon="114.13209579638672" /><trkpt lat="22.19525278125" lon="114.13189979638672" /><trkpt lat="22.19524278125" lon="114.13172379638672" /><trkpt lat="22.19524778125" lon="114.13159179638672" /><trkpt lat="22.19527178125" lon="114.13152379638672" /><trkpt lat="22.19520278125" lon="114.13141879638673" /><trkpt lat="22.19511878125" lon="114.13136879638672" /><trkpt lat="22.19508878125" lon="114.13122179638673" /><trkpt lat="22.19509378125" lon="114.13102179638672" /><trkpt lat="22.19508878125" lon="114.13097979638673" /><trkpt lat="22.19506478125" lon="114.13088679638672" /><trkpt lat="22.19516478125" lon="114.13080179638672" /><trkpt lat="22.19529678125" lon="114.13060079638672" /><trkpt lat="22.19527978125" lon="114.13051079638672" /><trkpt lat="22.19529378125" lon="114.13043679638672" /><trkpt lat="22.19534378125" lon="114.13038679638672" /><trkpt lat="22.19533178125" lon="114.13022179638672" /><trkpt lat="22.19536978125" lon="114.13016279638671" /><trkpt lat="22.19536878125" lon="114.13005479638672" /><trkpt lat="22.19540478125" lon="114.12975879638672" /><trkpt lat="22.19534478125" lon="114.12971479638672" /><trkpt lat="22.19524578125" lon="114.12967979638672" /><trkpt lat="22.19506178125" lon="114.12954679638672" /><trkpt lat="22.19500478125" lon="114.12950979638671" /><trkpt lat="22.19495278125" lon="114.12943279638672" /><trkpt lat="22.19485878125" lon="114.12937079638672" /><trkpt lat="22.19480278125" lon="114.12925579638672" /><trkpt lat="22.19467978125" lon="114.12920979638672" /><trkpt lat="22.19459278125" lon="114.12912879638672" /><trkpt lat="22.19459278125" lon="114.12907779638672" /><trkpt lat="22.19455578125" lon="114.12904779638671" /><trkpt lat="22.19452278125" lon="114.12892479638671" /><trkpt lat="22.19440878125" lon="114.12894079638671" /><trkpt lat="22.19426678125" lon="114.12883079638672" /><trkpt lat="22.19414478125" lon="114.12860879638671" /><trkpt lat="22.19408378125" lon="114.12856079638672" /><trkpt lat="22.19399178125" lon="114.12841879638673" /><trkpt lat="22.19375778125" lon="114.12846779638672" /><trkpt lat="22.19368878125" lon="114.12845479638672" /><trkpt lat="22.19357778125" lon="114.12843279638672" /><trkpt lat="22.19336578125" lon="114.12838679638672" /><trkpt lat="22.19331978125" lon="114.12837979638672" /><trkpt lat="22.19330478125" lon="114.12833979638671" /><trkpt lat="22.19314478125" lon="114.12823879638673" /><trkpt lat="22.19312378125" lon="114.12814679638672" /><trkpt lat="22.19303978125" lon="114.12802879638672" /><trkpt lat="22.19298378125" lon="114.12795679638671" /><trkpt lat="22.19292278125" lon="114.12786779638672" /><trkpt lat="22.19271178125" lon="114.12767279638672" /><trkpt lat="22.19266378125" lon="114.12756679638672" /><trkpt lat="22.19259578125" lon="114.12747479638672" /><trkpt lat="22.19239178125" lon="114.12740079638672" /><trkpt lat="22.19234578125" lon="114.12739079638672" /><trkpt lat="22.19221978125" lon="114.12747679638672" /><trkpt lat="22.19207978125" lon="114.12747979638672" /><trkpt lat="22.19196978125" lon="114.12751579638672" /><trkpt lat="22.19181478125" lon="114.12751779638671" /><trkpt lat="22.19182778125" lon="114.12741579638671" /><trkpt lat="22.19183578125" lon="114.12737379638672" /><trkpt lat="22.19182178125" lon="114.12733279638672" /><trkpt lat="22.19177878125" lon="114.12722679638672" /><trkpt lat="22.19188378125" lon="114.12700479638671" /><trkpt lat="22.19189278125" lon="114.12679679638671" /><trkpt lat="22.19207178125" lon="114.12657179638671" /><trkpt lat="22.19224678125" lon="114.12646479638671" /><trkpt lat="22.19229578125" lon="114.12642179638672" /><trkpt lat="22.19232578125" lon="114.12632379638671" /><trkpt lat="22.19238778125" lon="114.12625979638672" /><trkpt lat="22.19249878125" lon="114.12637579638672" /><trkpt lat="22.19259378125" lon="114.12640479638672" /><trkpt lat="22.19282978125" lon="114.12639679638671" /><trkpt lat="22.19295878125" lon="114.12647379638672" /><trkpt lat="22.19319678125" lon="114.12655279638672" /><trkpt lat="22.19357178125" lon="114.12656579638671" /><trkpt lat="22.19361278125" lon="114.12662879638673" /><trkpt lat="22.19379478125" lon="114.12662679638672" /><trkpt lat="22.19401878125" lon="114.12658379638673" /><trkpt lat="22.19428878125" lon="114.12646379638672" /><trkpt lat="22.19429178125" lon="114.12631079638672" /><trkpt lat="22.19432678125" lon="114.12623779638672" /><trkpt lat="22.19436178125" lon="114.12602879638672" /><trkpt lat="22.19454078125" lon="114.12583679638672" /><trkpt lat="22.19466178125" lon="114.12580079638671" /><trkpt lat="22.19488678125" lon="114.12592879638672" /><trkpt lat="22.19499978125" lon="114.12597779638672" /><trkpt lat="22.19507778125" lon="114.12589779638672" /><trkpt lat="22.19512178125" lon="114.12586079638672" /><trkpt lat="22.19521578125" lon="114.12583879638672" /><trkpt lat="22.19524778125" lon="114.12587079638672" /><trkpt lat="22.19530978125" lon="114.12587779638672" /><trkpt lat="22.19551878125" lon="114.12587579638672" /><trkpt lat="22.19562978125" lon="114.12594879638672" /><trkpt lat="22.19583378125" lon="114.12588079638672" /><trkpt lat="22.19649778125" lon="114.12578479638672" /><trkpt lat="22.19679978125" lon="114.12563979638672" /><trkpt lat="22.19695478125" lon="114.12551679638672" /><trkpt lat="22.19718778125" lon="114.12568679638672" /><trkpt lat="22.19735078125" lon="114.12572779638671" /><trkpt lat="22.19737678125" lon="114.12572879638672" /><trkpt lat="22.19760178125" lon="114.12559079638672" /><trkpt lat="22.19785178125" lon="114.12551679638672" /><trkpt lat="22.19802478125" lon="114.12539779638672" /><trkpt lat="22.19817178125" lon="114.12529179638672" /><trkpt lat="22.19832078125" lon="114.12535779638672" /><trkpt lat="22.19858078125" lon="114.12548779638672" /><trkpt lat="22.19881278125" lon="114.12546279638671" /><trkpt lat="22.19904478125" lon="114.12554879638672" /><trkpt lat="22.19922878125" lon="114.12547079638672" /><trkpt lat="22.19971978125" lon="114.12545279638672" /><trkpt lat="22.19992878125" lon="114.12538479638673" /><trkpt lat="22.20001178125" lon="114.12528779638671" /><trkpt lat="22.20021478125" lon="114.12500379638672" /><trkpt lat="22.20031678125" lon="114.12490579638671" /><trkpt lat="22.20047078125" lon="114.12478679638672" /><trkpt lat="22.20051078125" lon="114.12470879638671" /><trkpt lat="22.20055278125" lon="114.12464779638672" /><trkpt lat="22.20061978125" lon="114.12459579638671" /><trkpt lat="22.20080578125" lon="114.12448679638672" /><trkpt lat="22.20094478125" lon="114.12442779638671" /><trkpt lat="22.20121378125" lon="114.12434779638672" /><trkpt lat="22.20132178125" lon="114.12434979638672" /><trkpt lat="22.20160278125" lon="114.12411179638671" /><trkpt lat="22.20180678125" lon="114.12395279638672" /><trkpt lat="22.20203478125" lon="114.12387479638672" /><trkpt lat="22.20216778125" lon="114.12377479638671" /><trkpt lat="22.20242278125" lon="114.12341879638672" /><trkpt lat="22.20262878125" lon="114.12329279638672" /><trkpt lat="22.20272178125" lon="114.12311879638672" /><trkpt lat="22.20283978125" lon="114.12315079638672" /><trkpt lat="22.20286678125" lon="114.12315079638672" /><trkpt lat="22.20301378125" lon="114.12317479638672" /><trkpt lat="22.20317778125" lon="114.12321479638672" /><trkpt lat="22.20336078125" lon="114.12332779638672" /><trkpt lat="22.20352978125" lon="114.12333579638671" /><trkpt lat="22.20359678125" lon="114.12345679638672" /><trkpt lat="22.20362878125" lon="114.12349479638672" /><trkpt lat="22.20370078125" lon="114.12346879638672" /><trkpt lat="22.20369578125" lon="114.12348579638672" /><trkpt lat="22.20369678125" lon="114.12349379638673" /><trkpt lat="22.20369878125" lon="114.12349979638672" /><trkpt lat="22.20370378125" lon="114.12350479638671" /><trkpt lat="22.20376378125" lon="114.12354479638672" /><trkpt lat="22.20378978125" lon="114.12356479638672" /><trkpt lat="22.20381578125" lon="114.12358579638672" /><trkpt lat="22.20384478125" lon="114.12361279638672" /><trkpt lat="22.20386678125" lon="114.12363679638672" /><trkpt lat="22.20388378125" lon="114.12365779638672" /><trkpt lat="22.20413978125" lon="114.12437079638671" /><trkpt lat="22.20414578125" lon="114.12439079638672" /><trkpt lat="22.20414978125" lon="114.12440679638672" /><trkpt lat="22.20415178125" lon="114.12442379638672" /><trkpt lat="22.20415478125" lon="114.12446079638671" /><trkpt lat="22.20415678125" lon="114.12447479638672" /><trkpt lat="22.20416078125" lon="114.12448879638671" /><trkpt lat="22.20416578125" lon="114.12450379638672" /><trkpt lat="22.20417178125" lon="114.12451879638672" /><trkpt lat="22.20418178125" lon="114.12453779638672" /><trkpt lat="22.20419578125" lon="114.12455879638672" /><trkpt lat="22.20421378125" lon="114.12458079638672" /><trkpt lat="22.20423378125" lon="114.12460079638672" /><trkpt lat="22.20425278125" lon="114.12461579638672" /><trkpt lat="22.20427478125" lon="114.12462979638671" /><trkpt lat="22.20431578125" lon="114.12465279638671" /><trkpt lat="22.20432478125" lon="114.12465879638673" /><trkpt lat="22.20433378125" lon="114.12466579638672" /><trkpt lat="22.20438678125" lon="114.12471279638672" /><trkpt lat="22.20440978125" lon="114.12473079638671" /><trkpt lat="22.20442678125" lon="114.12474279638671" /><trkpt lat="22.20462278125" lon="114.12483479638672" /><trkpt lat="22.20446078125" lon="114.12490279638672" /><trkpt lat="22.20441078125" lon="114.12493879638672" /><trkpt lat="22.20437378125" lon="114.12502579638672" /><trkpt lat="22.20423378125" lon="114.12520679638672" /><trkpt lat="22.20422578125" lon="114.12533779638672" /><trkpt lat="22.20426978125" lon="114.12561579638673" /><trkpt lat="22.20440278125" lon="114.12593379638672" /><trkpt lat="22.20454678125" lon="114.12660779638672" /><trkpt lat="22.20458178125" lon="114.12668979638671" /><trkpt lat="22.20460478125" lon="114.12683079638671" /><trkpt lat="22.20455278125" lon="114.12696379638672" /><trkpt lat="22.20437978125" lon="114.12712179638672" /><trkpt lat="22.20405778125" lon="114.12828779638672" /><trkpt lat="22.20393978125" lon="114.12859579638672" /><trkpt lat="22.20361278125" lon="114.12894379638672" /><trkpt lat="22.20301778125" lon="114.12915079638672" /><trkpt lat="22.20275778125" lon="114.12946279638672" /><trkpt lat="22.20262178125" lon="114.12954679638672" /><trkpt lat="22.20235678125" lon="114.12962779638671" /><trkpt lat="22.20210378125" lon="114.12973679638672" /><trkpt lat="22.20191178125" lon="114.12998579638672" /><trkpt lat="22.20192778125" lon="114.13018179638672" /><trkpt lat="22.20192078125" lon="114.13034179638672" /><trkpt lat="22.20211478125" lon="114.13038979638672" /><trkpt lat="22.20235978125" lon="114.13052379638673" /><trkpt lat="22.20296478125" lon="114.13069779638671" /><trkpt lat="22.20321378125" lon="114.13084179638672" /><trkpt lat="22.20333878125" lon="114.13086779638672" /><trkpt lat="22.20378078125" lon="114.13079679638672" /><trkpt lat="22.20390478125" lon="114.13078179638671" /><trkpt lat="22.20401378125" lon="114.13080679638672" /><trkpt lat="22.20408478125" lon="114.13082279638672" /><trkpt lat="22.20408178125" lon="114.13085179638672" /><trkpt lat="22.20419578125" lon="114.13093779638672" /><trkpt lat="22.20436578125" lon="114.13105279638671" /><trkpt lat="22.20464178125" lon="114.13115979638673" /><trkpt lat="22.20485878125" lon="114.13125979638671" /><trkpt lat="22.20548978125" lon="114.13148979638672" /><trkpt lat="22.20551978125" lon="114.13150679638672" /><trkpt lat="22.20567278125" lon="114.13156379638671" /><trkpt lat="22.20590178125" lon="114.13164579638672" /><trkpt lat="22.20594878125" lon="114.13151279638672" /><trkpt lat="22.20604578125" lon="114.13155279638671" /><trkpt lat="22.20608778125" lon="114.13157379638672" /><trkpt lat="22.20611278125" lon="114.13154379638672" /><trkpt lat="22.20615778125" lon="114.13146779638672" /><trkpt lat="22.20629990536739" lon="114.13121877066368" /></trkseg></trk></gpx>