<?xml version='1.0' encoding='UTF-8' ?><gpx version="1.1" creator="HikingTrailHK" xsi:schemaLocation="http://www.topografix.com/GPX/1/1 http://www.topografix.com/GPX/1/1/gpx.xsd https://hikingtrailhk.appspot.com/xml/gpxextensions/v1 https://hikingtrailhk.appspot.com/xml/gpxextensions/v1/gpxextensions.xsd" xmlns="http://www.topografix.com/GPX/1/1" xmlns:h="https://hikingtrailhk.appspot.com/xml/gpxextensions/v1" xmlns:xsi="http://www.w3.org/2001/XMLSchema-instance"><metadata><name>南朗山 @ 2017-3</name><desc></desc><extensions><h:categoryid>scenery_route</h:categoryid></extensions></metadata><trk><trkseg><trkpt lat="22.247756182947793" lon="114.16680070748811" /><trkpt lat="22.24773478125" lon="114.16678679638672" /><trkpt lat="22.24770378125" lon="114.16677079638671" /><trkpt lat="22.24762878125" lon="114.16673479638672" /><trkpt lat="22.24758878125" lon="114.16672179638672" /><trkpt lat="22.24753578125" lon="114.16669979638672" /><trkpt lat="22.24747678125" lon="114.16666879638672" /><trkpt lat="22.24722878125" lon="114.16651179638671" /><trkpt lat="22.24710878125" lon="114.16645479638672" /><trkpt lat="22.24694878125" lon="114.16639579638672" /><trkpt lat="22.24678678125" lon="114.16634679638672" /><trkpt lat="22.24663778125" lon="114.16631579638671" /><trkpt lat="22.24652978125" lon="114.16630579638672" /><trkpt lat="22.24636478125" lon="114.16633379638672" /><trkpt lat="22.24612778125" lon="114.16643879638671" /><trkpt lat="22.24604078125" lon="114.16647879638671" /><trkpt lat="22.24591178125" lon="114.16653679638672" /><trkpt lat="22.24579278125" lon="114.16666879638672" /><trkpt lat="22.24569578125" lon="114.16682879638672" /><trkpt lat="22.24552878125" lon="114.16718179638671" /><trkpt lat="22.24545378125" lon="114.16738479638671" /><trkpt lat="22.24543378125" lon="114.16744879638672" /><trkpt lat="22.24539878125" lon="114.16756479638671" /><trkpt lat="22.24534778125" lon="114.16759379638673" /><trkpt lat="22.24530578125" lon="114.16760979638671" /><trkpt lat="22.24524678125" lon="114.16762079638671" /><trkpt lat="22.24515578125" lon="114.16762079638671" /><trkpt lat="22.24509578125" lon="114.16759779638672" /><trkpt lat="22.24503778125" lon="114.16753479638672" /><trkpt lat="22.24498078125" lon="114.16744679638671" /><trkpt lat="22.24481078125" lon="114.16685379638672" /><trkpt lat="22.24474078125" lon="114.16663979638672" /><trkpt lat="22.24469678125" lon="114.16652379638671" /><trkpt lat="22.24464378125" lon="114.16640379638672" /><trkpt lat="22.24459278125" lon="114.16631979638672" /><trkpt lat="22.24445278125" lon="114.16619179638671" /><trkpt lat="22.24400578125" lon="114.16594979638671" /><trkpt lat="22.24395978125" lon="114.16592279638672" /><trkpt lat="22.24389978125" lon="114.16588779638671" /><trkpt lat="22.24379078125" lon="114.16586879638672" /><trkpt lat="22.24372778125" lon="114.16586679638672" /><trkpt lat="22.24367778125" lon="114.16587179638672" /><trkpt lat="22.24363678125" lon="114.16588379638672" /><trkpt lat="22.24359478125" lon="114.16589979638673" /><trkpt lat="22.24350878125" lon="114.16597179638671" /><trkpt lat="22.24343578125" lon="114.16608379638672" /><trkpt lat="22.24340478125" lon="114.16623279638672" /><trkpt lat="22.24341578125" lon="114.16635079638672" /><trkpt lat="22.24349278125" lon="114.16653179638672" /><trkpt lat="22.24352278125" lon="114.16663179638672" /><trkpt lat="22.24352278125" lon="114.16673279638673" /><trkpt lat="22.24348878125" lon="114.16682779638671" /><trkpt lat="22.24300778125" lon="114.16762479638672" /><trkpt lat="22.24286778125" lon="114.16774579638673" /><trkpt lat="22.24275478125" lon="114.16779879638672" /><trkpt lat="22.24264778125" lon="114.16783279638672" /><trkpt lat="22.24218378125" lon="114.16778479638671" /><trkpt lat="22.24170178125" lon="114.16765779638672" /><trkpt lat="22.24155178125" lon="114.16764579638672" /><trkpt lat="22.24145278125" lon="114.16764779638672" /><trkpt lat="22.24136078125" lon="114.16767379638672" /><trkpt lat="22.24115978125" lon="114.16776279638673" /><trkpt lat="22.24105178125" lon="114.16779179638672" /><trkpt lat="22.24093978125" lon="114.16778579638672" /><trkpt lat="22.24083978125" lon="114.16775179638672" /><trkpt lat="22.24070878125" lon="114.16764979638671" /><trkpt lat="22.24062478125" lon="114.16762579638672" /><trkpt lat="22.23972178125" lon="114.16754779638671" /><trkpt lat="22.23951378125" lon="114.16756379638672" /><trkpt lat="22.23911078125" lon="114.16766479638672" /><trkpt lat="22.23882578125" lon="114.16773679638672" /><trkpt lat="22.23857078125" lon="114.16777579638672" /><trkpt lat="22.23845678125" lon="114.16781079638672" /><trkpt lat="22.23832578125" lon="114.16793779638672" /><trkpt lat="22.23823178125" lon="114.16805079638672" /><trkpt lat="22.23823278125" lon="114.16808879638671" /><trkpt lat="22.23823478125" lon="114.16813579638672" /><trkpt lat="22.23825278125" lon="114.16817579638672" /><trkpt lat="22.23829278125" lon="114.16826279638671" /><trkpt lat="22.23834978125" lon="114.16849979638671" /><trkpt lat="22.23856278125" lon="114.16859179638672" /><trkpt lat="22.23876078125" lon="114.16871479638672" /><trkpt lat="22.23896078125" lon="114.16878979638672" /><trkpt lat="22.23913278125" lon="114.16893079638672" /><trkpt lat="22.23921778125" lon="114.16899879638672" /><trkpt lat="22.23936178125" lon="114.16902979638672" /><trkpt lat="22.23939678125" lon="114.16903679638672" /><trkpt lat="22.23970978125" lon="114.16924079638672" /><trkpt lat="22.23973878125" lon="114.16924979638672" /><trkpt lat="22.23997378125" lon="114.16932379638672" /><trkpt lat="22.24009078125" lon="114.16932779638672" /><trkpt lat="22.24025578125" lon="114.16951979638672" /><trkpt lat="22.24047378125" lon="114.16969079638672" /><trkpt lat="22.24080178125" lon="114.16980879638672" /><trkpt lat="22.24089678125" lon="114.17004479638672" /><trkpt lat="22.24098478125" lon="114.17019879638671" /><trkpt lat="22.24105978125" lon="114.17032979638672" /><trkpt lat="22.24102378125" lon="114.17039279638672" /><trkpt lat="22.24096078125" lon="114.17050079638672" /><trkpt lat="22.24092178125" lon="114.17062979638672" /><trkpt lat="22.24100078125" lon="114.17099479638672" /><trkpt lat="22.24104478125" lon="114.17114479638671" /><trkpt lat="22.24108078125" lon="114.17118779638672" /><trkpt lat="22.24108578125" lon="114.17148279638671" /><trkpt lat="22.24104078125" lon="114.17152579638672" /><trkpt lat="22.24109078125" lon="114.17163879638672" /><trkpt lat="22.24114878125" lon="114.17168179638672" /><trkpt lat="22.24130778125" lon="114.17201379638672" /><trkpt lat="22.24118478125" lon="114.17213179638672" /><trkpt lat="22.24110078125" lon="114.17213679638672" /><trkpt lat="22.24093678125" lon="114.17232479638672" /><trkpt lat="22.24081778125" lon="114.17248079638672" /><trkpt lat="22.24080478125" lon="114.17254779638672" /><trkpt lat="22.24078778125" lon="114.17263579638671" /><trkpt lat="22.24073778125" lon="114.17290979638672" /><trkpt lat="22.24075078125" lon="114.17305179638672" /><trkpt lat="22.24075178125" lon="114.17315079638672" /><trkpt lat="22.24094078125" lon="114.17320979638671" /><trkpt lat="22.24125378125" lon="114.17330179638672" /><trkpt lat="22.24162378125" lon="114.17328279638672" /><trkpt lat="22.241671781249998" lon="114.17321279638672" /><trkpt lat="22.24171078125" lon="114.17315879638672" /><trkpt lat="22.24176778125" lon="114.17317579638672" /><trkpt lat="22.24179778125" lon="114.17324779638672" /><trkpt lat="22.24182778125" lon="114.17330979638672" /><trkpt lat="22.24186778125" lon="114.17333379638671" /><trkpt lat="22.24182478125" lon="114.17339179638672" /><trkpt lat="22.24176578125" lon="114.17338179638672" /><trkpt lat="22.24167578125" lon="114.17341879638671" /><trkpt lat="22.24162078125" lon="114.17337579638672" /><trkpt lat="22.24162378125" lon="114.17328279638672" /><trkpt lat="22.24125378125" lon="114.17330179638672" /><trkpt lat="22.24094078125" lon="114.17320979638671" /><trkpt lat="22.24075178125" lon="114.17315079638672" /><trkpt lat="22.24075078125" lon="114.17305179638672" /><trkpt lat="22.24073778125" lon="114.17290979638672" /><trkpt lat="22.24078778125" lon="114.17263579638671" /><trkpt lat="22.24080478125" lon="114.17254779638672" /><trkpt lat="22.24081778125" lon="114.17248079638672" /><trkpt lat="22.24093678125" lon="114.17232479638672" /><trkpt lat="22.24110078125" lon="114.17213679638672" /><trkpt lat="22.24118478125" lon="114.17213179638672" /><trkpt lat="22.24130778125" lon="114.17201379638672" /><trkpt lat="22.24114878125" lon="114.17168179638672" /><trkpt lat="22.24109078125" lon="114.17163879638672" /><trkpt lat="22.24104078125" lon="114.17152579638672" /><trkpt lat="22.24108578125" lon="114.17148279638671" /><trkpt lat="22.24108078125" lon="114.17118779638672" /><trkpt lat="22.24104478125" lon="114.17114479638671" /><trkpt lat="22.24100078125" lon="114.17099479638672" /><trkpt lat="22.24092178125" lon="114.17062979638672" /><trkpt lat="22.24096078125" lon="114.17050079638672" /><trkpt lat="22.24102378125" lon="114.17039279638672" /><trkpt lat="22.24105978125" lon="114.17032979638672" /><trkpt lat="22.24098478125" lon="114.17019879638671" /><trkpt lat="22.24089678125" lon="114.17004479638672" /><trkpt lat="22.24080178125" lon="114.16980879638672" /><trkpt lat="22.24047378125" lon="114.16969079638672" /><trkpt lat="22.24025578125" lon="114.16951979638672" /><trkpt lat="22.24009078125" lon="114.16932779638672" /><trkpt lat="22.23997378125" lon="114.16932379638672" /><trkpt lat="22.23973878125" lon="114.16924979638672" /><trkpt lat="22.23970978125" lon="114.16924079638672" /><trkpt lat="22.23939678125" lon="114.16903679638672" /><trkpt lat="22.23936178125" lon="114.16902979638672" /><trkpt lat="22.23934078125" lon="114.16914779638672" /><trkpt lat="22.23932078125" lon="114.16921279638672" /><trkpt lat="22.23922378125" lon="114.16913479638671" /><trkpt lat="22.23914978125" lon="114.16911579638672" /><trkpt lat="22.23910778125" lon="114.16906479638672" /><trkpt lat="22.23913278125" lon="114.16893079638672" /><trkpt lat="22.23896078125" lon="114.16878979638672" /><trkpt lat="22.23876078125" lon="114.16871479638672" /><trkpt lat="22.23856278125" lon="114.16859179638672" /><trkpt lat="22.23834978125" lon="114.16849979638671" /><trkpt lat="22.23829278125" lon="114.16826279638671" /><trkpt lat="22.23825278125" lon="114.16817579638672" /><trkpt lat="22.23823478125" lon="114.16813579638672" /><trkpt lat="22.23823278125" lon="114.16808879638671" /><trkpt lat="22.23823178125" lon="114.16805079638672" /><trkpt lat="22.23832578125" lon="114.16793779638672" /><trkpt lat="22.23845678125" lon="114.16781079638672" /><trkpt lat="22.23857078125" lon="114.16777579638672" /><trkpt lat="22.23882578125" lon="114.16773679638672" /><trkpt lat="22.23911078125" lon="114.16766479638672" /><trkpt lat="22.23951378125" lon="114.16756379638672" /><trkpt lat="22.23972178125" lon="114.16754779638671" /><trkpt lat="22.24062478125" lon="114.16762579638672" /><trkpt lat="22.24070878125" lon="114.16764979638671" /><trkpt lat="22.24083978125" lon="114.16775179638672" /><trkpt lat="22.24093978125" lon="114.16778579638672" /><trkpt lat="22.24105178125" lon="114.16779179638672" /><trkpt lat="22.24115978125" lon="114.16776279638673" /><trkpt lat="22.24136078125" lon="114.16767379638672" /><trkpt lat="22.24145278125" lon="114.16764779638672" /><trkpt lat="22.24155178125" lon="114.16764579638672" /><trkpt lat="22.24170178125" lon="114.16765779638672" /><trkpt lat="22.24218378125" lon="114.16778479638671" /><trkpt lat="22.24264778125" lon="114.16783279638672" /><trkpt lat="22.24275478125" lon="114.16779879638672" /><trkpt lat="22.24286778125" lon="114.16774579638673" /><trkpt lat="22.24300778125" lon="114.16762479638672" /><trkpt lat="22.24348878125" lon="114.16682779638671" /><trkpt lat="22.24352278125" lon="114.16673279638673" /><trkpt lat="22.24352278125" lon="114.16663179638672" /><trkpt lat="22.24349278125" lon="114.16653179638672" /><trkpt lat="22.24341578125" lon="114.16635079638672" /><trkpt lat="22.24340478125" lon="114.16623279638672" /><trkpt lat="22.24343578125" lon="114.16608379638672" /><trkpt lat="22.24350878125" lon="114.16597179638671" /><trkpt lat="22.24359478125" lon="114.16589979638673" /><trkpt lat="22.24363678125" lon="114.16588379638672" /><trkpt lat="22.24367778125" lon="114.16587179638672" /><trkpt lat="22.24372778125" lon="114.16586679638672" /><trkpt lat="22.24379078125" lon="114.16586879638672" /><trkpt lat="22.24389978125" lon="114.16588779638671" /><trkpt lat="22.24395978125" lon="114.16592279638672" /><trkpt lat="22.24400578125" lon="114.16594979638671" /><trkpt lat="22.24445278125" lon="114.16619179638671" /><trkpt lat="22.24459278125" lon="114.16631979638672" /><trkpt lat="22.24464378125" lon="114.16640379638672" /><trkpt lat="22.24469678125" lon="114.16652379638671" /><trkpt lat="22.24474078125" lon="114.16663979638672" /><trkpt lat="22.24481078125" lon="114.16685379638672" /><trkpt lat="22.24498078125" lon="114.16744679638671" /><trkpt lat="22.24503778125" lon="114.16753479638672" /><trkpt lat="22.24509578125" lon="114.16759779638672" /><trkpt lat="22.24515578125" lon="114.16762079638671" /><trkpt lat="22.24524678125" lon="114.16762079638671" /><trkpt lat="22.24530578125" lon="114.16760979638671" /><trkpt lat="22.24534778125" lon="114.16759379638673" /><trkpt lat="22.24539878125" lon="114.16756479638671" /><trkpt lat="22.24543378125" lon="114.16744879638672" /><trkpt lat="22.24545378125" lon="114.16738479638671" /><trkpt lat="22.24552878125" lon="114.16718179638671" /><trkpt lat="22.24569578125" lon="114.16682879638672" /><trkpt lat="22.24579278125" lon="114.16666879638672" /><trkpt lat="22.24591178125" lon="114.16653679638672" /><trkpt lat="22.24604078125" lon="114.16647879638671" /><trkpt lat="22.24612778125" lon="114.16643879638671" /><trkpt lat="22.24636478125" lon="114.16633379638672" /><trkpt lat="22.24652978125" lon="114.16630579638672" /><trkpt lat="22.24663778125" lon="114.16631579638671" /><trkpt lat="22.24678678125" lon="114.16634679638672" /><trkpt lat="22.24694878125" lon="114.16639579638672" /><trkpt lat="22.24710878125" lon="114.16645479638672" /><trkpt lat="22.24722878125" lon="114.16651179638671" /><trkpt lat="22.24747678125" lon="114.16666879638672" /><trkpt lat="22.24753578125" lon="114.16669979638672" /><trkpt lat="22.24758878125" lon="114.16672179638672" /><trkpt lat="22.24762878125" lon="114.16673479638672" /><trkpt lat="22.24770378125" lon="114.16677079638671" /><trkpt lat="22.24773478125" lon="114.16678679638672" /><trkpt lat="22.247756182947793" lon="114.16680070748811" /></trkseg></trk></gpx>