<?xml version='1.0' encoding='UTF-8' ?><gpx version="1.1" creator="HikingTrailHK" xsi:schemaLocation="http://www.topografix.com/GPX/1/1 http://www.topografix.com/GPX/1/1/gpx.xsd" xmlns="http://www.topografix.com/GPX/1/1" xmlns:xsi="http://www.w3.org/2001/XMLSchema-instance"><metadata><name>古洞水塘 @ 2022-12-26</name><desc></desc></metadata><trk><trkseg><trkpt lat="22.50214515024097" lon="114.09857746737578" /><trkpt lat="22.50205578125" lon="114.09856479638673" /><trkpt lat="22.50187378125" lon="114.09858579638671" /><trkpt lat="22.50151478125" lon="114.09872279638672" /><trkpt lat="22.50131278125" lon="114.09880879638672" /><trkpt lat="22.50112078125" lon="114.09884679638672" /><trkpt lat="22.50091478125" lon="114.09892979638671" /><trkpt lat="22.50060578125" lon="114.09905079638672" /><trkpt lat="22.50031378125" lon="114.09914479638672" /><trkpt lat="22.50012678125" lon="114.09916579638671" /><trkpt lat="22.50005778125" lon="114.09914679638672" /><trkpt lat="22.49992378125" lon="114.09905179638672" /><trkpt lat="22.49977778125" lon="114.09883879638672" /><trkpt lat="22.49970978125" lon="114.09863379638672" /><trkpt lat="22.49969978125" lon="114.09848979638672" /><trkpt lat="22.49966178125" lon="114.09842979638672" /><trkpt lat="22.49963378125" lon="114.09834679638672" /><trkpt lat="22.49961878125" lon="114.09826079638673" /><trkpt lat="22.49955378125" lon="114.09814679638671" /><trkpt lat="22.49941278125" lon="114.09790479638671" /><trkpt lat="22.49909678125" lon="114.09755079638671" /><trkpt lat="22.49838478125" lon="114.09683779638672" /><trkpt lat="22.49827678125" lon="114.09673979638671" /><trkpt lat="22.49821178125" lon="114.09661679638671" /><trkpt lat="22.49815678125" lon="114.09641879638671" /><trkpt lat="22.49814278125" lon="114.09630679638671" /><trkpt lat="22.49800478125" lon="114.09633879638672" /><trkpt lat="22.49782678125" lon="114.09653579638672" /><trkpt lat="22.49778478125" lon="114.09658379638672" /><trkpt lat="22.49777678125" lon="114.09661179638672" /><trkpt lat="22.49768278125" lon="114.09701379638672" /><trkpt lat="22.49765978125" lon="114.09708979638671" /><trkpt lat="22.49756478125" lon="114.09714679638672" /><trkpt lat="22.49751978125" lon="114.09715679638671" /><trkpt lat="22.49745278125" lon="114.09715379638672" /><trkpt lat="22.49738778125" lon="114.09713579638672" /><trkpt lat="22.49733478125" lon="114.09711679638671" /><trkpt lat="22.49728478125" lon="114.09709979638671" /><trkpt lat="22.49723178125" lon="114.09708079638672" /><trkpt lat="22.49718078125" lon="114.09705779638672" /><trkpt lat="22.49713878125" lon="114.09704579638672" /><trkpt lat="22.49710378125" lon="114.09703979638672" /><trkpt lat="22.49704978125" lon="114.09702979638672" /><trkpt lat="22.49702278125" lon="114.09702679638671" /><trkpt lat="22.49698478125" lon="114.09701479638672" /><trkpt lat="22.49694878125" lon="114.09701079638671" /><trkpt lat="22.49691878125" lon="114.09700179638672" /><trkpt lat="22.49688678125" lon="114.09699379638671" /><trkpt lat="22.49684478125" lon="114.09697379638672" /><trkpt lat="22.49681478125" lon="114.09694179638672" /><trkpt lat="22.49668678125" lon="114.09714379638672" /><trkpt lat="22.49663178125" lon="114.09741179638672" /><trkpt lat="22.49655778125" lon="114.09747079638672" /><trkpt lat="22.49641878125" lon="114.09784479638672" /><trkpt lat="22.49628178125" lon="114.09783479638672" /><trkpt lat="22.49612478125" lon="114.09763879638672" /><trkpt lat="22.49611478125" lon="114.09746379638672" /><trkpt lat="22.49591478125" lon="114.09649079638672" /><trkpt lat="22.49583978125" lon="114.09607979638672" /><trkpt lat="22.49565478125" lon="114.09571679638672" /><trkpt lat="22.49561978125" lon="114.09552679638672" /><trkpt lat="22.49535578125" lon="114.09531579638671" /><trkpt lat="22.49533978125" lon="114.09527779638672" /><trkpt lat="22.49524178125" lon="114.09504379638672" /><trkpt lat="22.49512578125" lon="114.09477579638671" /><trkpt lat="22.49520478125" lon="114.09461479638672" /><trkpt lat="22.49494978125" lon="114.09434779638671" /><trkpt lat="22.49484278125" lon="114.09410479638672" /><trkpt lat="22.49463878125" lon="114.09358379638672" /><trkpt lat="22.49439578125" lon="114.09320379638672" /><trkpt lat="22.49446578125" lon="114.09300579638672" /><trkpt lat="22.49455978125" lon="114.09284379638672" /><trkpt lat="22.49464178125" lon="114.09280079638671" /><trkpt lat="22.49466978125" lon="114.09268279638673" /><trkpt lat="22.49473478125" lon="114.09250479638672" /><trkpt lat="22.49493078125" lon="114.09234279638672" /><trkpt lat="22.49499978125" lon="114.09223479638672" /><trkpt lat="22.49509378125" lon="114.09202079638672" /><trkpt lat="22.49513778125" lon="114.09201179638671" /><trkpt lat="22.49520478125" lon="114.09200479638672" /><trkpt lat="22.49523678125" lon="114.09202279638671" /><trkpt lat="22.49526678125" lon="114.09206779638671" /><trkpt lat="22.49529678125" lon="114.09210179638671" /><trkpt lat="22.49533378125" lon="114.09210779638671" /><trkpt lat="22.49537978125" lon="114.09211779638672" /><trkpt lat="22.49540878125" lon="114.09214979638672" /><trkpt lat="22.49541478125" lon="114.09216779638672" /><trkpt lat="22.49549178125" lon="114.09220179638672" /><trkpt lat="22.49550478125" lon="114.09221779638672" /><trkpt lat="22.49552578125" lon="114.09223579638672" /><trkpt lat="22.49554078125" lon="114.09225179638672" /><trkpt lat="22.49558278125" lon="114.09227479638672" /><trkpt lat="22.49558578125" lon="114.09228679638672" /><trkpt lat="22.49560178125" lon="114.09229179638672" /><trkpt lat="22.49562078125" lon="114.09229279638672" /><trkpt lat="22.49567778125" lon="114.09237479638672" /><trkpt lat="22.49569878125" lon="114.09237179638671" /><trkpt lat="22.49573078125" lon="114.09237979638672" /><trkpt lat="22.49575378125" lon="114.09239079638672" /><trkpt lat="22.49578178125" lon="114.09241179638671" /><trkpt lat="22.49580778125" lon="114.09243679638672" /><trkpt lat="22.49584378125" lon="114.09247179638672" /><trkpt lat="22.49589478125" lon="114.09249579638671" /><trkpt lat="22.49594178125" lon="114.09250779638671" /><trkpt lat="22.49597078125" lon="114.09252379638671" /><trkpt lat="22.49599678125" lon="114.09255479638672" /><trkpt lat="22.49603278125" lon="114.09257679638672" /><trkpt lat="22.49605678125" lon="114.09259779638671" /><trkpt lat="22.49609178125" lon="114.09260679638672" /><trkpt lat="22.49611478125" lon="114.09262079638673" /><trkpt lat="22.49613278125" lon="114.09263779638673" /><trkpt lat="22.49615578125" lon="114.09267579638671" /><trkpt lat="22.49621178125" lon="114.09268979638672" /><trkpt lat="22.49623178125" lon="114.09271379638672" /><trkpt lat="22.49622878125" lon="114.09273379638672" /><trkpt lat="22.49621578125" lon="114.09277679638672" /><trkpt lat="22.49622678125" lon="114.09281079638671" /><trkpt lat="22.49625678125" lon="114.09284879638672" /><trkpt lat="22.49629678125" lon="114.09285479638672" /><trkpt lat="22.49636778125" lon="114.09293479638671" /><trkpt lat="22.49637878125" lon="114.09297279638672" /><trkpt lat="22.49637478125" lon="114.09302979638672" /><trkpt lat="22.49636878125" lon="114.09303879638672" /><trkpt lat="22.49635978125" lon="114.09310679638672" /><trkpt lat="22.49635278125" lon="114.09311979638672" /><trkpt lat="22.49636478125" lon="114.09315579638672" /><trkpt lat="22.49639278125" lon="114.09318579638672" /><trkpt lat="22.49644178125" lon="114.09320479638671" /><trkpt lat="22.49647878125" lon="114.09321379638672" /><trkpt lat="22.49655978125" lon="114.09323779638672" /><trkpt lat="22.49660678125" lon="114.09326079638672" /><trkpt lat="22.49665778125" lon="114.09326179638671" /><trkpt lat="22.49668978125" lon="114.09324979638671" /><trkpt lat="22.49670778125" lon="114.09325679638673" /><trkpt lat="22.49672778125" lon="114.09326679638671" /><trkpt lat="22.49673978125" lon="114.09328779638672" /><trkpt lat="22.49676678125" lon="114.09331879638673" /><trkpt lat="22.49677678125" lon="114.09333579638673" /><trkpt lat="22.49680878125" lon="114.09336279638671" /><trkpt lat="22.49683778125" lon="114.09337979638671" /><trkpt lat="22.49684778125" lon="114.09339179638671" /><trkpt lat="22.49687078125" lon="114.09340279638671" /><trkpt lat="22.49690078125" lon="114.09343979638672" /><trkpt lat="22.49691478125" lon="114.09344779638671" /><trkpt lat="22.49693478125" lon="114.09347279638672" /><trkpt lat="22.49694678125" lon="114.09349679638672" /><trkpt lat="22.49696778125" lon="114.09352579638671" /><trkpt lat="22.49697478125" lon="114.09353979638672" /><trkpt lat="22.49699578125" lon="114.09355779638672" /><trkpt lat="22.49701478125" lon="114.09358779638671" /><trkpt lat="22.49702278125" lon="114.09360879638672" /><trkpt lat="22.49702178125" lon="114.09362879638672" /><trkpt lat="22.49703478125" lon="114.09364979638671" /><trkpt lat="22.49706078125" lon="114.09369079638672" /><trkpt lat="22.49707278125" lon="114.09370279638672" /><trkpt lat="22.49708078125" lon="114.09372479638672" /><trkpt lat="22.49709978125" lon="114.09374979638672" /><trkpt lat="22.49711578125" lon="114.09377479638673" /><trkpt lat="22.49714378125" lon="114.09379879638672" /><trkpt lat="22.49715778125" lon="114.09382079638672" /><trkpt lat="22.49717878125" lon="114.09385279638671" /><trkpt lat="22.49719778125" lon="114.09386279638672" /><trkpt lat="22.49721678125" lon="114.09392279638672" /><trkpt lat="22.49723978125" lon="114.09394579638672" /><trkpt lat="22.49723778125" lon="114.09397079638671" /><trkpt lat="22.49723978125" lon="114.09403079638672" /><trkpt lat="22.49724378125" lon="114.09407279638671" /><trkpt lat="22.49725078125" lon="114.09410479638672" /><trkpt lat="22.49726178125" lon="114.09413379638671" /><trkpt lat="22.49728178125" lon="114.09415779638672" /><trkpt lat="22.49730378125" lon="114.09420379638672" /><trkpt lat="22.49731478125" lon="114.09424979638672" /><trkpt lat="22.49734978125" lon="114.09432579638671" /><trkpt lat="22.49735678125" lon="114.09438879638672" /><trkpt lat="22.49734678125" lon="114.09442279638672" /><trkpt lat="22.49735178125" lon="114.09445979638672" /><trkpt lat="22.49735878125" lon="114.09450279638672" /><trkpt lat="22.49736378125" lon="114.09454979638672" /><trkpt lat="22.49738178125" lon="114.09458079638672" /><trkpt lat="22.49740878125" lon="114.09460279638672" /><trkpt lat="22.49742278125" lon="114.09461779638671" /><trkpt lat="22.49743278125" lon="114.09465979638672" /><trkpt lat="22.49744178125" lon="114.09468179638672" /><trkpt lat="22.49745578125" lon="114.09470579638672" /><trkpt lat="22.49745778125" lon="114.09472679638672" /><trkpt lat="22.49745278125" lon="114.09474879638672" /><trkpt lat="22.49746078125" lon="114.09478379638672" /><trkpt lat="22.49746178125" lon="114.09481579638671" /><trkpt lat="22.49746078125" lon="114.09485479638671" /><trkpt lat="22.49746578125" lon="114.09487679638671" /><trkpt lat="22.49746778125" lon="114.09489979638671" /><trkpt lat="22.49746378125" lon="114.09492779638671" /><trkpt lat="22.49747078125" lon="114.09498679638672" /><trkpt lat="22.49747278125" lon="114.09502379638671" /><trkpt lat="22.49749278125" lon="114.09505879638672" /><trkpt lat="22.49748078125" lon="114.09514079638672" /><trkpt lat="22.49752078125" lon="114.09520379638671" /><trkpt lat="22.49753278125" lon="114.09524979638672" /><trkpt lat="22.49750178125" lon="114.09528579638672" /><trkpt lat="22.49749178125" lon="114.09529979638671" /><trkpt lat="22.49746878125" lon="114.09531479638672" /><trkpt lat="22.49745578125" lon="114.09536979638672" /><trkpt lat="22.49741778125" lon="114.09540979638672" /><trkpt lat="22.49738478125" lon="114.09544479638672" /><trkpt lat="22.49736778125" lon="114.09547979638671" /><trkpt lat="22.49734678125" lon="114.09549579638671" /><trkpt lat="22.49731378125" lon="114.09549679638671" /><trkpt lat="22.49729978125" lon="114.09548679638672" /><trkpt lat="22.49727278125" lon="114.09548179638672" /><trkpt lat="22.49725978125" lon="114.09549479638672" /><trkpt lat="22.49725178125" lon="114.09550379638672" /><trkpt lat="22.49724078125" lon="114.09551979638672" /><trkpt lat="22.49720478125" lon="114.09555079638672" /><trkpt lat="22.49718778125" lon="114.09556179638672" /><trkpt lat="22.49713878125" lon="114.09557379638672" /><trkpt lat="22.49709978125" lon="114.09558179638672" /><trkpt lat="22.49705878125" lon="114.09558979638672" /><trkpt lat="22.49699578125" lon="114.09559679638672" /><trkpt lat="22.49695678125" lon="114.09560279638671" /><trkpt lat="22.49691778125" lon="114.09561879638672" /><trkpt lat="22.49688478125" lon="114.09563779638673" /><trkpt lat="22.49685278125" lon="114.09567279638672" /><trkpt lat="22.49683078125" lon="114.09572579638672" /><trkpt lat="22.49681878125" lon="114.09577379638672" /><trkpt lat="22.49681678125" lon="114.09582879638671" /><trkpt lat="22.49681978125" lon="114.09589179638672" /><trkpt lat="22.49682378125" lon="114.09595579638672" /><trkpt lat="22.49683878125" lon="114.09602579638671" /><trkpt lat="22.49684878125" lon="114.09608379638672" /><trkpt lat="22.49685078125" lon="114.09613079638672" /><trkpt lat="22.49684078125" lon="114.09617379638672" /><trkpt lat="22.49682678125" lon="114.09621079638671" /><trkpt lat="22.49680478125" lon="114.09625379638672" /><trkpt lat="22.49677978125" lon="114.09628279638672" /><trkpt lat="22.49675178125" lon="114.09631679638672" /><trkpt lat="22.49673178125" lon="114.09636379638673" /><trkpt lat="22.49672278125" lon="114.09641379638671" /><trkpt lat="22.49672078125" lon="114.09647479638672" /><trkpt lat="22.49672478125" lon="114.09652079638671" /><trkpt lat="22.49673378125" lon="114.09656679638672" /><trkpt lat="22.49674478125" lon="114.09662279638673" /><trkpt lat="22.49676278125" lon="114.09668879638672" /><trkpt lat="22.49677578125" lon="114.09675579638672" /><trkpt lat="22.49678578125" lon="114.09683279638672" /><trkpt lat="22.49679578125" lon="114.09687679638672" /><trkpt lat="22.49680178125" lon="114.09691079638672" /><trkpt lat="22.49681478125" lon="114.09694179638672" /><trkpt lat="22.49684478125" lon="114.09697379638672" /><trkpt lat="22.49688678125" lon="114.09699379638671" /><trkpt lat="22.49691878125" lon="114.09700179638672" /><trkpt lat="22.49694878125" lon="114.09701079638671" /><trkpt lat="22.49698478125" lon="114.09701479638672" /><trkpt lat="22.49702278125" lon="114.09702679638671" /><trkpt lat="22.49704978125" lon="114.09702979638672" /><trkpt lat="22.49710378125" lon="114.09703979638672" /><trkpt lat="22.49713878125" lon="114.09704579638672" /><trkpt lat="22.49718078125" lon="114.09705779638672" /><trkpt lat="22.49723178125" lon="114.09708079638672" /><trkpt lat="22.49728478125" lon="114.09709979638671" /><trkpt lat="22.49733478125" lon="114.09711679638671" /><trkpt lat="22.49738778125" lon="114.09713579638672" /><trkpt lat="22.49745278125" lon="114.09715379638672" /><trkpt lat="22.49751978125" lon="114.09715679638671" /><trkpt lat="22.49756478125" lon="114.09714679638672" /><trkpt lat="22.49765978125" lon="114.09708979638671" /><trkpt lat="22.49768278125" lon="114.09701379638672" /><trkpt lat="22.49777678125" lon="114.09661179638672" /><trkpt lat="22.49778478125" lon="114.09658379638672" /><trkpt lat="22.49782678125" lon="114.09653579638672" /><trkpt lat="22.49800478125" lon="114.09633879638672" /><trkpt lat="22.49814278125" lon="114.09630679638671" /><trkpt lat="22.49815678125" lon="114.09641879638671" /><trkpt lat="22.49821178125" lon="114.09661679638671" /><trkpt lat="22.49827678125" lon="114.09673979638671" /><trkpt lat="22.49838478125" lon="114.09683779638672" /><trkpt lat="22.49909678125" lon="114.09755079638671" /><trkpt lat="22.49941278125" lon="114.09790479638671" /><trkpt lat="22.49955378125" lon="114.09814679638671" /><trkpt lat="22.49961878125" lon="114.09826079638673" /><trkpt lat="22.49963378125" lon="114.09834679638672" /><trkpt lat="22.49966178125" lon="114.09842979638672" /><trkpt lat="22.49969978125" lon="114.09848979638672" /><trkpt lat="22.49970978125" lon="114.09863379638672" /><trkpt lat="22.49977778125" lon="114.09883879638672" /><trkpt lat="22.49992378125" lon="114.09905179638672" /><trkpt lat="22.50005778125" lon="114.09914679638672" /><trkpt lat="22.50012678125" lon="114.09916579638671" /><trkpt lat="22.50031378125" lon="114.09914479638672" /><trkpt lat="22.50060578125" lon="114.09905079638672" /><trkpt lat="22.50091478125" lon="114.09892979638671" /><trkpt lat="22.50112078125" lon="114.09884679638672" /><trkpt lat="22.50131278125" lon="114.09880879638672" /><trkpt lat="22.50151478125" lon="114.09872279638672" /><trkpt lat="22.50187378125" lon="114.09858579638671" /><trkpt lat="22.50205578125" lon="114.09856479638673" /><trkpt lat="22.50218978125" lon="114.09858379638672" /><trkpt lat="22.50216478125" lon="114.09875979638672" /><trkpt lat="22.502153800167978" lon="114.09883013297609" /></trkseg></trk></gpx>