<?xml version="1.0" encoding="utf-8" standalone="yes"?>
<gpx version="1.1" creator="GPS Visualizer https://www.gpsvisualizer.com/" xmlns="http://www.topografix.com/GPX/1/1" xmlns:xsi="http://www.w3.org/2001/XMLSchema-instance" xsi:schemaLocation="http://www.topografix.com/GPX/1/1 http://www.topografix.com/GPX/1/1/gpx.xsd http://www.garmin.com/xmlschemas/TrackPointExtension/v2 http://www.garmin.com/xmlschemas/TrackPointExtensionv2.xsd http://www.garmin.com/xmlschemas/GpxExtensions/v3 http://www.garmin.com/xmlschemas/GpxExtensionsv3.xsd" xmlns:gpxtpx="http://www.garmin.com/xmlschemas/TrackPointExtension/v2" xmlns:gpxx="http://www.garmin.com/xmlschemas/GpxExtensions/v3">
<wpt lat="22.550075036" lon="114.289972905">
  <name>「軌跡 1」的起點</name>
  <sym>https://www.gstatic.com/mapspro/images/stock/61-green-dot.png</sym>
</wpt>
<wpt lat="22.550663052" lon="114.290373857">
  <name>軌跡 1終點</name>
  <sym>https://www.gstatic.com/mapspro/images/stock/123-red-dot.png</sym>
</wpt>
<trk>
  <name>軌跡 1</name>
  <desc>從匯入資料計算的統計資料&lt;br&gt;&lt;br&gt;距離：5.7 公里</desc>
  <trkseg>
    <trkpt lat="22.550075036" lon="114.289972905"></trkpt>
    <trkpt lat="22.550042781" lon="114.290023796"></trkpt>
    <trkpt lat="22.550061781" lon="114.290036796"></trkpt>
    <trkpt lat="22.550442781" lon="114.290286796"></trkpt>
    <trkpt lat="22.550655781" lon="114.290389796"></trkpt>
    <trkpt lat="22.550552781" lon="114.290554796"></trkpt>
    <trkpt lat="22.550371781" lon="114.290837796"></trkpt>
    <trkpt lat="22.550347781" lon="114.290874796"></trkpt>
    <trkpt lat="22.550306781" lon="114.290918796"></trkpt>
    <trkpt lat="22.550214781" lon="114.291056796"></trkpt>
    <trkpt lat="22.550139781" lon="114.291170796"></trkpt>
    <trkpt lat="22.550035781" lon="114.291426796"></trkpt>
    <trkpt lat="22.549980781" lon="114.291524796"></trkpt>
    <trkpt lat="22.549945781" lon="114.291557796"></trkpt>
    <trkpt lat="22.549933781" lon="114.291568796"></trkpt>
    <trkpt lat="22.549751781" lon="114.291707796"></trkpt>
    <trkpt lat="22.549595781" lon="114.291829796"></trkpt>
    <trkpt lat="22.549463781" lon="114.291849796"></trkpt>
    <trkpt lat="22.549393781" lon="114.291860796"></trkpt>
    <trkpt lat="22.549040781" lon="114.291813796"></trkpt>
    <trkpt lat="22.548831781" lon="114.291816796"></trkpt>
    <trkpt lat="22.548679781" lon="114.291767796"></trkpt>
    <trkpt lat="22.548424781" lon="114.291680796"></trkpt>
    <trkpt lat="22.548302781" lon="114.291640796"></trkpt>
    <trkpt lat="22.548253781" lon="114.291625796"></trkpt>
    <trkpt lat="22.548214781" lon="114.291585796"></trkpt>
    <trkpt lat="22.548137781" lon="114.291416796"></trkpt>
    <trkpt lat="22.548066781" lon="114.291404796"></trkpt>
    <trkpt lat="22.548025781" lon="114.291388796"></trkpt>
    <trkpt lat="22.547775781" lon="114.291179796"></trkpt>
    <trkpt lat="22.547720781" lon="114.291135796"></trkpt>
    <trkpt lat="22.547664781" lon="114.291118796"></trkpt>
    <trkpt lat="22.547611781" lon="114.291121796"></trkpt>
    <trkpt lat="22.547579781" lon="114.291133796"></trkpt>
    <trkpt lat="22.547525781" lon="114.291167796"></trkpt>
    <trkpt lat="22.547468781" lon="114.291239796"></trkpt>
    <trkpt lat="22.547408781" lon="114.291293796"></trkpt>
    <trkpt lat="22.547291781" lon="114.291341796"></trkpt>
    <trkpt lat="22.547197781" lon="114.291344796"></trkpt>
    <trkpt lat="22.546993781" lon="114.291291796"></trkpt>
    <trkpt lat="22.546941781" lon="114.291276796"></trkpt>
    <trkpt lat="22.546884781" lon="114.291144796"></trkpt>
    <trkpt lat="22.546872781" lon="114.291101796"></trkpt>
    <trkpt lat="22.546875781" lon="114.291036796"></trkpt>
    <trkpt lat="22.546876781" lon="114.290903796"></trkpt>
    <trkpt lat="22.546852781" lon="114.290786796"></trkpt>
    <trkpt lat="22.546767781" lon="114.290684796"></trkpt>
    <trkpt lat="22.546582781" lon="114.290587796"></trkpt>
    <trkpt lat="22.546495781" lon="114.290552796"></trkpt>
    <trkpt lat="22.546446781" lon="114.290547796"></trkpt>
    <trkpt lat="22.546411781" lon="114.290561796"></trkpt>
    <trkpt lat="22.546368781" lon="114.290590796"></trkpt>
    <trkpt lat="22.546313781" lon="114.290656796"></trkpt>
    <trkpt lat="22.546293781" lon="114.290696796"></trkpt>
    <trkpt lat="22.546276781" lon="114.290728796"></trkpt>
    <trkpt lat="22.546260781" lon="114.290797796"></trkpt>
    <trkpt lat="22.546255781" lon="114.291274796"></trkpt>
    <trkpt lat="22.546302781" lon="114.291312796"></trkpt>
    <trkpt lat="22.546432781" lon="114.291444796"></trkpt>
    <trkpt lat="22.546504781" lon="114.291499796"></trkpt>
    <trkpt lat="22.546545781" lon="114.291490796"></trkpt>
    <trkpt lat="22.546591781" lon="114.291468796"></trkpt>
    <trkpt lat="22.546612781" lon="114.291445796"></trkpt>
    <trkpt lat="22.546636781" lon="114.291434796"></trkpt>
    <trkpt lat="22.546662781" lon="114.291445796"></trkpt>
    <trkpt lat="22.546715781" lon="114.291481796"></trkpt>
    <trkpt lat="22.546733781" lon="114.291493796"></trkpt>
    <trkpt lat="22.546786781" lon="114.291560796"></trkpt>
    <trkpt lat="22.546823781" lon="114.291645796"></trkpt>
    <trkpt lat="22.546867781" lon="114.291641796"></trkpt>
    <trkpt lat="22.546918781" lon="114.291647796"></trkpt>
    <trkpt lat="22.546964781" lon="114.291640796"></trkpt>
    <trkpt lat="22.546919781" lon="114.291754796"></trkpt>
    <trkpt lat="22.546865781" lon="114.291872796"></trkpt>
    <trkpt lat="22.546827781" lon="114.292040796"></trkpt>
    <trkpt lat="22.546807781" lon="114.292164796"></trkpt>
    <trkpt lat="22.546836781" lon="114.292326796"></trkpt>
    <trkpt lat="22.546905781" lon="114.292680796"></trkpt>
    <trkpt lat="22.546926781" lon="114.292835796"></trkpt>
    <trkpt lat="22.546936781" lon="114.293002796"></trkpt>
    <trkpt lat="22.546903781" lon="114.293082796"></trkpt>
    <trkpt lat="22.546796781" lon="114.293329796"></trkpt>
    <trkpt lat="22.546690781" lon="114.293503796"></trkpt>
    <trkpt lat="22.546313781" lon="114.293648796"></trkpt>
    <trkpt lat="22.545920781" lon="114.293335796"></trkpt>
    <trkpt lat="22.545576781" lon="114.293282796"></trkpt>
    <trkpt lat="22.545271781" lon="114.293437796"></trkpt>
    <trkpt lat="22.544982781" lon="114.293426796"></trkpt>
    <trkpt lat="22.544903781" lon="114.293386796"></trkpt>
    <trkpt lat="22.544588781" lon="114.293372796"></trkpt>
    <trkpt lat="22.544561781" lon="114.293426796"></trkpt>
    <trkpt lat="22.544105781" lon="114.293421796"></trkpt>
    <trkpt lat="22.543860781" lon="114.293544796"></trkpt>
    <trkpt lat="22.543582781" lon="114.293488796"></trkpt>
    <trkpt lat="22.543439781" lon="114.293474796"></trkpt>
    <trkpt lat="22.543089781" lon="114.293244796"></trkpt>
    <trkpt lat="22.543015781" lon="114.293271796"></trkpt>
    <trkpt lat="22.542886781" lon="114.293281796"></trkpt>
    <trkpt lat="22.542828781" lon="114.293352796"></trkpt>
    <trkpt lat="22.542556781" lon="114.293810796"></trkpt>
    <trkpt lat="22.542411781" lon="114.294022796"></trkpt>
    <trkpt lat="22.542368781" lon="114.294309796"></trkpt>
    <trkpt lat="22.542231781" lon="114.294642796"></trkpt>
    <trkpt lat="22.541852781" lon="114.294827796"></trkpt>
    <trkpt lat="22.541587781" lon="114.295203796"></trkpt>
    <trkpt lat="22.541302781" lon="114.295270796"></trkpt>
    <trkpt lat="22.541037781" lon="114.295516796"></trkpt>
    <trkpt lat="22.540870781" lon="114.295644796"></trkpt>
    <trkpt lat="22.540534781" lon="114.295728796"></trkpt>
    <trkpt lat="22.540296781" lon="114.295739796"></trkpt>
    <trkpt lat="22.540159781" lon="114.295746796"></trkpt>
    <trkpt lat="22.539999781" lon="114.295836796"></trkpt>
    <trkpt lat="22.539918781" lon="114.295870796"></trkpt>
    <trkpt lat="22.539749781" lon="114.295884796"></trkpt>
    <trkpt lat="22.539474781" lon="114.296074796"></trkpt>
    <trkpt lat="22.539390781" lon="114.296157796"></trkpt>
    <trkpt lat="22.539225781" lon="114.296124796"></trkpt>
    <trkpt lat="22.539104781" lon="114.296045796"></trkpt>
    <trkpt lat="22.538917781" lon="114.295840796"></trkpt>
    <trkpt lat="22.538773781" lon="114.295828796"></trkpt>
    <trkpt lat="22.538577781" lon="114.296045796"></trkpt>
    <trkpt lat="22.538487781" lon="114.296071796"></trkpt>
    <trkpt lat="22.538274781" lon="114.295837796"></trkpt>
    <trkpt lat="22.538120781" lon="114.295674796"></trkpt>
    <trkpt lat="22.538150781" lon="114.295470796"></trkpt>
    <trkpt lat="22.538184781" lon="114.295148796"></trkpt>
    <trkpt lat="22.538378781" lon="114.294875796"></trkpt>
    <trkpt lat="22.538526781" lon="114.294767796"></trkpt>
    <trkpt lat="22.538610781" lon="114.294612796"></trkpt>
    <trkpt lat="22.538724781" lon="114.294526796"></trkpt>
    <trkpt lat="22.538719781" lon="114.294424796"></trkpt>
    <trkpt lat="22.538610781" lon="114.294279796"></trkpt>
    <trkpt lat="22.538417781" lon="114.294091796"></trkpt>
    <trkpt lat="22.538387781" lon="114.293925796"></trkpt>
    <trkpt lat="22.538224781" lon="114.293759796"></trkpt>
    <trkpt lat="22.538184781" lon="114.293582796"></trkpt>
    <trkpt lat="22.538120781" lon="114.293458796"></trkpt>
    <trkpt lat="22.538100781" lon="114.293185796"></trkpt>
    <trkpt lat="22.538070781" lon="114.293099796"></trkpt>
    <trkpt lat="22.537907781" lon="114.292831796"></trkpt>
    <trkpt lat="22.537887781" lon="114.292568796"></trkpt>
    <trkpt lat="22.537768781" lon="114.292300796"></trkpt>
    <trkpt lat="22.537525781" lon="114.292262796"></trkpt>
    <trkpt lat="22.537367781" lon="114.292267796"></trkpt>
    <trkpt lat="22.537183781" lon="114.291924796"></trkpt>
    <trkpt lat="22.537104781" lon="114.291699796"></trkpt>
    <trkpt lat="22.537065781" lon="114.291523796"></trkpt>
    <trkpt lat="22.537337781" lon="114.291034796"></trkpt>
    <trkpt lat="22.537337781" lon="114.290776796"></trkpt>
    <trkpt lat="22.537431781" lon="114.290529796"></trkpt>
    <trkpt lat="22.537372781" lon="114.290481796"></trkpt>
    <trkpt lat="22.537347781" lon="114.290202796"></trkpt>
    <trkpt lat="22.537129781" lon="114.290052796"></trkpt>
    <trkpt lat="22.536797781" lon="114.289853796"></trkpt>
    <trkpt lat="22.536502781" lon="114.289631796"></trkpt>
    <trkpt lat="22.536407781" lon="114.289593796"></trkpt>
    <trkpt lat="22.536167243" lon="114.289406524"></trkpt>
    <trkpt lat="22.536347803" lon="114.289348058"></trkpt>
    <trkpt lat="22.53652028" lon="114.28925593"></trkpt>
    <trkpt lat="22.536461983" lon="114.28961741"></trkpt>
    <trkpt lat="22.536466183" lon="114.289632907"></trkpt>
    <trkpt lat="22.536464484" lon="114.28963979"></trkpt>
    <trkpt lat="22.536470002" lon="114.289653231"></trkpt>
    <trkpt lat="22.536464041" lon="114.289660965"></trkpt>
    <trkpt lat="22.536467807" lon="114.289669666"></trkpt>
    <trkpt lat="22.536466479" lon="114.289673604"></trkpt>
    <trkpt lat="22.536471311" lon="114.289679143"></trkpt>
    <trkpt lat="22.536469151" lon="114.289685544"></trkpt>
    <trkpt lat="22.536489328" lon="114.289626416"></trkpt>
    <trkpt lat="22.536502781" lon="114.289631796"></trkpt>
    <trkpt lat="22.536797781" lon="114.289853796"></trkpt>
    <trkpt lat="22.537129781" lon="114.290052796"></trkpt>
    <trkpt lat="22.537347781" lon="114.290202796"></trkpt>
    <trkpt lat="22.537372781" lon="114.290481796"></trkpt>
    <trkpt lat="22.537431781" lon="114.290529796"></trkpt>
    <trkpt lat="22.537337781" lon="114.290776796"></trkpt>
    <trkpt lat="22.537337781" lon="114.291034796"></trkpt>
    <trkpt lat="22.537065781" lon="114.291523796"></trkpt>
    <trkpt lat="22.537104781" lon="114.291699796"></trkpt>
    <trkpt lat="22.537183781" lon="114.291924796"></trkpt>
    <trkpt lat="22.537367781" lon="114.292267796"></trkpt>
    <trkpt lat="22.537525781" lon="114.292262796"></trkpt>
    <trkpt lat="22.537768781" lon="114.292300796"></trkpt>
    <trkpt lat="22.537887781" lon="114.292568796"></trkpt>
    <trkpt lat="22.537907781" lon="114.292831796"></trkpt>
    <trkpt lat="22.538070781" lon="114.293099796"></trkpt>
    <trkpt lat="22.538100781" lon="114.293185796"></trkpt>
    <trkpt lat="22.538120781" lon="114.293458796"></trkpt>
    <trkpt lat="22.538184781" lon="114.293582796"></trkpt>
    <trkpt lat="22.538224781" lon="114.293759796"></trkpt>
    <trkpt lat="22.538387781" lon="114.293925796"></trkpt>
    <trkpt lat="22.538417781" lon="114.294091796"></trkpt>
    <trkpt lat="22.538610781" lon="114.294279796"></trkpt>
    <trkpt lat="22.538719781" lon="114.294424796"></trkpt>
    <trkpt lat="22.538724781" lon="114.294526796"></trkpt>
    <trkpt lat="22.538610781" lon="114.294612796"></trkpt>
    <trkpt lat="22.538526781" lon="114.294767796"></trkpt>
    <trkpt lat="22.538378781" lon="114.294875796"></trkpt>
    <trkpt lat="22.538184781" lon="114.295148796"></trkpt>
    <trkpt lat="22.538150781" lon="114.295470796"></trkpt>
    <trkpt lat="22.538120781" lon="114.295674796"></trkpt>
    <trkpt lat="22.538274781" lon="114.295837796"></trkpt>
    <trkpt lat="22.538487781" lon="114.296071796"></trkpt>
    <trkpt lat="22.538577781" lon="114.296045796"></trkpt>
    <trkpt lat="22.538773781" lon="114.295828796"></trkpt>
    <trkpt lat="22.538917781" lon="114.295840796"></trkpt>
    <trkpt lat="22.539126781" lon="114.295727796"></trkpt>
    <trkpt lat="22.539210781" lon="114.295567796"></trkpt>
    <trkpt lat="22.539289781" lon="114.295314796"></trkpt>
    <trkpt lat="22.539423781" lon="114.295100796"></trkpt>
    <trkpt lat="22.539681781" lon="114.294966796"></trkpt>
    <trkpt lat="22.539800781" lon="114.295057796"></trkpt>
    <trkpt lat="22.539933781" lon="114.295041796"></trkpt>
    <trkpt lat="22.540062781" lon="114.294875796"></trkpt>
    <trkpt lat="22.540141781" lon="114.294703796"></trkpt>
    <trkpt lat="22.540136781" lon="114.294622796"></trkpt>
    <trkpt lat="22.540226781" lon="114.294370796"></trkpt>
    <trkpt lat="22.540444781" lon="114.294113796"></trkpt>
    <trkpt lat="22.540840781" lon="114.293753796"></trkpt>
    <trkpt lat="22.541095781" lon="114.293641796"></trkpt>
    <trkpt lat="22.541729781" lon="114.293354796"></trkpt>
    <trkpt lat="22.542131781" lon="114.293303796"></trkpt>
    <trkpt lat="22.542312781" lon="114.293354796"></trkpt>
    <trkpt lat="22.542606781" lon="114.293381796"></trkpt>
    <trkpt lat="22.542725781" lon="114.293327796"></trkpt>
    <trkpt lat="22.542828781" lon="114.293352796"></trkpt>
    <trkpt lat="22.542886781" lon="114.293281796"></trkpt>
    <trkpt lat="22.542967781" lon="114.293140796"></trkpt>
    <trkpt lat="22.543084781" lon="114.292930796"></trkpt>
    <trkpt lat="22.543156781" lon="114.292878796"></trkpt>
    <trkpt lat="22.543322781" lon="114.292755796"></trkpt>
    <trkpt lat="22.543503781" lon="114.292764796"></trkpt>
    <trkpt lat="22.543636781" lon="114.292690796"></trkpt>
    <trkpt lat="22.543779781" lon="114.292620796"></trkpt>
    <trkpt lat="22.543860781" lon="114.292557796"></trkpt>
    <trkpt lat="22.543939781" lon="114.292552796"></trkpt>
    <trkpt lat="22.544072781" lon="114.292510796"></trkpt>
    <trkpt lat="22.544269781" lon="114.292441796"></trkpt>
    <trkpt lat="22.544374781" lon="114.292441796"></trkpt>
    <trkpt lat="22.544458781" lon="114.292460796"></trkpt>
    <trkpt lat="22.544568781" lon="114.292487796"></trkpt>
    <trkpt lat="22.544705781" lon="114.292481796"></trkpt>
    <trkpt lat="22.544908781" lon="114.292365796"></trkpt>
    <trkpt lat="22.545100781" lon="114.292329796"></trkpt>
    <trkpt lat="22.545383781" lon="114.292229796"></trkpt>
    <trkpt lat="22.545616781" lon="114.292150796"></trkpt>
    <trkpt lat="22.545836781" lon="114.292123796"></trkpt>
    <trkpt lat="22.545936781" lon="114.292148796"></trkpt>
    <trkpt lat="22.545992781" lon="114.292158796"></trkpt>
    <trkpt lat="22.546053781" lon="114.292156796"></trkpt>
    <trkpt lat="22.546184781" lon="114.292137796"></trkpt>
    <trkpt lat="22.546353781" lon="114.292148796"></trkpt>
    <trkpt lat="22.546357781" lon="114.292099796"></trkpt>
    <trkpt lat="22.546357781" lon="114.292034796"></trkpt>
    <trkpt lat="22.546373781" lon="114.291995796"></trkpt>
    <trkpt lat="22.546501781" lon="114.291854796"></trkpt>
    <trkpt lat="22.546552781" lon="114.291815796"></trkpt>
    <trkpt lat="22.546621781" lon="114.291763796"></trkpt>
    <trkpt lat="22.546670781" lon="114.291705796"></trkpt>
    <trkpt lat="22.546698781" lon="114.291682796"></trkpt>
    <trkpt lat="22.546719781" lon="114.291671796"></trkpt>
    <trkpt lat="22.546746781" lon="114.291658796"></trkpt>
    <trkpt lat="22.546823781" lon="114.291645796"></trkpt>
    <trkpt lat="22.546867781" lon="114.291641796"></trkpt>
    <trkpt lat="22.546918781" lon="114.291647796"></trkpt>
    <trkpt lat="22.546964781" lon="114.291640796"></trkpt>
    <trkpt lat="22.546970781" lon="114.291639796"></trkpt>
    <trkpt lat="22.547020781" lon="114.291635796"></trkpt>
    <trkpt lat="22.547029781" lon="114.291631796"></trkpt>
    <trkpt lat="22.547065781" lon="114.291613796"></trkpt>
    <trkpt lat="22.547152781" lon="114.291581796"></trkpt>
    <trkpt lat="22.547213781" lon="114.291571796"></trkpt>
    <trkpt lat="22.547285781" lon="114.291579796"></trkpt>
    <trkpt lat="22.547348781" lon="114.291565796"></trkpt>
    <trkpt lat="22.547533781" lon="114.291495796"></trkpt>
    <trkpt lat="22.547593781" lon="114.291442796"></trkpt>
    <trkpt lat="22.547647781" lon="114.291421796"></trkpt>
    <trkpt lat="22.547793781" lon="114.291392796"></trkpt>
    <trkpt lat="22.548025781" lon="114.291388796"></trkpt>
    <trkpt lat="22.548066781" lon="114.291404796"></trkpt>
    <trkpt lat="22.548137781" lon="114.291416796"></trkpt>
    <trkpt lat="22.548214781" lon="114.291585796"></trkpt>
    <trkpt lat="22.548253781" lon="114.291625796"></trkpt>
    <trkpt lat="22.548302781" lon="114.291640796"></trkpt>
    <trkpt lat="22.548424781" lon="114.291680796"></trkpt>
    <trkpt lat="22.548679781" lon="114.291767796"></trkpt>
    <trkpt lat="22.548831781" lon="114.291816796"></trkpt>
    <trkpt lat="22.549040781" lon="114.291813796"></trkpt>
    <trkpt lat="22.549393781" lon="114.291860796"></trkpt>
    <trkpt lat="22.549463781" lon="114.291849796"></trkpt>
    <trkpt lat="22.549480781" lon="114.291847796"></trkpt>
    <trkpt lat="22.549595781" lon="114.291829796"></trkpt>
    <trkpt lat="22.549751781" lon="114.291707796"></trkpt>
    <trkpt lat="22.549945781" lon="114.291557796"></trkpt>
    <trkpt lat="22.549980781" lon="114.291524796"></trkpt>
    <trkpt lat="22.550035781" lon="114.291426796"></trkpt>
    <trkpt lat="22.550139781" lon="114.291170796"></trkpt>
    <trkpt lat="22.550214781" lon="114.291056796"></trkpt>
    <trkpt lat="22.550306781" lon="114.290918796"></trkpt>
    <trkpt lat="22.550347781" lon="114.290874796"></trkpt>
    <trkpt lat="22.550371781" lon="114.290837796"></trkpt>
    <trkpt lat="22.550552781" lon="114.290554796"></trkpt>
    <trkpt lat="22.550655781" lon="114.290389796"></trkpt>
    <trkpt lat="22.550663052" lon="114.290373857"></trkpt>
  </trkseg>
</trk>
</gpx>
