<?xml version='1.0' encoding='UTF-8' ?><gpx version="1.1" creator="HikingTrailHK" xsi:schemaLocation="http://www.topografix.com/GPX/1/1 http://www.topografix.com/GPX/1/1/gpx.xsd" xmlns="http://www.topografix.com/GPX/1/1" xmlns:xsi="http://www.w3.org/2001/XMLSchema-instance"><metadata><name>吉澳鴨洲 @ 2023-10-23</name><desc></desc></metadata><trk><trkseg><trkpt lat="22.550420146583534" lon="114.2698240012685" /><trkpt lat="22.55041078125" lon="114.27006579638672" /><trkpt lat="22.55040578125" lon="114.27018079638673" /><trkpt lat="22.55053378125" lon="114.27023579638671" /><trkpt lat="22.55078478125" lon="114.27031279638672" /><trkpt lat="22.55084678125" lon="114.27030479638672" /><trkpt lat="22.55093178125" lon="114.27027479638672" /><trkpt lat="22.55105378125" lon="114.27021979638671" /><trkpt lat="22.55115678125" lon="114.27017379638671" /><trkpt lat="22.55117778125" lon="114.27013179638672" /><trkpt lat="22.55128778125" lon="114.26978979638672" /><trkpt lat="22.551524458625206" lon="114.26986415127107" /><trkpt lat="22.5515827722667" lon="114.26964692118855" /><trkpt lat="22.55159375159795" lon="114.26958544519485" /><trkpt lat="22.55150578125" lon="114.26955279638672" /><trkpt lat="22.55141278125" lon="114.26951879638672" /><trkpt lat="22.55138978125" lon="114.26948979638672" /><trkpt lat="22.55135578125" lon="114.26947579638671" /><trkpt lat="22.55142578125" lon="114.26925979638672" /><trkpt lat="22.55133278125" lon="114.26922179638672" /><trkpt lat="22.55133878125" lon="114.26914379638671" /><trkpt lat="22.55138178125" lon="114.26900479638672" /><trkpt lat="22.55144678125" lon="114.26889179638673" /><trkpt lat="22.55151878125" lon="114.26880879638672" /><trkpt lat="22.55160178125" lon="114.26875979638672" /><trkpt lat="22.55162178125" lon="114.26875679638673" /><trkpt lat="22.55164278125" lon="114.26875679638673" /><trkpt lat="22.55167078125" lon="114.26874879638672" /><trkpt lat="22.55169078125" lon="114.26873379638671" /><trkpt lat="22.55182778125" lon="114.26863379638672" /><trkpt lat="22.55189378125" lon="114.26860279638672" /><trkpt lat="22.55195178125" lon="114.26859579638672" /><trkpt lat="22.55209178125" lon="114.26857279638672" /><trkpt lat="22.55225678125" lon="114.26851779638672" /><trkpt lat="22.55244478125" lon="114.26843079638672" /><trkpt lat="22.55279878125" lon="114.26826679638671" /><trkpt lat="22.55283478125" lon="114.26826279638672" /><trkpt lat="22.55310178125" lon="114.26822979638672" /><trkpt lat="22.55319678125" lon="114.26813179638673" /><trkpt lat="22.55320578125" lon="114.26812179638672" /><trkpt lat="22.55332178125" lon="114.26793179638672" /><trkpt lat="22.55351478125" lon="114.26779279638671" /><trkpt lat="22.55357178125" lon="114.26796179638671" /><trkpt lat="22.55356478125" lon="114.26823179638671" /><trkpt lat="22.55345778125" lon="114.26829079638672" /><trkpt lat="22.55337378125" lon="114.26833679638672" /><trkpt lat="22.55298778125" lon="114.26860479638673" /><trkpt lat="22.55260078125" lon="114.26898079638671" /><trkpt lat="22.55230778125" lon="114.26947679638671" /><trkpt lat="22.55226678125" lon="114.26954679638672" /><trkpt lat="22.55196478125" lon="114.26972879638672" /><trkpt lat="22.55171678125" lon="114.27006379638672" /><trkpt lat="22.55151078125" lon="114.27036379638672" /><trkpt lat="22.55140327697427" lon="114.27052115851207" /><trkpt lat="22.55082456355109" lon="114.27089104600708" /><trkpt lat="22.55071747485377" lon="114.27089989229307" /><trkpt lat="22.550698062459787" lon="114.27084672309797" /><trkpt lat="22.55035940852609" lon="114.27075734310755" /><trkpt lat="22.55035578125" lon="114.27074979638672" /><trkpt lat="22.55032678125" lon="114.27072379638672" /><trkpt lat="22.55030978125" lon="114.27071979638671" /><trkpt lat="22.55007878125" lon="114.27067479638671" /><trkpt lat="22.55002778125" lon="114.27065479638672" /><trkpt lat="22.54998878125" lon="114.27062479638671" /><trkpt lat="22.54994478125" lon="114.27056579638672" /><trkpt lat="22.54993478125" lon="114.27049479638671" /><trkpt lat="22.54997178125" lon="114.27033879638672" /><trkpt lat="22.55001878125" lon="114.27028179638671" /><trkpt lat="22.55018478125" lon="114.27020679638672" /><trkpt lat="22.55028978125" lon="114.27016279638671" /><trkpt lat="22.55040578125" lon="114.27018079638673" /><trkpt lat="22.55053378125" lon="114.27023579638671" /><trkpt lat="22.55078478125" lon="114.27031279638672" /><trkpt lat="22.55084678125" lon="114.27030479638672" /><trkpt lat="22.55093178125" lon="114.27027479638672" /><trkpt lat="22.55105378125" lon="114.27021979638671" /><trkpt lat="22.55115678125" lon="114.27017379638671" /><trkpt lat="22.55118978125" lon="114.27016079638672" /><trkpt lat="22.55120478125" lon="114.27015379638672" /><trkpt lat="22.55128178125" lon="114.27017879638672" /><trkpt lat="22.551387360979678" lon="114.26982022354458" /><trkpt lat="22.55150378125" lon="114.26985579638672" /><trkpt lat="22.55160278125" lon="114.26989579638672" /><trkpt lat="22.55166778125" lon="114.26993279638671" /><trkpt lat="22.55165078125" lon="114.26997879638672" /><trkpt lat="22.55154578125" lon="114.27010279638672" /><trkpt lat="22.55152978125" lon="114.27012179638672" /><trkpt lat="22.55147578125" lon="114.27018779638672" /><trkpt lat="22.55123778125" lon="114.27041479638672" /><trkpt lat="22.55111378125" lon="114.27051579638672" /><trkpt lat="22.55098978125" lon="114.27059179638673" /><trkpt lat="22.55092578125" lon="114.27062979638671" /><trkpt lat="22.55082978125" lon="114.27067179638672" /><trkpt lat="22.55068643604568" lon="114.27067763186591" /><trkpt lat="22.55064025670542" lon="114.27064985983242" /><trkpt lat="22.55063490341915" lon="114.27063245501427" /><trkpt lat="22.550649177445976" lon="114.27057494015628" /><trkpt lat="22.55071209807933" lon="114.27057119879589" /><trkpt lat="22.55074137146572" lon="114.27061300989556" /><trkpt lat="22.55074532816959" lon="114.27067531846251" /><trkpt lat="22.55079278125" lon="114.27067479638671" /><trkpt lat="22.55082978125" lon="114.27067179638672" /><trkpt lat="22.55085878125" lon="114.27066079638672" /><trkpt lat="22.55092578125" lon="114.27062979638671" /><trkpt lat="22.55098978125" lon="114.27059179638673" /><trkpt lat="22.55101478125" lon="114.27057679638672" /><trkpt lat="22.55111378125" lon="114.27051579638672" /><trkpt lat="22.55123778125" lon="114.27041479638672" /><trkpt lat="22.55147578125" lon="114.27018779638672" /><trkpt lat="22.55152978125" lon="114.27012179638672" /><trkpt lat="22.55154578125" lon="114.27010279638672" /><trkpt lat="22.55165078125" lon="114.26997879638672" /><trkpt lat="22.55165778125" lon="114.26996879638672" /><trkpt lat="22.55166778125" lon="114.26993279638671" /><trkpt lat="22.55160278125" lon="114.26989579638672" /><trkpt lat="22.55150378125" lon="114.26985579638672" /><trkpt lat="22.55128778125" lon="114.26978979638672" /><trkpt lat="22.55117778125" lon="114.27013179638672" /><trkpt lat="22.55115678125" lon="114.27017379638671" /><trkpt lat="22.55105378125" lon="114.27021979638671" /><trkpt lat="22.55093178125" lon="114.27027479638672" /><trkpt lat="22.55084678125" lon="114.27030479638672" /><trkpt lat="22.55078478125" lon="114.27031279638672" /><trkpt lat="22.55053378125" lon="114.27023579638671" /><trkpt lat="22.55040578125" lon="114.27018079638673" /><trkpt lat="22.55041078125" lon="114.27006579638672" /><trkpt lat="22.55041720606744" lon="114.26989992079936" /></trkseg><trkseg><trkpt lat="22.55009181001356" lon="114.29005650015263" /><trkpt lat="22.55044278125" lon="114.29028679638672" /><trkpt lat="22.55065578125" lon="114.29038979638672" /><trkpt lat="22.55070778125" lon="114.29027579638672" /><trkpt lat="22.55078178125" lon="114.29014479638671" /><trkpt lat="22.55085878125" lon="114.29006079638671" /><trkpt lat="22.55093978125" lon="114.29013679638672" /><trkpt lat="22.55102078125" lon="114.29016179638671" /><trkpt lat="22.55135578125" lon="114.29013579638672" /><trkpt lat="22.55134878125" lon="114.29022879638671" /><trkpt lat="22.55133978125" lon="114.29031079638672" /><trkpt lat="22.55138078125" lon="114.29037779638672" /><trkpt lat="22.55145478125" lon="114.29041679638672" /><trkpt lat="22.55156778125" lon="114.29034379638672" /><trkpt lat="22.55161778125" lon="114.29029179638673" /><trkpt lat="22.55166478125" lon="114.29023179638672" /><trkpt lat="22.55182278125" lon="114.29023079638672" /><trkpt lat="22.55185478125" lon="114.29026879638671" /><trkpt lat="22.55195878125" lon="114.29025779638671" /><trkpt lat="22.55207778125" lon="114.29026579638672" /><trkpt lat="22.55214078125" lon="114.29029179638673" /><trkpt lat="22.55216778125" lon="114.29030879638673" /><trkpt lat="22.55230278125" lon="114.29039879638673" /><trkpt lat="22.55237778125" lon="114.29048379638672" /><trkpt lat="22.55249078125" lon="114.29060579638671" /><trkpt lat="22.55254878125" lon="114.29070779638671" /><trkpt lat="22.55255478125" lon="114.29082779638672" /><trkpt lat="22.55259378125" lon="114.29090279638672" /><trkpt lat="22.55269978125" lon="114.29096479638672" /><trkpt lat="22.55291778125" lon="114.29101179638671" /><trkpt lat="22.55296878125" lon="114.29104979638672" /><trkpt lat="22.55301678125" lon="114.29105179638672" /><trkpt lat="22.55312978125" lon="114.29104479638671" /><trkpt lat="22.553182366714026" lon="114.2910215167081" /><trkpt lat="22.553190250776353" lon="114.29096274185844" /><trkpt lat="22.553153906122375" lon="114.29089581086703" /><trkpt lat="22.553108464520903" lon="114.29093593857732" /><trkpt lat="22.553049067774708" lon="114.29104979661271" /><trkpt lat="22.55301678125" lon="114.29105179638672" /><trkpt lat="22.55296878125" lon="114.29104979638672" /><trkpt lat="22.55291778125" lon="114.29101179638671" /><trkpt lat="22.55269978125" lon="114.29096479638672" /><trkpt lat="22.55259378125" lon="114.29090279638672" /><trkpt lat="22.55255478125" lon="114.29082779638672" /><trkpt lat="22.55254878125" lon="114.29070779638671" /><trkpt lat="22.55249078125" lon="114.29060579638671" /><trkpt lat="22.55237778125" lon="114.29048379638672" /><trkpt lat="22.55230278125" lon="114.29039879638673" /><trkpt lat="22.55216778125" lon="114.29030879638673" /><trkpt lat="22.55214078125" lon="114.29029179638673" /><trkpt lat="22.55207778125" lon="114.29026579638672" /><trkpt lat="22.55195878125" lon="114.29025779638671" /><trkpt lat="22.55185478125" lon="114.29026879638671" /><trkpt lat="22.55182278125" lon="114.29023079638672" /><trkpt lat="22.55166478125" lon="114.29023179638672" /><trkpt lat="22.55161778125" lon="114.29029179638673" /><trkpt lat="22.55156778125" lon="114.29034379638672" /><trkpt lat="22.55145478125" lon="114.29041679638672" /><trkpt lat="22.55138078125" lon="114.29037779638672" /><trkpt lat="22.55133978125" lon="114.29031079638672" /><trkpt lat="22.55134878125" lon="114.29022879638671" /><trkpt lat="22.55135578125" lon="114.29013579638672" /><trkpt lat="22.55102078125" lon="114.29016179638671" /><trkpt lat="22.55093978125" lon="114.29013679638672" /><trkpt lat="22.55085878125" lon="114.29006079638671" /><trkpt lat="22.55112578125" lon="114.28976879638672" /><trkpt lat="22.55118278125" lon="114.28970779638672" /><trkpt lat="22.55160878125" lon="114.28931679638671" /><trkpt lat="22.55180978125" lon="114.28913879638672" /><trkpt lat="22.55195478125" lon="114.28904279638672" /><trkpt lat="22.55217978125" lon="114.28897479638673" /><trkpt lat="22.55228378125" lon="114.28895179638671" /><trkpt lat="22.55232778125" lon="114.28894179638672" /><trkpt lat="22.55238478125" lon="114.28889779638672" /><trkpt lat="22.55242678125" lon="114.28885679638672" /><trkpt lat="22.55261978125" lon="114.28876579638671" /><trkpt lat="22.55264978125" lon="114.28873779638671" /><trkpt lat="22.55270378125" lon="114.28870679638672" /><trkpt lat="22.55272278125" lon="114.28866479638671" /><trkpt lat="22.55291178125" lon="114.28858779638672" /><trkpt lat="22.55301278125" lon="114.28853179638672" /><trkpt lat="22.55303178125" lon="114.28851279638671" /><trkpt lat="22.55304478125" lon="114.28848179638672" /><trkpt lat="22.55304578125" lon="114.28846279638672" /><trkpt lat="22.55313887888658" lon="114.28843999873573" /><trkpt lat="22.553068057094947" lon="114.28850646819257" /><trkpt lat="22.55303884305168" lon="114.28849595321967" /><trkpt lat="22.55303178125" lon="114.28851279638671" /><trkpt lat="22.55301278125" lon="114.28853179638672" /><trkpt lat="22.55291178125" lon="114.28858779638672" /><trkpt lat="22.55272278125" lon="114.28866479638671" /><trkpt lat="22.55270378125" lon="114.28870679638672" /><trkpt lat="22.55264978125" lon="114.28873779638671" /><trkpt lat="22.55261978125" lon="114.28876579638671" /><trkpt lat="22.55242678125" lon="114.28885679638672" /><trkpt lat="22.55238478125" lon="114.28889779638672" /><trkpt lat="22.552322354298568" lon="114.28896324168163" /><trkpt lat="22.55228378125" lon="114.28895179638671" /><trkpt lat="22.55217978125" lon="114.28897479638673" /><trkpt lat="22.55195478125" lon="114.28904279638672" /><trkpt lat="22.55180978125" lon="114.28913879638672" /><trkpt lat="22.55160878125" lon="114.28931679638671" /><trkpt lat="22.55118278125" lon="114.28970779638672" /><trkpt lat="22.55112578125" lon="114.28976879638672" /><trkpt lat="22.55085878125" lon="114.29006079638671" /><trkpt lat="22.55078178125" lon="114.29014479638671" /><trkpt lat="22.55070778125" lon="114.29027579638672" /><trkpt lat="22.55065578125" lon="114.29038979638672" /><trkpt lat="22.55055278125" lon="114.29055479638671" /><trkpt lat="22.55037178125" lon="114.29083779638673" /><trkpt lat="22.55053278125" lon="114.29097479638672" /><trkpt lat="22.55056978125" lon="114.29099679638672" /><trkpt lat="22.55060478125" lon="114.29101579638672" /><trkpt lat="22.55065778125" lon="114.29102579638672" /><trkpt lat="22.55072378125" lon="114.29103479638673" /><trkpt lat="22.55079178125" lon="114.29102979638672" /><trkpt lat="22.55079478125" lon="114.29105279638672" /><trkpt lat="22.55075478125" lon="114.29117079638672" /><trkpt lat="22.55070178125" lon="114.29126679638672" /><trkpt lat="22.55066278125" lon="114.29131779638672" /><trkpt lat="22.55063078125" lon="114.29133779638671" /><trkpt lat="22.55056878125" lon="114.29134679638672" /><trkpt lat="22.550506060921805" lon="114.2914119528296" /><trkpt lat="22.5504307550481" lon="114.2915381945108" /><trkpt lat="22.55038678125" lon="114.29154679638673" /><trkpt lat="22.55035078125" lon="114.29157379638671" /><trkpt lat="22.55030878125" lon="114.29163179638672" /><trkpt lat="22.55022078125" lon="114.29172679638671" /><trkpt lat="22.55017778125" lon="114.29176579638671" /><trkpt lat="22.55037678125" lon="114.29204679638671" /><trkpt lat="22.55043678125" lon="114.29213979638672" /><trkpt lat="22.55045078125" lon="114.29231779638671" /><trkpt lat="22.55050678125" lon="114.29249879638672" /><trkpt lat="22.55063578125" lon="114.29268379638673" /><trkpt lat="22.55064078125" lon="114.29280479638672" /><trkpt lat="22.55081378125" lon="114.29303479638672" /><trkpt lat="22.55079978125" lon="114.29317979638672" /><trkpt lat="22.55078978125" lon="114.29327379638671" /><trkpt lat="22.55074478125" lon="114.29329779638672" /><trkpt lat="22.550746781249998" lon="114.29359079638672" /><trkpt lat="22.55070278125" lon="114.29362079638672" /><trkpt lat="22.55070178125" lon="114.29388879638672" /><trkpt lat="22.55072078125" lon="114.29410779638673" /><trkpt lat="22.55069878125" lon="114.29424179638671" /><trkpt lat="22.55073778125" lon="114.29439879638672" /><trkpt lat="22.55073378125" lon="114.29449879638672" /><trkpt lat="22.55073078125" lon="114.29454879638672" /><trkpt lat="22.55072078125" lon="114.29457479638671" /><trkpt lat="22.55070178125" lon="114.29461479638672" /><trkpt lat="22.55063578125" lon="114.29439379638671" /><trkpt lat="22.55061978125" lon="114.29434879638671" /><trkpt lat="22.55055778125" lon="114.29422479638671" /><trkpt lat="22.55047878125" lon="114.29404579638671" /><trkpt lat="22.55046778125" lon="114.29399979638671" /><trkpt lat="22.55043678125" lon="114.29394979638671" /><trkpt lat="22.55041278125" lon="114.29389979638673" /><trkpt lat="22.55041478125" lon="114.29385579638672" /><trkpt lat="22.55040578125" lon="114.29380079638672" /><trkpt lat="22.55035978125" lon="114.29367279638672" /><trkpt lat="22.55029478125" lon="114.29354179638672" /><trkpt lat="22.55025678125" lon="114.29350479638671" /><trkpt lat="22.55021678125" lon="114.29349679638672" /><trkpt lat="22.55016578125" lon="114.29351479638672" /><trkpt lat="22.55010978125" lon="114.29350679638672" /><trkpt lat="22.55004578125" lon="114.29347679638671" /><trkpt lat="22.54998478125" lon="114.29345379638671" /><trkpt lat="22.54990078125" lon="114.29344979638672" /><trkpt lat="22.54983678125" lon="114.29343579638672" /><trkpt lat="22.54975678125" lon="114.29338379638672" /><trkpt lat="22.54971878125" lon="114.29335379638673" /><trkpt lat="22.54966278125" lon="114.29334379638672" /><trkpt lat="22.54949878125" lon="114.29327679638672" /><trkpt lat="22.54936478125" lon="114.29320779638672" /><trkpt lat="22.54926978125" lon="114.29313979638673" /><trkpt lat="22.54918478125" lon="114.29301879638672" /><trkpt lat="22.54918178125" lon="114.29300879638672" /><trkpt lat="22.54912878125" lon="114.29292579638673" /><trkpt lat="22.54904178125" lon="114.29285179638671" /><trkpt lat="22.54886678125" lon="114.29282679638672" /><trkpt lat="22.54885178125" lon="114.29283479638671" /><trkpt lat="22.54880578125" lon="114.29298079638671" /><trkpt lat="22.54878878125" lon="114.29300979638671" /><trkpt lat="22.54873378125" lon="114.29302379638672" /><trkpt lat="22.54864078125" lon="114.29306279638672" /><trkpt lat="22.54855278125" lon="114.29310279638672" /><trkpt lat="22.54851978125" lon="114.29314479638671" /><trkpt lat="22.54841278125" lon="114.29317179638672" /><trkpt lat="22.54839778125" lon="114.29318179638672" /><trkpt lat="22.54824278125" lon="114.29320079638671" /><trkpt lat="22.54821478125" lon="114.29321279638671" /><trkpt lat="22.54816478125" lon="114.29338279638672" /><trkpt lat="22.54818478125" lon="114.29341579638672" /><trkpt lat="22.54834278125" lon="114.29352679638671" /><trkpt lat="22.54815478125" lon="114.29361279638672" /><trkpt lat="22.54782778125" lon="114.29416479638672" /><trkpt lat="22.54755578125" lon="114.29435279638672" /><trkpt lat="22.54727278125" lon="114.29423479638672" /><trkpt lat="22.54730778125" lon="114.29385379638671" /><trkpt lat="22.54711478125" lon="114.29348379638672" /><trkpt lat="22.54679678125" lon="114.29332979638671" /><trkpt lat="22.54690378125" lon="114.29308279638671" /><trkpt lat="22.54693678125" lon="114.29300279638672" /><trkpt lat="22.54692678125" lon="114.29283579638673" /><trkpt lat="22.54690578125" lon="114.29268079638672" /><trkpt lat="22.54683678125" lon="114.29232679638672" /><trkpt lat="22.54680778125" lon="114.29216479638671" /><trkpt lat="22.54680878125" lon="114.29215479638673" /><trkpt lat="22.54682778125" lon="114.29204079638671" /><trkpt lat="22.54686578125" lon="114.29187279638671" /><trkpt lat="22.54691978125" lon="114.29175479638671" /><trkpt lat="22.54719178125" lon="114.29178479638672" /><trkpt lat="22.54728778125" lon="114.29177779638673" /><trkpt lat="22.54752578125" lon="114.29172079638671" /><trkpt lat="22.54762678125" lon="114.29167179638672" /><trkpt lat="22.54772678125" lon="114.29146079638672" /><trkpt lat="22.54802578125" lon="114.29138879638671" /><trkpt lat="22.54806678125" lon="114.29140479638671" /><trkpt lat="22.54813778125" lon="114.29141679638671" /><trkpt lat="22.54808878125" lon="114.29153579638673" /><trkpt lat="22.54804978125" lon="114.29153179638672" /><trkpt lat="22.54800578125" lon="114.29151379638672" /><trkpt lat="22.54796778125" lon="114.29150479638672" /><trkpt lat="22.54793778125" lon="114.29149979638672" /><trkpt lat="22.54792378125" lon="114.29150079638671" /><trkpt lat="22.54791078125" lon="114.29155479638672" /><trkpt lat="22.547936528987776" lon="114.29156869064678" /><trkpt lat="22.547915744422216" lon="114.29153417834854" /><trkpt lat="22.54792378125" lon="114.29150079638671" /><trkpt lat="22.54793778125" lon="114.29149979638672" /><trkpt lat="22.54796778125" lon="114.29150479638672" /><trkpt lat="22.54800578125" lon="114.29151379638672" /><trkpt lat="22.54804978125" lon="114.29153179638672" /><trkpt lat="22.54808878125" lon="114.29153579638673" /><trkpt lat="22.54813778125" lon="114.29141679638671" /><trkpt lat="22.54821478125" lon="114.29158579638671" /><trkpt lat="22.54825378125" lon="114.29162579638673" /><trkpt lat="22.54830278125" lon="114.29164079638672" /><trkpt lat="22.54842478125" lon="114.29168079638671" /><trkpt lat="22.54867978125" lon="114.29176779638672" /><trkpt lat="22.54883178125" lon="114.29181679638671" /><trkpt lat="22.54904078125" lon="114.29181379638672" /><trkpt lat="22.54939378125" lon="114.29186079638671" /><trkpt lat="22.54946378125" lon="114.29184979638671" /><trkpt lat="22.54948078125" lon="114.29184779638672" /><trkpt lat="22.54959578125" lon="114.29182979638672" /><trkpt lat="22.54975178125" lon="114.29170779638672" /><trkpt lat="22.54994578125" lon="114.29155779638671" /><trkpt lat="22.54998078125" lon="114.29152479638672" /><trkpt lat="22.55003578125" lon="114.29142679638672" /><trkpt lat="22.55013978125" lon="114.29117079638672" /><trkpt lat="22.55021478125" lon="114.29105679638671" /><trkpt lat="22.55030678125" lon="114.29091879638672" /><trkpt lat="22.55034778125" lon="114.29087479638672" /><trkpt lat="22.55037178125" lon="114.29083779638673" /><trkpt lat="22.55055278125" lon="114.29055479638671" /><trkpt lat="22.55065578125" lon="114.29038979638672" /><trkpt lat="22.55044278125" lon="114.29028679638672" /><trkpt lat="22.550201103938114" lon="114.29012821519602" /></trkseg></trk></gpx>