<?xml version='1.0' encoding='UTF-8' ?><gpx version="1.1" creator="HikingTrailHK" xsi:schemaLocation="http://www.topografix.com/GPX/1/1 http://www.topografix.com/GPX/1/1/gpx.xsd https://hikingtrailhk.appspot.com/xml/gpxextensions/v1 https://hikingtrailhk.appspot.com/xml/gpxextensions/v1/gpxextensions.xsd" xmlns="http://www.topografix.com/GPX/1/1" xmlns:h="https://hikingtrailhk.appspot.com/xml/gpxextensions/v1" xmlns:xsi="http://www.w3.org/2001/XMLSchema-instance"><metadata><name>吊手岩 @ 2016-11</name><desc></desc><extensions><h:categoryid>scenery_route</h:categoryid></extensions></metadata><trk><trkseg><trkpt lat="22.423647934743975" lon="114.23723774269854" /><trkpt lat="22.42346678125" lon="114.23697579638672" /><trkpt lat="22.42350278125" lon="114.23688479638672" /><trkpt lat="22.42341378125" lon="114.23680079638672" /><trkpt lat="22.42336478125" lon="114.23678779638672" /><trkpt lat="22.42332878125" lon="114.23680879638673" /><trkpt lat="22.42326178125" lon="114.23687879638672" /><trkpt lat="22.42325378125" lon="114.23691879638672" /><trkpt lat="22.42312478125" lon="114.23702179638671" /><trkpt lat="22.42289478125" lon="114.23723279638672" /><trkpt lat="22.42269878125" lon="114.23739079638672" /><trkpt lat="22.42234078125" lon="114.23682879638672" /><trkpt lat="22.42200278125" lon="114.23635479638672" /><trkpt lat="22.42185778125" lon="114.23618479638672" /><trkpt lat="22.42174078125" lon="114.23609479638672" /><trkpt lat="22.42157878125" lon="114.23600779638672" /><trkpt lat="22.42137078125" lon="114.23594979638672" /><trkpt lat="22.42108278125" lon="114.23589779638672" /><trkpt lat="22.42092078125" lon="114.23589679638673" /><trkpt lat="22.42070878125" lon="114.23575179638672" /><trkpt lat="22.42040178125" lon="114.23591379638673" /><trkpt lat="22.42034178125" lon="114.23568079638672" /><trkpt lat="22.42033378125" lon="114.23571979638672" /><trkpt lat="22.42030178125" lon="114.23586879638673" /><trkpt lat="22.420275781249998" lon="114.23597579638673" /><trkpt lat="22.42026178125" lon="114.23607079638671" /><trkpt lat="22.42025778125" lon="114.23616079638671" /><trkpt lat="22.42026678125" lon="114.23626479638672" /><trkpt lat="22.42028378125" lon="114.23637379638672" /><trkpt lat="22.42032773276846" lon="114.23650864793655" /><trkpt lat="22.42032778125" lon="114.23650879638672" /><trkpt lat="22.42034778125" lon="114.23663579638672" /><trkpt lat="22.42035178125" lon="114.23674179638672" /><trkpt lat="22.42031778125" lon="114.23678679638672" /><trkpt lat="22.42044978125" lon="114.23701879638672" /><trkpt lat="22.42065978125" lon="114.23724179638671" /><trkpt lat="22.42083678125" lon="114.23744579638672" /><trkpt lat="22.421222781250002" lon="114.23879179638672" /><trkpt lat="22.42122578125" lon="114.23887779638672" /><trkpt lat="22.42122178125" lon="114.23893679638672" /><trkpt lat="22.42109578125" lon="114.23905879638671" /><trkpt lat="22.42086378125" lon="114.23912179638671" /><trkpt lat="22.42078378125" lon="114.23914579638672" /><trkpt lat="22.42076878125" lon="114.23914879638671" /><trkpt lat="22.42059278125" lon="114.23923379638671" /><trkpt lat="22.42054478125" lon="114.23928579638672" /><trkpt lat="22.42052678125" lon="114.23931379638672" /><trkpt lat="22.42042778125" lon="114.23933279638672" /><trkpt lat="22.42041278125" lon="114.23933579638671" /><trkpt lat="22.42023578125" lon="114.23927679638672" /><trkpt lat="22.42020978125" lon="114.23933279638672" /><trkpt lat="22.42013178125" lon="114.23942279638672" /><trkpt lat="22.42006078125" lon="114.23948179638671" /><trkpt lat="22.41982278125" lon="114.23952079638671" /><trkpt lat="22.41974978125" lon="114.23964079638672" /><trkpt lat="22.41965478125" lon="114.23966179638671" /><trkpt lat="22.41942078125" lon="114.23984979638672" /><trkpt lat="22.41918278125" lon="114.23991479638671" /><trkpt lat="22.41909578125" lon="114.24011079638672" /><trkpt lat="22.41901278125" lon="114.24017579638672" /><trkpt lat="22.41902278125" lon="114.24032079638671" /><trkpt lat="22.41898578125" lon="114.24037379638672" /><trkpt lat="22.41890978125" lon="114.24041979638672" /><trkpt lat="22.41890078125" lon="114.24050179638672" /><trkpt lat="22.41882778125" lon="114.24063679638672" /><trkpt lat="22.41885878125" lon="114.24067479638671" /><trkpt lat="22.41883978125" lon="114.24078879638672" /><trkpt lat="22.41866278125" lon="114.24101779638671" /><trkpt lat="22.41849978125" lon="114.24109779638673" /><trkpt lat="22.41844578125" lon="114.24119679638672" /><trkpt lat="22.41829578125" lon="114.24125179638672" /><trkpt lat="22.41824378125" lon="114.24133779638672" /><trkpt lat="22.41800778125" lon="114.24147979638671" /><trkpt lat="22.41782578125" lon="114.24159579638672" /><trkpt lat="22.41767578125" lon="114.24182579638672" /><trkpt lat="22.41770878125" lon="114.24190179638671" /><trkpt lat="22.41763978125" lon="114.24196879638671" /><trkpt lat="22.41745078125" lon="114.24210679638672" /><trkpt lat="22.41742078125" lon="114.24220979638672" /><trkpt lat="22.41725278125" lon="114.24237579638672" /><trkpt lat="22.41710278125" lon="114.24248979638672" /><trkpt lat="22.41694978125" lon="114.24252679638671" /><trkpt lat="22.41690378125" lon="114.24261479638672" /><trkpt lat="22.41681778125" lon="114.24257379638672" /><trkpt lat="22.41667178125" lon="114.24249279638671" /><trkpt lat="22.41658878125" lon="114.24263579638672" /><trkpt lat="22.41658678125" lon="114.24271179638671" /><trkpt lat="22.41629478125" lon="114.24285079638672" /><trkpt lat="22.41625478125" lon="114.24300279638672" /><trkpt lat="22.41617378125" lon="114.24307179638672" /><trkpt lat="22.41607778125" lon="114.24325079638672" /><trkpt lat="22.41602178125" lon="114.24328779638672" /><trkpt lat="22.41600078125" lon="114.24334579638672" /><trkpt lat="22.41594778125" lon="114.24340179638672" /><trkpt lat="22.41586278125" lon="114.24345879638672" /><trkpt lat="22.41581778125" lon="114.24347279638671" /><trkpt lat="22.41579378125" lon="114.24352479638672" /><trkpt lat="22.41577378125" lon="114.24356479638672" /><trkpt lat="22.41569878125" lon="114.24356079638672" /><trkpt lat="22.41565378125" lon="114.24359779638672" /><trkpt lat="22.41564278125" lon="114.24368879638672" /><trkpt lat="22.41559178125" lon="114.24374979638672" /><trkpt lat="22.41555278125" lon="114.24368379638672" /><trkpt lat="22.41550778125" lon="114.24370079638672" /><trkpt lat="22.41550878125" lon="114.24376279638672" /><trkpt lat="22.41548778125" lon="114.24372879638672" /><trkpt lat="22.41546378125" lon="114.24375479638672" /><trkpt lat="22.41548678125" lon="114.24379579638672" /><trkpt lat="22.41539378125" lon="114.24386879638672" /><trkpt lat="22.41537478125" lon="114.24397679638672" /><trkpt lat="22.41529078125" lon="114.24403879638672" /><trkpt lat="22.41526778125" lon="114.24399279638672" /><trkpt lat="22.41522278125" lon="114.24401179638672" /><trkpt lat="22.41523378125" lon="114.24415179638672" /><trkpt lat="22.41519478125" lon="114.24417579638671" /><trkpt lat="22.41513778125" lon="114.24422279638672" /><trkpt lat="22.41506478125" lon="114.24429179638672" /><trkpt lat="22.41505778125" lon="114.24436379638672" /><trkpt lat="22.41501078125" lon="114.24438479638673" /><trkpt lat="22.415001781249998" lon="114.24432979638672" /><trkpt lat="22.41484678125" lon="114.24434479638671" /><trkpt lat="22.41473878125" lon="114.24441879638673" /><trkpt lat="22.41466878125" lon="114.24451879638671" /><trkpt lat="22.41451978125" lon="114.24453779638672" /><trkpt lat="22.414407712213833" lon="114.24462325946372" /><trkpt lat="22.41438078125" lon="114.24464379638673" /><trkpt lat="22.41428378125" lon="114.24460179638672" /><trkpt lat="22.41407878125" lon="114.24467079638671" /><trkpt lat="22.41385478125" lon="114.24459979638672" /><trkpt lat="22.41381778125" lon="114.24460279638672" /><trkpt lat="22.41372678125" lon="114.24481979638672" /><trkpt lat="22.41371578125" lon="114.24496379638671" /><trkpt lat="22.41373378125" lon="114.24501979638671" /><trkpt lat="22.41369178125" lon="114.24507379638672" /><trkpt lat="22.41362778125" lon="114.24516779638672" /><trkpt lat="22.41363078125" lon="114.24520079638671" /><trkpt lat="22.41367978125" lon="114.24524179638672" /><trkpt lat="22.41371378125" lon="114.24531979638672" /><trkpt lat="22.41372378125" lon="114.24539979638672" /><trkpt lat="22.41379978125" lon="114.24557579638672" /><trkpt lat="22.41381778125" lon="114.24570479638672" /><trkpt lat="22.41384578125" lon="114.24577579638672" /><trkpt lat="22.41385978125" lon="114.24595579638672" /><trkpt lat="22.41387978125" lon="114.24621579638672" /><trkpt lat="22.41384978125" lon="114.24633879638672" /><trkpt lat="22.41386778125" lon="114.24649479638671" /><trkpt lat="22.41387978125" lon="114.24672279638672" /><trkpt lat="22.41391478125" lon="114.24686479638672" /><trkpt lat="22.41391478125" lon="114.24697779638672" /><trkpt lat="22.41395778125" lon="114.24714579638672" /><trkpt lat="22.41396478125" lon="114.24728079638672" /><trkpt lat="22.41400678125" lon="114.24739279638672" /><trkpt lat="22.41403078125" lon="114.24743179638672" /><trkpt lat="22.41400678125" lon="114.24763879638672" /><trkpt lat="22.41403578125" lon="114.24774679638672" /><trkpt lat="22.41397878125" lon="114.24783879638672" /><trkpt lat="22.41399278125" lon="114.24793179638672" /><trkpt lat="22.41402078125" lon="114.24801579638672" /><trkpt lat="22.41410278125" lon="114.24816879638672" /><trkpt lat="22.41414678125" lon="114.24826979638672" /><trkpt lat="22.41425378125" lon="114.24850379638671" /><trkpt lat="22.41423178125" lon="114.24855879638672" /><trkpt lat="22.41419778125" lon="114.24858779638672" /><trkpt lat="22.41413878125" lon="114.24863279638672" /><trkpt lat="22.41403578125" lon="114.24875579638672" /><trkpt lat="22.41397178125" lon="114.24887379638672" /><trkpt lat="22.41393678125" lon="114.24891679638672" /><trkpt lat="22.41387978125" lon="114.24897279638672" /><trkpt lat="22.41378878125" lon="114.24905879638672" /><trkpt lat="22.41361478125" lon="114.24928179638673" /><trkpt lat="22.41348678125" lon="114.24942279638672" /><trkpt lat="22.41321278125" lon="114.24955879638672" /><trkpt lat="22.41286378125" lon="114.24985679638672" /><trkpt lat="22.41249978125" lon="114.25021579638671" /><trkpt lat="22.41236678125" lon="114.25034579638672" /><trkpt lat="22.41206678125" lon="114.25051279638672" /><trkpt lat="22.41194478125" lon="114.25061779638672" /><trkpt lat="22.41172478125" lon="114.25094579638672" /><trkpt lat="22.41156878125" lon="114.25107979638672" /><trkpt lat="22.41147378125" lon="114.25117979638672" /><trkpt lat="22.41088378125" lon="114.25143679638671" /><trkpt lat="22.41047178125" lon="114.25173779638672" /><trkpt lat="22.41031578125" lon="114.25178379638672" /><trkpt lat="22.41013478125" lon="114.25195179638672" /><trkpt lat="22.40996278125" lon="114.25206679638671" /><trkpt lat="22.40970478125" lon="114.25210979638672" /><trkpt lat="22.40944878125" lon="114.25229579638672" /><trkpt lat="22.40935978125" lon="114.25232179638672" /><trkpt lat="22.40919078125" lon="114.25239279638672" /><trkpt lat="22.40913278125" lon="114.25241579638671" /><trkpt lat="22.40906278125" lon="114.25244279638672" /><trkpt lat="22.40903678125" lon="114.25240079638672" /><trkpt lat="22.40899978125" lon="114.25234079638672" /><trkpt lat="22.40896478125" lon="114.25231779638672" /><trkpt lat="22.40891278125" lon="114.25229379638672" /><trkpt lat="22.40895678125" lon="114.25199879638672" /><trkpt lat="22.40886678125" lon="114.25197679638671" /><trkpt lat="22.40881178125" lon="114.25197179638671" /><trkpt lat="22.40875578125" lon="114.25196379638672" /><trkpt lat="22.408666781249998" lon="114.25177479638671" /><trkpt lat="22.40841578125" lon="114.25167979638672" /><trkpt lat="22.40812278125" lon="114.25165279638672" /><trkpt lat="22.40802678125" lon="114.25166179638671" /><trkpt lat="22.40780778125" lon="114.25169579638671" /><trkpt lat="22.40757478125" lon="114.25179379638672" /><trkpt lat="22.40747578125" lon="114.25179579638672" /><trkpt lat="22.40740178125" lon="114.25170679638671" /><trkpt lat="22.40714578125" lon="114.25158679638672" /><trkpt lat="22.40702278125" lon="114.25164879638672" /><trkpt lat="22.40696578125" lon="114.25172179638672" /><trkpt lat="22.40686378125" lon="114.25179679638671" /><trkpt lat="22.40673578125" lon="114.25181779638672" /><trkpt lat="22.40656078125" lon="114.25180279638671" /><trkpt lat="22.40643678125" lon="114.25183579638671" /><trkpt lat="22.40637178125" lon="114.25182979638672" /><trkpt lat="22.40616378125" lon="114.25193579638672" /><trkpt lat="22.40594978125" lon="114.25200879638672" /><trkpt lat="22.40577378125" lon="114.25213079638672" /><trkpt lat="22.40559278125" lon="114.25244079638672" /><trkpt lat="22.40554378125" lon="114.25251379638672" /><trkpt lat="22.40543478125" lon="114.25264379638672" /><trkpt lat="22.40535578125" lon="114.25271579638672" /><trkpt lat="22.40526878125" lon="114.25277079638671" /><trkpt lat="22.40522178125" lon="114.25287079638672" /><trkpt lat="22.40519778125" lon="114.25305079638672" /><trkpt lat="22.40503078125" lon="114.25335979638672" /><trkpt lat="22.40471378125" lon="114.25356179638672" /><trkpt lat="22.40422378125" lon="114.25370779638672" /><trkpt lat="22.40408078125" lon="114.25365679638672" /><trkpt lat="22.40397478125" lon="114.25366479638672" /><trkpt lat="22.40386778125" lon="114.25407379638672" /><trkpt lat="22.40367478125" lon="114.25420379638672" /><trkpt lat="22.40347278125" lon="114.25426479638672" /><trkpt lat="22.40346678125" lon="114.25419579638672" /><trkpt lat="22.40302078125" lon="114.25447779638672" /><trkpt lat="22.40289478125" lon="114.25442479638672" /><trkpt lat="22.40244078125" lon="114.25456179638672" /><trkpt lat="22.40218478125" lon="114.25446979638672" /><trkpt lat="22.402013781249998" lon="114.25438379638672" /><trkpt lat="22.40161778125" lon="114.25443679638671" /><trkpt lat="22.40142278125" lon="114.25447579638671" /><trkpt lat="22.40133978125" lon="114.25451179638672" /><trkpt lat="22.40126078125" lon="114.25451179638672" /><trkpt lat="22.40120378125" lon="114.25453079638672" /><trkpt lat="22.40115678125" lon="114.25443379638672" /><trkpt lat="22.40106778125" lon="114.25430779638671" /><trkpt lat="22.40098278125" lon="114.25418179638672" /><trkpt lat="22.40090178125" lon="114.25407679638671" /><trkpt lat="22.40087678125" lon="114.25399179638671" /><trkpt lat="22.40081978125" lon="114.25391079638672" /><trkpt lat="22.40075478125" lon="114.25387079638672" /><trkpt lat="22.40058678125" lon="114.25379779638672" /><trkpt lat="22.40054878125" lon="114.25375579638671" /><trkpt lat="22.40049478125" lon="114.25365079638672" /><trkpt lat="22.40045978125" lon="114.25363479638672" /><trkpt lat="22.40041878125" lon="114.25357779638672" /><trkpt lat="22.40033278125" lon="114.25352879638672" /><trkpt lat="22.40022878125" lon="114.25341479638672" /><trkpt lat="22.40017078125" lon="114.25336579638672" /><trkpt lat="22.40010478125" lon="114.25333379638671" /><trkpt lat="22.40004778125" lon="114.25332779638671" /><trkpt lat="22.40000078125" lon="114.25326079638671" /><trkpt lat="22.39996878125" lon="114.25323479638672" /><trkpt lat="22.39990078125" lon="114.25317579638671" /><trkpt lat="22.39993578125" lon="114.25315279638671" /><trkpt lat="22.40001078125" lon="114.25315679638672" /><trkpt lat="22.40015478125" lon="114.25312479638671" /><trkpt lat="22.40021278125" lon="114.25309279638672" /><trkpt lat="22.40026178125" lon="114.25304479638672" /><trkpt lat="22.40030078125" lon="114.25299579638671" /><trkpt lat="22.40033778125" lon="114.25295879638672" /><trkpt lat="22.40034778125" lon="114.25291179638671" /><trkpt lat="22.40025478125" lon="114.25287779638671" /><trkpt lat="22.40014278125" lon="114.25285879638672" /><trkpt lat="22.40009378125" lon="114.25279579638672" /><trkpt lat="22.40003878125" lon="114.25275179638672" /><trkpt lat="22.39999678125" lon="114.25268179638672" /><trkpt lat="22.39989178125" lon="114.25262979638671" /><trkpt lat="22.39982878125" lon="114.25261279638671" /><trkpt lat="22.39962278125" lon="114.25260479638672" /><trkpt lat="22.39949678125" lon="114.25266879638671" /><trkpt lat="22.39944378125" lon="114.25268679638671" /><trkpt lat="22.39935878125" lon="114.25273879638672" /><trkpt lat="22.39929478125" lon="114.25277879638672" /><trkpt lat="22.39922978125" lon="114.25280079638672" /><trkpt lat="22.39915678125" lon="114.25282779638673" /><trkpt lat="22.39909178125" lon="114.25283479638672" /><trkpt lat="22.39903678125" lon="114.25282879638672" /><trkpt lat="22.39893378125" lon="114.25277179638672" /><trkpt lat="22.39880578125" lon="114.25272579638671" /><trkpt lat="22.39848378125" lon="114.25271379638671" /><trkpt lat="22.39759378125" lon="114.25296679638672" /><trkpt lat="22.39694178125" lon="114.25291779638673" /><trkpt lat="22.39684678125" lon="114.25285479638671" /><trkpt lat="22.39679878125" lon="114.25283279638671" /><trkpt lat="22.39653878125" lon="114.25275979638671" /><trkpt lat="22.39641378125" lon="114.25262679638672" /><trkpt lat="22.39628678125" lon="114.25260979638672" /><trkpt lat="22.39620478125" lon="114.25255079638671" /><trkpt lat="22.39618978125" lon="114.25249379638672" /><trkpt lat="22.39612778125" lon="114.25249679638672" /><trkpt lat="22.39608478125" lon="114.25246079638671" /><trkpt lat="22.39603078125" lon="114.25237779638672" /><trkpt lat="22.39594678125" lon="114.25234479638672" /><trkpt lat="22.39577878125" lon="114.25236779638672" /><trkpt lat="22.39568778125" lon="114.25227379638672" /><trkpt lat="22.39559878125" lon="114.25223779638672" /><trkpt lat="22.39545978125" lon="114.25224279638672" /><trkpt lat="22.39529578125" lon="114.25230779638672" /><trkpt lat="22.39516678125" lon="114.25228979638672" /><trkpt lat="22.39482078125" lon="114.25236579638671" /><trkpt lat="22.39482878125" lon="114.25247279638671" /><trkpt lat="22.39450178125" lon="114.25255879638672" /><trkpt lat="22.39433278125" lon="114.25261179638672" /><trkpt lat="22.39413378125" lon="114.25273979638672" /><trkpt lat="22.39389378125" lon="114.25274279638671" /><trkpt lat="22.39352478125" lon="114.25264479638672" /><trkpt lat="22.39338078125" lon="114.25264079638671" /><trkpt lat="22.39322878125" lon="114.25264279638672" /><trkpt lat="22.39306578125" lon="114.25259179638672" /><trkpt lat="22.39296378125" lon="114.25258779638672" /><trkpt lat="22.39279178125" lon="114.25265979638672" /><trkpt lat="22.39263178125" lon="114.25267379638672" /><trkpt lat="22.39255778125" lon="114.25268879638672" /><trkpt lat="22.39226678125" lon="114.25251079638672" /><trkpt lat="22.39190378125" lon="114.25262779638672" /><trkpt lat="22.39174178125" lon="114.25264779638673" /><trkpt lat="22.39154878125" lon="114.25261979638672" /><trkpt lat="22.39132178125" lon="114.25263979638672" /><trkpt lat="22.39129278125" lon="114.25276879638672" /><trkpt lat="22.39098078125" lon="114.25276679638672" /><trkpt lat="22.39075878125" lon="114.25268779638672" /><trkpt lat="22.39067378125" lon="114.25266079638672" /><trkpt lat="22.39062478125" lon="114.25256479638672" /><trkpt lat="22.39044078125" lon="114.25248979638671" /><trkpt lat="22.39021778125" lon="114.25251579638672" /><trkpt lat="22.39004478125" lon="114.25262079638672" /><trkpt lat="22.38991078125" lon="114.25273579638672" /><trkpt lat="22.38977678125" lon="114.25275879638671" /><trkpt lat="22.39005278125" lon="114.25178579638671" /><trkpt lat="22.38999078125" lon="114.25161179638671" /><trkpt lat="22.38975378125" lon="114.25132679638672" /><trkpt lat="22.38963178125" lon="114.25131579638672" /><trkpt lat="22.38955778125" lon="114.25133479638671" /><trkpt lat="22.38949378125" lon="114.25140579638672" /><trkpt lat="22.38939578125" lon="114.25156979638672" /><trkpt lat="22.38933178125" lon="114.25164079638672" /><trkpt lat="22.38915978125" lon="114.25172379638671" /><trkpt lat="22.38898078125" lon="114.25177879638672" /><trkpt lat="22.38889178125" lon="114.25182479638671" /><trkpt lat="22.38880178125" lon="114.25185279638671" /><trkpt lat="22.38872978125" lon="114.25191479638671" /><trkpt lat="22.38864478125" lon="114.25196879638672" /><trkpt lat="22.38855478125" lon="114.25201679638671" /><trkpt lat="22.38849078125" lon="114.25218379638672" /><trkpt lat="22.38847078125" lon="114.25229679638672" /><trkpt lat="22.38845678125" lon="114.25247079638672" /><trkpt lat="22.38838178125" lon="114.25263479638672" /><trkpt lat="22.38836378125" lon="114.25273879638672" /><trkpt lat="22.38837878125" lon="114.25284779638672" /><trkpt lat="22.38835678125" lon="114.25294379638672" /><trkpt lat="22.38834178125" lon="114.25305279638673" /><trkpt lat="22.38820778125" lon="114.25318079638672" /><trkpt lat="22.38812778125" lon="114.25326079638671" /><trkpt lat="22.38800878125" lon="114.25335279638672" /><trkpt lat="22.38794978125" lon="114.25344879638672" /><trkpt lat="22.38785578125" lon="114.25353479638672" /><trkpt lat="22.38781578125" lon="114.25364179638672" /><trkpt lat="22.38775078125" lon="114.25378079638672" /><trkpt lat="22.38769178125" lon="114.25384079638673" /><trkpt lat="22.38762278125" lon="114.25389379638672" /><trkpt lat="22.38754378125" lon="114.25398979638672" /><trkpt lat="22.38749778125" lon="114.25419379638672" /><trkpt lat="22.38739078125" lon="114.25434379638672" /><trkpt lat="22.38730178125" lon="114.25439679638671" /><trkpt lat="22.38704678125" lon="114.25466679638672" /><trkpt lat="22.38692278125" lon="114.25462379638672" /><trkpt lat="22.38681878125" lon="114.25470379638672" /><trkpt lat="22.38669978125" lon="114.25485479638672" /><trkpt lat="22.38667478125" lon="114.25494579638672" /><trkpt lat="22.386585781249998" lon="114.25495079638672" /><trkpt lat="22.38642678125" lon="114.25510079638671" /><trkpt lat="22.38647178125" lon="114.25522979638671" /><trkpt lat="22.38645678125" lon="114.25533679638671" /><trkpt lat="22.38647478125" lon="114.25552279638671" /><trkpt lat="22.38653578125" lon="114.25566479638672" /><trkpt lat="22.38666478125" lon="114.25590379638672" /><trkpt lat="22.38684378125" lon="114.25593279638672" /><trkpt lat="22.38690278125" lon="114.25606679638672" /><trkpt lat="22.38685878125" lon="114.25622879638672" /><trkpt lat="22.38672378125" lon="114.25646479638672" /><trkpt lat="22.38664478125" lon="114.25673179638672" /><trkpt lat="22.38656478125" lon="114.25695579638672" /><trkpt lat="22.38633278125" lon="114.25706479638671" /><trkpt lat="22.38622378125" lon="114.25719379638672" /><trkpt lat="22.38603478125" lon="114.25728479638671" /><trkpt lat="22.38593378125" lon="114.25736779638672" /><trkpt lat="22.38588478125" lon="114.25745279638672" /><trkpt lat="22.38581878125" lon="114.25754079638672" /><trkpt lat="22.38577178125" lon="114.25776279638671" /><trkpt lat="22.38570878125" lon="114.25784579638672" /><trkpt lat="22.38553078125" lon="114.25798879638671" /><trkpt lat="22.38545078125" lon="114.25818779638672" /><trkpt lat="22.38546778125" lon="114.25832979638672" /><trkpt lat="22.38545978125" lon="114.25840779638672" /><trkpt lat="22.38536878125" lon="114.25858479638671" /><trkpt lat="22.38534478125" lon="114.25867779638672" /><trkpt lat="22.38534778125" lon="114.25872679638672" /><trkpt lat="22.38535578125" lon="114.25878279638673" /><trkpt lat="22.38532978125" lon="114.25888279638671" /><trkpt lat="22.38531178125" lon="114.25898579638672" /><trkpt lat="22.38533178125" lon="114.25910279638671" /><trkpt lat="22.38538878125" lon="114.25920079638672" /><trkpt lat="22.38547578125" lon="114.25938679638672" /><trkpt lat="22.38551478125" lon="114.25960879638671" /><trkpt lat="22.38539578125" lon="114.25979579638671" /><trkpt lat="22.38531078125" lon="114.25989779638672" /><trkpt lat="22.38523778125" lon="114.26000679638672" /><trkpt lat="22.38526178125" lon="114.26003379638672" /><trkpt lat="22.38543278125" lon="114.26028579638673" /><trkpt lat="22.38541578125" lon="114.26033679638672" /><trkpt lat="22.38548878125" lon="114.26056379638672" /><trkpt lat="22.38556978125" lon="114.26058479638672" /><trkpt lat="22.38564978125" lon="114.26075779638671" /><trkpt lat="22.38555578125" lon="114.26089179638672" /><trkpt lat="22.38559178125" lon="114.26110379638672" /><trkpt lat="22.38552378125" lon="114.26126179638672" /><trkpt lat="22.38531578125" lon="114.26154479638672" /><trkpt lat="22.38521678125" lon="114.26166179638672" /><trkpt lat="22.38508278125" lon="114.26179279638671" /><trkpt lat="22.38492878125" lon="114.26191579638672" /><trkpt lat="22.38476178125" lon="114.26205179638671" /><trkpt lat="22.38450878125" lon="114.26235079638671" /><trkpt lat="22.38431378125" lon="114.26252779638672" /><trkpt lat="22.38411878125" lon="114.26270579638671" /><trkpt lat="22.38383578125" lon="114.26296279638672" /><trkpt lat="22.38343978125" lon="114.26348579638672" /><trkpt lat="22.38325478125" lon="114.26367579638672" /><trkpt lat="22.38318678125" lon="114.26374579638671" /><trkpt lat="22.38278978125" lon="114.26399279638672" /><trkpt lat="22.38267478125" lon="114.26418479638671" /><trkpt lat="22.38262078125" lon="114.26431779638672" /><trkpt lat="22.38264478125" lon="114.26440579638673" /><trkpt lat="22.38270778125" lon="114.26447179638672" /><trkpt lat="22.38250378125" lon="114.26450079638671" /><trkpt lat="22.38242178125" lon="114.26447879638671" /><trkpt lat="22.38249078125" lon="114.26456079638672" /><trkpt lat="22.38252078125" lon="114.26462179638672" /><trkpt lat="22.38253878125" lon="114.26467979638672" /><trkpt lat="22.38252578125" lon="114.26527079638672" /><trkpt lat="22.38248778125" lon="114.26542479638672" /><trkpt lat="22.38223878125" lon="114.26587779638672" /><trkpt lat="22.38218378125" lon="114.26599979638672" /><trkpt lat="22.38216178125" lon="114.26605379638671" /><trkpt lat="22.38203678125" lon="114.26634379638672" /><trkpt lat="22.38195778125" lon="114.26650079638672" /><trkpt lat="22.38182378125" lon="114.26672379638671" /><trkpt lat="22.38163978125" lon="114.26704079638672" /><trkpt lat="22.38158478125" lon="114.26704179638672" /><trkpt lat="22.38149978125" lon="114.26703679638672" /><trkpt lat="22.38141678125" lon="114.26701179638673" /><trkpt lat="22.38135078125" lon="114.26697479638672" /><trkpt lat="22.38126378125" lon="114.26690979638671" /><trkpt lat="22.38107078125" lon="114.26704079638672" /><trkpt lat="22.38103978125" lon="114.26706379638672" /><trkpt lat="22.38105078125" lon="114.26716979638672" /><trkpt lat="22.38100578125" lon="114.26721379638671" /><trkpt lat="22.38096978125" lon="114.26735279638672" /><trkpt lat="22.38099978125" lon="114.26746279638672" /><trkpt lat="22.38099578125" lon="114.26755079638671" /><trkpt lat="22.38095378125" lon="114.26754779638672" /><trkpt lat="22.38100478125" lon="114.26774879638671" /><trkpt lat="22.38101878125" lon="114.26807579638673" /><trkpt lat="22.38100778125" lon="114.26834479638671" /><trkpt lat="22.38109078125" lon="114.26847379638671" /><trkpt lat="22.38115878125" lon="114.26864979638673" /><trkpt lat="22.38118178125" lon="114.26880779638672" /><trkpt lat="22.38120678125" lon="114.26960979638672" /><trkpt lat="22.38115178125" lon="114.26964079638672" /><trkpt lat="22.38116778125" lon="114.26970679638671" /><trkpt lat="22.38116879081453" lon="114.2697126827781" /></trkseg></trk></gpx>