<?xml version='1.0' encoding='UTF-8' ?><gpx version="1.1" creator="HikingTrailHK" xsi:schemaLocation="http://www.topografix.com/GPX/1/1 http://www.topografix.com/GPX/1/1/gpx.xsd" xmlns="http://www.topografix.com/GPX/1/1" xmlns:xsi="http://www.w3.org/2001/XMLSchema-instance"><metadata><name>吊燈籠 @ 2017-10-21 9:45:00</name><desc></desc></metadata><trk><trkseg><trkpt lat="22.507572408015488" lon="114.24299837881294" /><trkpt lat="22.50763478125" lon="114.24299979638671" /><trkpt lat="22.50771778125" lon="114.24296779638672" /><trkpt lat="22.50780978125" lon="114.24292979638672" /><trkpt lat="22.50790378125" lon="114.24290879638671" /><trkpt lat="22.50794978125" lon="114.24291079638672" /><trkpt lat="22.50801278125" lon="114.24291379638672" /><trkpt lat="22.50815878125" lon="114.24294079638672" /><trkpt lat="22.50823178125" lon="114.24298879638673" /><trkpt lat="22.50830578125" lon="114.24302779638671" /><trkpt lat="22.50840778125" lon="114.24309379638672" /><trkpt lat="22.50852078125" lon="114.24322579638672" /><trkpt lat="22.50856978125" lon="114.24326179638672" /><trkpt lat="22.50865078125" lon="114.24331679638672" /><trkpt lat="22.50873978125" lon="114.24337779638672" /><trkpt lat="22.50882578125" lon="114.24343779638671" /><trkpt lat="22.50894478125" lon="114.24355679638671" /><trkpt lat="22.509059355941485" lon="114.24364183618187" /><trkpt lat="22.50903978125" lon="114.24371479638671" /><trkpt lat="22.50899378125" lon="114.24376979638672" /><trkpt lat="22.50902778125" lon="114.24389279638672" /><trkpt lat="22.50902978125" lon="114.24402679638672" /><trkpt lat="22.50921178125" lon="114.24434779638672" /><trkpt lat="22.50921778125" lon="114.24447279638672" /><trkpt lat="22.50935578125" lon="114.24469279638672" /><trkpt lat="22.50950978125" lon="114.24488479638671" /><trkpt lat="22.50964678125" lon="114.24520279638672" /><trkpt lat="22.50983678125" lon="114.24533479638671" /><trkpt lat="22.51010878125" lon="114.24551379638672" /><trkpt lat="22.51017578125" lon="114.24562979638672" /><trkpt lat="22.51036778125" lon="114.24577679638672" /><trkpt lat="22.51050978125" lon="114.24595679638672" /><trkpt lat="22.51068478125" lon="114.24607479638672" /><trkpt lat="22.51078878125" lon="114.24611079638672" /><trkpt lat="22.51107778125" lon="114.24643779638672" /><trkpt lat="22.51123778125" lon="114.24649779638672" /><trkpt lat="22.51135378125" lon="114.24661079638672" /><trkpt lat="22.51146578125" lon="114.24686179638672" /><trkpt lat="22.51149378125" lon="114.24704679638671" /><trkpt lat="22.51148978125" lon="114.24733679638672" /><trkpt lat="22.51157178125" lon="114.24757779638672" /><trkpt lat="22.51153678125" lon="114.24775279638672" /><trkpt lat="22.51151378125" lon="114.24840479638672" /><trkpt lat="22.51158678125" lon="114.24861179638673" /><trkpt lat="22.51182878125" lon="114.24887679638672" /><trkpt lat="22.51217978125" lon="114.24902479638672" /><trkpt lat="22.51244078125" lon="114.24928079638671" /><trkpt lat="22.51263678125" lon="114.24959679638673" /><trkpt lat="22.51279578125" lon="114.24969879638672" /><trkpt lat="22.51303478125" lon="114.25014279638673" /><trkpt lat="22.51312778125" lon="114.25038979638671" /><trkpt lat="22.51335278125" lon="114.25066779638672" /><trkpt lat="22.51365178125" lon="114.25088079638672" /><trkpt lat="22.51368278125" lon="114.25106279638672" /><trkpt lat="22.51364778125" lon="114.25124579638671" /><trkpt lat="22.51369078125" lon="114.25141779638672" /><trkpt lat="22.51362778125" lon="114.25188779638673" /><trkpt lat="22.51368378125" lon="114.25207179638672" /><trkpt lat="22.51353878125" lon="114.25269879638672" /><trkpt lat="22.51357678125" lon="114.25297179638672" /><trkpt lat="22.51345378125" lon="114.25331279638672" /><trkpt lat="22.51329278125" lon="114.25358979638672" /><trkpt lat="22.51320078125" lon="114.25423479638673" /><trkpt lat="22.51309078125" lon="114.25444079638672" /><trkpt lat="22.51300578125" lon="114.25457279638673" /><trkpt lat="22.51302778125" lon="114.25476279638671" /><trkpt lat="22.51295678125" lon="114.25486979638671" /><trkpt lat="22.51284778125" lon="114.25532679638673" /><trkpt lat="22.51285978125" lon="114.25559679638671" /><trkpt lat="22.51281678125" lon="114.25594179638672" /><trkpt lat="22.51273478125" lon="114.25619179638672" /><trkpt lat="22.51271078125" lon="114.25687479638673" /><trkpt lat="22.51248978125" lon="114.25719779638672" /><trkpt lat="22.51239678125" lon="114.25724779638672" /><trkpt lat="22.51232478125" lon="114.25737379638672" /><trkpt lat="22.51194378125" lon="114.25772379638671" /><trkpt lat="22.51181078125" lon="114.25793779638671" /><trkpt lat="22.51161678125" lon="114.25820379638672" /><trkpt lat="22.51151978125" lon="114.25828779638672" /><trkpt lat="22.51142678125" lon="114.25846779638673" /><trkpt lat="22.51136078125" lon="114.25868579638671" /><trkpt lat="22.51129878125" lon="114.25877979638672" /><trkpt lat="22.51129878125" lon="114.25895479638672" /><trkpt lat="22.51132178125" lon="114.25901279638671" /><trkpt lat="22.51137078125" lon="114.25909379638672" /><trkpt lat="22.51145878125" lon="114.25919779638672" /><trkpt lat="22.51133978125" lon="114.25956579638672" /><trkpt lat="22.51136078125" lon="114.25989879638672" /><trkpt lat="22.51121578125" lon="114.26031179638672" /><trkpt lat="22.51124278125" lon="114.26042379638672" /><trkpt lat="22.51119978125" lon="114.26057479638672" /><trkpt lat="22.51157078125" lon="114.26118079638672" /><trkpt lat="22.51176378125" lon="114.26175479638673" /><trkpt lat="22.51229978125" lon="114.26223779638671" /><trkpt lat="22.51238078125" lon="114.26232879638673" /><trkpt lat="22.51251478125" lon="114.26239879638672" /><trkpt lat="22.51265978125" lon="114.26261879638672" /><trkpt lat="22.51269378125" lon="114.26278479638673" /><trkpt lat="22.51275578125" lon="114.26311179638672" /><trkpt lat="22.51276078125" lon="114.26331579638672" /><trkpt lat="22.51270678125" lon="114.26353579638672" /><trkpt lat="22.51263178125" lon="114.26375579638672" /><trkpt lat="22.51277578125" lon="114.26412079638672" /><trkpt lat="22.51275578125" lon="114.26446379638672" /><trkpt lat="22.51273978125" lon="114.26471579638672" /><trkpt lat="22.51259478125" lon="114.26491379638672" /><trkpt lat="22.51252478125" lon="114.26505879638673" /><trkpt lat="22.51254678125" lon="114.26513979638672" /><trkpt lat="22.51249878125" lon="114.26524679638672" /><trkpt lat="22.51215478125" lon="114.26574079638672" /><trkpt lat="22.51211778125" lon="114.26590179638671" /><trkpt lat="22.51214478125" lon="114.26609479638672" /><trkpt lat="22.51228378125" lon="114.26651779638672" /><trkpt lat="22.51208578125" lon="114.26704979638671" /><trkpt lat="22.51160278125" lon="114.26726879638672" /><trkpt lat="22.51140378125" lon="114.26748879638671" /><trkpt lat="22.51096378125" lon="114.26782879638672" /><trkpt lat="22.51149878125" lon="114.26798979638671" /><trkpt lat="22.51154478125" lon="114.26835879638672" /><trkpt lat="22.51168278125" lon="114.26850379638672" /><trkpt lat="22.51178378125" lon="114.26871179638673" /><trkpt lat="22.51194278125" lon="114.26877479638672" /><trkpt lat="22.51190878125" lon="114.26898579638672" /><trkpt lat="22.51192578125" lon="114.26909879638671" /><trkpt lat="22.51220378125" lon="114.26916279638672" /><trkpt lat="22.51227278125" lon="114.26925879638672" /><trkpt lat="22.51234878125" lon="114.26930379638672" /><trkpt lat="22.51246478125" lon="114.26930879638672" /><trkpt lat="22.51256278125" lon="114.26939879638672" /><trkpt lat="22.51310578125" lon="114.26945279638672" /><trkpt lat="22.51354078125" lon="114.26977479638671" /><trkpt lat="22.51402778125" lon="114.27052379638671" /><trkpt lat="22.51434578125" lon="114.27051779638671" /><trkpt lat="22.51475278125" lon="114.27013679638672" /><trkpt lat="22.51489778125" lon="114.27020979638672" /><trkpt lat="22.51489378125" lon="114.27024979638672" /><trkpt lat="22.51508178125" lon="114.27031679638672" /><trkpt lat="22.51509478125" lon="114.27033779638671" /><trkpt lat="22.51510978125" lon="114.27041379638672" /><trkpt lat="22.51513178125" lon="114.27047279638671" /><trkpt lat="22.51520478125" lon="114.27062879638672" /><trkpt lat="22.51542078125" lon="114.27091179638671" /><trkpt lat="22.51562278125" lon="114.27099279638672" /><trkpt lat="22.51580878125" lon="114.27094379638672" /><trkpt lat="22.51598178125" lon="114.27099479638672" /><trkpt lat="22.51603378125" lon="114.27102079638672" /><trkpt lat="22.51604078125" lon="114.27111879638672" /><trkpt lat="22.51607878125" lon="114.27121579638671" /><trkpt lat="22.51604378125" lon="114.27127079638672" /><trkpt lat="22.51616478125" lon="114.27143379638672" /><trkpt lat="22.51627378125" lon="114.27155279638671" /><trkpt lat="22.516154781250002" lon="114.27163279638673" /><trkpt lat="22.51609278125" lon="114.27168079638672" /><trkpt lat="22.51605178125" lon="114.27167379638672" /><trkpt lat="22.51601978125" lon="114.27166779638672" /><trkpt lat="22.51598978125" lon="114.27166379638672" /><trkpt lat="22.51592278125" lon="114.27174979638671" /><trkpt lat="22.51591278125" lon="114.27179679638672" /><trkpt lat="22.51588478125" lon="114.27183979638671" /><trkpt lat="22.51584778125" lon="114.27189779638672" /><trkpt lat="22.51571178125" lon="114.27192079638672" /><trkpt lat="22.51558778125" lon="114.27195979638672" /><trkpt lat="22.51551678125" lon="114.27198679638671" /><trkpt lat="22.51541778125" lon="114.27202479638672" /><trkpt lat="22.51532578125" lon="114.27206679638672" /><trkpt lat="22.51524378125" lon="114.27213079638672" /><trkpt lat="22.51520978125" lon="114.27221579638672" /><trkpt lat="22.51520078125" lon="114.27229179638672" /><trkpt lat="22.51524978125" lon="114.27234079638671" /><trkpt lat="22.51528778125" lon="114.27239379638672" /><trkpt lat="22.51526278125" lon="114.27240979638673" /><trkpt lat="22.51523578125" lon="114.27242479638672" /><trkpt lat="22.51520678125" lon="114.27244279638671" /><trkpt lat="22.51514578125" lon="114.27242279638672" /><trkpt lat="22.51505278125" lon="114.27239679638672" /><trkpt lat="22.51491278125" lon="114.27235879638671" /><trkpt lat="22.51480578125" lon="114.27232279638672" /><trkpt lat="22.51472178125" lon="114.27226879638673" /><trkpt lat="22.51466578125" lon="114.27224479638672" /><trkpt lat="22.51458678125" lon="114.27221779638671" /><trkpt lat="22.51448478125" lon="114.27219779638672" /><trkpt lat="22.51439878125" lon="114.27215979638672" /><trkpt lat="22.51430378125" lon="114.27211879638672" /><trkpt lat="22.51421178125" lon="114.27208679638672" /><trkpt lat="22.51410678125" lon="114.27204679638672" /><trkpt lat="22.51400478125" lon="114.27204979638672" /><trkpt lat="22.51391878125" lon="114.27206379638672" /><trkpt lat="22.51383278125" lon="114.27201479638671" /><trkpt lat="22.51380378125" lon="114.27197479638671" /><trkpt lat="22.51375578125" lon="114.27179879638672" /><trkpt lat="22.51369278125" lon="114.27181279638671" /><trkpt lat="22.51357178125" lon="114.27182679638672" /><trkpt lat="22.51351378125" lon="114.27186679638672" /><trkpt lat="22.51348878125" lon="114.27202079638671" /><trkpt lat="22.51341678125" lon="114.27209879638671" /><trkpt lat="22.51336178125" lon="114.27218179638672" /><trkpt lat="22.51327478125" lon="114.27215979638672" /><trkpt lat="22.51319778125" lon="114.27214079638672" /><trkpt lat="22.51311278125" lon="114.27205179638672" /><trkpt lat="22.51306578125" lon="114.27194779638671" /><trkpt lat="22.51300078125" lon="114.27185779638671" /><trkpt lat="22.51295878125" lon="114.27175679638673" /><trkpt lat="22.51289578125" lon="114.27162279638672" /><trkpt lat="22.51292178125" lon="114.27151079638672" /><trkpt lat="22.51294478125" lon="114.27140979638672" /><trkpt lat="22.51294378125" lon="114.27132379638672" /><trkpt lat="22.51285478125" lon="114.27136579638672" /><trkpt lat="22.51277778125" lon="114.27140279638672" /><trkpt lat="22.51273578125" lon="114.27153279638672" /><trkpt lat="22.51271278125" lon="114.27163079638672" /><trkpt lat="22.51268078125" lon="114.27172779638671" /><trkpt lat="22.51265978125" lon="114.27183879638672" /><trkpt lat="22.51264778125" lon="114.27189179638673" /><trkpt lat="22.51256778125" lon="114.27200779638672" /><trkpt lat="22.51239778125" lon="114.27207279638672" /><trkpt lat="22.51229378125" lon="114.27212179638671" /><trkpt lat="22.51220178125" lon="114.27212679638671" /><trkpt lat="22.51203278125" lon="114.27206779638672" /><trkpt lat="22.51194878125" lon="114.27204679638672" /><trkpt lat="22.51185678125" lon="114.27203879638672" /><trkpt lat="22.51176478125" lon="114.27199879638673" /><trkpt lat="22.51170178125" lon="114.27196779638672" /><trkpt lat="22.51159678125" lon="114.27196679638672" /><trkpt lat="22.51147978125" lon="114.27198279638672" /><trkpt lat="22.51137178125" lon="114.27195979638672" /><trkpt lat="22.51124478125" lon="114.27190879638673" /><trkpt lat="22.51117078125" lon="114.27189879638672" /><trkpt lat="22.51106478125" lon="114.27190279638671" /><trkpt lat="22.51092778125" lon="114.27191579638672" /><trkpt lat="22.51078378125" lon="114.27191479638672" /><trkpt lat="22.51054478125" lon="114.27197679638672" /><trkpt lat="22.51041378125" lon="114.27201179638672" /><trkpt lat="22.51025978125" lon="114.27202979638672" /><trkpt lat="22.51014178125" lon="114.27205179638672" /><trkpt lat="22.51008678125" lon="114.27204279638671" /><trkpt lat="22.51002378125" lon="114.27200379638671" /><trkpt lat="22.50995778125" lon="114.27195279638671" /><trkpt lat="22.50990178125" lon="114.27190379638672" /><trkpt lat="22.50970878125" lon="114.27189979638672" /><trkpt lat="22.50948078125" lon="114.27188279638672" /><trkpt lat="22.50931378125" lon="114.27188979638672" /><trkpt lat="22.50905978125" lon="114.27186779638672" /><trkpt lat="22.50890778125" lon="114.27194179638671" /><trkpt lat="22.50882478125" lon="114.27202279638672" /><trkpt lat="22.50870178125" lon="114.27205479638671" /><trkpt lat="22.50859578125" lon="114.27202579638671" /><trkpt lat="22.50850778125" lon="114.27200079638672" /><trkpt lat="22.50846778125" lon="114.27198979638672" /><trkpt lat="22.50844978125" lon="114.27195479638672" /><trkpt lat="22.50841678125" lon="114.27189179638673" /><trkpt lat="22.50830778125" lon="114.27181179638671" /><trkpt lat="22.50826178125" lon="114.27170379638672" /><trkpt lat="22.50822078125" lon="114.27159079638672" /><trkpt lat="22.50815478125" lon="114.27147679638672" /><trkpt lat="22.50806278125" lon="114.27139479638672" /><trkpt lat="22.50799178125" lon="114.27132579638672" /><trkpt lat="22.50792778125" lon="114.27123779638671" /><trkpt lat="22.50784078125" lon="114.27117579638671" /><trkpt lat="22.50773478125" lon="114.27118179638671" /><trkpt lat="22.50764378125" lon="114.27115879638671" /><trkpt lat="22.50753878125" lon="114.27113379638672" /><trkpt lat="22.50742878125" lon="114.27109779638671" /><trkpt lat="22.50732078125" lon="114.27104479638672" /><trkpt lat="22.50725178125" lon="114.27095579638672" /><trkpt lat="22.50715978125" lon="114.27085579638671" /><trkpt lat="22.50704678125" lon="114.27084079638672" /><trkpt lat="22.50703178125" lon="114.27067479638671" /><trkpt lat="22.50695078125" lon="114.27061679638672" /><trkpt lat="22.50683578125" lon="114.27049879638672" /><trkpt lat="22.50676278125" lon="114.27048279638672" /><trkpt lat="22.50678078125" lon="114.27034079638672" /><trkpt lat="22.50676878125" lon="114.27019779638673" /><trkpt lat="22.50665378125" lon="114.27001879638672" /><trkpt lat="22.50633778125" lon="114.26992979638672" /><trkpt lat="22.50621178125" lon="114.26992679638671" /><trkpt lat="22.50603178125" lon="114.26995479638671" /><trkpt lat="22.50580678125" lon="114.26987679638673" /><trkpt lat="22.50567178125" lon="114.26989979638672" /><trkpt lat="22.50555678125" lon="114.26993579638672" /><trkpt lat="22.50550778125" lon="114.26995579638672" /><trkpt lat="22.50545278125" lon="114.26994979638671" /><trkpt lat="22.50534878125" lon="114.26992179638673" /><trkpt lat="22.50529678125" lon="114.26988779638671" /><trkpt lat="22.50523478125" lon="114.26987279638672" /><trkpt lat="22.50519478125" lon="114.26986879638672" /><trkpt lat="22.50515378125" lon="114.26984879638673" /><trkpt lat="22.50510778125" lon="114.26978779638672" /><trkpt lat="22.50507278125" lon="114.26976379638671" /><trkpt lat="22.50495678125" lon="114.26979979638672" /><trkpt lat="22.50489678125" lon="114.26979079638672" /><trkpt lat="22.50484678125" lon="114.26975679638672" /><trkpt lat="22.50481378125" lon="114.26956179638672" /><trkpt lat="22.50481978125" lon="114.26945179638672" /><trkpt lat="22.50481278125" lon="114.26938179638672" /><trkpt lat="22.50480978125" lon="114.26934479638672" /><trkpt lat="22.50480478125" lon="114.26929979638672" /><trkpt lat="22.50485778125" lon="114.26917079638672" /><trkpt lat="22.50481178125" lon="114.26903279638672" /><trkpt lat="22.50474178125" lon="114.26895579638672" /><trkpt lat="22.50454778125" lon="114.26882579638672" /><trkpt lat="22.50447078125" lon="114.26874879638672" /><trkpt lat="22.50425078125" lon="114.26869179638672" /><trkpt lat="22.50410778125" lon="114.26862179638673" /><trkpt lat="22.50392678125" lon="114.26850579638672" /><trkpt lat="22.50388978125" lon="114.26839579638671" /><trkpt lat="22.503833781250002" lon="114.26826879638672" /><trkpt lat="22.50368878125" lon="114.26810679638672" /><trkpt lat="22.50367178125" lon="114.26807379638672" /><trkpt lat="22.50364278125" lon="114.26801779638672" /><trkpt lat="22.50357178125" lon="114.26790279638672" /><trkpt lat="22.50353378125" lon="114.26778979638672" /><trkpt lat="22.50344878125" lon="114.26767479638671" /><trkpt lat="22.50345378125" lon="114.26756579638672" /><trkpt lat="22.50344278125" lon="114.26749579638673" /><trkpt lat="22.50340278125" lon="114.26744579638672" /><trkpt lat="22.50329278125" lon="114.26734479638672" /><trkpt lat="22.50329278125" lon="114.26727679638672" /><trkpt lat="22.50330178125" lon="114.26713379638672" /><trkpt lat="22.50329078125" lon="114.26706179638671" /><trkpt lat="22.50326278125" lon="114.26700579638671" /><trkpt lat="22.50321278125" lon="114.26690579638672" /><trkpt lat="22.50315578125" lon="114.26679779638673" /><trkpt lat="22.50311778125" lon="114.26668279638672" /><trkpt lat="22.50318478125" lon="114.26652379638672" /><trkpt lat="22.50326978125" lon="114.26642879638672" /><trkpt lat="22.50333378125" lon="114.26631679638672" /><trkpt lat="22.50339378125" lon="114.26615779638672" /><trkpt lat="22.50340978125" lon="114.26606979638672" /><trkpt lat="22.50339078125" lon="114.26595179638672" /><trkpt lat="22.50335578125" lon="114.26585579638672" /><trkpt lat="22.50332078125" lon="114.26581579638672" /><trkpt lat="22.50327478125" lon="114.26576779638673" /><trkpt lat="22.50322978125" lon="114.26566979638672" /><trkpt lat="22.50319378125" lon="114.26553179638672" /><trkpt lat="22.50321578125" lon="114.26540179638671" /><trkpt lat="22.50328178125" lon="114.26523079638672" /><trkpt lat="22.50333778125" lon="114.26516879638672" /><trkpt lat="22.50337978125" lon="114.26501579638672" /><trkpt lat="22.50334878125" lon="114.26485679638672" /><trkpt lat="22.50329778125" lon="114.26480579638672" /><trkpt lat="22.50320578125" lon="114.26473779638673" /><trkpt lat="22.50313778125" lon="114.26465179638672" /><trkpt lat="22.50306778125" lon="114.26451479638672" /><trkpt lat="22.50302978125" lon="114.26438979638672" /><trkpt lat="22.50301078125" lon="114.26431679638672" /><trkpt lat="22.50300778125" lon="114.26426079638672" /><trkpt lat="22.50300278125" lon="114.26415079638672" /><trkpt lat="22.50299678125" lon="114.26402379638672" /><trkpt lat="22.50300578125" lon="114.26390079638672" /><trkpt lat="22.50302578125" lon="114.26383679638671" /><trkpt lat="22.50304278125" lon="114.26378179638672" /><trkpt lat="22.50309678125" lon="114.26368279638672" /><trkpt lat="22.50312378125" lon="114.26353279638671" /><trkpt lat="22.50307678125" lon="114.26337579638673" /><trkpt lat="22.50300678125" lon="114.26326179638671" /><trkpt lat="22.50295678125" lon="114.26316379638672" /><trkpt lat="22.50284478125" lon="114.26311879638672" /><trkpt lat="22.50277978125" lon="114.26306179638672" /><trkpt lat="22.50271778125" lon="114.26296179638672" /><trkpt lat="22.50276378125" lon="114.26282979638673" /><trkpt lat="22.50282978125" lon="114.26266979638672" /><trkpt lat="22.50284578125" lon="114.26253579638671" /><trkpt lat="22.50280178125" lon="114.26244079638671" /><trkpt lat="22.50274278125" lon="114.26230379638672" /><trkpt lat="22.50271178125" lon="114.26221479638671" /><trkpt lat="22.50269578125" lon="114.26208479638672" /><trkpt lat="22.50267878125" lon="114.26197179638672" /><trkpt lat="22.50268478125" lon="114.26185579638671" /><trkpt lat="22.50269378125" lon="114.26173779638673" /><trkpt lat="22.50272878125" lon="114.26163379638672" /><trkpt lat="22.50271678125" lon="114.26156579638672" /><trkpt lat="22.50269978125" lon="114.26148779638672" /><trkpt lat="22.50268278125" lon="114.26137579638672" /><trkpt lat="22.50264478125" lon="114.26120979638672" /><trkpt lat="22.50254578125" lon="114.26103679638672" /><trkpt lat="22.50246778125" lon="114.26090579638672" /><trkpt lat="22.50240378125" lon="114.26080979638672" /><trkpt lat="22.50234878125" lon="114.26057979638672" /><trkpt lat="22.50234778125" lon="114.26046779638672" /><trkpt lat="22.50242978125" lon="114.26039579638672" /><trkpt lat="22.50240878125" lon="114.26023379638671" /><trkpt lat="22.50239878125" lon="114.26010479638671" /><trkpt lat="22.50236378125" lon="114.26002679638673" /><trkpt lat="22.50230978125" lon="114.25992779638672" /><trkpt lat="22.50230178125" lon="114.25978379638671" /><trkpt lat="22.50229978125" lon="114.25973979638673" /><trkpt lat="22.50234878125" lon="114.25956479638671" /><trkpt lat="22.50242178125" lon="114.25942879638671" /><trkpt lat="22.50245278125" lon="114.25924179638672" /><trkpt lat="22.50248378125" lon="114.25914879638673" /><trkpt lat="22.50253778125" lon="114.25901879638671" /><trkpt lat="22.50256778125" lon="114.25892879638671" /><trkpt lat="22.50256678125" lon="114.25883279638671" /><trkpt lat="22.50260378125" lon="114.25869579638672" /><trkpt lat="22.50267078125" lon="114.25857179638672" /><trkpt lat="22.50277078125" lon="114.25847779638671" /><trkpt lat="22.50284278125" lon="114.25833479638672" /><trkpt lat="22.50290378125" lon="114.25829179638671" /><trkpt lat="22.50305278125" lon="114.25821579638672" /><trkpt lat="22.50311378125" lon="114.25812379638671" /><trkpt lat="22.50321178125" lon="114.25798079638672" /><trkpt lat="22.50333278125" lon="114.25783279638672" /><trkpt lat="22.50340078125" lon="114.25766479638672" /><trkpt lat="22.50339978125" lon="114.25743879638672" /><trkpt lat="22.50337678125" lon="114.25732979638671" /><trkpt lat="22.50333178125" lon="114.25710579638672" /><trkpt lat="22.50326978125" lon="114.25683279638672" /><trkpt lat="22.50321678125" lon="114.25672379638672" /><trkpt lat="22.50316078125" lon="114.25659879638673" /><trkpt lat="22.50320678125" lon="114.25652679638672" /><trkpt lat="22.50323078125" lon="114.25646679638672" /><trkpt lat="22.50320778125" lon="114.25638079638672" /><trkpt lat="22.50330178125" lon="114.25620379638671" /><trkpt lat="22.50336178125" lon="114.25605179638671" /><trkpt lat="22.50347278125" lon="114.25581779638672" /><trkpt lat="22.50358978125" lon="114.25565179638672" /><trkpt lat="22.50365778125" lon="114.25559179638672" /><trkpt lat="22.50374378125" lon="114.25556279638671" /><trkpt lat="22.50383178125" lon="114.25551979638672" /><trkpt lat="22.50390278125" lon="114.25538579638672" /><trkpt lat="22.50396378125" lon="114.25527179638672" /><trkpt lat="22.50400478125" lon="114.25519079638671" /><trkpt lat="22.50402178125" lon="114.25502679638672" /><trkpt lat="22.50408878125" lon="114.25492179638672" /><trkpt lat="22.50416078125" lon="114.25482479638671" /><trkpt lat="22.50420078125" lon="114.25473379638672" /><trkpt lat="22.50425178125" lon="114.25464079638672" /><trkpt lat="22.50430678125" lon="114.25452279638672" /><trkpt lat="22.50433978125" lon="114.25445979638671" /><trkpt lat="22.50437578125" lon="114.25440779638672" /><trkpt lat="22.50440678125" lon="114.25432479638671" /><trkpt lat="22.50442978125" lon="114.25422079638672" /><trkpt lat="22.50444578125" lon="114.25410679638672" /><trkpt lat="22.50446878125" lon="114.25397079638672" /><trkpt lat="22.50448678125" lon="114.25385079638671" /><trkpt lat="22.50449578125" lon="114.25379179638672" /><trkpt lat="22.50451178125" lon="114.25370179638672" /><trkpt lat="22.50454278125" lon="114.25359279638671" /><trkpt lat="22.50456578125" lon="114.25350079638672" /><trkpt lat="22.50459878125" lon="114.25339179638672" /><trkpt lat="22.50460378125" lon="114.25323879638673" /><trkpt lat="22.50461078125" lon="114.25312379638672" /><trkpt lat="22.50460678125" lon="114.25301579638672" /><trkpt lat="22.50461678125" lon="114.25285779638672" /><trkpt lat="22.50460378125" lon="114.25275379638671" /><trkpt lat="22.50456878125" lon="114.25263079638673" /><trkpt lat="22.50451578125" lon="114.25253279638672" /><trkpt lat="22.50444878125" lon="114.25245479638671" /><trkpt lat="22.50443378125" lon="114.25235579638672" /><trkpt lat="22.50440578125" lon="114.25232179638672" /><trkpt lat="22.50436078125" lon="114.25227779638672" /><trkpt lat="22.50430478125" lon="114.25215979638672" /><trkpt lat="22.50429678125" lon="114.25214379638672" /><trkpt lat="22.50425578125" lon="114.25206279638672" /><trkpt lat="22.50424478125" lon="114.25201479638672" /><trkpt lat="22.50423078125" lon="114.25195479638671" /><trkpt lat="22.50420678125" lon="114.25183779638672" /><trkpt lat="22.50418978125" lon="114.25171879638673" /><trkpt lat="22.50424178125" lon="114.25156079638671" /><trkpt lat="22.50428678125" lon="114.25145879638671" /><trkpt lat="22.50429478125" lon="114.25133479638671" /><trkpt lat="22.50428178125" lon="114.25120079638671" /><trkpt lat="22.50422078125" lon="114.25109079638672" /><trkpt lat="22.50416178125" lon="114.25099879638672" /><trkpt lat="22.50414678125" lon="114.25091179638672" /><trkpt lat="22.50412678125" lon="114.25082279638671" /><trkpt lat="22.50408878125" lon="114.25070879638672" /><trkpt lat="22.50409578125" lon="114.25059279638671" /><trkpt lat="22.50410378125" lon="114.25044079638671" /><trkpt lat="22.50401078125" lon="114.25034379638672" /><trkpt lat="22.50394278125" lon="114.25029779638672" /><trkpt lat="22.50391778125" lon="114.25025179638672" /><trkpt lat="22.50388978125" lon="114.25018879638672" /><trkpt lat="22.50384678125" lon="114.25010479638672" /><trkpt lat="22.50383578125" lon="114.24999479638672" /><trkpt lat="22.50386378125" lon="114.24988579638672" /><trkpt lat="22.50385678125" lon="114.24976079638672" /><trkpt lat="22.50384978125" lon="114.24968679638671" /><trkpt lat="22.50379478125" lon="114.24961679638672" /><trkpt lat="22.50373178125" lon="114.24958979638672" /><trkpt lat="22.50361578125" lon="114.24957779638672" /><trkpt lat="22.50351078125" lon="114.24957279638672" /><trkpt lat="22.50342678125" lon="114.24952879638671" /><trkpt lat="22.50338578125" lon="114.24946979638672" /><trkpt lat="22.50336478125" lon="114.24941979638672" /><trkpt lat="22.50336978125" lon="114.24928279638672" /><trkpt lat="22.50343978125" lon="114.24915579638672" /><trkpt lat="22.50353978125" lon="114.24905779638672" /><trkpt lat="22.50362778125" lon="114.24893479638672" /><trkpt lat="22.50367078125" lon="114.24882579638673" /><trkpt lat="22.50369078125" lon="114.24870079638671" /><trkpt lat="22.50365478125" lon="114.24855679638672" /><trkpt lat="22.50360278125" lon="114.24841379638671" /><trkpt lat="22.50355478125" lon="114.24832979638671" /><trkpt lat="22.50348278125" lon="114.24825579638672" /><trkpt lat="22.50343978125" lon="114.24820779638672" /><trkpt lat="22.50336678125" lon="114.24814879638672" /><trkpt lat="22.50328378125" lon="114.24807579638671" /><trkpt lat="22.50322478125" lon="114.24803379638672" /><trkpt lat="22.50316178125" lon="114.24798879638672" /><trkpt lat="22.50304578125" lon="114.24791879638671" /><trkpt lat="22.50300478125" lon="114.24788979638672" /><trkpt lat="22.50303678125" lon="114.24781379638672" /><trkpt lat="22.50306278125" lon="114.24775079638673" /><trkpt lat="22.50313678125" lon="114.24759579638672" /><trkpt lat="22.50324078125" lon="114.24733179638672" /><trkpt lat="22.50330978125" lon="114.24718679638671" /><trkpt lat="22.50338178125" lon="114.24707279638672" /><trkpt lat="22.50331878125" lon="114.24696079638672" /><trkpt lat="22.50326378125" lon="114.24690179638672" /><trkpt lat="22.50323278125" lon="114.24681179638672" /><trkpt lat="22.50324178125" lon="114.24672179638672" /><trkpt lat="22.50329478125" lon="114.24655579638672" /><trkpt lat="22.50337078125" lon="114.24645879638672" /><trkpt lat="22.50336078125" lon="114.24635679638672" /><trkpt lat="22.50335078125" lon="114.24628679638671" /><trkpt lat="22.50336578125" lon="114.24617579638672" /><trkpt lat="22.50345278125" lon="114.24597779638673" /><trkpt lat="22.50356278125" lon="114.24577879638672" /><trkpt lat="22.50361278125" lon="114.24566179638671" /><trkpt lat="22.50369578125" lon="114.24545179638672" /><trkpt lat="22.50377078125" lon="114.24529579638671" /><trkpt lat="22.50383578125" lon="114.24520279638672" /><trkpt lat="22.50391978125" lon="114.24511679638672" /><trkpt lat="22.50404378125" lon="114.24499379638672" /><trkpt lat="22.50420678125" lon="114.24472879638672" /><trkpt lat="22.50437778125" lon="114.24457179638672" /><trkpt lat="22.50457778125" lon="114.24429279638672" /><trkpt lat="22.50476278125" lon="114.24419479638672" /><trkpt lat="22.50491278125" lon="114.24417579638671" /><trkpt lat="22.50498378125" lon="114.24416279638672" /><trkpt lat="22.50505978125" lon="114.24410779638671" /><trkpt lat="22.50522078125" lon="114.24397679638672" /><trkpt lat="22.50538178125" lon="114.24385979638672" /><trkpt lat="22.50547678125" lon="114.24381179638672" /><trkpt lat="22.50553878125" lon="114.24377379638672" /><trkpt lat="22.50562878125" lon="114.24357679638672" /><trkpt lat="22.50569578125" lon="114.24350579638671" /><trkpt lat="22.50576078125" lon="114.24346779638672" /><trkpt lat="22.50583778125" lon="114.24342579638672" /><trkpt lat="22.50576378125" lon="114.24326379638671" /><trkpt lat="22.50568078125" lon="114.24310879638672" /><trkpt lat="22.50566978125" lon="114.24299579638672" /><trkpt lat="22.50565878125" lon="114.24275179638671" /><trkpt lat="22.50573778125" lon="114.24277479638671" /><trkpt lat="22.50581578125" lon="114.24273279638672" /><trkpt lat="22.50599178125" lon="114.24279579638672" /><trkpt lat="22.50603078125" lon="114.24279579638672" /><trkpt lat="22.50603978125" lon="114.24276679638672" /><trkpt lat="22.50601578125" lon="114.24275679638671" /><trkpt lat="22.50606478125" lon="114.24263279638672" /><trkpt lat="22.50606878125" lon="114.24256679638673" /><trkpt lat="22.50605278125" lon="114.24245679638672" /><trkpt lat="22.50608778125" lon="114.24241679638672" /><trkpt lat="22.50612578125" lon="114.24238579638671" /><trkpt lat="22.50613478125" lon="114.24235479638672" /><trkpt lat="22.50613878125" lon="114.24229479638672" /><trkpt lat="22.50612778125" lon="114.24225179638673" /><trkpt lat="22.50613078125" lon="114.24217979638672" /><trkpt lat="22.50609578125" lon="114.24203879638672" /><trkpt lat="22.50614678125" lon="114.24201279638672" /><trkpt lat="22.50611578125" lon="114.24192579638672" /><trkpt lat="22.50603478125" lon="114.24183779638672" /><trkpt lat="22.50600578125" lon="114.24175979638672" /><trkpt lat="22.50667678125" lon="114.24140579638672" /><trkpt lat="22.50674178125" lon="114.24156479638673" /><trkpt lat="22.50678578125" lon="114.24169979638671" /><trkpt lat="22.50681778125" lon="114.24182279638671" /><trkpt lat="22.50685078125" lon="114.24194179638671" /><trkpt lat="22.50688378125" lon="114.24204379638672" /><trkpt lat="22.50694178125" lon="114.24215579638673" /><trkpt lat="22.50698178125" lon="114.24222279638671" /><trkpt lat="22.50704378125" lon="114.24230979638672" /><trkpt lat="22.50709678125" lon="114.24239279638672" /><trkpt lat="22.50715078125" lon="114.24248779638671" /><trkpt lat="22.50728978125" lon="114.24279979638672" /><trkpt lat="22.50735778125" lon="114.24289379638672" /><trkpt lat="22.50744878125" lon="114.24295879638672" /><trkpt lat="22.50754678125" lon="114.24299779638672" /><trkpt lat="22.50763478125" lon="114.24299979638671" /><trkpt lat="22.50771778125" lon="114.24296779638672" /><trkpt lat="22.50780978125" lon="114.24292979638672" /><trkpt lat="22.50790378125" lon="114.24290879638671" /><trkpt lat="22.50794978125" lon="114.24291079638672" /><trkpt lat="22.50783178125" lon="114.24265279638672" /><trkpt lat="22.50782478125" lon="114.24258279638671" /><trkpt lat="22.50778178125" lon="114.24250779638672" /><trkpt lat="22.50780478125" lon="114.24236579638672" /><trkpt lat="22.50787178125" lon="114.24224779638672" /><trkpt lat="22.50781478125" lon="114.24208979638672" /><trkpt lat="22.50773778125" lon="114.24201179638672" /><trkpt lat="22.50766278125" lon="114.24206479638671" /><trkpt lat="22.50751178125" lon="114.24205179638672" /><trkpt lat="22.50747478125" lon="114.24202279638672" /><trkpt lat="22.50740578125" lon="114.24201479638671" /><trkpt lat="22.50729278125" lon="114.24186979638672" /><trkpt lat="22.50732478125" lon="114.24182479638672" /><trkpt lat="22.50733278125" lon="114.24176379638672" /><trkpt lat="22.50727278125" lon="114.24170479638671" /><trkpt lat="22.50724178125" lon="114.24161579638672" /><trkpt lat="22.50720378125" lon="114.24157079638672" /><trkpt lat="22.50719578125" lon="114.24151279638671" /><trkpt lat="22.50720278125" lon="114.24140979638672" /><trkpt lat="22.50720778125" lon="114.24133679638672" /><trkpt lat="22.50717978125" lon="114.24127179638671" /><trkpt lat="22.50712778125" lon="114.24116079638672" /><trkpt lat="22.50726178125" lon="114.24108779638672" /><trkpt lat="22.50744878125" lon="114.24099879638672" /><trkpt lat="22.50771078125" lon="114.24083179638671" /><trkpt lat="22.50789978125" lon="114.24071579638672" /><trkpt lat="22.50800778125" lon="114.24054679638672" /><trkpt lat="22.50806878125" lon="114.24038179638671" /><trkpt lat="22.50813178125" lon="114.24005679638672" /><trkpt lat="22.50823278125" lon="114.23987679638672" /><trkpt lat="22.50845678125" lon="114.23955179638672" /><trkpt lat="22.50871578125" lon="114.23925679638671" /><trkpt lat="22.50903878125" lon="114.23895079638672" /><trkpt lat="22.50957778125" lon="114.23841679638672" /><trkpt lat="22.50980878125" lon="114.23816079638672" /><trkpt lat="22.50990278125" lon="114.23801079638672" /><trkpt lat="22.50995378125" lon="114.23787279638672" /><trkpt lat="22.50998378125" lon="114.23767379638672" /><trkpt lat="22.50998078125" lon="114.23746179638673" /><trkpt lat="22.50992978125" lon="114.23725479638672" /><trkpt lat="22.50986378125" lon="114.23706579638672" /><trkpt lat="22.50970178125" lon="114.23676879638671" /><trkpt lat="22.50947778125" lon="114.23633879638672" /><trkpt lat="22.50942178125" lon="114.23606279638672" /><trkpt lat="22.50940378125" lon="114.23580379638672" /><trkpt lat="22.50949878125" lon="114.23546779638671" /><trkpt lat="22.50986778125" lon="114.23473379638672" /><trkpt lat="22.50991278125" lon="114.23465379638672" /><trkpt lat="22.50992278125" lon="114.23459479638672" /><trkpt lat="22.50992378125" lon="114.23453979638671" /><trkpt lat="22.50991878125" lon="114.23448879638671" /><trkpt lat="22.50990478125" lon="114.23444679638672" /><trkpt lat="22.50988078125" lon="114.23440679638672" /><trkpt lat="22.50984578125" lon="114.23436579638673" /><trkpt lat="22.50977078125" lon="114.23430379638671" /><trkpt lat="22.50957378125" lon="114.23430079638672" /><trkpt lat="22.50914378125" lon="114.23426179638672" /><trkpt lat="22.50887378125" lon="114.23421279638671" /><trkpt lat="22.50856578125" lon="114.23413179638672" /><trkpt lat="22.50786878125" lon="114.23399179638672" /><trkpt lat="22.50736978125" lon="114.23386179638672" /><trkpt lat="22.50673178125" lon="114.23383679638673" /><trkpt lat="22.50634078125" lon="114.23396379638672" /><trkpt lat="22.50566978125" lon="114.23438179638671" /><trkpt lat="22.50520678125" lon="114.23498879638672" /><trkpt lat="22.50495378125" lon="114.23527379638672" /><trkpt lat="22.50447578125" lon="114.23575579638671" /><trkpt lat="22.50415478125" lon="114.23593979638672" /><trkpt lat="22.50385878125" lon="114.23610979638671" /><trkpt lat="22.50336078125" lon="114.23636979638673" /><trkpt lat="22.50326778125" lon="114.23644079638672" /><trkpt lat="22.50317778125" lon="114.23651079638672" /><trkpt lat="22.50310278125" lon="114.23656879638672" /><trkpt lat="22.50279878125" lon="114.23688879638672" /><trkpt lat="22.50252778125" lon="114.23725079638672" /><trkpt lat="22.50220878125" lon="114.23727979638672" /><trkpt lat="22.50214678125" lon="114.23738379638672" /><trkpt lat="22.50224878125" lon="114.23788179638672" /><trkpt lat="22.50212478125" lon="114.23859579638672" /><trkpt lat="22.50207578125" lon="114.23872179638671" /><trkpt lat="22.50199578125" lon="114.23889479638672" /><trkpt lat="22.50189978125" lon="114.23902179638672" /><trkpt lat="22.50170578125" lon="114.23920279638672" /><trkpt lat="22.50152778125" lon="114.23929479638672" /><trkpt lat="22.50132078125" lon="114.23932479638673" /><trkpt lat="22.50113378125" lon="114.23930679638671" /><trkpt lat="22.50044278125" lon="114.23909979638672" /><trkpt lat="22.50031478125" lon="114.23908479638672" /><trkpt lat="22.50020678125" lon="114.23909379638671" /><trkpt lat="22.50015178125" lon="114.23909779638672" /><trkpt lat="22.50009378125" lon="114.23912479638672" /><trkpt lat="22.50008478125" lon="114.23912879638672" /><trkpt lat="22.49976078125" lon="114.23927779638672" /><trkpt lat="22.49956778125" lon="114.23962379638672" /><trkpt lat="22.49928378125" lon="114.24011479638672" /><trkpt lat="22.49908278125" lon="114.24025379638672" /><trkpt lat="22.49862078125" lon="114.24042379638672" /><trkpt lat="22.49827478125" lon="114.24052279638671" /><trkpt lat="22.49778078125" lon="114.24067179638672" /><trkpt lat="22.49767478125" lon="114.24077879638672" /><trkpt lat="22.49725078125" lon="114.24107179638672" /><trkpt lat="22.49691678125" lon="114.24122879638672" /><trkpt lat="22.49663078125" lon="114.24126879638672" /><trkpt lat="22.49637278125" lon="114.24125479638671" /><trkpt lat="22.49615678125" lon="114.24124279638671" /><trkpt lat="22.49554878125" lon="114.24108179638672" /><trkpt lat="22.49439378125" lon="114.24145879638672" /><trkpt lat="22.49428578125" lon="114.24154579638672" /><trkpt lat="22.49359978125" lon="114.24176779638672" /><trkpt lat="22.49337478125" lon="114.24188979638672" /><trkpt lat="22.49301178125" lon="114.24195179638672" /><trkpt lat="22.49250878125" lon="114.24195679638672" /><trkpt lat="22.49205578125" lon="114.24191279638671" /><trkpt lat="22.49169278125" lon="114.24189579638671" /><trkpt lat="22.49109078125" lon="114.24181879638672" /><trkpt lat="22.49082478125" lon="114.24188179638672" /><trkpt lat="22.49061878125" lon="114.24207079638671" /><trkpt lat="22.49050278125" lon="114.24220179638672" /><trkpt lat="22.49017178125" lon="114.24239479638672" /><trkpt lat="22.49001678125" lon="114.24246979638671" /><trkpt lat="22.48990878125" lon="114.24250579638672" /><trkpt lat="22.48979578125" lon="114.24251479638671" /><trkpt lat="22.48965278125" lon="114.24250179638672" /><trkpt lat="22.48885878125" lon="114.24233179638672" /><trkpt lat="22.48859878125" lon="114.24227379638671" /><trkpt lat="22.48841978125" lon="114.24227679638672" /><trkpt lat="22.48828478125" lon="114.24229579638671" /><trkpt lat="22.48815478125" lon="114.24240779638671" /><trkpt lat="22.48811478125" lon="114.24245179638672" /><trkpt lat="22.48798678125" lon="114.24258979638672" /><trkpt lat="22.48795078125" lon="114.24266079638672" /><trkpt lat="22.48742578125" lon="114.24370179638672" /><trkpt lat="22.48706578125" lon="114.24394279638672" /><trkpt lat="22.48651178125" lon="114.24405279638673" /><trkpt lat="22.48593778125" lon="114.24384679638672" /><trkpt lat="22.48574178125" lon="114.24370979638672" /><trkpt lat="22.48513278125" lon="114.24300679638672" /><trkpt lat="22.48493578125" lon="114.24288879638672" /><trkpt lat="22.48466678125" lon="114.24280279638671" /><trkpt lat="22.48452678125" lon="114.24279579638672" /><trkpt lat="22.48440878125" lon="114.24284979638672" /><trkpt lat="22.48390078125" lon="114.24328279638672" /><trkpt lat="22.48364878125" lon="114.24335079638672" /><trkpt lat="22.48317778125" lon="114.24329779638671" /><trkpt lat="22.48294878125" lon="114.24316879638671" /><trkpt lat="22.48252678125" lon="114.24273879638672" /><trkpt lat="22.48208178125" lon="114.24219579638672" /><trkpt lat="22.48171778125" lon="114.24180779638672" /><trkpt lat="22.48160978125" lon="114.24168679638672" /><trkpt lat="22.48145778125" lon="114.24152279638672" /><trkpt lat="22.48125978125" lon="114.24134779638672" /><trkpt lat="22.48111978125" lon="114.24124579638672" /><trkpt lat="22.48055378125" lon="114.24088179638672" /><trkpt lat="22.48000078125" lon="114.24059079638671" /><trkpt lat="22.47972078125" lon="114.24040079638672" /><trkpt lat="22.47960878125" lon="114.24028979638672" /><trkpt lat="22.47948878125" lon="114.24013279638672" /><trkpt lat="22.47934778125" lon="114.23984479638672" /><trkpt lat="22.47914478125" lon="114.23936379638671" /><trkpt lat="22.47910578125" lon="114.23927479638672" /><trkpt lat="22.47906678125" lon="114.23920079638673" /><trkpt lat="22.47898878125" lon="114.23909779638672" /><trkpt lat="22.47890878125" lon="114.23901679638672" /><trkpt lat="22.47871178125" lon="114.23885279638672" /><trkpt lat="22.47816578125" lon="114.23849079638671" /><trkpt lat="22.477895781249998" lon="114.23827279638672" /><trkpt lat="22.47780678125" lon="114.23815179638672" /><trkpt lat="22.47774378125" lon="114.23805479638672" /><trkpt lat="22.47768178125" lon="114.23791979638672" /><trkpt lat="22.47763778125" lon="114.23778479638672" /><trkpt lat="22.47762078125" lon="114.23772879638672" /><trkpt lat="22.47760978125" lon="114.23766479638672" /><trkpt lat="22.47755078125" lon="114.23709579638673" /><trkpt lat="22.47751178125" lon="114.23697079638671" /><trkpt lat="22.47747078125" lon="114.23687479638672" /><trkpt lat="22.47740978125" lon="114.23679079638671" /><trkpt lat="22.47735978125" lon="114.23673679638672" /><trkpt lat="22.47729478125" lon="114.23667979638672" /><trkpt lat="22.47722078125" lon="114.23664579638672" /><trkpt lat="22.47713978125" lon="114.23661079638671" /><trkpt lat="22.47706678125" lon="114.23659479638673" /><trkpt lat="22.47688878125" lon="114.23657479638672" /><trkpt lat="22.47677178125" lon="114.23655779638672" /><trkpt lat="22.47668578125" lon="114.23652279638672" /><trkpt lat="22.47661878125" lon="114.23647479638672" /><trkpt lat="22.47653778125" lon="114.23641079638672" /><trkpt lat="22.47646078125" lon="114.23635379638672" /><trkpt lat="22.47634578125" lon="114.23629579638671" /><trkpt lat="22.47626478125" lon="114.23632479638673" /><trkpt lat="22.47619478125" lon="114.23635079638672" /><trkpt lat="22.47579078125" lon="114.23661979638672" /><trkpt lat="22.475652781249998" lon="114.23667679638672" /><trkpt lat="22.47551978125" lon="114.23671479638672" /><trkpt lat="22.47519078125" lon="114.23671679638672" /><trkpt lat="22.47460278125" lon="114.23645379638671" /><trkpt lat="22.47426478125" lon="114.23630279638672" /><trkpt lat="22.47409578125" lon="114.23618079638672" /><trkpt lat="22.47395478125" lon="114.23603879638672" /><trkpt lat="22.47381878125" lon="114.23580279638672" /><trkpt lat="22.47377278125" lon="114.23569879638671" /><trkpt lat="22.47374078125" lon="114.23560379638671" /><trkpt lat="22.47365478125" lon="114.23536479638672" /><trkpt lat="22.47339978125" lon="114.23456979638672" /><trkpt lat="22.47290978125" lon="114.23314479638672" /><trkpt lat="22.47285578125" lon="114.23315379638672" /><trkpt lat="22.47277978125" lon="114.23314379638671" /><trkpt lat="22.47271778125" lon="114.23315079638672" /><trkpt lat="22.47239624637563" lon="114.23323579993098" /></trkseg></trk></gpx>