<?xml version='1.0' encoding='UTF-8' ?><gpx version="1.1" creator="HikingTrailHK" xsi:schemaLocation="http://www.topografix.com/GPX/1/1 http://www.topografix.com/GPX/1/1/gpx.xsd" xmlns="http://www.topografix.com/GPX/1/1" xmlns:xsi="http://www.w3.org/2001/XMLSchema-instance"><metadata><name>咸田山 2025-1-23</name><desc></desc></metadata><trk><trkseg><trkpt lat="22.31048102295955" lon="114.23854584153321" /><trkpt lat="22.31049578125" lon="114.23860979638673" /><trkpt lat="22.31050278125" lon="114.23863379638672" /><trkpt lat="22.31052178125" lon="114.23871379638672" /><trkpt lat="22.31054078125" lon="114.23885679638671" /><trkpt lat="22.31055378125" lon="114.23898179638672" /><trkpt lat="22.31053878125" lon="114.23906379638672" /><trkpt lat="22.31052578125" lon="114.23912179638671" /><trkpt lat="22.31059878125" lon="114.23931479638672" /><trkpt lat="22.31061778125" lon="114.23942679638672" /><trkpt lat="22.31061978125" lon="114.23949679638672" /><trkpt lat="22.31067178125" lon="114.23958279638671" /><trkpt lat="22.31077978125" lon="114.23965079638671" /><trkpt lat="22.31080178125" lon="114.23968979638671" /><trkpt lat="22.31080578125" lon="114.23971179638671" /><trkpt lat="22.31079378125" lon="114.23972979638671" /><trkpt lat="22.31076978125" lon="114.23975379638672" /><trkpt lat="22.31068378125" lon="114.23977479638671" /><trkpt lat="22.31057878125" lon="114.23974679638673" /><trkpt lat="22.31048678125" lon="114.23967779638672" /><trkpt lat="22.31043878125" lon="114.23965279638672" /><trkpt lat="22.31036478125" lon="114.23967879638671" /><trkpt lat="22.31033078125" lon="114.23974979638672" /><trkpt lat="22.31033078125" lon="114.23984679638671" /><trkpt lat="22.31032978125" lon="114.23997979638672" /><trkpt lat="22.31035878125" lon="114.24009079638672" /><trkpt lat="22.31035478125" lon="114.24020779638671" /><trkpt lat="22.31040778125" lon="114.24027479638671" /><trkpt lat="22.31040078125" lon="114.24033579638672" /><trkpt lat="22.310450899832162" lon="114.24041712037962" /><trkpt lat="22.31050914052834" lon="114.24046328594522" /><trkpt lat="22.31054523531253" lon="114.24041083244066" /><trkpt lat="22.310531008209182" lon="114.24030244486806" /><trkpt lat="22.310501244089213" lon="114.2403126231755" /><trkpt lat="22.31049778125" lon="114.24030079638672" /><trkpt lat="22.31048678125" lon="114.24019179638672" /><trkpt lat="22.31049478125" lon="114.24011779638671" /><trkpt lat="22.31051578125" lon="114.24009279638672" /><trkpt lat="22.31055178125" lon="114.24010679638671" /><trkpt lat="22.31058578125" lon="114.24013779638672" /><trkpt lat="22.31064478125" lon="114.24016079638672" /><trkpt lat="22.31072178125" lon="114.24017579638672" /><trkpt lat="22.31078778125" lon="114.24017479638673" /><trkpt lat="22.31086878125" lon="114.24019379638672" /><trkpt lat="22.31091778125" lon="114.24022379638672" /><trkpt lat="22.31095178125" lon="114.24026779638672" /><trkpt lat="22.31096778125" lon="114.24032079638671" /><trkpt lat="22.31101178125" lon="114.24045879638672" /><trkpt lat="22.31102078125" lon="114.24053979638671" /><trkpt lat="22.31101078125" lon="114.24069179638671" /><trkpt lat="22.31104278125" lon="114.24080479638671" /><trkpt lat="22.31105078125" lon="114.24090079638673" /><trkpt lat="22.31107278125" lon="114.24100779638673" /><trkpt lat="22.31106878125" lon="114.24107279638672" /><trkpt lat="22.31100178125" lon="114.24122979638672" /><trkpt lat="22.31095778125" lon="114.24128079638672" /><trkpt lat="22.31099078125" lon="114.24132379638672" /><trkpt lat="22.31099578125" lon="114.24136779638673" /><trkpt lat="22.31098378125" lon="114.24143879638672" /><trkpt lat="22.31100478125" lon="114.24148679638672" /><trkpt lat="22.31104978125" lon="114.24150279638671" /><trkpt lat="22.31120878125" lon="114.24146579638672" /><trkpt lat="22.31124878125" lon="114.24149579638672" /><trkpt lat="22.31137378125" lon="114.24136779638673" /><trkpt lat="22.31149278125" lon="114.24126279638672" /><trkpt lat="22.31163078125" lon="114.24104479638672" /><trkpt lat="22.31167678125" lon="114.24092379638672" /><trkpt lat="22.31179060572684" lon="114.24079156392787" /><trkpt lat="22.311871973721182" lon="114.24065170832529" /><trkpt lat="22.311869435498835" lon="114.24058223619056" /><trkpt lat="22.31180952382408" lon="114.24056320001597" /><trkpt lat="22.311762923318696" lon="114.2406054989197" /><trkpt lat="22.311739147060962" lon="114.24066605923497" /><trkpt lat="22.311716646174702" lon="114.2407922206828" /><trkpt lat="22.311674090276185" lon="114.24088940277568" /><trkpt lat="22.311673406663843" lon="114.24089189532697" /><trkpt lat="22.31167678125" lon="114.24092379638672" /><trkpt lat="22.31163078125" lon="114.24104479638672" /><trkpt lat="22.31149278125" lon="114.24126279638672" /><trkpt lat="22.31137378125" lon="114.24136779638673" /><trkpt lat="22.31124878125" lon="114.24149579638672" /><trkpt lat="22.31113978125" lon="114.24161179638672" /><trkpt lat="22.31108178125" lon="114.24163979638672" /><trkpt lat="22.31095378125" lon="114.24167179638673" /><trkpt lat="22.31089378125" lon="114.24170279638672" /><trkpt lat="22.31085078125" lon="114.24174479638671" /><trkpt lat="22.31079978125" lon="114.24181379638672" /><trkpt lat="22.31075578125" lon="114.24185079638671" /><trkpt lat="22.31068478125" lon="114.24189579638671" /><trkpt lat="22.31060978125" lon="114.24192479638671" /><trkpt lat="22.31059778125" lon="114.24188679638672" /><trkpt lat="22.31057078125" lon="114.24185579638672" /><trkpt lat="22.31047878125" lon="114.24182979638672" /><trkpt lat="22.31041478125" lon="114.24182179638672" /><trkpt lat="22.31026578125" lon="114.24183579638672" /><trkpt lat="22.31019078125" lon="114.24187679638672" /><trkpt lat="22.31003978125" lon="114.24189279638672" /><trkpt lat="22.30999278125" lon="114.24187779638672" /><trkpt lat="22.30995378125" lon="114.24185079638671" /><trkpt lat="22.30991478125" lon="114.24183279638672" /><trkpt lat="22.30987878125" lon="114.24182179638672" /><trkpt lat="22.30983478125" lon="114.24182579638672" /><trkpt lat="22.30980678125" lon="114.24183379638671" /><trkpt lat="22.30978378125" lon="114.24183879638672" /><trkpt lat="22.30970178125" lon="114.24187879638671" /><trkpt lat="22.30966278125" lon="114.24188679638672" /><trkpt lat="22.30960378125" lon="114.24187079638672" /><trkpt lat="22.30955278125" lon="114.24185079638671" /><trkpt lat="22.30947478125" lon="114.24185779638672" /><trkpt lat="22.30940078125" lon="114.24185679638671" /><trkpt lat="22.30933578125" lon="114.24185979638672" /><trkpt lat="22.30925178125" lon="114.24187079638672" /><trkpt lat="22.309210781250002" lon="114.24184979638672" /><trkpt lat="22.30917178125" lon="114.24179079638672" /><trkpt lat="22.30913278125" lon="114.24168279638671" /><trkpt lat="22.30911278125" lon="114.24156479638673" /><trkpt lat="22.30907878125" lon="114.24144379638672" /><trkpt lat="22.30906878125" lon="114.24135179638672" /><trkpt lat="22.30911278125" lon="114.24125679638672" /><trkpt lat="22.30912778125" lon="114.24115379638671" /><trkpt lat="22.30910178125" lon="114.24105479638672" /><trkpt lat="22.30905878125" lon="114.24101079638672" /><trkpt lat="22.30899478125" lon="114.24094779638672" /><trkpt lat="22.30915278125" lon="114.24101579638672" /><trkpt lat="22.30933078125" lon="114.24138879638672" /><trkpt lat="22.30946278125" lon="114.24152879638672" /><trkpt lat="22.30964978125" lon="114.24149579638672" /><trkpt lat="22.30979978125" lon="114.24141079638672" /><trkpt lat="22.30979178125" lon="114.24109179638671" /><trkpt lat="22.30970878125" lon="114.24110279638671" /><trkpt lat="22.30954378125" lon="114.24095179638672" /><trkpt lat="22.30946078125" lon="114.24063979638672" /><trkpt lat="22.30951678125" lon="114.24057379638671" /><trkpt lat="22.30938678125" lon="114.24049079638672" /><trkpt lat="22.30926278125" lon="114.24042879638672" /><trkpt lat="22.30911678125" lon="114.24035679638672" /><trkpt lat="22.30907078125" lon="114.24035679638672" /><trkpt lat="22.30902178125" lon="114.24040179638672" /><trkpt lat="22.30891578125" lon="114.24038079638672" /><trkpt lat="22.30879278125" lon="114.24036979638672" /><trkpt lat="22.30867578125" lon="114.24040079638672" /><trkpt lat="22.30858578125" lon="114.24047579638672" /><trkpt lat="22.30810078125" lon="114.24045579638671" /><trkpt lat="22.30802778125" lon="114.24050979638672" /><trkpt lat="22.30790878125" lon="114.24051179638671" /><trkpt lat="22.30788478125" lon="114.24051279638672" /><trkpt lat="22.30784878125" lon="114.24046479638672" /><trkpt lat="22.30780778125" lon="114.24045379638672" /><trkpt lat="22.30773478125" lon="114.24049679638672" /><trkpt lat="22.30770178125" lon="114.24050479638672" /><trkpt lat="22.30757978125" lon="114.24047579638672" /><trkpt lat="22.30753078125" lon="114.24045579638671" /><trkpt lat="22.30744978125" lon="114.24042179638671" /><trkpt lat="22.30722278125" lon="114.24046579638672" /><trkpt lat="22.30703378125" lon="114.24051379638672" /><trkpt lat="22.30690378125" lon="114.24071879638672" /><trkpt lat="22.30684078125" lon="114.24076879638672" /><trkpt lat="22.30677378125" lon="114.24077679638673" /><trkpt lat="22.30666478125" lon="114.24073579638672" /><trkpt lat="22.30660978125" lon="114.24074579638672" /><trkpt lat="22.30657278125" lon="114.24081379638672" /><trkpt lat="22.30651578125" lon="114.24084479638672" /><trkpt lat="22.306414781249998" lon="114.24084579638672" /><trkpt lat="22.30639178125" lon="114.24086779638672" /><trkpt lat="22.30633178125" lon="114.24090179638672" /><trkpt lat="22.30627278125" lon="114.24092479638672" /><trkpt lat="22.30621478125" lon="114.24091179638671" /><trkpt lat="22.30616778125" lon="114.24085879638672" /><trkpt lat="22.30610878125" lon="114.24083579638672" /><trkpt lat="22.30603678125" lon="114.24085779638672" /><trkpt lat="22.30597378125" lon="114.24091479638672" /><trkpt lat="22.30596778125" lon="114.24098879638672" /><trkpt lat="22.30601078125" lon="114.24103079638672" /><trkpt lat="22.30601778125" lon="114.24107479638671" /><trkpt lat="22.30605278125" lon="114.24110179638672" /><trkpt lat="22.30605378125" lon="114.24112179638672" /><trkpt lat="22.30606878125" lon="114.24114079638672" /><trkpt lat="22.30606678125" lon="114.24115779638672" /><trkpt lat="22.30609378125" lon="114.24118179638671" /><trkpt lat="22.30609078125" lon="114.24120279638672" /><trkpt lat="22.30607878125" lon="114.24121679638672" /><trkpt lat="22.30608278125" lon="114.24122779638672" /><trkpt lat="22.30610578125" lon="114.24124279638671" /><trkpt lat="22.30611378125" lon="114.24127279638672" /><trkpt lat="22.30615378125" lon="114.24130879638672" /><trkpt lat="22.30622478125" lon="114.24139479638671" /><trkpt lat="22.30624578125" lon="114.24144579638671" /><trkpt lat="22.30627778125" lon="114.24151479638672" /><trkpt lat="22.30627778125" lon="114.24154679638671" /><trkpt lat="22.30630878125" lon="114.24159779638671" /><trkpt lat="22.30635378125" lon="114.24170779638672" /><trkpt lat="22.30636478125" lon="114.24174879638672" /><trkpt lat="22.30635478125" lon="114.24177779638671" /><trkpt lat="22.30636478125" lon="114.24182179638672" /><trkpt lat="22.30635878125" lon="114.24191079638672" /><trkpt lat="22.306376781250002" lon="114.24194179638671" /><trkpt lat="22.30636378125" lon="114.24203479638672" /><trkpt lat="22.30635578125" lon="114.24206379638672" /><trkpt lat="22.30638078125" lon="114.24211479638672" /><trkpt lat="22.306368818948563" lon="114.24218477605496" /><trkpt lat="22.30634978125" lon="114.24216779638672" /><trkpt lat="22.30627878125" lon="114.24218279638671" /><trkpt lat="22.30618978125" lon="114.24221179638671" /><trkpt lat="22.30611778125" lon="114.24224179638672" /><trkpt lat="22.30607678125" lon="114.24225879638672" /><trkpt lat="22.30603978125" lon="114.24227179638672" /><trkpt lat="22.30601178125" lon="114.24225079638671" /><trkpt lat="22.30591978125" lon="114.24225079638671" /><trkpt lat="22.30584478125" lon="114.24228979638671" /><trkpt lat="22.30578378125" lon="114.24229879638672" /><trkpt lat="22.30572478125" lon="114.24232979638671" /><trkpt lat="22.30567478125" lon="114.24238279638672" /><trkpt lat="22.30559278125" lon="114.24240779638671" /><trkpt lat="22.30550778125" lon="114.24243279638672" /><trkpt lat="22.30549878125" lon="114.24245579638672" /><trkpt lat="22.30547378125" lon="114.24245779638672" /><trkpt lat="22.30524078125" lon="114.24260379638672" /><trkpt lat="22.30520678125" lon="114.24261279638672" /><trkpt lat="22.30515578125" lon="114.24261679638671" /><trkpt lat="22.30509278125" lon="114.24264179638672" /><trkpt lat="22.30503778125" lon="114.24267479638672" /><trkpt lat="22.30488678125" lon="114.24269579638671" /><trkpt lat="22.30481578125" lon="114.24272179638672" /><trkpt lat="22.30473678125" lon="114.24273079638672" /><trkpt lat="22.30453478125" lon="114.24282379638672" /><trkpt lat="22.30459478125" lon="114.24307379638672" /><trkpt lat="22.30468678125" lon="114.24320279638673" /><trkpt lat="22.30475078125" lon="114.24326979638671" /><trkpt lat="22.30482578125" lon="114.24330679638672" /><trkpt lat="22.30484378125" lon="114.24335379638671" /><trkpt lat="22.30484978125" lon="114.24340579638672" /><trkpt lat="22.30485878125" lon="114.24344979638671" /><trkpt lat="22.30490078125" lon="114.24354979638672" /><trkpt lat="22.30492678125" lon="114.24391779638673" /><trkpt lat="22.30491978125" lon="114.24394379638672" /><trkpt lat="22.30493578125" lon="114.24399679638672" /><trkpt lat="22.30492678125" lon="114.24403079638672" /><trkpt lat="22.30490778125" lon="114.24404379638672" /><trkpt lat="22.30491978125" lon="114.24407079638672" /><trkpt lat="22.30490278125" lon="114.24408579638671" /><trkpt lat="22.30488678125" lon="114.24408979638672" /><trkpt lat="22.30488878125" lon="114.24412579638673" /><trkpt lat="22.30489878125" lon="114.24414479638672" /><trkpt lat="22.30486878125" lon="114.24417679638672" /><trkpt lat="22.30488378125" lon="114.24419979638672" /><trkpt lat="22.30486678125" lon="114.24421779638672" /><trkpt lat="22.30487878125" lon="114.24424279638671" /><trkpt lat="22.30486578125" lon="114.24426279638672" /><trkpt lat="22.30484278125" lon="114.24427579638672" /><trkpt lat="22.30485278125" lon="114.24432279638673" /><trkpt lat="22.30481778125" lon="114.24439079638672" /><trkpt lat="22.30481278125" lon="114.24440679638671" /><trkpt lat="22.30482678125" lon="114.24445679638671" /><trkpt lat="22.30480678125" lon="114.24448979638672" /><trkpt lat="22.30478878125" lon="114.24449279638672" /><trkpt lat="22.30479678125" lon="114.24451779638672" /><trkpt lat="22.30477878125" lon="114.24453479638672" /><trkpt lat="22.30478078125" lon="114.24455479638672" /><trkpt lat="22.30474878125" lon="114.24457979638672" /><trkpt lat="22.30476078125" lon="114.24460679638672" /><trkpt lat="22.30471678125" lon="114.24468279638671" /><trkpt lat="22.30472478125" lon="114.24474379638671" /><trkpt lat="22.30473378125" lon="114.24477679638672" /><trkpt lat="22.30471578125" lon="114.24483579638672" /><trkpt lat="22.30469078125" lon="114.24493079638673" /><trkpt lat="22.30469478125" lon="114.24498479638672" /><trkpt lat="22.30470378125" lon="114.24501879638672" /><trkpt lat="22.30466978125" lon="114.24508279638673" /><trkpt lat="22.30465578125" lon="114.24520579638671" /><trkpt lat="22.30460478125" lon="114.24522379638672" /><trkpt lat="22.30459978125" lon="114.24524779638672" /><trkpt lat="22.30457178125" lon="114.24524579638671" /><trkpt lat="22.30456678125" lon="114.24523279638672" /><trkpt lat="22.30454578125" lon="114.24523279638672" /><trkpt lat="22.30452278125" lon="114.24527079638672" /><trkpt lat="22.30452978125" lon="114.24528979638671" /><trkpt lat="22.30451878125" lon="114.24531179638672" /><trkpt lat="22.30449878125" lon="114.24532879638672" /><trkpt lat="22.30449578125" lon="114.24535979638672" /><trkpt lat="22.30446078125" lon="114.24539279638672" /><trkpt lat="22.30445878125" lon="114.24546079638672" /><trkpt lat="22.30442178125" lon="114.24549779638672" /><trkpt lat="22.30439478125" lon="114.24551479638671" /><trkpt lat="22.30436478125" lon="114.24551279638672" /><trkpt lat="22.30434778125" lon="114.24554479638672" /><trkpt lat="22.30429878125" lon="114.24554179638672" /><trkpt lat="22.30428378125" lon="114.24557679638671" /><trkpt lat="22.30416278125" lon="114.24561779638672" /><trkpt lat="22.30405878125" lon="114.24555879638672" /><trkpt lat="22.30402878125" lon="114.24550479638671" /><trkpt lat="22.30402478125" lon="114.24557579638672" /><trkpt lat="22.30403978125" lon="114.24569279638672" /><trkpt lat="22.30416578125" lon="114.24585179638672" /><trkpt lat="22.30419578125" lon="114.24592879638672" /><trkpt lat="22.30420178125" lon="114.24606579638672" /><trkpt lat="22.30421778125" lon="114.24615279638672" /><trkpt lat="22.30423978125" lon="114.24625379638672" /><trkpt lat="22.30431478125" lon="114.24635479638673" /><trkpt lat="22.30435878125" lon="114.24641879638672" /><trkpt lat="22.30441978125" lon="114.24655979638672" /><trkpt lat="22.30445978125" lon="114.24659079638671" /><trkpt lat="22.30468078125" lon="114.24665879638673" /><trkpt lat="22.30471778125" lon="114.24670979638672" /><trkpt lat="22.30476778125" lon="114.24687979638672" /><trkpt lat="22.30485678125" lon="114.24708479638672" /><trkpt lat="22.30493878125" lon="114.24715079638672" /><trkpt lat="22.30498078125" lon="114.24718879638672" /><trkpt lat="22.30500478125" lon="114.24721079638672" /><trkpt lat="22.30510978125" lon="114.24726579638671" /><trkpt lat="22.30532378125" lon="114.24732679638672" /><trkpt lat="22.30539778125" lon="114.24735179638672" /><trkpt lat="22.30549178125" lon="114.24738479638673" /><trkpt lat="22.30558878125" lon="114.24741779638671" /><trkpt lat="22.30567378125" lon="114.24745779638671" /><trkpt lat="22.30581578125" lon="114.24752279638672" /><trkpt lat="22.30592878125" lon="114.24761279638672" /><trkpt lat="22.30603178125" lon="114.24777679638672" /><trkpt lat="22.30605978125" lon="114.24782179638672" /><trkpt lat="22.30621078125" lon="114.24802179638672" /><trkpt lat="22.30630178125" lon="114.24813479638672" /><trkpt lat="22.30643478125" lon="114.24821379638672" /><trkpt lat="22.30649578125" lon="114.24826079638672" /><trkpt lat="22.30668778125" lon="114.24831479638672" /><trkpt lat="22.30688478125" lon="114.24832479638673" /><trkpt lat="22.30700078125" lon="114.24836379638671" /><trkpt lat="22.30712578125" lon="114.24839979638672" /><trkpt lat="22.30723778125" lon="114.24842479638671" /><trkpt lat="22.30738878125" lon="114.24840879638671" /><trkpt lat="22.30765578125" lon="114.24839779638671" /><trkpt lat="22.30772578125" lon="114.24840179638672" /><trkpt lat="22.30779978125" lon="114.24840879638671" /><trkpt lat="22.30788778125" lon="114.24845379638671" /><trkpt lat="22.30798078125" lon="114.24851279638672" /><trkpt lat="22.30803378125" lon="114.24862379638672" /><trkpt lat="22.30805978125" lon="114.24867179638672" /><trkpt lat="22.30829578125" lon="114.24879479638672" /><trkpt lat="22.30837678125" lon="114.24882279638672" /><trkpt lat="22.30853578125" lon="114.24884179638671" /><trkpt lat="22.30859778125" lon="114.24888279638672" /><trkpt lat="22.30865378125" lon="114.24892679638671" /><trkpt lat="22.30878978125" lon="114.24922379638672" /><trkpt lat="22.30878378125" lon="114.24934379638673" /><trkpt lat="22.30883878125" lon="114.24946779638672" /><trkpt lat="22.30899978125" lon="114.24950179638672" /><trkpt lat="22.30913978125" lon="114.24958779638672" /><trkpt lat="22.30918678125" lon="114.24962879638672" /><trkpt lat="22.30919778125" lon="114.24969779638671" /><trkpt lat="22.30916578125" lon="114.24980779638672" /><trkpt lat="22.30921378125" lon="114.24991279638672" /><trkpt lat="22.30930078125" lon="114.25001479638672" /><trkpt lat="22.30940078125" lon="114.25016979638671" /><trkpt lat="22.30941178125" lon="114.25026579638671" /><trkpt lat="22.30936278125" lon="114.25033279638672" /><trkpt lat="22.30935878125" lon="114.25042079638672" /><trkpt lat="22.30945178125" lon="114.25056379638671" /><trkpt lat="22.30943178125" lon="114.25066379638672" /><trkpt lat="22.30920978125" lon="114.25088679638672" /><trkpt lat="22.30912878125" lon="114.25095479638672" /><trkpt lat="22.30908478125" lon="114.25100879638671" /><trkpt lat="22.30899578125" lon="114.25118179638672" /><trkpt lat="22.30891678125" lon="114.25151979638672" /><trkpt lat="22.30891678125" lon="114.25167879638671" /><trkpt lat="22.30893078125" lon="114.25170979638672" /><trkpt lat="22.30898778125" lon="114.25183279638672" /><trkpt lat="22.30910678125" lon="114.25200979638672" /><trkpt lat="22.30931378125" lon="114.25241779638672" /><trkpt lat="22.30937778125" lon="114.25254579638671" /><trkpt lat="22.30948378125" lon="114.25272879638672" /><trkpt lat="22.30966378125" lon="114.25293279638672" /><trkpt lat="22.30981078125" lon="114.25347779638672" /><trkpt lat="22.30991378125" lon="114.25382779638672" /><trkpt lat="22.30994678125" lon="114.25398879638672" /><trkpt lat="22.31003178125" lon="114.25423479638673" /><trkpt lat="22.31006078125" lon="114.25430679638671" /><trkpt lat="22.31015478125" lon="114.25443979638672" /><trkpt lat="22.31023578125" lon="114.25449479638672" /><trkpt lat="22.31033378125" lon="114.25453579638672" /><trkpt lat="22.31041478125" lon="114.25454979638671" /><trkpt lat="22.31087578125" lon="114.25459579638672" /><trkpt lat="22.31118978125" lon="114.25462579638672" /><trkpt lat="22.31129978125" lon="114.25465579638671" /><trkpt lat="22.31144478125" lon="114.25468979638671" /><trkpt lat="22.31159578125" lon="114.25478479638672" /><trkpt lat="22.31191478125" lon="114.25503679638672" /><trkpt lat="22.31200078125" lon="114.25508179638672" /><trkpt lat="22.31207578125" lon="114.25515879638672" /><trkpt lat="22.31220578125" lon="114.25518479638671" /><trkpt lat="22.31233278125" lon="114.25524879638672" /><trkpt lat="22.31243678125" lon="114.25526079638672" /><trkpt lat="22.31266200132477" lon="114.25532598457838" /><trkpt lat="22.312725196223568" lon="114.25503478745878" /><trkpt lat="22.312728392771717" lon="114.25489665909697" /><trkpt lat="22.312637088797004" lon="114.25487786472604" /><trkpt lat="22.312628126395055" lon="114.25498956185368" /><trkpt lat="22.312693784022173" lon="114.25539580504591" /><trkpt lat="22.312696399365322" lon="114.25539911030319" /><trkpt lat="22.312716555565526" lon="114.25535533336154" /><trkpt lat="22.31280478125" lon="114.25540279638672" /><trkpt lat="22.31295878125" lon="114.25549479638671" /><trkpt lat="22.31308578125" lon="114.25549379638672" /><trkpt lat="22.31318478125" lon="114.25549379638672" /><trkpt lat="22.31327478125" lon="114.25546379638672" /><trkpt lat="22.31338578125" lon="114.25545079638673" /><trkpt lat="22.31349278125" lon="114.25546879638672" /><trkpt lat="22.31358778125" lon="114.25549579638673" /><trkpt lat="22.31373578125" lon="114.25552779638672" /><trkpt lat="22.31389878125" lon="114.25554579638671" /><trkpt lat="22.31402778125" lon="114.25555879638672" /><trkpt lat="22.31424178125" lon="114.25555879638672" /><trkpt lat="22.31444878125" lon="114.25556279638671" /><trkpt lat="22.31457678125" lon="114.25556279638671" /><trkpt lat="22.31466578125" lon="114.25554179638672" /><trkpt lat="22.31479678125" lon="114.25548079638672" /><trkpt lat="22.31485878125" lon="114.25543179638672" /><trkpt lat="22.31493978125" lon="114.25535179638672" /><trkpt lat="22.31502278125" lon="114.25529079638672" /><trkpt lat="22.31514778125" lon="114.25522679638672" /><trkpt lat="22.31562178125" lon="114.25505779638672" /><trkpt lat="22.31631978125" lon="114.25482979638672" /><trkpt lat="22.31656378125" lon="114.25475079638672" /><trkpt lat="22.31660578125" lon="114.25499879638672" /><trkpt lat="22.31662278125" lon="114.25513279638672" /><trkpt lat="22.31660678125" lon="114.25527679638672" /><trkpt lat="22.31655078125" lon="114.25535779638672" /><trkpt lat="22.31644978125" lon="114.25541079638671" /><trkpt lat="22.31604378125" lon="114.25543779638672" /><trkpt lat="22.31593478125" lon="114.25554279638672" /><trkpt lat="22.31594378125" lon="114.25571979638671" /><trkpt lat="22.31604978125" lon="114.25595579638671" /><trkpt lat="22.31615678125" lon="114.25610379638672" /><trkpt lat="22.31626678125" lon="114.25617679638673" /><trkpt lat="22.31636178125" lon="114.25631879638672" /><trkpt lat="22.31661878125" lon="114.25661279638672" /><trkpt lat="22.31668478125" lon="114.25670879638672" /><trkpt lat="22.31674678125" lon="114.25680879638672" /><trkpt lat="22.31678278125" lon="114.25683979638671" /><trkpt lat="22.31682778125" lon="114.25686379638672" /><trkpt lat="22.31687478125" lon="114.25688179638672" /><trkpt lat="22.31692578125" lon="114.25689679638671" /><trkpt lat="22.31705578125" lon="114.25690979638672" /><trkpt lat="22.31711854611154" lon="114.25691612080345" /></trkseg></trk></gpx>