<?xml version='1.0' encoding='UTF-8' ?><gpx version="1.1" creator="HikingTrailHK" xsi:schemaLocation="http://www.topografix.com/GPX/1/1 http://www.topografix.com/GPX/1/1/gpx.xsd" xmlns="http://www.topografix.com/GPX/1/1" xmlns:xsi="http://www.w3.org/2001/XMLSchema-instance"><metadata><name>圓洲角</name><desc></desc></metadata><trk><trkseg><trkpt lat="22.38083678125" lon="114.20032779638672" /><trkpt lat="22.38099878125" lon="114.20029779638672" /><trkpt lat="22.38113478125" lon="114.20022179638671" /><trkpt lat="22.38129478125" lon="114.20020079638672" /><trkpt lat="22.38160678125" lon="114.20028979638671" /><trkpt lat="22.38173078125" lon="114.20014979638673" /><trkpt lat="22.38174578125" lon="114.20010979638671" /><trkpt lat="22.38172478125" lon="114.20002379638672" /><trkpt lat="22.38165778125" lon="114.19987879638671" /><trkpt lat="22.38165678125" lon="114.19985879638672" /><trkpt lat="22.38166578125" lon="114.19981879638672" /><trkpt lat="22.38169178125" lon="114.19959779638671" /><trkpt lat="22.38184078125" lon="114.19938579638672" /><trkpt lat="22.38193178125" lon="114.19930079638672" /><trkpt lat="22.38198578125" lon="114.19937779638671" /><trkpt lat="22.38195978125" lon="114.19952279638672" /><trkpt lat="22.38203278125" lon="114.19963779638672" /><trkpt lat="22.38209578125" lon="114.19963079638671" /><trkpt lat="22.38213078125" lon="114.19957479638671" /><trkpt lat="22.38223178125" lon="114.19941679638671" /><trkpt lat="22.38238178125" lon="114.19927779638672" /><trkpt lat="22.38246278125" lon="114.19934879638672" /><trkpt lat="22.38247678125" lon="114.19949579638671" /><trkpt lat="22.38255378125" lon="114.19957479638671" /><trkpt lat="22.38261978125" lon="114.19951179638672" /><trkpt lat="22.38264178125" lon="114.19929779638672" /><trkpt lat="22.38268478125" lon="114.19921579638672" /><trkpt lat="22.38265978125" lon="114.19910979638672" /><trkpt lat="22.38258578125" lon="114.19900679638671" /><trkpt lat="22.38264878125" lon="114.19877279638672" /><trkpt lat="22.38261078125" lon="114.19867579638672" /><trkpt lat="22.38273978125" lon="114.19865379638672" /><trkpt lat="22.38286478125" lon="114.19862279638672" /><trkpt lat="22.38284978125" lon="114.19888379638672" /><trkpt lat="22.38274778125" lon="114.19915779638671" /><trkpt lat="22.38292478125" lon="114.19938079638672" /><trkpt lat="22.38307078125" lon="114.19960279638671" /><trkpt lat="22.38314078125" lon="114.19979279638672" /><trkpt lat="22.38325478125" lon="114.20001179638672" /><trkpt lat="22.38340078125" lon="114.20010279638672" /><trkpt lat="22.38358078125" lon="114.20012979638672" /><trkpt lat="22.38387078125" lon="114.20027379638672" /><trkpt lat="22.38409378125" lon="114.20027579638672" /><trkpt lat="22.38433378125" lon="114.20059379638671" /><trkpt lat="22.38474178125" lon="114.20073079638672" /><trkpt lat="22.38484878125" lon="114.20086579638672" /><trkpt lat="22.38480678125" lon="114.20100379638671" /><trkpt lat="22.38445878125" lon="114.20116679638672" /><trkpt lat="22.38418578125" lon="114.20118279638672" /><trkpt lat="22.38414478125" lon="114.20129479638672" /><trkpt lat="22.38418178125" lon="114.20135779638672" /><trkpt lat="22.38419078125" lon="114.20139179638672" /><trkpt lat="22.384131864859352" lon="114.2013801853424" /></trkseg></trk></gpx>