<?xml version='1.0' encoding='UTF-8' ?><gpx version="1.1" creator="HikingTrailHK" xsi:schemaLocation="http://www.topografix.com/GPX/1/1 http://www.topografix.com/GPX/1/1/gpx.xsd https://hikingtrailhk.appspot.com/xml/gpxextensions/v1 https://hikingtrailhk.appspot.com/xml/gpxextensions/v1/gpxextensions.xsd" xmlns="http://www.topografix.com/GPX/1/1" xmlns:h="https://hikingtrailhk.appspot.com/xml/gpxextensions/v1" xmlns:xsi="http://www.w3.org/2001/XMLSchema-instance"><metadata><name>土地灣 @ 2015-7-1</name><desc></desc><extensions><h:categoryid>scenery_route</h:categoryid></extensions></metadata><trk><trkseg><trkpt lat="22.22708978125" lon="114.23971279638671" /><trkpt lat="22.22710778125" lon="114.23958379638673" /><trkpt lat="22.22712378125" lon="114.23944179638671" /><trkpt lat="22.22716478125" lon="114.23934479638672" /><trkpt lat="22.22713978125" lon="114.23920079638673" /><trkpt lat="22.22715878125" lon="114.23896779638672" /><trkpt lat="22.22711578125" lon="114.23864879638671" /><trkpt lat="22.22706678125" lon="114.23856679638672" /><trkpt lat="22.22696478125" lon="114.23856679638672" /><trkpt lat="22.22686678125" lon="114.23858979638672" /><trkpt lat="22.22668278125" lon="114.23817179638672" /><trkpt lat="22.22669578125" lon="114.23812679638672" /><trkpt lat="22.22675878125" lon="114.23790779638672" /><trkpt lat="22.22676078125" lon="114.23758379638672" /><trkpt lat="22.22684678125" lon="114.23750479638672" /><trkpt lat="22.22689478125" lon="114.23740379638672" /><trkpt lat="22.22689478125" lon="114.23730679638672" /><trkpt lat="22.22687478125" lon="114.23722679638672" /><trkpt lat="22.22675778125" lon="114.23706379638672" /><trkpt lat="22.22670278125" lon="114.23692679638671" /><trkpt lat="22.22692778125" lon="114.23693579638672" /><trkpt lat="22.22721678125" lon="114.23697779638673" /><trkpt lat="22.22746278125" lon="114.23694179638672" /><trkpt lat="22.22767378125" lon="114.23700079638672" /><trkpt lat="22.22784678125" lon="114.23699979638671" /><trkpt lat="22.22809578125" lon="114.23690879638671" /><trkpt lat="22.22846478125" lon="114.23691679638672" /><trkpt lat="22.22852478125" lon="114.23695479638671" /><trkpt lat="22.22877878125" lon="114.23726479638673" /><trkpt lat="22.22885178125" lon="114.23737179638673" /><trkpt lat="22.22908478125" lon="114.23765079638672" /><trkpt lat="22.22928378125" lon="114.23769379638672" /><trkpt lat="22.22950178125" lon="114.23767179638672" /><trkpt lat="22.22972078125" lon="114.23753279638672" /><trkpt lat="22.23023678125" lon="114.23759679638673" /><trkpt lat="22.23048578125" lon="114.23752179638672" /><trkpt lat="22.23074378125" lon="114.23755379638672" /><trkpt lat="22.23097578125" lon="114.23737279638672" /><trkpt lat="22.23137878125" lon="114.23714579638671" /><trkpt lat="22.23166678125" lon="114.23724279638672" /><trkpt lat="22.23176678125" lon="114.23738179638671" /><trkpt lat="22.23201478125" lon="114.23724279638672" /><trkpt lat="22.23227278125" lon="114.23730679638672" /><trkpt lat="22.23236278125" lon="114.23741479638672" /><trkpt lat="22.23238178125" lon="114.23765079638672" /><trkpt lat="22.23249178125" lon="114.23765079638672" /><trkpt lat="22.23267978125" lon="114.23740379638672" /><trkpt lat="22.23283878125" lon="114.23747879638672" /><trkpt lat="22.23292878125" lon="114.23744679638672" /><trkpt lat="22.23295778125" lon="114.23726379638671" /><trkpt lat="22.23304778125" lon="114.23716779638671" /><trkpt lat="22.23333578125" lon="114.23722079638672" /><trkpt lat="22.23361378125" lon="114.23725379638672" /><trkpt lat="22.23370278125" lon="114.23718879638672" /><trkpt lat="22.23362378125" lon="114.23708179638672" /><trkpt lat="22.23358378125" lon="114.23677079638672" /><trkpt lat="22.23368278125" lon="114.23645979638673" /><trkpt lat="22.23371678125" lon="114.23637179638672" /><trkpt lat="22.23375478125" lon="114.23633479638671" /><trkpt lat="22.23404878125" lon="114.23627879638671" /><trkpt lat="22.23418378125" lon="114.23619279638672" /><trkpt lat="22.23429078125" lon="114.23617579638672" /><trkpt lat="22.23445278125" lon="114.23613079638672" /><trkpt lat="22.23461178125" lon="114.23615079638672" /><trkpt lat="22.23485778125" lon="114.23607279638672" /><trkpt lat="22.23520778125" lon="114.23616279638672" /><trkpt lat="22.23584978125" lon="114.23585079638671" /><trkpt lat="22.23588378125" lon="114.23583079638672" /><trkpt lat="22.23598478125" lon="114.23593279638672" /><trkpt lat="22.23612778125" lon="114.23606579638673" /><trkpt lat="22.23622378125" lon="114.23608979638672" /><trkpt lat="22.23635178125" lon="114.23607279638672" /><trkpt lat="22.23656378125" lon="114.23588179638672" /><trkpt lat="22.23669178125" lon="114.23589879638672" /><trkpt lat="22.23689078125" lon="114.23585079638671" /><trkpt lat="22.23717378125" lon="114.23578579638672" /><trkpt lat="22.23728078125" lon="114.23572879638672" /><trkpt lat="22.23765778125" lon="114.23557479638671" /><trkpt lat="22.23788978125" lon="114.23552079638672" /><trkpt lat="22.23799378125" lon="114.23561279638672" /><trkpt lat="22.23797278125" lon="114.23571579638671" /><trkpt lat="22.23773478125" lon="114.23613279638671" /><trkpt lat="22.23763378125" lon="114.23627879638671" /><trkpt lat="22.23763278125" lon="114.23634579638671" /><trkpt lat="22.23769078125" lon="114.23639679638671" /><trkpt lat="22.23791878125" lon="114.23643379638672" /><trkpt lat="22.23814678125" lon="114.23642479638671" /><trkpt lat="22.23836678125" lon="114.23632579638672" /><trkpt lat="22.23867578125" lon="114.23640279638671" /><trkpt lat="22.23888878125" lon="114.23631179638672" /><trkpt lat="22.23900478125" lon="114.23630479638672" /><trkpt lat="22.23908078125" lon="114.23638979638672" /><trkpt lat="22.23919778125" lon="114.23662579638672" /><trkpt lat="22.23928578125" lon="114.23665379638672" /><trkpt lat="22.23948278125" lon="114.23659079638672" /><trkpt lat="22.23955678125" lon="114.23638879638672" /><trkpt lat="22.23974678125" lon="114.23624979638672" /><trkpt lat="22.24009278125" lon="114.23607079638671" /><trkpt lat="22.24018178125" lon="114.23604979638672" /><trkpt lat="22.24039778125" lon="114.23609079638672" /><trkpt lat="22.24048878125" lon="114.23621479638672" /><trkpt lat="22.24065578125" lon="114.23633779638672" /><trkpt lat="22.24098878125" lon="114.23642479638671" /><trkpt lat="22.24121578125" lon="114.23636879638671" /><trkpt lat="22.24158978125" lon="114.23637079638672" /><trkpt lat="22.24196278125" lon="114.23662079638672" /><trkpt lat="22.24203678125" lon="114.23672779638672" /><trkpt lat="22.24211678125" lon="114.23677279638672" /><trkpt lat="22.24215378125" lon="114.23670079638671" /><trkpt lat="22.24203778125" lon="114.23635379638672" /><trkpt lat="22.24187978125" lon="114.23607479638672" /><trkpt lat="22.24174378125" lon="114.23589279638672" /><trkpt lat="22.24181578125" lon="114.23543179638672" /><trkpt lat="22.24184078125" lon="114.23539479638671" /><trkpt lat="22.24240678125" lon="114.23453579638672" /><trkpt lat="22.24266278125" lon="114.23433879638672" /><trkpt lat="22.24285178125" lon="114.23426679638672" /><trkpt lat="22.24301878125" lon="114.23396079638673" /><trkpt lat="22.24361578125" lon="114.23341679638672" /><trkpt lat="22.24446778125" lon="114.23303579638672" /><trkpt lat="22.24478478125" lon="114.23276779638672" /><trkpt lat="22.24511278125" lon="114.23278279638672" /><trkpt lat="22.24520278125" lon="114.23252379638672" /><trkpt lat="22.24531178125" lon="114.23241379638672" /><trkpt lat="22.24543878125" lon="114.23235779638672" /><trkpt lat="22.24564178125" lon="114.23241479638672" /><trkpt lat="22.24580378125" lon="114.23228279638671" /><trkpt lat="22.24582178125" lon="114.23216979638671" /><trkpt lat="22.24586078125" lon="114.23206379638673" /><trkpt lat="22.24619378125" lon="114.23208879638672" /><trkpt lat="22.24633278125" lon="114.23203879638672" /><trkpt lat="22.24637478125" lon="114.23166479638672" /><trkpt lat="22.24654978125" lon="114.23138179638671" /><trkpt lat="22.24693278125" lon="114.23102479638672" /><trkpt lat="22.24686478125" lon="114.23094179638672" /><trkpt lat="22.24647978125" lon="114.23099979638671" /><trkpt lat="22.24582778125" lon="114.23118879638672" /><trkpt lat="22.24550678125" lon="114.23136479638671" /><trkpt lat="22.24508978125" lon="114.23139579638672" /><trkpt lat="22.24480378125" lon="114.23158379638672" /><trkpt lat="22.24468878125" lon="114.23161679638672" /><trkpt lat="22.24447678125" lon="114.23160979638672" /><trkpt lat="22.24420278125" lon="114.23177279638672" /><trkpt lat="22.24402678125" lon="114.23194679638672" /><trkpt lat="22.24383578125" lon="114.23197879638671" /><trkpt lat="22.24361478125" lon="114.23212079638672" /><trkpt lat="22.24306778125" lon="114.23215779638672" /><trkpt lat="22.24271278125" lon="114.23242279638671" /><trkpt lat="22.24234378125" lon="114.23256679638672" /><trkpt lat="22.24197078125" lon="114.23254879638672" /><trkpt lat="22.24177078125" lon="114.23265879638672" /><trkpt lat="22.24153178125" lon="114.23272679638671" /><trkpt lat="22.24137978125" lon="114.23268879638673" /><trkpt lat="22.24125078125" lon="114.23263479638672" /><trkpt lat="22.24107278125" lon="114.23245179638671" /><trkpt lat="22.24107178125" lon="114.23235479638672" /><trkpt lat="22.24142778125" lon="114.23202079638672" /><trkpt lat="22.24169878125" lon="114.23176479638671" /><trkpt lat="22.24190878125" lon="114.23149179638672" /><trkpt lat="22.24205978125" lon="114.23119179638672" /><trkpt lat="22.24215978125" lon="114.23058679638672" /><trkpt lat="22.24214378125" lon="114.23033879638672" /><trkpt lat="22.24232778125" lon="114.23004179638671" /><trkpt lat="22.24241578125" lon="114.22975779638672" /><trkpt lat="22.24244578125" lon="114.22946579638672" /><trkpt lat="22.24238578125" lon="114.22919679638672" /><trkpt lat="22.24241378125" lon="114.22904479638672" /><trkpt lat="22.24297878125" lon="114.22811079638672" /><trkpt lat="22.24318278125" lon="114.22746579638672" /><trkpt lat="22.24379078125" lon="114.22704779638671" /><trkpt lat="22.24436678125" lon="114.22680579638671" /><trkpt lat="22.24450878125" lon="114.22677479638672" /><trkpt lat="22.24468178125" lon="114.22687279638671" /><trkpt lat="22.24492978125" lon="114.22685679638671" /><trkpt lat="22.24507978125" lon="114.22680979638672" /><trkpt lat="22.24523778125" lon="114.22670679638672" /><trkpt lat="22.24531978125" lon="114.22660379638671" /><trkpt lat="22.24550278125" lon="114.22636479638672" /><trkpt lat="22.24559278125" lon="114.22629279638672" /><trkpt lat="22.24572178125" lon="114.22628379638672" /><trkpt lat="22.24593378125" lon="114.22629079638672" /><trkpt lat="22.24607778125" lon="114.22631979638672" /><trkpt lat="22.24641878125" lon="114.22638879638671" /><trkpt lat="22.24659978125" lon="114.22636479638672" /><trkpt lat="22.24697078125" lon="114.22632879638672" /><trkpt lat="22.24713178125" lon="114.22628679638672" /><trkpt lat="22.24739278125" lon="114.22598679638672" /><trkpt lat="22.24758778125" lon="114.22595179638672" /><trkpt lat="22.24778478125" lon="114.22601979638672" /><trkpt lat="22.24794578125" lon="114.22616079638672" /><trkpt lat="22.24808778125" lon="114.22620779638672" /><trkpt lat="22.24828578125" lon="114.22626979638672" /><trkpt lat="22.24862378125" lon="114.22633279638671" /><trkpt lat="22.24920178125" lon="114.22658979638672" /><trkpt lat="22.24943478125" lon="114.22657379638672" /><trkpt lat="22.24994278125" lon="114.22655579638672" /><trkpt lat="22.25010178125" lon="114.22661279638672" /><trkpt lat="22.25030578125" lon="114.22673679638672" /><trkpt lat="22.25036378125" lon="114.22690979638672" /><trkpt lat="22.25030478125" lon="114.22702079638673" /><trkpt lat="22.25018378125" lon="114.22720979638672" /><trkpt lat="22.25022778125" lon="114.22730079638671" /><trkpt lat="22.25031478125" lon="114.22735879638672" /><trkpt lat="22.25044678125" lon="114.22742279638672" /><trkpt lat="22.25065578125" lon="114.22745479638672" /><trkpt lat="22.25077578125" lon="114.22749779638671" /><trkpt lat="22.25106078125" lon="114.22728779638672" /><trkpt lat="22.25113578125" lon="114.22731579638672" /><trkpt lat="22.25123478125" lon="114.22746179638672" /><trkpt lat="22.25147878125" lon="114.22768879638672" /><trkpt lat="22.25174278125" lon="114.22736979638672" /><trkpt lat="22.25162778125" lon="114.22691179638672" /><trkpt lat="22.25154078125" lon="114.22671979638672" /><trkpt lat="22.25144678125" lon="114.22662879638672" /><trkpt lat="22.25132578125" lon="114.22661179638672" /><trkpt lat="22.25099978125" lon="114.22630279638672" /><trkpt lat="22.249779781249998" lon="114.22569179638671" /><trkpt lat="22.24953478125" lon="114.22543879638671" /><trkpt lat="22.24956878125" lon="114.22522879638672" /><trkpt lat="22.24973078125" lon="114.22498479638672" /><trkpt lat="22.24973478125" lon="114.22487379638672" /><trkpt lat="22.24945878125" lon="114.22470379638672" /><trkpt lat="22.24923978125" lon="114.22424779638672" /><trkpt lat="22.24913578125" lon="114.22412179638673" /><trkpt lat="22.24881578125" lon="114.22406079638672" /><trkpt lat="22.24849378125" lon="114.22363579638672" /><trkpt lat="22.24838278125" lon="114.22358079638671" /><trkpt lat="22.24816678125" lon="114.22365479638673" /><trkpt lat="22.24798178125" lon="114.22374679638672" /><trkpt lat="22.24782378125" lon="114.22371879638672" /><trkpt lat="22.24771378125" lon="114.22364779638671" /><trkpt lat="22.24756078125" lon="114.22350579638672" /><trkpt lat="22.24747078125" lon="114.22312979638671" /><trkpt lat="22.24733478125" lon="114.22282979638672" /><trkpt lat="22.24736478125" lon="114.22275179638672" /><trkpt lat="22.24752078125" lon="114.22243379638672" /><trkpt lat="22.24756278125" lon="114.22217979638671" /><trkpt lat="22.24758078125" lon="114.22199679638672" /><trkpt lat="22.24773678125" lon="114.22140679638672" /><trkpt lat="22.24778578125" lon="114.22121779638672" /><trkpt lat="22.24763578125" lon="114.22119679638672" /><trkpt lat="22.24747378125" lon="114.22120079638673" /><trkpt lat="22.24656578125" lon="114.22120379638672" /><trkpt lat="22.246218342285616" lon="114.22121082957149" /></trkseg></trk></gpx>