<?xml version='1.0' encoding='UTF-8' ?><gpx version="1.1" creator="HikingTrailHK" xsi:schemaLocation="http://www.topografix.com/GPX/1/1 http://www.topografix.com/GPX/1/1/gpx.xsd" xmlns="http://www.topografix.com/GPX/1/1" xmlns:xsi="http://www.w3.org/2001/XMLSchema-instance"><metadata><name>坪洲 @ 2022-04-15</name><desc></desc></metadata><trk><trkseg><trkpt lat="22.284146673542967" lon="114.03769463583893" /><trkpt lat="22.28415478125" lon="114.03772679638672" /><trkpt lat="22.28419378125" lon="114.03781879638672" /><trkpt lat="22.28433678125" lon="114.03817279638672" /><trkpt lat="22.28436078125" lon="114.03821579638672" /><trkpt lat="22.28439078125" lon="114.03819279638672" /><trkpt lat="22.28496178125" lon="114.03760179638672" /><trkpt lat="22.28482678125" lon="114.03715879638672" /><trkpt lat="22.28478478125" lon="114.03701779638672" /><trkpt lat="22.28473278125" lon="114.03684679638671" /><trkpt lat="22.28561378125" lon="114.03654179638671" /><trkpt lat="22.28566878125" lon="114.03655579638672" /><trkpt lat="22.28573378125" lon="114.03654679638672" /><trkpt lat="22.28577678125" lon="114.03654079638672" /><trkpt lat="22.28583878125" lon="114.03651979638671" /><trkpt lat="22.286106781249998" lon="114.03643179638672" /><trkpt lat="22.28619778125" lon="114.03639679638673" /><trkpt lat="22.28625378125" lon="114.03632579638672" /><trkpt lat="22.28673878125" lon="114.03613379638672" /><trkpt lat="22.28736578125" lon="114.03591079638672" /><trkpt lat="22.28785378125" lon="114.03572779638672" /><trkpt lat="22.28803978125" lon="114.03566779638672" /><trkpt lat="22.28805678125" lon="114.03572679638673" /><trkpt lat="22.28820378125" lon="114.03626679638671" /><trkpt lat="22.28835578125" lon="114.03605879638671" /><trkpt lat="22.28838278125" lon="114.03602179638672" /><trkpt lat="22.28839378125" lon="114.03600779638671" /><trkpt lat="22.28845278125" lon="114.03595379638672" /><trkpt lat="22.28846178125" lon="114.03594679638672" /><trkpt lat="22.28846778125" lon="114.03594379638672" /><trkpt lat="22.28853778125" lon="114.03591979638672" /><trkpt lat="22.28854978125" lon="114.03591879638672" /><trkpt lat="22.28857278125" lon="114.03591779638671" /><trkpt lat="22.28867678125" lon="114.03592579638672" /><trkpt lat="22.28870278125" lon="114.03592779638672" /><trkpt lat="22.28880278125" lon="114.03590879638672" /><trkpt lat="22.28893478125" lon="114.03583979638672" /><trkpt lat="22.28904278125" lon="114.03573579638672" /><trkpt lat="22.28907578125" lon="114.03569179638671" /><trkpt lat="22.28911178125" lon="114.03561279638672" /><trkpt lat="22.28914578125" lon="114.03550879638672" /><trkpt lat="22.28916578125" lon="114.03538679638672" /><trkpt lat="22.28917078125" lon="114.03525079638672" /><trkpt lat="22.28917078125" lon="114.03378879638672" /><trkpt lat="22.28922842647512" lon="114.03379315828892" /><trkpt lat="22.28923321499471" lon="114.03379576096768" /><trkpt lat="22.289238829825436" lon="114.0337950948392" /><trkpt lat="22.289212555715203" lon="114.03382655093097" /><trkpt lat="22.28925278125" lon="114.03386579638672" /><trkpt lat="22.28961678125" lon="114.03373579638672" /><trkpt lat="22.28968878125" lon="114.03371079638671" /><trkpt lat="22.289824947677968" lon="114.03364397521781" /><trkpt lat="22.29003778125" lon="114.03375979638672" /><trkpt lat="22.29013778125" lon="114.03386179638672" /><trkpt lat="22.29021778125" lon="114.03399279638671" /><trkpt lat="22.29012094077936" lon="114.03394353532065" /><trkpt lat="22.290111227353364" lon="114.03392909619788" /><trkpt lat="22.290109261171324" lon="114.03392121808054" /><trkpt lat="22.290104598247936" lon="114.03391390186505" /><trkpt lat="22.29010188480484" lon="114.03390155633355" /><trkpt lat="22.290098201874386" lon="114.03390233368015" /><trkpt lat="22.29010126544857" lon="114.03389812884348" /><trkpt lat="22.290100805906903" lon="114.03389558573065" /><trkpt lat="22.290104129292843" lon="114.03389281828146" /><trkpt lat="22.290106653025347" lon="114.03388815326093" /><trkpt lat="22.29010601406567" lon="114.03388208996085" /><trkpt lat="22.290132314847863" lon="114.03385622004798" /><trkpt lat="22.29003778125" lon="114.03375979638672" /><trkpt lat="22.28982278125" lon="114.03364279638672" /><trkpt lat="22.28981478125" lon="114.03366579638671" /><trkpt lat="22.28968878125" lon="114.03371079638671" /><trkpt lat="22.28961678125" lon="114.03373579638672" /><trkpt lat="22.28925278125" lon="114.03386579638672" /><trkpt lat="22.28917019049628" lon="114.03381838545712" /><trkpt lat="22.28917078125" lon="114.03378879638672" /><trkpt lat="22.28916378125" lon="114.03375279638672" /><trkpt lat="22.28906578125" lon="114.03345379638672" /><trkpt lat="22.28905178125" lon="114.03340779638671" /><trkpt lat="22.28897678125" lon="114.03338479638671" /><trkpt lat="22.28896178125" lon="114.03336479638672" /><trkpt lat="22.28872678125" lon="114.03260179638671" /><trkpt lat="22.28872278125" lon="114.03254979638672" /><trkpt lat="22.28875078125" lon="114.03247879638671" /><trkpt lat="22.28895778125" lon="114.03228979638672" /><trkpt lat="22.28899478125" lon="114.03223379638672" /><trkpt lat="22.28901978125" lon="114.03215379638672" /><trkpt lat="22.28902878125" lon="114.03206779638671" /><trkpt lat="22.28902578125" lon="114.03199079638672" /><trkpt lat="22.2890793903605" lon="114.03200509764594" /><trkpt lat="22.289085812087137" lon="114.03205726220676" /><trkpt lat="22.28902636757652" lon="114.03209086943816" /><trkpt lat="22.28901978125" lon="114.03215379638672" /><trkpt lat="22.28899478125" lon="114.03223379638672" /><trkpt lat="22.28895778125" lon="114.03228979638672" /><trkpt lat="22.28875078125" lon="114.03247879638671" /><trkpt lat="22.28872278125" lon="114.03254979638672" /><trkpt lat="22.28872678125" lon="114.03260179638671" /><trkpt lat="22.28896178125" lon="114.03336479638672" /><trkpt lat="22.28897678125" lon="114.03338479638671" /><trkpt lat="22.28905178125" lon="114.03340779638671" /><trkpt lat="22.28906578125" lon="114.03345379638672" /><trkpt lat="22.28916378125" lon="114.03375279638672" /><trkpt lat="22.28917078125" lon="114.03378879638672" /><trkpt lat="22.28916978125" lon="114.03383879638672" /><trkpt lat="22.28917078125" lon="114.03525079638672" /><trkpt lat="22.28916578125" lon="114.03538679638672" /><trkpt lat="22.28914578125" lon="114.03550879638672" /><trkpt lat="22.28911178125" lon="114.03561279638672" /><trkpt lat="22.28907578125" lon="114.03569179638671" /><trkpt lat="22.28904278125" lon="114.03573579638672" /><trkpt lat="22.28939378125" lon="114.03574979638672" /><trkpt lat="22.28947078125" lon="114.03586179638671" /><trkpt lat="22.28957778125" lon="114.03590779638672" /><trkpt lat="22.28989678125" lon="114.03649779638671" /><trkpt lat="22.28997078125" lon="114.03666079638671" /><trkpt lat="22.29021278125" lon="114.03697479638672" /><trkpt lat="22.29038778125" lon="114.03703879638672" /><trkpt lat="22.29062978125" lon="114.03734779638671" /><trkpt lat="22.29079078125" lon="114.03785479638672" /><trkpt lat="22.29093878125" lon="114.03819579638672" /><trkpt lat="22.29085078125" lon="114.03861379638671" /><trkpt lat="22.29082878125" lon="114.03880379638672" /><trkpt lat="22.29086078125" lon="114.03899479638672" /><trkpt lat="22.29082278125" lon="114.03910979638673" /><trkpt lat="22.29078078125" lon="114.03927179638671" /><trkpt lat="22.29081978125" lon="114.03948079638671" /><trkpt lat="22.29085078125" lon="114.03969479638671" /><trkpt lat="22.29091078125" lon="114.03980579638672" /><trkpt lat="22.29100578125" lon="114.03988279638672" /><trkpt lat="22.29111078125" lon="114.03998279638672" /><trkpt lat="22.29119878125" lon="114.04007279638672" /><trkpt lat="22.29118978125" lon="114.04020879638672" /><trkpt lat="22.29129678125" lon="114.04044079638672" /><trkpt lat="22.29150478125" lon="114.04077979638672" /><trkpt lat="22.29160778125" lon="114.04105479638672" /><trkpt lat="22.29156078125" lon="114.04144579638672" /><trkpt lat="22.29156678125" lon="114.04171579638673" /><trkpt lat="22.29165478125" lon="114.04188379638671" /><trkpt lat="22.29174978125" lon="114.04207079638672" /><trkpt lat="22.29181278125" lon="114.04216879638672" /><trkpt lat="22.29190178125" lon="114.04224079638672" /><trkpt lat="22.29191878125" lon="114.04228879638671" /><trkpt lat="22.29187378125" lon="114.04242379638671" /><trkpt lat="22.29187978125" lon="114.04253679638671" /><trkpt lat="22.29181178125" lon="114.04280279638672" /><trkpt lat="22.29187978125" lon="114.04307879638672" /><trkpt lat="22.29190278125" lon="114.04324479638672" /><trkpt lat="22.29190478125" lon="114.04325879638672" /><trkpt lat="22.29199278125" lon="114.04339779638671" /><trkpt lat="22.29201478125" lon="114.04342179638672" /><trkpt lat="22.29203778125" lon="114.04343679638671" /><trkpt lat="22.29207578125" lon="114.04345679638672" /><trkpt lat="22.29210978125" lon="114.04362279638671" /><trkpt lat="22.292180011572114" lon="114.04362925733278" /><trkpt lat="22.292319126950602" lon="114.04370517320729" /><trkpt lat="22.29240916642742" lon="114.04380200081607" /><trkpt lat="22.29233880122635" lon="114.04382527084181" /><trkpt lat="22.292271691719577" lon="114.04379898168878" /><trkpt lat="22.29219943391665" lon="114.04373062870627" /><trkpt lat="22.292109259379746" lon="114.04362024826392" /><trkpt lat="22.29207578125" lon="114.04345679638672" /><trkpt lat="22.29199078125" lon="114.04347779638672" /><trkpt lat="22.29198078125" lon="114.04348079638672" /><trkpt lat="22.29197478125" lon="114.04348579638672" /><trkpt lat="22.29194778125" lon="114.04354479638671" /><trkpt lat="22.29193778125" lon="114.04355879638672" /><trkpt lat="22.29192378125" lon="114.04356579638672" /><trkpt lat="22.29160378125" lon="114.04357279638671" /><trkpt lat="22.29159878125" lon="114.04357479638672" /><trkpt lat="22.29159578125" lon="114.04358379638671" /><trkpt lat="22.29160378125" lon="114.04366779638671" /><trkpt lat="22.29160378125" lon="114.04371479638672" /><trkpt lat="22.29159378125" lon="114.04374579638672" /><trkpt lat="22.29156678125" lon="114.04376779638672" /><trkpt lat="22.29154678125" lon="114.04377479638671" /><trkpt lat="22.29147278125" lon="114.04376979638671" /><trkpt lat="22.29143878125" lon="114.04376379638671" /><trkpt lat="22.29142778125" lon="114.04380679638672" /><trkpt lat="22.29142578125" lon="114.04385379638671" /><trkpt lat="22.29143278125" lon="114.04388279638673" /><trkpt lat="22.29144878125" lon="114.04393479638672" /><trkpt lat="22.29145178125" lon="114.04397479638672" /><trkpt lat="22.29145578125" lon="114.04402179638672" /><trkpt lat="22.29145978125" lon="114.04405779638672" /><trkpt lat="22.29145178125" lon="114.04410579638672" /><trkpt lat="22.29143678125" lon="114.04414379638672" /><trkpt lat="22.29141478125" lon="114.04418479638672" /><trkpt lat="22.29140778125" lon="114.04420779638671" /><trkpt lat="22.29141278125" lon="114.04421879638672" /><trkpt lat="22.29142778125" lon="114.04423679638671" /><trkpt lat="22.29142178125" lon="114.04429679638672" /><trkpt lat="22.29142778125" lon="114.04434379638671" /><trkpt lat="22.29145578125" lon="114.04440579638671" /><trkpt lat="22.29154593213022" lon="114.04449183341251" /><trkpt lat="22.29158483997078" lon="114.04456134030619" /><trkpt lat="22.29164771681988" lon="114.04462996770422" /><trkpt lat="22.291664370750055" lon="114.04456694445054" /><trkpt lat="22.29159471859493" lon="114.04456642090105" /><trkpt lat="22.291451418285153" lon="114.04439185454086" /><trkpt lat="22.29145078125" lon="114.04438979638672" /><trkpt lat="22.29144078125" lon="114.04437279638672" /><trkpt lat="22.29144178125" lon="114.04436679638673" /><trkpt lat="22.29142778125" lon="114.04434379638671" /><trkpt lat="22.29142178125" lon="114.04429679638672" /><trkpt lat="22.29142778125" lon="114.04423679638671" /><trkpt lat="22.29141278125" lon="114.04421879638672" /><trkpt lat="22.29140778125" lon="114.04420779638671" /><trkpt lat="22.29141478125" lon="114.04418479638672" /><trkpt lat="22.29143678125" lon="114.04414379638672" /><trkpt lat="22.29145178125" lon="114.04410579638672" /><trkpt lat="22.29145978125" lon="114.04405779638672" /><trkpt lat="22.29145578125" lon="114.04402179638672" /><trkpt lat="22.29145178125" lon="114.04397479638672" /><trkpt lat="22.29144878125" lon="114.04393479638672" /><trkpt lat="22.29143278125" lon="114.04388279638673" /><trkpt lat="22.29142578125" lon="114.04385379638671" /><trkpt lat="22.29142778125" lon="114.04380679638672" /><trkpt lat="22.29143878125" lon="114.04376379638671" /><trkpt lat="22.29144678125" lon="114.04374979638672" /><trkpt lat="22.29146178125" lon="114.04373279638672" /><trkpt lat="22.29146678125" lon="114.04372079638672" /><trkpt lat="22.29146478125" lon="114.04370479638672" /><trkpt lat="22.29145578125" lon="114.04368079638672" /><trkpt lat="22.29134878125" lon="114.04341979638671" /><trkpt lat="22.29125178125" lon="114.04317479638672" /><trkpt lat="22.29087278125" lon="114.04330779638671" /><trkpt lat="22.29085478125" lon="114.04323979638671" /><trkpt lat="22.29082278125" lon="114.04311379638672" /><trkpt lat="22.29079378125" lon="114.04306479638672" /><trkpt lat="22.29075678125" lon="114.04303379638672" /><trkpt lat="22.29073678125" lon="114.04299079638672" /><trkpt lat="22.29072078125" lon="114.04289679638671" /><trkpt lat="22.29071478125" lon="114.04277179638672" /><trkpt lat="22.29067578125" lon="114.04274579638673" /><trkpt lat="22.29059678125" lon="114.04271579638672" /><trkpt lat="22.29044478125" lon="114.04264079638672" /><trkpt lat="22.29027378125" lon="114.04237279638672" /><trkpt lat="22.29034578125" lon="114.04202679638672" /><trkpt lat="22.29028378125" lon="114.04173379638672" /><trkpt lat="22.29014578125" lon="114.04155079638672" /><trkpt lat="22.29002078125" lon="114.04138279638671" /><trkpt lat="22.28994878125" lon="114.04125679638672" /><trkpt lat="22.28976078125" lon="114.04093579638672" /><trkpt lat="22.28987278125" lon="114.04070179638671" /><trkpt lat="22.28972878125" lon="114.04048979638672" /><trkpt lat="22.28971278125" lon="114.04046079638672" /><trkpt lat="22.28971378125" lon="114.04039379638672" /><trkpt lat="22.28972378125" lon="114.04034979638672" /><trkpt lat="22.28972678125" lon="114.04031879638671" /><trkpt lat="22.28971878125" lon="114.04030079638672" /><trkpt lat="22.28969378125" lon="114.04028079638672" /><trkpt lat="22.28967178125" lon="114.04024879638672" /><trkpt lat="22.28966678125" lon="114.04021579638672" /><trkpt lat="22.28964178125" lon="114.04014579638672" /><trkpt lat="22.28958778125" lon="114.04007579638672" /><trkpt lat="22.28955778125" lon="114.04001579638673" /><trkpt lat="22.28954778125" lon="114.03997179638672" /><trkpt lat="22.28947078125" lon="114.03992079638672" /><trkpt lat="22.28938078125" lon="114.03988179638672" /><trkpt lat="22.28927778125" lon="114.03984279638672" /><trkpt lat="22.28921378125" lon="114.03982079638672" /><trkpt lat="22.28911978125" lon="114.03979279638672" /><trkpt lat="22.28898678125" lon="114.03978179638672" /><trkpt lat="22.28885678125" lon="114.03978179638672" /><trkpt lat="22.28871778125" lon="114.03975079638671" /><trkpt lat="22.28862878125" lon="114.03974979638672" /><trkpt lat="22.28855278125" lon="114.03974779638672" /><trkpt lat="22.28844178125" lon="114.03976379638672" /><trkpt lat="22.28826478125" lon="114.03979079638673" /><trkpt lat="22.28814278125" lon="114.03984179638672" /><trkpt lat="22.28809278125" lon="114.03987779638672" /><trkpt lat="22.28800378125" lon="114.03994079638672" /><trkpt lat="22.28797678125" lon="114.03995179638672" /><trkpt lat="22.28795678125" lon="114.03992479638671" /><trkpt lat="22.28793478125" lon="114.03988979638672" /><trkpt lat="22.28788878125" lon="114.03990779638671" /><trkpt lat="22.28775078125" lon="114.03999679638672" /><trkpt lat="22.28767078125" lon="114.04006479638672" /><trkpt lat="22.28757978125" lon="114.04019479638671" /><trkpt lat="22.28753778125" lon="114.04017179638672" /><trkpt lat="22.28743378125" lon="114.04010579638671" /><trkpt lat="22.28744978125" lon="114.03990479638672" /><trkpt lat="22.28725278125" lon="114.03995279638671" /><trkpt lat="22.28704278125" lon="114.03974479638671" /><trkpt lat="22.28695078125" lon="114.03966479638672" /><trkpt lat="22.28680578125" lon="114.03959479638672" /><trkpt lat="22.28668578125" lon="114.03954179638671" /><trkpt lat="22.28667678125" lon="114.03879679638672" /><trkpt lat="22.28665878125" lon="114.03866779638672" /><trkpt lat="22.28660978125" lon="114.03857979638671" /><trkpt lat="22.28653478125" lon="114.03852679638672" /><trkpt lat="22.28644178125" lon="114.03848879638672" /><trkpt lat="22.28628678125" lon="114.03846779638671" /><trkpt lat="22.28618278125" lon="114.03846679638671" /><trkpt lat="22.28606478125" lon="114.03841679638671" /><trkpt lat="22.28597978125" lon="114.03838479638672" /><trkpt lat="22.28590878125" lon="114.03850779638672" /><trkpt lat="22.28594278125" lon="114.03857679638672" /><trkpt lat="22.28585578125" lon="114.03867379638672" /><trkpt lat="22.28573978125" lon="114.03856979638672" /><trkpt lat="22.28549978125" lon="114.03882879638672" /><trkpt lat="22.28548278125" lon="114.03884179638672" /><trkpt lat="22.28546778125" lon="114.03884379638671" /><trkpt lat="22.28533678125" lon="114.03899779638672" /><trkpt lat="22.28530378125" lon="114.03896879638671" /><trkpt lat="22.28517678125" lon="114.03907279638672" /><trkpt lat="22.28503378125" lon="114.03917179638673" /><trkpt lat="22.28508778125" lon="114.03909979638672" /><trkpt lat="22.28492978125" lon="114.03879579638672" /><trkpt lat="22.28468678125" lon="114.03891779638671" /><trkpt lat="22.28420178125" lon="114.03916179638672" /><trkpt lat="22.28392878125" lon="114.03929079638672" /><trkpt lat="22.28392878125" lon="114.03932879638671" /><trkpt lat="22.28398578125" lon="114.03940079638672" /><trkpt lat="22.28403778125" lon="114.03952079638673" /><trkpt lat="22.28407078125" lon="114.03955779638672" /><trkpt lat="22.28423278125" lon="114.03955879638671" /><trkpt lat="22.28423078125" lon="114.03994879638672" /><trkpt lat="22.28422778125" lon="114.04005879638672" /><trkpt lat="22.28423678125" lon="114.04020279638672" /><trkpt lat="22.28425078125" lon="114.04025679638671" /><trkpt lat="22.28427478125" lon="114.04064879638672" /><trkpt lat="22.28419278125" lon="114.04080879638671" /><trkpt lat="22.28424678125" lon="114.04098579638672" /><trkpt lat="22.28408278125" lon="114.04114479638672" /><trkpt lat="22.28388878125" lon="114.04128379638672" /><trkpt lat="22.28372478125" lon="114.04131879638672" /><trkpt lat="22.28360178125" lon="114.04136779638672" /><trkpt lat="22.28347478125" lon="114.04149979638672" /><trkpt lat="22.28336178125" lon="114.04205179638672" /><trkpt lat="22.28329778125" lon="114.04216279638672" /><trkpt lat="22.28319578125" lon="114.04234279638672" /><trkpt lat="22.28306078125" lon="114.04243879638672" /><trkpt lat="22.28294278125" lon="114.04259079638672" /><trkpt lat="22.28281878125" lon="114.04264279638672" /><trkpt lat="22.28279078125" lon="114.04284679638671" /><trkpt lat="22.28281578125" lon="114.04299079638672" /><trkpt lat="22.28286478125" lon="114.04306579638671" /><trkpt lat="22.28295578125" lon="114.04333379638672" /><trkpt lat="22.28301478125" lon="114.04339579638672" /><trkpt lat="22.283037781250002" lon="114.04352879638672" /><trkpt lat="22.28317378125" lon="114.04365679638671" /><trkpt lat="22.28345778125" lon="114.04378279638672" /><trkpt lat="22.28364178125" lon="114.04393279638671" /><trkpt lat="22.28372678125" lon="114.04407779638672" /><trkpt lat="22.28379578125" lon="114.04409079638671" /><trkpt lat="22.28386678125" lon="114.04409179638672" /><trkpt lat="22.28394078125" lon="114.04409879638672" /><trkpt lat="22.28416778125" lon="114.04418679638673" /><trkpt lat="22.28422578125" lon="114.04419679638671" /><trkpt lat="22.28426978125" lon="114.04423179638673" /><trkpt lat="22.28437378125" lon="114.04448879638672" /><trkpt lat="22.28439478125" lon="114.04454079638671" /><trkpt lat="22.28383278125" lon="114.04488379638671" /><trkpt lat="22.28347978125" lon="114.04501679638672" /><trkpt lat="22.28364578125" lon="114.04546579638672" /><trkpt lat="22.28381178125" lon="114.04574679638672" /><trkpt lat="22.28386778125" lon="114.04585779638671" /><trkpt lat="22.28387978125" lon="114.04587879638672" /><trkpt lat="22.28389978125" lon="114.04589579638672" /><trkpt lat="22.28395478125" lon="114.04592579638671" /><trkpt lat="22.28397178125" lon="114.04593879638672" /><trkpt lat="22.28397978125" lon="114.04595579638672" /><trkpt lat="22.28398678125" lon="114.04598579638672" /><trkpt lat="22.28399278125" lon="114.04605779638672" /><trkpt lat="22.28398278125" lon="114.04610379638672" /><trkpt lat="22.28398778125" lon="114.04613279638671" /><trkpt lat="22.28401778125" lon="114.04621979638672" /><trkpt lat="22.28403078125" lon="114.04626279638671" /><trkpt lat="22.28403678125" lon="114.04630679638672" /><trkpt lat="22.28405278125" lon="114.04634879638672" /><trkpt lat="22.28407078125" lon="114.04636679638672" /><trkpt lat="22.28414978125" lon="114.04642779638672" /><trkpt lat="22.28415578125" lon="114.04643379638672" /><trkpt lat="22.28420978125" lon="114.04650179638672" /><trkpt lat="22.28419178125" lon="114.04652479638672" /><trkpt lat="22.28420678125" lon="114.04653979638672" /><trkpt lat="22.28421378125" lon="114.04659579638673" /><trkpt lat="22.28419578125" lon="114.04664279638672" /><trkpt lat="22.28416778125" lon="114.04668279638672" /><trkpt lat="22.28412278125" lon="114.04671779638672" /><trkpt lat="22.28413378125" lon="114.04674979638672" /><trkpt lat="22.28411178125" lon="114.04678079638671" /><trkpt lat="22.28411378125" lon="114.04684579638672" /><trkpt lat="22.28413178125" lon="114.04687679638671" /><trkpt lat="22.28413378125" lon="114.04695779638672" /><trkpt lat="22.28417278125" lon="114.04698579638672" /><trkpt lat="22.28418978125" lon="114.04702079638672" /><trkpt lat="22.28417878125" lon="114.04705179638673" /><trkpt lat="22.28415778125" lon="114.04707679638672" /><trkpt lat="22.28414178125" lon="114.04710779638671" /><trkpt lat="22.28421378125" lon="114.04723779638672" /><trkpt lat="22.284103180220157" lon="114.0471790570084" /><trkpt lat="22.284095277809826" lon="114.04714177702022" /><trkpt lat="22.284097984036606" lon="114.04713628543414" /><trkpt lat="22.284097088841335" lon="114.04712927505335" /><trkpt lat="22.28410027456671" lon="114.04712607555439" /><trkpt lat="22.2840999365974" lon="114.04712166213977" /><trkpt lat="22.284099400526628" lon="114.04711913317391" /><trkpt lat="22.28410256580878" lon="114.0471158655036" /><trkpt lat="22.28410168226425" lon="114.04710885183079" /><trkpt lat="22.284105147962393" lon="114.04710558302753" /><trkpt lat="22.284103493651713" lon="114.04709634977849" /><trkpt lat="22.284116210412193" lon="114.04709320145605" /><trkpt lat="22.284114808292813" lon="114.04708658687088" /><trkpt lat="22.284145056388574" lon="114.04710144946769" /><trkpt lat="22.28415778125" lon="114.04707679638672" /><trkpt lat="22.28417878125" lon="114.04705179638673" /><trkpt lat="22.28418978125" lon="114.04702079638672" /><trkpt lat="22.28417278125" lon="114.04698579638672" /><trkpt lat="22.28413378125" lon="114.04695779638672" /><trkpt lat="22.28413178125" lon="114.04687679638671" /><trkpt lat="22.28411378125" lon="114.04684579638672" /><trkpt lat="22.28411178125" lon="114.04678079638671" /><trkpt lat="22.28413378125" lon="114.04674979638672" /><trkpt lat="22.28412278125" lon="114.04671779638672" /><trkpt lat="22.28416778125" lon="114.04668279638672" /><trkpt lat="22.28419578125" lon="114.04664279638672" /><trkpt lat="22.28421378125" lon="114.04659579638673" /><trkpt lat="22.28420678125" lon="114.04653979638672" /><trkpt lat="22.28420978125" lon="114.04650179638672" /><trkpt lat="22.28414978125" lon="114.04642779638672" /><trkpt lat="22.28407078125" lon="114.04636679638672" /><trkpt lat="22.28405278125" lon="114.04634879638672" /><trkpt lat="22.28403678125" lon="114.04630679638672" /><trkpt lat="22.28403078125" lon="114.04626279638671" /><trkpt lat="22.28401778125" lon="114.04621979638672" /><trkpt lat="22.28398778125" lon="114.04613279638671" /><trkpt lat="22.28398278125" lon="114.04610379638672" /><trkpt lat="22.28399278125" lon="114.04605779638672" /><trkpt lat="22.28398678125" lon="114.04598579638672" /><trkpt lat="22.28397978125" lon="114.04595579638672" /><trkpt lat="22.28397178125" lon="114.04593879638672" /><trkpt lat="22.28395478125" lon="114.04592579638671" /><trkpt lat="22.28389978125" lon="114.04589579638672" /><trkpt lat="22.28387978125" lon="114.04587879638672" /><trkpt lat="22.28386778125" lon="114.04585779638671" /><trkpt lat="22.28381178125" lon="114.04574679638672" /><trkpt lat="22.28364578125" lon="114.04546579638672" /><trkpt lat="22.28347978125" lon="114.04501679638672" /><trkpt lat="22.28323078125" lon="114.04495279638672" /><trkpt lat="22.28304778125" lon="114.04499279638672" /><trkpt lat="22.28297478125" lon="114.04503479638672" /><trkpt lat="22.28272478125" lon="114.04517879638672" /><trkpt lat="22.28254178125" lon="114.04530779638672" /><trkpt lat="22.28242478125" lon="114.04537979638671" /><trkpt lat="22.28236578125" lon="114.04540579638672" /><trkpt lat="22.28204778125" lon="114.04536579638672" /><trkpt lat="22.28180778125" lon="114.04530079638671" /><trkpt lat="22.28147078125" lon="114.04518679638672" /><trkpt lat="22.28129078125" lon="114.04505879638671" /><trkpt lat="22.28109978125" lon="114.04479479638673" /><trkpt lat="22.28123378125" lon="114.04469479638672" /><trkpt lat="22.28113778125" lon="114.04450479638672" /><trkpt lat="22.28103078125" lon="114.04456079638672" /><trkpt lat="22.28105578125" lon="114.04445879638672" /><trkpt lat="22.28107678125" lon="114.04423179638673" /><trkpt lat="22.28127578125" lon="114.04409979638672" /><trkpt lat="22.28123978125" lon="114.04391579638671" /><trkpt lat="22.28115878125" lon="114.04364879638672" /><trkpt lat="22.28116878125" lon="114.04331679638672" /><trkpt lat="22.28112178125" lon="114.04312779638671" /><trkpt lat="22.28118178125" lon="114.04300479638673" /><trkpt lat="22.28114778125" lon="114.04290779638671" /><trkpt lat="22.28113578125" lon="114.04287379638671" /><trkpt lat="22.28093078125" lon="114.04257179638672" /><trkpt lat="22.28090378125" lon="114.04240579638672" /><trkpt lat="22.28095478125" lon="114.04213079638672" /><trkpt lat="22.28097878125" lon="114.04199779638672" /><trkpt lat="22.28117978125" lon="114.04190179638672" /><trkpt lat="22.28120178125" lon="114.04177679638671" /><trkpt lat="22.28111178125" lon="114.04156979638672" /><trkpt lat="22.28105078125" lon="114.04145479638672" /><trkpt lat="22.28105478125" lon="114.04129279638671" /><trkpt lat="22.28109978125" lon="114.04110879638672" /><trkpt lat="22.28117978125" lon="114.04099879638672" /><trkpt lat="22.28122078125" lon="114.04096279638672" /><trkpt lat="22.28128578125" lon="114.04086479638671" /><trkpt lat="22.28130478125" lon="114.04076679638672" /><trkpt lat="22.28129978125" lon="114.04049579638672" /><trkpt lat="22.28127978125" lon="114.04035579638672" /><trkpt lat="22.28135678125" lon="114.04019879638672" /><trkpt lat="22.28140178125" lon="114.04010779638672" /><trkpt lat="22.28155878125" lon="114.04003479638672" /><trkpt lat="22.28156678125" lon="114.04003179638671" /><trkpt lat="22.28166978125" lon="114.03979079638673" /><trkpt lat="22.28177278125" lon="114.03976179638671" /><trkpt lat="22.28187278125" lon="114.03971079638671" /><trkpt lat="22.28196878125" lon="114.03963379638672" /><trkpt lat="22.28203478125" lon="114.03958179638671" /><trkpt lat="22.28214678125" lon="114.03954779638671" /><trkpt lat="22.28357878125" lon="114.03959779638672" /><trkpt lat="22.28368178125" lon="114.03951879638672" /><trkpt lat="22.28371978125" lon="114.03948979638672" /><trkpt lat="22.28383278125" lon="114.03940279638672" /><trkpt lat="22.28392878125" lon="114.03932879638671" /><trkpt lat="22.28392878125" lon="114.03929079638672" /><trkpt lat="22.28420178125" lon="114.03916179638672" /><trkpt lat="22.28468678125" lon="114.03891779638671" /><trkpt lat="22.28458978125" lon="114.03867279638672" /><trkpt lat="22.28449778125" lon="114.03844079638672" /><trkpt lat="22.28467978125" lon="114.03832879638672" /><trkpt lat="22.28477478125" lon="114.03850679638671" /><trkpt lat="22.28495078125" lon="114.03837379638672" /><trkpt lat="22.28530878125" lon="114.03802079638672" /><trkpt lat="22.28527978125" lon="114.03798479638672" /><trkpt lat="22.28496178125" lon="114.03760179638672" /><trkpt lat="22.28439078125" lon="114.03819279638672" /><trkpt lat="22.28436078125" lon="114.03821579638672" /><trkpt lat="22.28433678125" lon="114.03817279638672" /><trkpt lat="22.28419378125" lon="114.03781879638672" /><trkpt lat="22.284177658436516" lon="114.03778076103995" /></trkseg></trk></gpx>