<?xml version='1.0' encoding='UTF-8' ?><gpx version="1.1" creator="HikingTrailHK" xsi:schemaLocation="http://www.topografix.com/GPX/1/1 http://www.topografix.com/GPX/1/1/gpx.xsd" xmlns="http://www.topografix.com/GPX/1/1" xmlns:xsi="http://www.w3.org/2001/XMLSchema-instance"><metadata><name>大交椅洲 @ 2026-05-10 12:31:22</name><desc></desc></metadata><wpt lat="22.285149999999998" lon="114.07493833333335"><ele>-5.4</ele><time>2026-05-10T04:47:03Z</time><name>岩洞</name></wpt><wpt lat="22.285678333333333" lon="114.07566666666668"><ele>-0.3999999999999999</ele><time>2026-05-10T04:59:17Z</time><name>石灘</name></wpt><wpt lat="22.28591333333333" lon="114.07666333333333"><ele>-0.6</ele><time>2026-05-10T05:16:13Z</time><name>澗道</name></wpt><wpt lat="22.285131666666665" lon="114.07689333333335"><ele>28.0</ele><time>2026-05-10T05:34:37Z</time><name>電</name></wpt><trk><trkseg><trkpt lat="22.282991666666664" lon="114.07441166666668"><ele>2.5</ele><time>2026-05-10T04:31:22Z</time></trkpt><trkpt lat="22.283006666666665" lon="114.074425"><ele>1.0</ele><time>2026-05-10T04:31:42Z</time></trkpt><trkpt lat="22.28302833333333" lon="114.07442"><ele>1.0</ele><time>2026-05-10T04:31:45Z</time></trkpt><trkpt lat="22.283045" lon="114.07440666666668"><ele>0.7999999999999998</ele><time>2026-05-10T04:31:49Z</time></trkpt><trkpt lat="22.28304333333333" lon="114.07437999999999"><ele>0.7999999999999998</ele><time>2026-05-10T04:31:54Z</time></trkpt><trkpt lat="22.283061666666672" lon="114.07438333333333"><ele>0.19999999999999996</ele><time>2026-05-10T04:32:00Z</time></trkpt><trkpt lat="22.28307333333333" lon="114.0744"><ele>-0.8</ele><time>2026-05-10T04:32:12Z</time></trkpt><trkpt lat="22.283076666666663" lon="114.07442666666665"><ele>-0.9</ele><time>2026-05-10T04:32:16Z</time></trkpt><trkpt lat="22.283093333333333" lon="114.07443666666668"><ele>-0.9</ele><time>2026-05-10T04:32:18Z</time></trkpt><trkpt lat="22.283105" lon="114.074455"><ele>-1.0</ele><time>2026-05-10T04:32:25Z</time></trkpt><trkpt lat="22.283141666666666" lon="114.07444166666667"><ele>-1.2</ele><time>2026-05-10T04:32:37Z</time></trkpt><trkpt lat="22.28316166666667" lon="114.07444833333332"><ele>-1.2</ele><time>2026-05-10T04:32:39Z</time></trkpt><trkpt lat="22.283185000000003" lon="114.07445166666666"><ele>-1.3</ele><time>2026-05-10T04:32:42Z</time></trkpt><trkpt lat="22.283201666666667" lon="114.07444166666667"><ele>-1.3</ele><time>2026-05-10T04:32:45Z</time></trkpt><trkpt lat="22.283216666666664" lon="114.07442333333331"><ele>-1.2</ele><time>2026-05-10T04:32:48Z</time></trkpt><trkpt lat="22.283233333333335" lon="114.07441166666668"><ele>-1.1</ele><time>2026-05-10T04:32:52Z</time></trkpt><trkpt lat="22.28325166666667" lon="114.07441166666668"><ele>-1.1</ele><time>2026-05-10T04:32:56Z</time></trkpt><trkpt lat="22.283258333333333" lon="114.07439333333332"><ele>-1.1</ele><time>2026-05-10T04:33:01Z</time></trkpt><trkpt lat="22.283255" lon="114.07437333333334"><ele>-0.9</ele><time>2026-05-10T04:33:05Z</time></trkpt><trkpt lat="22.28327" lon="114.07436166666666"><ele>-1.2</ele><time>2026-05-10T04:33:11Z</time></trkpt><trkpt lat="22.283288333333335" lon="114.07435333333333"><ele>-1.6</ele><time>2026-05-10T04:33:19Z</time></trkpt><trkpt lat="22.283353333333334" lon="114.07434666666668"><ele>-0.6</ele><time>2026-05-10T04:33:46Z</time></trkpt><trkpt lat="22.283375" lon="114.07435333333333"><ele>-0.7</ele><time>2026-05-10T04:33:48Z</time></trkpt><trkpt lat="22.283393333333333" lon="114.07436333333332"><ele>-0.9</ele><time>2026-05-10T04:33:50Z</time></trkpt><trkpt lat="22.283411666666666" lon="114.07436333333332"><ele>-1.3</ele><time>2026-05-10T04:33:54Z</time></trkpt><trkpt lat="22.283421666666662" lon="114.07437999999999"><ele>-1.7</ele><time>2026-05-10T04:33:56Z</time></trkpt><trkpt lat="22.283441666666665" lon="114.07438833333332"><ele>-4.3</ele><time>2026-05-10T04:34:48Z</time></trkpt><trkpt lat="22.28346333333333" lon="114.07437499999999"><ele>-3.6</ele><time>2026-05-10T04:34:52Z</time></trkpt><trkpt lat="22.28347833333333" lon="114.07436000000001"><ele>-3.3</ele><time>2026-05-10T04:34:55Z</time></trkpt><trkpt lat="22.28347666666667" lon="114.07433166666667"><ele>-3.0</ele><time>2026-05-10T04:34:58Z</time></trkpt><trkpt lat="22.283493333333332" lon="114.07431333333334"><ele>-3.1</ele><time>2026-05-10T04:35:01Z</time></trkpt><trkpt lat="22.283503333333336" lon="114.07429666666667"><ele>-3.0</ele><time>2026-05-10T04:35:03Z</time></trkpt><trkpt lat="22.283518333333337" lon="114.07428"><ele>-2.3</ele><time>2026-05-10T04:35:06Z</time></trkpt><trkpt lat="22.28353666666667" lon="114.07428333333334"><ele>0.0</ele><time>2026-05-10T04:35:24Z</time></trkpt><trkpt lat="22.28355333333333" lon="114.07426666666667"><ele>0.6000000000000001</ele><time>2026-05-10T04:35:30Z</time></trkpt><trkpt lat="22.283573333333333" lon="114.07425666666668"><ele>0.7000000000000002</ele><time>2026-05-10T04:35:33Z</time></trkpt><trkpt lat="22.283591666666666" lon="114.07426166666667"><ele>0.7000000000000002</ele><time>2026-05-10T04:35:37Z</time></trkpt><trkpt lat="22.28361166666667" lon="114.07426"><ele>0.10000000000000009</ele><time>2026-05-10T04:35:42Z</time></trkpt><trkpt lat="22.283630000000002" lon="114.07426500000001"><ele>0.0</ele><time>2026-05-10T04:35:45Z</time></trkpt><trkpt lat="22.283648333333336" lon="114.07425666666668"><ele>0.5</ele><time>2026-05-10T04:36:02Z</time></trkpt><trkpt lat="22.283666666666665" lon="114.07426166666667"><ele>0.0</ele><time>2026-05-10T04:36:08Z</time></trkpt><trkpt lat="22.283694999999998" lon="114.07423666666666"><ele>-0.10000000000000009</ele><time>2026-05-10T04:36:14Z</time></trkpt><trkpt lat="22.283708333333333" lon="114.07422333333334"><ele>-0.10000000000000009</ele><time>2026-05-10T04:36:16Z</time></trkpt><trkpt lat="22.283726666666666" lon="114.07421000000001"><ele>-0.10000000000000009</ele><time>2026-05-10T04:36:20Z</time></trkpt><trkpt lat="22.28374666666667" lon="114.07421666666666"><ele>-0.6</ele><time>2026-05-10T04:36:24Z</time></trkpt><trkpt lat="22.283769999999997" lon="114.074225"><ele>-1.0</ele><time>2026-05-10T04:36:28Z</time></trkpt><trkpt lat="22.28378" lon="114.07424166666667"><ele>-0.8</ele><time>2026-05-10T04:36:31Z</time></trkpt><trkpt lat="22.283796666666664" lon="114.07421666666666"><ele>-0.7</ele><time>2026-05-10T04:36:58Z</time></trkpt><trkpt lat="22.283814999999997" lon="114.07420833333332"><ele>-0.8</ele><time>2026-05-10T04:37:01Z</time></trkpt><trkpt lat="22.283835" lon="114.07420166666667"><ele>-1.2</ele><time>2026-05-10T04:37:05Z</time></trkpt><trkpt lat="22.283849999999997" lon="114.074185"><ele>-1.5</ele><time>2026-05-10T04:37:09Z</time></trkpt><trkpt lat="22.283861666666667" lon="114.07416833333333"><ele>-1.8</ele><time>2026-05-10T04:37:12Z</time></trkpt><trkpt lat="22.28388" lon="114.07417"><ele>-2.2</ele><time>2026-05-10T04:37:15Z</time></trkpt><trkpt lat="22.283903333333335" lon="114.07420666666667"><ele>-1.9</ele><time>2026-05-10T04:38:52Z</time></trkpt><trkpt lat="22.283921666666668" lon="114.07421500000001"><ele>-3.9</ele><time>2026-05-10T04:39:25Z</time></trkpt><trkpt lat="22.283931666666664" lon="114.07423166666668"><ele>-3.9</ele><time>2026-05-10T04:39:29Z</time></trkpt><trkpt lat="22.283931666666664" lon="114.07419166666665"><ele>-4.5</ele><time>2026-05-10T04:39:37Z</time></trkpt><trkpt lat="22.283946666666665" lon="114.07417833333332"><ele>-4.3</ele><time>2026-05-10T04:39:43Z</time></trkpt><trkpt lat="22.283975" lon="114.07417333333333"><ele>-3.5</ele><time>2026-05-10T04:39:53Z</time></trkpt><trkpt lat="22.283994999999997" lon="114.074165"><ele>-3.3</ele><time>2026-05-10T04:39:55Z</time></trkpt><trkpt lat="22.28401" lon="114.07414833333333"><ele>-3.3</ele><time>2026-05-10T04:39:58Z</time></trkpt><trkpt lat="22.284018333333332" lon="114.07413"><ele>-3.7</ele><time>2026-05-10T04:40:02Z</time></trkpt><trkpt lat="22.284039999999997" lon="114.074135"><ele>-4.3</ele><time>2026-05-10T04:40:07Z</time></trkpt><trkpt lat="22.28406166666667" lon="114.07413833333334"><ele>-4.6</ele><time>2026-05-10T04:40:10Z</time></trkpt><trkpt lat="22.284080000000003" lon="114.07414333333332"><ele>-4.9</ele><time>2026-05-10T04:40:13Z</time></trkpt><trkpt lat="22.28410166666667" lon="114.07414166666668"><ele>-5.1</ele><time>2026-05-10T04:40:17Z</time></trkpt><trkpt lat="22.284116666666666" lon="114.07415333333331"><ele>-4.9</ele><time>2026-05-10T04:40:24Z</time></trkpt><trkpt lat="22.28413666666667" lon="114.07415833333334"><ele>-4.5</ele><time>2026-05-10T04:40:29Z</time></trkpt><trkpt lat="22.28415" lon="114.074135"><ele>-4.4</ele><time>2026-05-10T04:40:34Z</time></trkpt><trkpt lat="22.284170000000003" lon="114.07413166666666"><ele>-3.9</ele><time>2026-05-10T04:40:39Z</time></trkpt><trkpt lat="22.284195" lon="114.07412666666666"><ele>-3.6</ele><time>2026-05-10T04:40:43Z</time></trkpt><trkpt lat="22.284215000000003" lon="114.07412833333335"><ele>-3.4</ele><time>2026-05-10T04:40:45Z</time></trkpt><trkpt lat="22.284235" lon="114.07413833333334"><ele>-3.3</ele><time>2026-05-10T04:40:47Z</time></trkpt><trkpt lat="22.28425666666667" lon="114.07415166666667"><ele>-3.2</ele><time>2026-05-10T04:40:50Z</time></trkpt><trkpt lat="22.284275" lon="114.074155"><ele>-3.1</ele><time>2026-05-10T04:40:55Z</time></trkpt><trkpt lat="22.284293333333334" lon="114.074155"><ele>-2.7</ele><time>2026-05-10T04:40:59Z</time></trkpt><trkpt lat="22.284380000000002" lon="114.07419499999999"><ele>-0.3999999999999999</ele><time>2026-05-10T04:41:44Z</time></trkpt><trkpt lat="22.28439166666667" lon="114.07421000000001"><ele>-0.5</ele><time>2026-05-10T04:41:48Z</time></trkpt><trkpt lat="22.28441" lon="114.07422"><ele>-0.5</ele><time>2026-05-10T04:41:50Z</time></trkpt><trkpt lat="22.284426666666665" lon="114.07422999999999"><ele>-0.3999999999999999</ele><time>2026-05-10T04:41:53Z</time></trkpt><trkpt lat="22.28444833333333" lon="114.07422666666668"><ele>-0.5</ele><time>2026-05-10T04:41:58Z</time></trkpt><trkpt lat="22.28446666666667" lon="114.07422999999999"><ele>-1.0</ele><time>2026-05-10T04:42:04Z</time></trkpt><trkpt lat="22.28448166666667" lon="114.07424333333331"><ele>-1.1</ele><time>2026-05-10T04:42:08Z</time></trkpt><trkpt lat="22.284488333333336" lon="114.07426166666667"><ele>-1.0</ele><time>2026-05-10T04:42:10Z</time></trkpt><trkpt lat="22.28449333333333" lon="114.07428333333334"><ele>-0.8</ele><time>2026-05-10T04:42:13Z</time></trkpt><trkpt lat="22.28451" lon="114.07429166666667"><ele>-0.5</ele><time>2026-05-10T04:42:17Z</time></trkpt><trkpt lat="22.284533333333336" lon="114.07431"><ele>-0.5</ele><time>2026-05-10T04:42:20Z</time></trkpt><trkpt lat="22.28455166666667" lon="114.07431166666666"><ele>0.0</ele><time>2026-05-10T04:42:25Z</time></trkpt><trkpt lat="22.284591666666664" lon="114.074345"><ele>-0.30000000000000004</ele><time>2026-05-10T04:42:56Z</time></trkpt><trkpt lat="22.284593333333337" lon="114.07437"><ele>-0.3999999999999999</ele><time>2026-05-10T04:43:00Z</time></trkpt><trkpt lat="22.2846" lon="114.07439333333332"><ele>-0.3999999999999999</ele><time>2026-05-10T04:43:03Z</time></trkpt><trkpt lat="22.28460166666667" lon="114.07441333333333"><ele>-0.3999999999999999</ele><time>2026-05-10T04:43:05Z</time></trkpt><trkpt lat="22.28462833333333" lon="114.07444"><ele>-0.3999999999999999</ele><time>2026-05-10T04:43:09Z</time></trkpt><trkpt lat="22.284633333333332" lon="114.07446666666668"><ele>-0.5</ele><time>2026-05-10T04:43:11Z</time></trkpt><trkpt lat="22.284635" lon="114.07448666666666"><ele>-0.7</ele><time>2026-05-10T04:43:13Z</time></trkpt><trkpt lat="22.284656666666667" lon="114.07450166666668"><ele>-1.0</ele><time>2026-05-10T04:43:15Z</time></trkpt><trkpt lat="22.284678333333332" lon="114.07451166666667"><ele>-1.8</ele><time>2026-05-10T04:43:19Z</time></trkpt><trkpt lat="22.284695000000003" lon="114.07453166666667"><ele>-2.6</ele><time>2026-05-10T04:43:22Z</time></trkpt><trkpt lat="22.284715" lon="114.07452833333333"><ele>-3.1</ele><time>2026-05-10T04:43:27Z</time></trkpt><trkpt lat="22.284740000000003" lon="114.07451999999999"><ele>-2.9</ele><time>2026-05-10T04:43:29Z</time></trkpt><trkpt lat="22.28476" lon="114.07451999999999"><ele>-2.4</ele><time>2026-05-10T04:43:32Z</time></trkpt><trkpt lat="22.284783333333333" lon="114.07452333333335"><ele>-1.0</ele><time>2026-05-10T04:43:38Z</time></trkpt><trkpt lat="22.284800000000004" lon="114.07453166666667"><ele>-0.5</ele><time>2026-05-10T04:43:40Z</time></trkpt><trkpt lat="22.284813333333332" lon="114.07455"><ele>0.3999999999999999</ele><time>2026-05-10T04:43:43Z</time></trkpt><trkpt lat="22.284791666666667" lon="114.07455833333333"><ele>1.2000000000000002</ele><time>2026-05-10T04:43:51Z</time></trkpt><trkpt lat="22.284773333333337" lon="114.07457166666667"><ele>0.8999999999999999</ele><time>2026-05-10T04:43:56Z</time></trkpt><trkpt lat="22.284771666666664" lon="114.07459166666668"><ele>0.5</ele><time>2026-05-10T04:44:00Z</time></trkpt><trkpt lat="22.284783333333333" lon="114.07461833333333"><ele>0.10000000000000009</ele><time>2026-05-10T04:44:05Z</time></trkpt><trkpt lat="22.28479333333333" lon="114.074635"><ele>-0.19999999999999996</ele><time>2026-05-10T04:44:08Z</time></trkpt><trkpt lat="22.284806666666668" lon="114.07464833333333"><ele>-0.5</ele><time>2026-05-10T04:44:10Z</time></trkpt><trkpt lat="22.284818333333337" lon="114.07466666666666"><ele>-0.7</ele><time>2026-05-10T04:44:13Z</time></trkpt><trkpt lat="22.284836666666667" lon="114.07467166666666"><ele>-1.2</ele><time>2026-05-10T04:44:18Z</time></trkpt><trkpt lat="22.28486666666667" lon="114.07467166666666"><ele>-1.7</ele><time>2026-05-10T04:44:23Z</time></trkpt><trkpt lat="22.28488666666666" lon="114.07466500000001"><ele>-1.9</ele><time>2026-05-10T04:44:25Z</time></trkpt><trkpt lat="22.28491" lon="114.07465166666667"><ele>-1.7</ele><time>2026-05-10T04:44:28Z</time></trkpt><trkpt lat="22.284918333333334" lon="114.07463166666666"><ele>-1.2</ele><time>2026-05-10T04:44:30Z</time></trkpt><trkpt lat="22.28494166666667" lon="114.07464166666665"><ele>-1.1</ele><time>2026-05-10T04:44:35Z</time></trkpt><trkpt lat="22.284951666666664" lon="114.07466333333332"><ele>-1.0</ele><time>2026-05-10T04:44:40Z</time></trkpt><trkpt lat="22.284951666666664" lon="114.07468666666666"><ele>-0.9</ele><time>2026-05-10T04:44:43Z</time></trkpt><trkpt lat="22.284953333333338" lon="114.07471333333334"><ele>-1.1</ele><time>2026-05-10T04:44:46Z</time></trkpt><trkpt lat="22.28496" lon="114.07473999999999"><ele>-1.1</ele><time>2026-05-10T04:44:49Z</time></trkpt><trkpt lat="22.284969999999998" lon="114.07475666666666"><ele>-1.2</ele><time>2026-05-10T04:44:52Z</time></trkpt><trkpt lat="22.284981666666667" lon="114.07477166666668"><ele>-1.1</ele><time>2026-05-10T04:44:56Z</time></trkpt><trkpt lat="22.284993333333333" lon="114.07479"><ele>-0.9</ele><time>2026-05-10T04:44:58Z</time></trkpt><trkpt lat="22.285006666666664" lon="114.07480833333332"><ele>-0.8</ele><time>2026-05-10T04:45:00Z</time></trkpt><trkpt lat="22.285028333333337" lon="114.07482166666665"><ele>0.6000000000000001</ele><time>2026-05-10T04:45:11Z</time></trkpt><trkpt lat="22.285013333333335" lon="114.07484166666667"><ele>0.6000000000000001</ele><time>2026-05-10T04:45:14Z</time></trkpt><trkpt lat="22.284996666666665" lon="114.07486166666668"><ele>-0.10000000000000009</ele><time>2026-05-10T04:45:17Z</time></trkpt><trkpt lat="22.284978333333335" lon="114.07486833333333"><ele>-0.5</ele><time>2026-05-10T04:45:19Z</time></trkpt><trkpt lat="22.284948333333332" lon="114.07487166666667"><ele>-0.9</ele><time>2026-05-10T04:45:22Z</time></trkpt><trkpt lat="22.28492833333333" lon="114.074875"><ele>-1.4</ele><time>2026-05-10T04:45:24Z</time></trkpt><trkpt lat="22.284906666666664" lon="114.07489333333334"><ele>-2.3</ele><time>2026-05-10T04:45:27Z</time></trkpt><trkpt lat="22.284913333333332" lon="114.07491166666665"><ele>-2.7</ele><time>2026-05-10T04:45:29Z</time></trkpt><trkpt lat="22.284915" lon="114.07493333333332"><ele>-3.3</ele><time>2026-05-10T04:45:32Z</time></trkpt><trkpt lat="22.28494" lon="114.07493000000001"><ele>-3.7</ele><time>2026-05-10T04:45:36Z</time></trkpt><trkpt lat="22.285021666666662" lon="114.07491666666668"><ele>-4.7</ele><time>2026-05-10T04:45:47Z</time></trkpt><trkpt lat="22.285111666666662" lon="114.07489833333332"><ele>-5.5</ele><time>2026-05-10T04:46:09Z</time></trkpt><trkpt lat="22.285149999999998" lon="114.07493500000001"><ele>-5.5</ele><time>2026-05-10T04:46:30Z</time></trkpt><trkpt lat="22.28512333333333" lon="114.07496166666667"><ele>-5.0</ele><time>2026-05-10T04:47:15Z</time></trkpt><trkpt lat="22.285130000000002" lon="114.07498666666667"><ele>-5.3</ele><time>2026-05-10T04:47:20Z</time></trkpt><trkpt lat="22.285138333333332" lon="114.07500999999999"><ele>-5.6</ele><time>2026-05-10T04:47:22Z</time></trkpt><trkpt lat="22.285130000000002" lon="114.07498833333332"><ele>-6.7</ele><time>2026-05-10T04:47:32Z</time></trkpt><trkpt lat="22.28513666666667" lon="114.07496833333335"><ele>-6.5</ele><time>2026-05-10T04:47:36Z</time></trkpt><trkpt lat="22.285156666666662" lon="114.07496333333332"><ele>-6.1</ele><time>2026-05-10T04:47:40Z</time></trkpt><trkpt lat="22.285163333333337" lon="114.07500333333334"><ele>-5.4</ele><time>2026-05-10T04:47:57Z</time></trkpt><trkpt lat="22.285185000000002" lon="114.07501333333333"><ele>-5.3</ele><time>2026-05-10T04:48:00Z</time></trkpt><trkpt lat="22.28517" lon="114.07503166666666"><ele>-5.2</ele><time>2026-05-10T04:48:04Z</time></trkpt><trkpt lat="22.285165" lon="114.075055"><ele>-5.1</ele><time>2026-05-10T04:48:07Z</time></trkpt><trkpt lat="22.285185000000002" lon="114.07506333333335"><ele>-5.1</ele><time>2026-05-10T04:48:09Z</time></trkpt><trkpt lat="22.285253333333337" lon="114.07506333333335"><ele>-5.0</ele><time>2026-05-10T04:48:12Z</time></trkpt><trkpt lat="22.28529" lon="114.07505666666665"><ele>-5.0</ele><time>2026-05-10T04:48:13Z</time></trkpt><trkpt lat="22.285311666666665" lon="114.07503833333334"><ele>-5.0</ele><time>2026-05-10T04:48:14Z</time></trkpt><trkpt lat="22.285315" lon="114.07500999999999"><ele>-5.0</ele><time>2026-05-10T04:48:15Z</time></trkpt><trkpt lat="22.285326666666666" lon="114.07498833333332"><ele>-4.9</ele><time>2026-05-10T04:48:17Z</time></trkpt><trkpt lat="22.285309999999996" lon="114.074975"><ele>-4.8</ele><time>2026-05-10T04:48:22Z</time></trkpt><trkpt lat="22.285276666666665" lon="114.07496666666665"><ele>-4.8</ele><time>2026-05-10T04:48:25Z</time></trkpt><trkpt lat="22.285255" lon="114.07497166666666"><ele>-4.7</ele><time>2026-05-10T04:48:26Z</time></trkpt><trkpt lat="22.285236666666666" lon="114.07495500000002"><ele>-4.7</ele><time>2026-05-10T04:48:28Z</time></trkpt><trkpt lat="22.285208333333337" lon="114.07494999999999"><ele>-4.6</ele><time>2026-05-10T04:48:30Z</time></trkpt><trkpt lat="22.28521166666667" lon="114.07497333333335"><ele>-4.6</ele><time>2026-05-10T04:48:31Z</time></trkpt><trkpt lat="22.28516833333333" lon="114.07492666666667"><ele>-4.6</ele><time>2026-05-10T04:48:32Z</time></trkpt><trkpt lat="22.285143333333334" lon="114.07493333333332"><ele>-4.5</ele><time>2026-05-10T04:48:33Z</time></trkpt><trkpt lat="22.285148333333336" lon="114.07489833333332"><ele>-4.5</ele><time>2026-05-10T04:48:35Z</time></trkpt><trkpt lat="22.285061666666667" lon="114.07496"><ele>-4.5</ele><time>2026-05-10T04:48:36Z</time></trkpt><trkpt lat="22.285035" lon="114.07498"><ele>-4.4</ele><time>2026-05-10T04:48:38Z</time></trkpt><trkpt lat="22.285058333333335" lon="114.07497666666669"><ele>-4.4</ele><time>2026-05-10T04:48:42Z</time></trkpt><trkpt lat="22.285081666666663" lon="114.074965"><ele>-4.4</ele><time>2026-05-10T04:48:43Z</time></trkpt><trkpt lat="22.285100000000003" lon="114.07498166666667"><ele>-4.4</ele><time>2026-05-10T04:48:45Z</time></trkpt><trkpt lat="22.285116666666667" lon="114.074995"><ele>-4.3</ele><time>2026-05-10T04:48:46Z</time></trkpt><trkpt lat="22.28521166666667" lon="114.07497"><ele>-3.1</ele><time>2026-05-10T04:49:33Z</time></trkpt><trkpt lat="22.28522666666667" lon="114.074995"><ele>-1.4</ele><time>2026-05-10T04:50:08Z</time></trkpt><trkpt lat="22.285279999999997" lon="114.07507666666667"><ele>-0.8</ele><time>2026-05-10T04:51:34Z</time></trkpt><trkpt lat="22.285308333333333" lon="114.07510499999998"><ele>-1.4</ele><time>2026-05-10T04:51:46Z</time></trkpt><trkpt lat="22.285318333333333" lon="114.07512333333334"><ele>-1.5</ele><time>2026-05-10T04:51:49Z</time></trkpt><trkpt lat="22.285331666666668" lon="114.07513666666667"><ele>-2.0</ele><time>2026-05-10T04:51:53Z</time></trkpt><trkpt lat="22.285339999999998" lon="114.075155"><ele>-2.3</ele><time>2026-05-10T04:51:56Z</time></trkpt><trkpt lat="22.285345" lon="114.075175"><ele>-2.6</ele><time>2026-05-10T04:52:00Z</time></trkpt><trkpt lat="22.28534833333333" lon="114.07519666666667"><ele>-2.9</ele><time>2026-05-10T04:52:03Z</time></trkpt><trkpt lat="22.28534833333333" lon="114.07521833333334"><ele>-3.2</ele><time>2026-05-10T04:52:07Z</time></trkpt><trkpt lat="22.285363333333333" lon="114.07523166666667"><ele>-3.2</ele><time>2026-05-10T04:52:10Z</time></trkpt><trkpt lat="22.28538" lon="114.07524"><ele>-3.2</ele><time>2026-05-10T04:52:12Z</time></trkpt><trkpt lat="22.285398333333333" lon="114.07524833333333"><ele>-3.2</ele><time>2026-05-10T04:52:17Z</time></trkpt><trkpt lat="22.285416666666666" lon="114.07525166666667"><ele>-3.5</ele><time>2026-05-10T04:52:22Z</time></trkpt><trkpt lat="22.28545166666667" lon="114.07530666666668"><ele>-3.6</ele><time>2026-05-10T04:52:45Z</time></trkpt><trkpt lat="22.285435" lon="114.07535000000001"><ele>-3.0</ele><time>2026-05-10T04:52:59Z</time></trkpt><trkpt lat="22.285500000000003" lon="114.07533666666669"><ele>-0.5</ele><time>2026-05-10T04:53:24Z</time></trkpt><trkpt lat="22.285516666666663" lon="114.07539999999999"><ele>1.2000000000000002</ele><time>2026-05-10T04:54:19Z</time></trkpt><trkpt lat="22.285533333333333" lon="114.07539166666666"><ele>1.4</ele><time>2026-05-10T04:54:21Z</time></trkpt><trkpt lat="22.285536666666665" lon="114.07537166666667"><ele>1.9</ele><time>2026-05-10T04:54:26Z</time></trkpt><trkpt lat="22.28557166666667" lon="114.07545"><ele>0.5</ele><time>2026-05-10T04:55:15Z</time></trkpt><trkpt lat="22.285585" lon="114.07546333333333"><ele>0.30000000000000004</ele><time>2026-05-10T04:55:19Z</time></trkpt><trkpt lat="22.28556" lon="114.07546833333332"><ele>-1.1</ele><time>2026-05-10T04:55:47Z</time></trkpt><trkpt lat="22.28558333333334" lon="114.07547166666667"><ele>-2.1</ele><time>2026-05-10T04:56:23Z</time></trkpt><trkpt lat="22.28557" lon="114.07545666666668"><ele>-2.4</ele><time>2026-05-10T04:56:26Z</time></trkpt><trkpt lat="22.2856" lon="114.07547333333332"><ele>-2.3</ele><time>2026-05-10T04:56:33Z</time></trkpt><trkpt lat="22.285621666666664" lon="114.07548"><ele>-1.8</ele><time>2026-05-10T04:56:37Z</time></trkpt><trkpt lat="22.285635000000003" lon="114.07550333333332"><ele>-0.7</ele><time>2026-05-10T04:57:10Z</time></trkpt><trkpt lat="22.285624999999996" lon="114.07552"><ele>-0.9</ele><time>2026-05-10T04:57:14Z</time></trkpt><trkpt lat="22.285698333333336" lon="114.07551166666666"><ele>-0.19999999999999996</ele><time>2026-05-10T04:58:30Z</time></trkpt><trkpt lat="22.285713333333334" lon="114.07552333333334"><ele>0.0</ele><time>2026-05-10T04:58:34Z</time></trkpt><trkpt lat="22.285683333333335" lon="114.07557166666666"><ele>-0.6</ele><time>2026-05-10T04:58:52Z</time></trkpt><trkpt lat="22.285686666666667" lon="114.07559666666666"><ele>-1.3</ele><time>2026-05-10T04:58:57Z</time></trkpt><trkpt lat="22.2857" lon="114.07562000000001"><ele>-1.1</ele><time>2026-05-10T04:59:00Z</time></trkpt><trkpt lat="22.285713333333334" lon="114.07563666666668"><ele>-1.0</ele><time>2026-05-10T04:59:02Z</time></trkpt><trkpt lat="22.285698333333336" lon="114.07564833333332"><ele>0.19999999999999996</ele><time>2026-05-10T04:59:09Z</time></trkpt><trkpt lat="22.285680000000003" lon="114.07565500000001"><ele>0.10000000000000009</ele><time>2026-05-10T04:59:11Z</time></trkpt><trkpt lat="22.28566" lon="114.07567499999999"><ele>-2.3</ele><time>2026-05-10T04:59:20Z</time></trkpt><trkpt lat="22.285663333333332" lon="114.07564833333332"><ele>-3.5</ele><time>2026-05-10T04:59:35Z</time></trkpt><trkpt lat="22.285680000000003" lon="114.07565666666666"><ele>-3.5</ele><time>2026-05-10T04:59:40Z</time></trkpt><trkpt lat="22.285705" lon="114.07566333333334"><ele>-3.3</ele><time>2026-05-10T04:59:42Z</time></trkpt><trkpt lat="22.28573333333333" lon="114.07567333333333"><ele>-3.1</ele><time>2026-05-10T04:59:44Z</time></trkpt><trkpt lat="22.28575" lon="114.07568166666667"><ele>-3.1</ele><time>2026-05-10T04:59:46Z</time></trkpt><trkpt lat="22.28576666666667" lon="114.07569666666669"><ele>-3.1</ele><time>2026-05-10T04:59:50Z</time></trkpt><trkpt lat="22.28578166666667" lon="114.07571166666666"><ele>-2.8</ele><time>2026-05-10T04:59:54Z</time></trkpt><trkpt lat="22.285774999999997" lon="114.07573"><ele>-2.8</ele><time>2026-05-10T04:59:59Z</time></trkpt><trkpt lat="22.28577833333333" lon="114.075755"><ele>-2.5</ele><time>2026-05-10T05:00:06Z</time></trkpt><trkpt lat="22.285785" lon="114.07578"><ele>-2.7</ele><time>2026-05-10T05:00:09Z</time></trkpt><trkpt lat="22.28579333333333" lon="114.075805"><ele>-2.3</ele><time>2026-05-10T05:00:11Z</time></trkpt><trkpt lat="22.285803333333334" lon="114.07583000000001"><ele>-2.0</ele><time>2026-05-10T05:00:14Z</time></trkpt><trkpt lat="22.28579666666667" lon="114.07585333333333"><ele>-0.9</ele><time>2026-05-10T05:00:18Z</time></trkpt><trkpt lat="22.285803333333334" lon="114.07587666666669"><ele>-2.0</ele><time>2026-05-10T05:00:39Z</time></trkpt><trkpt lat="22.285821666666667" lon="114.07589000000002"><ele>-1.9</ele><time>2026-05-10T05:00:42Z</time></trkpt><trkpt lat="22.28583833333333" lon="114.07590333333334"><ele>-2.1</ele><time>2026-05-10T05:00:44Z</time></trkpt><trkpt lat="22.285851666666666" lon="114.07592000000001"><ele>-1.2</ele><time>2026-05-10T05:00:49Z</time></trkpt><trkpt lat="22.285848333333334" lon="114.07593999999999"><ele>-0.30000000000000004</ele><time>2026-05-10T05:01:10Z</time></trkpt><trkpt lat="22.285851666666666" lon="114.07596166666666"><ele>-0.10000000000000009</ele><time>2026-05-10T05:01:13Z</time></trkpt><trkpt lat="22.285861666666666" lon="114.07598333333333"><ele>-0.10000000000000009</ele><time>2026-05-10T05:01:16Z</time></trkpt><trkpt lat="22.285878333333336" lon="114.07599666666668"><ele>0.10000000000000009</ele><time>2026-05-10T05:01:18Z</time></trkpt><trkpt lat="22.285890000000002" lon="114.07601500000001"><ele>0.6000000000000001</ele><time>2026-05-10T05:01:21Z</time></trkpt><trkpt lat="22.285911666666667" lon="114.07604"><ele>0.8999999999999999</ele><time>2026-05-10T05:01:25Z</time></trkpt><trkpt lat="22.28592833333333" lon="114.07605666666664"><ele>1.1</ele><time>2026-05-10T05:01:28Z</time></trkpt><trkpt lat="22.285941666666666" lon="114.07607000000002"><ele>1.7000000000000002</ele><time>2026-05-10T05:01:31Z</time></trkpt><trkpt lat="22.285941666666666" lon="114.07609166666667"><ele>2.3</ele><time>2026-05-10T05:01:36Z</time></trkpt><trkpt lat="22.285956666666667" lon="114.07610666666666"><ele>1.2000000000000002</ele><time>2026-05-10T05:01:41Z</time></trkpt><trkpt lat="22.28596" lon="114.07612666666667"><ele>1.0</ele><time>2026-05-10T05:01:51Z</time></trkpt><trkpt lat="22.285941666666666" lon="114.07613666666666"><ele>0.6000000000000001</ele><time>2026-05-10T05:01:56Z</time></trkpt><trkpt lat="22.28592" lon="114.07614"><ele>0.5</ele><time>2026-05-10T05:01:59Z</time></trkpt><trkpt lat="22.285936666666665" lon="114.07615333333334"><ele>0.0</ele><time>2026-05-10T05:02:04Z</time></trkpt><trkpt lat="22.28595833333333" lon="114.07616333333333"><ele>-0.30000000000000004</ele><time>2026-05-10T05:02:07Z</time></trkpt><trkpt lat="22.285981666666665" lon="114.07617333333334"><ele>0.0</ele><time>2026-05-10T05:02:10Z</time></trkpt><trkpt lat="22.285999999999998" lon="114.07618333333333"><ele>0.19999999999999996</ele><time>2026-05-10T05:02:13Z</time></trkpt><trkpt lat="22.286005" lon="114.07620333333334"><ele>0.19999999999999996</ele><time>2026-05-10T05:02:17Z</time></trkpt><trkpt lat="22.28600833333333" lon="114.07623166666666"><ele>0.30000000000000004</ele><time>2026-05-10T05:02:20Z</time></trkpt><trkpt lat="22.28602166666667" lon="114.07624833333333"><ele>0.5</ele><time>2026-05-10T05:02:22Z</time></trkpt><trkpt lat="22.286035000000002" lon="114.07626666666665"><ele>1.0</ele><time>2026-05-10T05:02:25Z</time></trkpt><trkpt lat="22.286031666666666" lon="114.07629166666666"><ele>1.2000000000000002</ele><time>2026-05-10T05:02:28Z</time></trkpt><trkpt lat="22.286025000000002" lon="114.07631333333332"><ele>1.4</ele><time>2026-05-10T05:02:32Z</time></trkpt><trkpt lat="22.286013333333337" lon="114.07632833333334"><ele>1.6</ele><time>2026-05-10T05:02:36Z</time></trkpt><trkpt lat="22.286011666666663" lon="114.07635"><ele>1.2000000000000002</ele><time>2026-05-10T05:02:40Z</time></trkpt><trkpt lat="22.286023333333333" lon="114.07637000000001"><ele>0.7999999999999998</ele><time>2026-05-10T05:02:43Z</time></trkpt><trkpt lat="22.286038333333334" lon="114.07638833333334"><ele>0.3999999999999999</ele><time>2026-05-10T05:02:46Z</time></trkpt><trkpt lat="22.28605333333333" lon="114.07640166666667"><ele>-0.19999999999999996</ele><time>2026-05-10T05:02:50Z</time></trkpt><trkpt lat="22.286068333333333" lon="114.07641666666665"><ele>-0.6</ele><time>2026-05-10T05:02:53Z</time></trkpt><trkpt lat="22.286080000000002" lon="114.07643333333333"><ele>-0.7</ele><time>2026-05-10T05:02:55Z</time></trkpt><trkpt lat="22.286073333333334" lon="114.07645333333333"><ele>-1.0</ele><time>2026-05-10T05:02:59Z</time></trkpt><trkpt lat="22.286073333333334" lon="114.07647333333334"><ele>-1.0</ele><time>2026-05-10T05:03:03Z</time></trkpt><trkpt lat="22.28608166666667" lon="114.07649666666666"><ele>-1.1</ele><time>2026-05-10T05:03:06Z</time></trkpt><trkpt lat="22.28608166666667" lon="114.07652000000002"><ele>-1.6</ele><time>2026-05-10T05:03:10Z</time></trkpt><trkpt lat="22.286068333333333" lon="114.07654166666667"><ele>-1.7</ele><time>2026-05-10T05:03:13Z</time></trkpt><trkpt lat="22.286086666666666" lon="114.07656"><ele>-1.9</ele><time>2026-05-10T05:03:19Z</time></trkpt><trkpt lat="22.2861" lon="114.07657666666667"><ele>-2.2</ele><time>2026-05-10T05:03:22Z</time></trkpt><trkpt lat="22.28611166666667" lon="114.07660666666668"><ele>-2.0</ele><time>2026-05-10T05:03:35Z</time></trkpt><trkpt lat="22.286089999999998" lon="114.07671166666665"><ele>-1.2</ele><time>2026-05-10T05:04:24Z</time></trkpt><trkpt lat="22.28614333333333" lon="114.07676833333335"><ele>-0.10000000000000009</ele><time>2026-05-10T05:05:36Z</time></trkpt><trkpt lat="22.286113333333333" lon="114.07677166666666"><ele>3.0999999999999996</ele><time>2026-05-10T05:06:50Z</time></trkpt><trkpt lat="22.2861" lon="114.07675833333333"><ele>0.7000000000000002</ele><time>2026-05-10T05:08:05Z</time></trkpt><trkpt lat="22.286071666666665" lon="114.07676666666666"><ele>0.30000000000000004</ele><time>2026-05-10T05:08:55Z</time></trkpt><trkpt lat="22.28609333333333" lon="114.07667333333332"><ele>-0.8</ele><time>2026-05-10T05:10:48Z</time></trkpt><trkpt lat="22.28610666666667" lon="114.07664166666667"><ele>-0.30000000000000004</ele><time>2026-05-10T05:11:50Z</time></trkpt><trkpt lat="22.286119999999997" lon="114.07662833333333"><ele>-0.30000000000000004</ele><time>2026-05-10T05:11:53Z</time></trkpt><trkpt lat="22.286083333333334" lon="114.07658500000001"><ele>-1.2</ele><time>2026-05-10T05:12:13Z</time></trkpt><trkpt lat="22.286085000000003" lon="114.07652833333334"><ele>-1.6</ele><time>2026-05-10T05:12:30Z</time></trkpt><trkpt lat="22.28608166666667" lon="114.07650833333334"><ele>-1.6</ele><time>2026-05-10T05:12:32Z</time></trkpt><trkpt lat="22.286070000000002" lon="114.07649333333332"><ele>-1.5</ele><time>2026-05-10T05:12:38Z</time></trkpt><trkpt lat="22.286025000000002" lon="114.07648333333333"><ele>-2.2</ele><time>2026-05-10T05:12:56Z</time></trkpt><trkpt lat="22.286005" lon="114.07649500000001"><ele>-2.3</ele><time>2026-05-10T05:12:58Z</time></trkpt><trkpt lat="22.286005" lon="114.07651833333333"><ele>-2.3</ele><time>2026-05-10T05:13:01Z</time></trkpt><trkpt lat="22.286023333333333" lon="114.07653333333334"><ele>-2.0</ele><time>2026-05-10T05:13:04Z</time></trkpt><trkpt lat="22.286043333333335" lon="114.07653166666665"><ele>-1.5</ele><time>2026-05-10T05:13:08Z</time></trkpt><trkpt lat="22.286068333333333" lon="114.07653833333333"><ele>-1.3</ele><time>2026-05-10T05:13:10Z</time></trkpt><trkpt lat="22.28606" lon="114.07655666666666"><ele>-1.0</ele><time>2026-05-10T05:13:19Z</time></trkpt><trkpt lat="22.286044999999998" lon="114.07656833333334"><ele>-1.2</ele><time>2026-05-10T05:13:21Z</time></trkpt><trkpt lat="22.286026666666665" lon="114.07657333333333"><ele>-1.5</ele><time>2026-05-10T05:13:23Z</time></trkpt><trkpt lat="22.286015" lon="114.07658833333335"><ele>-2.0</ele><time>2026-05-10T05:13:32Z</time></trkpt><trkpt lat="22.285993333333334" lon="114.07659666666665"><ele>-2.1</ele><time>2026-05-10T05:13:34Z</time></trkpt><trkpt lat="22.28597666666667" lon="114.07658833333335"><ele>-2.0</ele><time>2026-05-10T05:13:51Z</time></trkpt><trkpt lat="22.285968333333336" lon="114.07660666666668"><ele>-2.0</ele><time>2026-05-10T05:13:57Z</time></trkpt><trkpt lat="22.285978333333333" lon="114.07663"><ele>-1.9</ele><time>2026-05-10T05:14:01Z</time></trkpt><trkpt lat="22.28596333333333" lon="114.07664166666667"><ele>-2.4</ele><time>2026-05-10T05:14:09Z</time></trkpt><trkpt lat="22.285983333333334" lon="114.07663"><ele>-2.4</ele><time>2026-05-10T05:14:16Z</time></trkpt><trkpt lat="22.286001666666667" lon="114.07663499999998"><ele>-2.3</ele><time>2026-05-10T05:14:20Z</time></trkpt><trkpt lat="22.285983333333334" lon="114.07663666666667"><ele>-1.5</ele><time>2026-05-10T05:14:33Z</time></trkpt><trkpt lat="22.28597" lon="114.07665999999999"><ele>-1.9</ele><time>2026-05-10T05:14:36Z</time></trkpt><trkpt lat="22.285984999999997" lon="114.07664666666666"><ele>-1.9</ele><time>2026-05-10T05:14:49Z</time></trkpt><trkpt lat="22.285996666666666" lon="114.07662499999999"><ele>-1.1</ele><time>2026-05-10T05:14:55Z</time></trkpt><trkpt lat="22.285986666666666" lon="114.07665"><ele>-0.10000000000000009</ele><time>2026-05-10T05:15:07Z</time></trkpt><trkpt lat="22.28597166666667" lon="114.07666666666667"><ele>-0.10000000000000009</ele><time>2026-05-10T05:15:09Z</time></trkpt><trkpt lat="22.285956666666667" lon="114.07668"><ele>-0.10000000000000009</ele><time>2026-05-10T05:15:11Z</time></trkpt><trkpt lat="22.285938333333334" lon="114.076685"><ele>-0.19999999999999996</ele><time>2026-05-10T05:15:13Z</time></trkpt><trkpt lat="22.28591666666667" lon="114.07667000000001"><ele>-0.19999999999999996</ele><time>2026-05-10T05:15:17Z</time></trkpt><trkpt lat="22.285905000000003" lon="114.07659166666666"><ele>5.3</ele><time>2026-05-10T05:16:36Z</time></trkpt><trkpt lat="22.28591333333333" lon="114.07661333333333"><ele>5.4</ele><time>2026-05-10T05:16:39Z</time></trkpt><trkpt lat="22.285933333333332" lon="114.07661000000002"><ele>5.3</ele><time>2026-05-10T05:16:42Z</time></trkpt><trkpt lat="22.285843333333332" lon="114.07664333333332"><ele>7.300000000000001</ele><time>2026-05-10T05:17:22Z</time></trkpt><trkpt lat="22.28582833333333" lon="114.07666333333333"><ele>8.1</ele><time>2026-05-10T05:17:29Z</time></trkpt><trkpt lat="22.28578166666667" lon="114.076655"><ele>8.2</ele><time>2026-05-10T05:18:04Z</time></trkpt><trkpt lat="22.285761666666666" lon="114.07666499999999"><ele>8.2</ele><time>2026-05-10T05:18:07Z</time></trkpt><trkpt lat="22.28574" lon="114.07666666666667"><ele>8.2</ele><time>2026-05-10T05:18:11Z</time></trkpt><trkpt lat="22.28573333333333" lon="114.07668666666665"><ele>10.1</ele><time>2026-05-10T05:18:25Z</time></trkpt><trkpt lat="22.28572" lon="114.07667000000001"><ele>11.1</ele><time>2026-05-10T05:18:41Z</time></trkpt><trkpt lat="22.285701666666668" lon="114.07669"><ele>11.5</ele><time>2026-05-10T05:18:53Z</time></trkpt><trkpt lat="22.285684999999997" lon="114.07668166666666"><ele>12.6</ele><time>2026-05-10T05:19:02Z</time></trkpt><trkpt lat="22.285666666666664" lon="114.07667833333335"><ele>13.0</ele><time>2026-05-10T05:19:04Z</time></trkpt><trkpt lat="22.28568833333333" lon="114.07668833333334"><ele>15.3</ele><time>2026-05-10T05:19:18Z</time></trkpt><trkpt lat="22.285708333333332" lon="114.07670333333333"><ele>15.8</ele><time>2026-05-10T05:19:21Z</time></trkpt><trkpt lat="22.285723333333333" lon="114.07672166666667"><ele>15.899999999999999</ele><time>2026-05-10T05:19:25Z</time></trkpt><trkpt lat="22.285669999999996" lon="114.07675333333333"><ele>13.4</ele><time>2026-05-10T05:19:54Z</time></trkpt><trkpt lat="22.285645" lon="114.07674166666666"><ele>13.2</ele><time>2026-05-10T05:19:59Z</time></trkpt><trkpt lat="22.28563166666667" lon="114.07672833333332"><ele>13.3</ele><time>2026-05-10T05:20:04Z</time></trkpt><trkpt lat="22.28563" lon="114.07675166666668"><ele>13.0</ele><time>2026-05-10T05:20:09Z</time></trkpt><trkpt lat="22.285608333333336" lon="114.07676000000001"><ele>12.7</ele><time>2026-05-10T05:20:14Z</time></trkpt><trkpt lat="22.285645" lon="114.07677166666666"><ele>14.3</ele><time>2026-05-10T05:20:33Z</time></trkpt><trkpt lat="22.28565" lon="114.07675166666668"><ele>14.1</ele><time>2026-05-10T05:20:36Z</time></trkpt><trkpt lat="22.285668333333334" lon="114.07674333333334"><ele>13.4</ele><time>2026-05-10T05:20:41Z</time></trkpt><trkpt lat="22.285655" lon="114.07673000000001"><ele>13.2</ele><time>2026-05-10T05:20:45Z</time></trkpt><trkpt lat="22.285669999999996" lon="114.07675333333333"><ele>13.5</ele><time>2026-05-10T05:20:50Z</time></trkpt><trkpt lat="22.285624999999996" lon="114.07679333333333"><ele>15.5</ele><time>2026-05-10T05:21:13Z</time></trkpt><trkpt lat="22.285606666666663" lon="114.07677666666665"><ele>21.1</ele><time>2026-05-10T05:21:44Z</time></trkpt><trkpt lat="22.285594999999997" lon="114.07675499999999"><ele>21.7</ele><time>2026-05-10T05:21:48Z</time></trkpt><trkpt lat="22.285579999999996" lon="114.07676666666666"><ele>21.5</ele><time>2026-05-10T05:22:09Z</time></trkpt><trkpt lat="22.28557" lon="114.07679333333333"><ele>21.8</ele><time>2026-05-10T05:22:18Z</time></trkpt><trkpt lat="22.28558333333334" lon="114.07680833333333"><ele>21.8</ele><time>2026-05-10T05:22:22Z</time></trkpt><trkpt lat="22.285575" lon="114.07682666666666"><ele>22.1</ele><time>2026-05-10T05:22:25Z</time></trkpt><trkpt lat="22.28548166666667" lon="114.076805"><ele>27.9</ele><time>2026-05-10T05:24:20Z</time></trkpt><trkpt lat="22.285476666666668" lon="114.07682500000001"><ele>31.299999999999997</ele><time>2026-05-10T05:26:11Z</time></trkpt><trkpt lat="22.285458333333334" lon="114.07680166666665"><ele>36.2</ele><time>2026-05-10T05:26:33Z</time></trkpt><trkpt lat="22.285461666666667" lon="114.07678166666668"><ele>33.6</ele><time>2026-05-10T05:27:19Z</time></trkpt><trkpt lat="22.285441666666664" lon="114.07677333333335"><ele>33.5</ele><time>2026-05-10T05:27:24Z</time></trkpt><trkpt lat="22.28542333333333" lon="114.07678666666668"><ele>33.3</ele><time>2026-05-10T05:27:26Z</time></trkpt><trkpt lat="22.28540666666667" lon="114.07679666666667"><ele>33.0</ele><time>2026-05-10T05:27:29Z</time></trkpt><trkpt lat="22.285386666666668" lon="114.07680833333333"><ele>32.1</ele><time>2026-05-10T05:27:34Z</time></trkpt><trkpt lat="22.285366666666665" lon="114.07681833333332"><ele>31.799999999999997</ele><time>2026-05-10T05:27:37Z</time></trkpt><trkpt lat="22.28534833333333" lon="114.07682333333332"><ele>31.200000000000003</ele><time>2026-05-10T05:27:41Z</time></trkpt><trkpt lat="22.28540666666667" lon="114.07681499999998"><ele>30.0</ele><time>2026-05-10T05:28:13Z</time></trkpt><trkpt lat="22.285398333333333" lon="114.07679666666667"><ele>30.1</ele><time>2026-05-10T05:28:17Z</time></trkpt><trkpt lat="22.285399999999996" lon="114.076775"><ele>29.4</ele><time>2026-05-10T05:28:22Z</time></trkpt><trkpt lat="22.285426666666662" lon="114.07676000000001"><ele>28.4</ele><time>2026-05-10T05:28:30Z</time></trkpt><trkpt lat="22.285414999999997" lon="114.07680833333333"><ele>26.7</ele><time>2026-05-10T05:28:41Z</time></trkpt><trkpt lat="22.285388333333337" lon="114.07682833333335"><ele>26.2</ele><time>2026-05-10T05:28:43Z</time></trkpt><trkpt lat="22.28540666666667" lon="114.07681833333332"><ele>29.2</ele><time>2026-05-10T05:28:56Z</time></trkpt><trkpt lat="22.285425" lon="114.07680333333334"><ele>29.8</ele><time>2026-05-10T05:28:59Z</time></trkpt><trkpt lat="22.285435" lon="114.07678666666668"><ele>31.299999999999997</ele><time>2026-05-10T05:29:16Z</time></trkpt><trkpt lat="22.285456666666665" lon="114.07679333333333"><ele>32.4</ele><time>2026-05-10T05:29:24Z</time></trkpt><trkpt lat="22.285461666666667" lon="114.07681499999998"><ele>33.4</ele><time>2026-05-10T05:29:30Z</time></trkpt><trkpt lat="22.28547" lon="114.07683333333334"><ele>34.3</ele><time>2026-05-10T05:29:35Z</time></trkpt><trkpt lat="22.285488333333333" lon="114.07683833333334"><ele>36.8</ele><time>2026-05-10T05:30:01Z</time></trkpt><trkpt lat="22.285488333333333" lon="114.07686833333334"><ele>35.9</ele><time>2026-05-10T05:30:51Z</time></trkpt><trkpt lat="22.285474999999998" lon="114.07688166666667"><ele>35.4</ele><time>2026-05-10T05:30:59Z</time></trkpt><trkpt lat="22.285441666666664" lon="114.07687499999999"><ele>35.2</ele><time>2026-05-10T05:31:04Z</time></trkpt><trkpt lat="22.28534833333333" lon="114.07688833333334"><ele>30.9</ele><time>2026-05-10T05:31:37Z</time></trkpt><trkpt lat="22.285305" lon="114.07687499999999"><ele>31.700000000000003</ele><time>2026-05-10T05:31:58Z</time></trkpt><trkpt lat="22.28528833333333" lon="114.07688333333333"><ele>31.5</ele><time>2026-05-10T05:32:02Z</time></trkpt><trkpt lat="22.285273333333333" lon="114.07690833333332"><ele>31.5</ele><time>2026-05-10T05:32:06Z</time></trkpt><trkpt lat="22.285251666666667" lon="114.07691166666667"><ele>30.6</ele><time>2026-05-10T05:32:11Z</time></trkpt><trkpt lat="22.285230000000002" lon="114.07691333333332"><ele>30.0</ele><time>2026-05-10T05:32:13Z</time></trkpt><trkpt lat="22.28521" lon="114.076925"><ele>29.0</ele><time>2026-05-10T05:32:16Z</time></trkpt><trkpt lat="22.285191666666666" lon="114.07692833333334"><ele>28.1</ele><time>2026-05-10T05:32:19Z</time></trkpt><trkpt lat="22.28521166666667" lon="114.07690833333332"><ele>27.4</ele><time>2026-05-10T05:32:24Z</time></trkpt><trkpt lat="22.28521166666667" lon="114.076885"><ele>27.1</ele><time>2026-05-10T05:32:27Z</time></trkpt><trkpt lat="22.285248333333335" lon="114.07684666666667"><ele>27.4</ele><time>2026-05-10T05:32:37Z</time></trkpt><trkpt lat="22.285230000000002" lon="114.07683999999999"><ele>26.9</ele><time>2026-05-10T05:32:39Z</time></trkpt><trkpt lat="22.285223333333338" lon="114.07686166666666"><ele>26.5</ele><time>2026-05-10T05:32:44Z</time></trkpt><trkpt lat="22.285204999999998" lon="114.07687"><ele>26.6</ele><time>2026-05-10T05:32:46Z</time></trkpt><trkpt lat="22.285206666666667" lon="114.07689166666665"><ele>26.6</ele><time>2026-05-10T05:32:49Z</time></trkpt><trkpt lat="22.28521333333333" lon="114.07686666666665"><ele>26.2</ele><time>2026-05-10T05:33:04Z</time></trkpt><trkpt lat="22.285193333333336" lon="114.07686166666666"><ele>29.5</ele><time>2026-05-10T05:33:24Z</time></trkpt><trkpt lat="22.285174999999995" lon="114.07686333333335"><ele>29.4</ele><time>2026-05-10T05:33:30Z</time></trkpt><trkpt lat="22.285158333333335" lon="114.07687499999999"><ele>29.1</ele><time>2026-05-10T05:33:32Z</time></trkpt><trkpt lat="22.285171666666663" lon="114.07688833333334"><ele>29.3</ele><time>2026-05-10T05:33:35Z</time></trkpt><trkpt lat="22.285186666666664" lon="114.07691000000001"><ele>29.1</ele><time>2026-05-10T05:34:19Z</time></trkpt><trkpt lat="22.28516666666667" lon="114.07691166666667"><ele>28.9</ele><time>2026-05-10T05:34:22Z</time></trkpt><trkpt lat="22.285146666666666" lon="114.07691666666666"><ele>28.9</ele><time>2026-05-10T05:34:23Z</time></trkpt><trkpt lat="22.285126666666663" lon="114.07690333333333"><ele>28.5</ele><time>2026-05-10T05:34:26Z</time></trkpt><trkpt lat="22.285163333333337" lon="114.07691500000001"><ele>28.2</ele><time>2026-05-10T05:34:48Z</time></trkpt><trkpt lat="22.28518" lon="114.07693666666667"><ele>28.8</ele><time>2026-05-10T05:34:53Z</time></trkpt><trkpt lat="22.285159999999998" lon="114.07693166666668"><ele>28.2</ele><time>2026-05-10T05:34:58Z</time></trkpt><trkpt lat="22.285193333333336" lon="114.07692"><ele>26.0</ele><time>2026-05-10T05:35:18Z</time></trkpt><trkpt lat="22.28518166666667" lon="114.07693833333333"><ele>25.5</ele><time>2026-05-10T05:35:22Z</time></trkpt><trkpt lat="22.285163333333337" lon="114.07695166666666"><ele>24.7</ele><time>2026-05-10T05:35:26Z</time></trkpt><trkpt lat="22.285131666666665" lon="114.07694666666666"><ele>23.1</ele><time>2026-05-10T05:35:36Z</time></trkpt><trkpt lat="22.285115000000005" lon="114.07696333333334"><ele>23.1</ele><time>2026-05-10T05:35:38Z</time></trkpt><trkpt lat="22.285098333333334" lon="114.07697666666667"><ele>22.4</ele><time>2026-05-10T05:35:42Z</time></trkpt><trkpt lat="22.28507833333333" lon="114.07698166666665"><ele>21.5</ele><time>2026-05-10T05:35:48Z</time></trkpt><trkpt lat="22.285071666666667" lon="114.07696"><ele>20.5</ele><time>2026-05-10T05:35:53Z</time></trkpt><trkpt lat="22.285055000000003" lon="114.07694333333332"><ele>19.3</ele><time>2026-05-10T05:35:59Z</time></trkpt><trkpt lat="22.28503333333333" lon="114.07694500000001"><ele>18.7</ele><time>2026-05-10T05:36:02Z</time></trkpt><trkpt lat="22.285013333333335" lon="114.07695"><ele>17.8</ele><time>2026-05-10T05:36:07Z</time></trkpt><trkpt lat="22.284995000000002" lon="114.07695833333334"><ele>17.5</ele><time>2026-05-10T05:36:13Z</time></trkpt><trkpt lat="22.284971666666667" lon="114.07696166666668"><ele>17.4</ele><time>2026-05-10T05:36:16Z</time></trkpt><trkpt lat="22.284953333333338" lon="114.07696499999999"><ele>17.1</ele><time>2026-05-10T05:36:25Z</time></trkpt><trkpt lat="22.284969999999998" lon="114.07695"><ele>16.8</ele><time>2026-05-10T05:36:30Z</time></trkpt><trkpt lat="22.28498666666667" lon="114.07697000000002"><ele>16.8</ele><time>2026-05-10T05:36:33Z</time></trkpt><trkpt lat="22.284993333333333" lon="114.07698833333333"><ele>16.5</ele><time>2026-05-10T05:36:42Z</time></trkpt><trkpt lat="22.285010000000003" lon="114.07700500000001"><ele>15.7</ele><time>2026-05-10T05:36:59Z</time></trkpt><trkpt lat="22.284991666666663" lon="114.07701333333334"><ele>15.5</ele><time>2026-05-10T05:37:18Z</time></trkpt><trkpt lat="22.284975" lon="114.07703166666667"><ele>15.3</ele><time>2026-05-10T05:37:20Z</time></trkpt><trkpt lat="22.284950000000002" lon="114.07702833333333"><ele>15.2</ele><time>2026-05-10T05:37:23Z</time></trkpt><trkpt lat="22.28492833333333" lon="114.07703500000001"><ele>15.399999999999999</ele><time>2026-05-10T05:37:26Z</time></trkpt><trkpt lat="22.284946666666663" lon="114.07702666666667"><ele>15.8</ele><time>2026-05-10T05:37:30Z</time></trkpt><trkpt lat="22.284963333333334" lon="114.07704166666666"><ele>15.8</ele><time>2026-05-10T05:37:33Z</time></trkpt><trkpt lat="22.284981666666667" lon="114.07700500000001"><ele>19.3</ele><time>2026-05-10T05:37:41Z</time></trkpt><trkpt lat="22.285006666666664" lon="114.07699833333332"><ele>21.0</ele><time>2026-05-10T05:37:43Z</time></trkpt><trkpt lat="22.28500166666667" lon="114.07697166666667"><ele>24.5</ele><time>2026-05-10T05:38:03Z</time></trkpt><trkpt lat="22.285013333333335" lon="114.07699499999998"><ele>22.9</ele><time>2026-05-10T05:38:11Z</time></trkpt><trkpt lat="22.285035" lon="114.07700166666667"><ele>22.6</ele><time>2026-05-10T05:38:14Z</time></trkpt><trkpt lat="22.28504666666667" lon="114.07701999999999"><ele>22.9</ele><time>2026-05-10T05:38:16Z</time></trkpt><trkpt lat="22.285026666666667" lon="114.07702666666667"><ele>23.0</ele><time>2026-05-10T05:38:19Z</time></trkpt><trkpt lat="22.285" lon="114.07703500000001"><ele>23.2</ele><time>2026-05-10T05:38:21Z</time></trkpt><trkpt lat="22.284980000000004" lon="114.07703666666666"><ele>23.2</ele><time>2026-05-10T05:38:23Z</time></trkpt><trkpt lat="22.28495666666667" lon="114.07703666666666"><ele>23.4</ele><time>2026-05-10T05:38:25Z</time></trkpt><trkpt lat="22.284935000000004" lon="114.07704666666665"><ele>24.1</ele><time>2026-05-10T05:38:28Z</time></trkpt><trkpt lat="22.284946666666663" lon="114.07706166666667"><ele>25.7</ele><time>2026-05-10T05:38:35Z</time></trkpt><trkpt lat="22.284946666666663" lon="114.07704166666666"><ele>26.9</ele><time>2026-05-10T05:38:39Z</time></trkpt><trkpt lat="22.284966666666666" lon="114.07700333333332"><ele>26.9</ele><time>2026-05-10T05:38:44Z</time></trkpt><trkpt lat="22.284985" lon="114.07701333333334"><ele>26.6</ele><time>2026-05-10T05:38:47Z</time></trkpt><trkpt lat="22.284993333333333" lon="114.07703166666667"><ele>25.7</ele><time>2026-05-10T05:38:52Z</time></trkpt><trkpt lat="22.285008333333334" lon="114.07701833333334"><ele>25.2</ele><time>2026-05-10T05:38:55Z</time></trkpt><trkpt lat="22.285050000000002" lon="114.07701"><ele>24.4</ele><time>2026-05-10T05:39:01Z</time></trkpt><trkpt lat="22.28507666666667" lon="114.07701166666666"><ele>24.8</ele><time>2026-05-10T05:39:02Z</time></trkpt><trkpt lat="22.285071666666667" lon="114.076985"><ele>27.3</ele><time>2026-05-10T05:39:06Z</time></trkpt><trkpt lat="22.285050000000002" lon="114.07696666666668"><ele>27.5</ele><time>2026-05-10T05:39:09Z</time></trkpt><trkpt lat="22.28503166666667" lon="114.07696499999999"><ele>27.8</ele><time>2026-05-10T05:39:11Z</time></trkpt><trkpt lat="22.284991666666663" lon="114.07691666666666"><ele>36.2</ele><time>2026-05-10T05:39:50Z</time></trkpt><trkpt lat="22.284971666666667" lon="114.07691666666666"><ele>36.5</ele><time>2026-05-10T05:39:54Z</time></trkpt><trkpt lat="22.284951666666664" lon="114.07692333333334"><ele>36.0</ele><time>2026-05-10T05:39:56Z</time></trkpt><trkpt lat="22.284971666666667" lon="114.07691833333335"><ele>34.7</ele><time>2026-05-10T05:40:04Z</time></trkpt><trkpt lat="22.284991666666663" lon="114.07692333333334"><ele>34.2</ele><time>2026-05-10T05:40:08Z</time></trkpt><trkpt lat="22.28497333333333" lon="114.07693166666668"><ele>33.4</ele><time>2026-05-10T05:40:14Z</time></trkpt><trkpt lat="22.284953333333338" lon="114.07693333333333"><ele>33.7</ele><time>2026-05-10T05:40:17Z</time></trkpt><trkpt lat="22.284945" lon="114.07695833333334"><ele>33.5</ele><time>2026-05-10T05:40:21Z</time></trkpt><trkpt lat="22.284953333333338" lon="114.076985"><ele>33.9</ele><time>2026-05-10T05:40:25Z</time></trkpt><trkpt lat="22.28494" lon="114.07697166666667"><ele>33.2</ele><time>2026-05-10T05:40:32Z</time></trkpt><trkpt lat="22.284920000000003" lon="114.07698666666666"><ele>33.0</ele><time>2026-05-10T05:40:36Z</time></trkpt><trkpt lat="22.28488666666666" lon="114.07698333333335"><ele>34.1</ele><time>2026-05-10T05:40:58Z</time></trkpt><trkpt lat="22.284816666666664" lon="114.07692166666666"><ele>41.5</ele><time>2026-05-10T05:41:36Z</time></trkpt><trkpt lat="22.28489833333333" lon="114.07697166666667"><ele>41.8</ele><time>2026-05-10T05:43:04Z</time></trkpt><trkpt lat="22.284888333333335" lon="114.07698833333333"><ele>41.6</ele><time>2026-05-10T05:43:10Z</time></trkpt><trkpt lat="22.284855" lon="114.07700666666666"><ele>41.2</ele><time>2026-05-10T05:43:13Z</time></trkpt><trkpt lat="22.284828333333333" lon="114.07700333333332"><ele>41.1</ele><time>2026-05-10T05:43:15Z</time></trkpt><trkpt lat="22.28481" lon="114.07700500000001"><ele>40.8</ele><time>2026-05-10T05:43:17Z</time></trkpt><trkpt lat="22.284828333333333" lon="114.07701"><ele>39.9</ele><time>2026-05-10T05:43:21Z</time></trkpt><trkpt lat="22.28485333333333" lon="114.07701666666665"><ele>39.5</ele><time>2026-05-10T05:43:24Z</time></trkpt><trkpt lat="22.284903333333332" lon="114.07692833333334"><ele>43.1</ele><time>2026-05-10T05:44:31Z</time></trkpt><trkpt lat="22.284924999999998" lon="114.07692166666666"><ele>42.9</ele><time>2026-05-10T05:44:34Z</time></trkpt><trkpt lat="22.284951666666664" lon="114.07693499999999"><ele>42.7</ele><time>2026-05-10T05:44:48Z</time></trkpt><trkpt lat="22.28493" lon="114.07693833333333"><ele>42.2</ele><time>2026-05-10T05:44:53Z</time></trkpt><trkpt lat="22.284916666666664" lon="114.07695166666666"><ele>41.6</ele><time>2026-05-10T05:44:57Z</time></trkpt><trkpt lat="22.28489833333333" lon="114.07696333333334"><ele>41.4</ele><time>2026-05-10T05:44:59Z</time></trkpt><trkpt lat="22.28491166666667" lon="114.07695"><ele>44.1</ele><time>2026-05-10T05:45:11Z</time></trkpt><trkpt lat="22.284865" lon="114.07688666666667"><ele>38.9</ele><time>2026-05-10T05:47:10Z</time></trkpt><trkpt lat="22.28484" lon="114.07689"><ele>38.6</ele><time>2026-05-10T05:47:13Z</time></trkpt><trkpt lat="22.284813333333332" lon="114.076895"><ele>38.7</ele><time>2026-05-10T05:47:15Z</time></trkpt><trkpt lat="22.28482" lon="114.07687666666668"><ele>38.6</ele><time>2026-05-10T05:47:18Z</time></trkpt><trkpt lat="22.284803333333336" lon="114.07686333333335"><ele>38.0</ele><time>2026-05-10T05:47:22Z</time></trkpt><trkpt lat="22.284801666666667" lon="114.076885"><ele>37.7</ele><time>2026-05-10T05:47:28Z</time></trkpt><trkpt lat="22.284785000000003" lon="114.0769"><ele>37.4</ele><time>2026-05-10T05:47:32Z</time></trkpt><trkpt lat="22.284803333333336" lon="114.07691333333332"><ele>39.6</ele><time>2026-05-10T05:47:44Z</time></trkpt><trkpt lat="22.284828333333333" lon="114.07689833333333"><ele>41.2</ele><time>2026-05-10T05:48:18Z</time></trkpt><trkpt lat="22.28481" lon="114.07689166666665"><ele>42.5</ele><time>2026-05-10T05:48:21Z</time></trkpt><trkpt lat="22.284805" lon="114.07686333333335"><ele>46.2</ele><time>2026-05-10T05:48:37Z</time></trkpt><trkpt lat="22.284789999999997" lon="114.07684166666668"><ele>46.0</ele><time>2026-05-10T05:48:39Z</time></trkpt><trkpt lat="22.284773333333337" lon="114.07683"><ele>45.6</ele><time>2026-05-10T05:48:42Z</time></trkpt><trkpt lat="22.284753333333335" lon="114.07682000000001"><ele>45.0</ele><time>2026-05-10T05:48:47Z</time></trkpt><trkpt lat="22.28473333333333" lon="114.07681333333333"><ele>44.6</ele><time>2026-05-10T05:48:49Z</time></trkpt><trkpt lat="22.28474833333333" lon="114.07682500000001"><ele>43.7</ele><time>2026-05-10T05:48:54Z</time></trkpt><trkpt lat="22.284765" lon="114.07683333333334"><ele>43.9</ele><time>2026-05-10T05:48:57Z</time></trkpt><trkpt lat="22.284768333333332" lon="114.07685666666666"><ele>42.5</ele><time>2026-05-10T05:49:11Z</time></trkpt><trkpt lat="22.284786666666665" lon="114.07685666666666"><ele>43.8</ele><time>2026-05-10T05:49:17Z</time></trkpt><trkpt lat="22.284803333333336" lon="114.07684666666667"><ele>44.2</ele><time>2026-05-10T05:49:19Z</time></trkpt><trkpt lat="22.284830000000003" lon="114.076895"><ele>58.2</ele><time>2026-05-10T05:50:50Z</time></trkpt><trkpt lat="22.28482" lon="114.07687333333334"><ele>59.9</ele><time>2026-05-10T05:52:32Z</time></trkpt><trkpt lat="22.284826666666664" lon="114.07689333333335"><ele>60.2</ele><time>2026-05-10T05:52:36Z</time></trkpt><trkpt lat="22.284833333333335" lon="114.07691833333335"><ele>58.8</ele><time>2026-05-10T05:52:55Z</time></trkpt><trkpt lat="22.28482" lon="114.07694500000001"><ele>58.4</ele><time>2026-05-10T05:52:58Z</time></trkpt><trkpt lat="22.28479666666666" lon="114.07694000000001"><ele>58.5</ele><time>2026-05-10T05:53:03Z</time></trkpt><trkpt lat="22.28479666666666" lon="114.07696"><ele>56.5</ele><time>2026-05-10T05:53:11Z</time></trkpt><trkpt lat="22.284791666666667" lon="114.07692333333334"><ele>53.5</ele><time>2026-05-10T05:53:24Z</time></trkpt><trkpt lat="22.28481" lon="114.07690666666667"><ele>52.7</ele><time>2026-05-10T05:53:27Z</time></trkpt><trkpt lat="22.28479666666666" lon="114.07689"><ele>48.7</ele><time>2026-05-10T05:53:39Z</time></trkpt><trkpt lat="22.284768333333332" lon="114.07688000000002"><ele>46.7</ele><time>2026-05-10T05:53:53Z</time></trkpt><trkpt lat="22.284775" lon="114.07694333333332"><ele>62.3</ele><time>2026-05-10T05:54:23Z</time></trkpt><trkpt lat="22.284755000000004" lon="114.07695333333335"><ele>62.0</ele><time>2026-05-10T05:54:26Z</time></trkpt><trkpt lat="22.28474833333333" lon="114.07697333333333"><ele>61.3</ele><time>2026-05-10T05:54:32Z</time></trkpt><trkpt lat="22.284833333333335" lon="114.07695"><ele>55.0</ele><time>2026-05-10T05:55:19Z</time></trkpt><trkpt lat="22.284795" lon="114.07696666666668"><ele>49.7</ele><time>2026-05-10T05:55:57Z</time></trkpt><trkpt lat="22.284815000000002" lon="114.07696499999999"><ele>49.8</ele><time>2026-05-10T05:56:00Z</time></trkpt><trkpt lat="22.284805" lon="114.07687166666668"><ele>47.5</ele><time>2026-05-10T05:56:55Z</time></trkpt><trkpt lat="22.284795" lon="114.07689333333335"><ele>65.6</ele><time>2026-05-10T05:57:57Z</time></trkpt><trkpt lat="22.28479666666666" lon="114.07694000000001"><ele>65.2</ele><time>2026-05-10T05:58:00Z</time></trkpt><trkpt lat="22.284798333333335" lon="114.07696499999999"><ele>64.9</ele><time>2026-05-10T05:58:02Z</time></trkpt><trkpt lat="22.284775" lon="114.07697166666667"><ele>64.4</ele><time>2026-05-10T05:58:05Z</time></trkpt><trkpt lat="22.284771666666664" lon="114.07694833333335"><ele>64.0</ele><time>2026-05-10T05:58:12Z</time></trkpt><trkpt lat="22.284765" lon="114.07692999999999"><ele>63.400000000000006</ele><time>2026-05-10T05:58:14Z</time></trkpt><trkpt lat="22.28477" lon="114.07691000000001"><ele>62.0</ele><time>2026-05-10T05:58:18Z</time></trkpt><trkpt lat="22.284771666666664" lon="114.07688333333333"><ele>59.4</ele><time>2026-05-10T05:58:28Z</time></trkpt><trkpt lat="22.284788333333335" lon="114.07687"><ele>58.9</ele><time>2026-05-10T05:58:30Z</time></trkpt><trkpt lat="22.284741666666665" lon="114.07688833333334"><ele>55.0</ele><time>2026-05-10T05:59:01Z</time></trkpt><trkpt lat="22.28474833333333" lon="114.07687"><ele>54.4</ele><time>2026-05-10T05:59:05Z</time></trkpt><trkpt lat="22.284778333333332" lon="114.07686166666666"><ele>53.9</ele><time>2026-05-10T05:59:12Z</time></trkpt><trkpt lat="22.284773333333337" lon="114.07684166666668"><ele>53.0</ele><time>2026-05-10T05:59:28Z</time></trkpt><trkpt lat="22.284791666666667" lon="114.07683166666666"><ele>52.8</ele><time>2026-05-10T05:59:33Z</time></trkpt><trkpt lat="22.284798333333335" lon="114.07681"><ele>47.9</ele><time>2026-05-10T05:59:54Z</time></trkpt><trkpt lat="22.284798333333335" lon="114.07678499999999"><ele>46.8</ele><time>2026-05-10T05:59:57Z</time></trkpt><trkpt lat="22.284803333333336" lon="114.07676333333332"><ele>45.9</ele><time>2026-05-10T06:00:00Z</time></trkpt><trkpt lat="22.284789999999997" lon="114.07674999999999"><ele>44.7</ele><time>2026-05-10T06:00:07Z</time></trkpt><trkpt lat="22.284766666666663" lon="114.07675166666668"><ele>44.6</ele><time>2026-05-10T06:00:09Z</time></trkpt><trkpt lat="22.284746666666667" lon="114.07675499999999"><ele>44.4</ele><time>2026-05-10T06:00:13Z</time></trkpt><trkpt lat="22.284728333333337" lon="114.07674333333334"><ele>43.0</ele><time>2026-05-10T06:00:18Z</time></trkpt><trkpt lat="22.284743333333335" lon="114.07675499999999"><ele>53.0</ele><time>2026-05-10T06:01:37Z</time></trkpt><trkpt lat="22.284744999999997" lon="114.07678"><ele>52.2</ele><time>2026-05-10T06:01:42Z</time></trkpt><trkpt lat="22.284738333333333" lon="114.07680166666665"><ele>51.4</ele><time>2026-05-10T06:01:46Z</time></trkpt><trkpt lat="22.284728333333337" lon="114.07682000000001"><ele>50.7</ele><time>2026-05-10T06:01:51Z</time></trkpt><trkpt lat="22.284740000000003" lon="114.076835"><ele>50.4</ele><time>2026-05-10T06:01:55Z</time></trkpt><trkpt lat="22.28465833333333" lon="114.076795"><ele>47.4</ele><time>2026-05-10T06:02:57Z</time></trkpt><trkpt lat="22.284648333333333" lon="114.07681499999998"><ele>47.0</ele><time>2026-05-10T06:03:00Z</time></trkpt><trkpt lat="22.284651666666665" lon="114.076795"><ele>45.9</ele><time>2026-05-10T06:03:06Z</time></trkpt><trkpt lat="22.284650000000003" lon="114.07677"><ele>45.2</ele><time>2026-05-10T06:03:10Z</time></trkpt><trkpt lat="22.28466166666666" lon="114.07675333333333"><ele>44.9</ele><time>2026-05-10T06:03:13Z</time></trkpt><trkpt lat="22.284666666666666" lon="114.07677666666665"><ele>39.7</ele><time>2026-05-10T06:04:35Z</time></trkpt><trkpt lat="22.284653333333335" lon="114.07676166666667"><ele>38.2</ele><time>2026-05-10T06:04:46Z</time></trkpt><trkpt lat="22.284675" lon="114.076775"><ele>37.8</ele><time>2026-05-10T06:04:49Z</time></trkpt><trkpt lat="22.284681666666664" lon="114.07679333333333"><ele>37.6</ele><time>2026-05-10T06:04:51Z</time></trkpt><trkpt lat="22.284695000000003" lon="114.07680833333333"><ele>37.2</ele><time>2026-05-10T06:04:53Z</time></trkpt><trkpt lat="22.28470666666666" lon="114.07679000000002"><ele>36.4</ele><time>2026-05-10T06:04:57Z</time></trkpt><trkpt lat="22.284695000000003" lon="114.07676666666666"><ele>36.4</ele><time>2026-05-10T06:05:01Z</time></trkpt><trkpt lat="22.284668333333336" lon="114.07675333333333"><ele>39.1</ele><time>2026-05-10T06:05:03Z</time></trkpt><trkpt lat="22.284663333333334" lon="114.07671"><ele>48.1</ele><time>2026-05-10T06:05:19Z</time></trkpt><trkpt lat="22.284621666666666" lon="114.07676333333332"><ele>42.6</ele><time>2026-05-10T06:06:09Z</time></trkpt><trkpt lat="22.284605000000003" lon="114.07675333333333"><ele>42.1</ele><time>2026-05-10T06:06:12Z</time></trkpt><trkpt lat="22.284611666666667" lon="114.07678499999999"><ele>76.9</ele><time>2026-05-10T06:11:23Z</time></trkpt><trkpt lat="22.284591666666664" lon="114.076775"><ele>70.4</ele><time>2026-05-10T06:12:01Z</time></trkpt><trkpt lat="22.284593333333337" lon="114.07675166666668"><ele>69.7</ele><time>2026-05-10T06:12:03Z</time></trkpt><trkpt lat="22.284578333333336" lon="114.07673833333335"><ele>67.8</ele><time>2026-05-10T06:12:08Z</time></trkpt><trkpt lat="22.284561666666665" lon="114.07674666666665"><ele>60.8</ele><time>2026-05-10T06:12:26Z</time></trkpt><trkpt lat="22.28457166666667" lon="114.07673000000001"><ele>59.4</ele><time>2026-05-10T06:12:30Z</time></trkpt><trkpt lat="22.28459833333333" lon="114.07672333333333"><ele>58.1</ele><time>2026-05-10T06:12:33Z</time></trkpt><trkpt lat="22.284578333333336" lon="114.07673666666666"><ele>54.8</ele><time>2026-05-10T06:12:42Z</time></trkpt><trkpt lat="22.28459833333333" lon="114.07672833333332"><ele>49.7</ele><time>2026-05-10T06:12:55Z</time></trkpt><trkpt lat="22.284615" lon="114.076705"><ele>45.1</ele><time>2026-05-10T06:13:07Z</time></trkpt><trkpt lat="22.284623333333336" lon="114.07672333333333"><ele>44.5</ele><time>2026-05-10T06:13:10Z</time></trkpt><trkpt lat="22.28464333333333" lon="114.076715"><ele>43.5</ele><time>2026-05-10T06:13:14Z</time></trkpt><trkpt lat="22.284653333333335" lon="114.07669333333334"><ele>42.4</ele><time>2026-05-10T06:13:19Z</time></trkpt><trkpt lat="22.284620000000004" lon="114.07666333333333"><ele>41.0</ele><time>2026-05-10T06:13:24Z</time></trkpt><trkpt lat="22.284626666666668" lon="114.07664333333332"><ele>39.1</ele><time>2026-05-10T06:13:39Z</time></trkpt><trkpt lat="22.284608333333335" lon="114.07664166666667"><ele>39.5</ele><time>2026-05-10T06:13:45Z</time></trkpt><trkpt lat="22.28458" lon="114.07664833333335"><ele>39.8</ele><time>2026-05-10T06:13:47Z</time></trkpt><trkpt lat="22.284561666666665" lon="114.07665833333334"><ele>39.8</ele><time>2026-05-10T06:13:50Z</time></trkpt><trkpt lat="22.28455166666667" lon="114.07667833333335"><ele>39.7</ele><time>2026-05-10T06:13:54Z</time></trkpt><trkpt lat="22.284653333333335" lon="114.07665"><ele>44.1</ele><time>2026-05-10T06:15:05Z</time></trkpt><trkpt lat="22.284603333333333" lon="114.07664000000001"><ele>42.8</ele><time>2026-05-10T06:16:18Z</time></trkpt><trkpt lat="22.284585" lon="114.07663499999998"><ele>43.3</ele><time>2026-05-10T06:16:21Z</time></trkpt><trkpt lat="22.28456833333333" lon="114.07662333333334"><ele>43.9</ele><time>2026-05-10T06:16:25Z</time></trkpt><trkpt lat="22.284548333333337" lon="114.07661000000002"><ele>47.1</ele><time>2026-05-10T06:16:29Z</time></trkpt><trkpt lat="22.28445166666667" lon="114.07660666666668"><ele>69.2</ele><time>2026-05-10T06:16:56Z</time></trkpt><trkpt lat="22.28436" lon="114.07659833333334"><ele>68.9</ele><time>2026-05-10T06:18:21Z</time></trkpt><trkpt lat="22.284341666666666" lon="114.07659666666665"><ele>68.5</ele><time>2026-05-10T06:18:23Z</time></trkpt><trkpt lat="22.284323333333337" lon="114.07659666666665"><ele>68.3</ele><time>2026-05-10T06:18:25Z</time></trkpt><trkpt lat="22.28434666666667" lon="114.07661666666667"><ele>81.7</ele><time>2026-05-10T06:19:12Z</time></trkpt><trkpt lat="22.284350000000003" lon="114.07659666666665"><ele>81.9</ele><time>2026-05-10T06:19:16Z</time></trkpt><trkpt lat="22.28436166666667" lon="114.07661333333333"><ele>83.4</ele><time>2026-05-10T06:19:23Z</time></trkpt><trkpt lat="22.28431666666667" lon="114.07654333333333"><ele>71.8</ele><time>2026-05-10T06:20:53Z</time></trkpt><trkpt lat="22.284308333333335" lon="114.07651666666668"><ele>71.5</ele><time>2026-05-10T06:20:56Z</time></trkpt><trkpt lat="22.284248333333334" lon="114.07653166666665"><ele>66.3</ele><time>2026-05-10T06:21:27Z</time></trkpt><trkpt lat="22.28423" lon="114.07652166666666"><ele>65.7</ele><time>2026-05-10T06:21:29Z</time></trkpt><trkpt lat="22.28424" lon="114.07650333333335"><ele>67.0</ele><time>2026-05-10T06:21:37Z</time></trkpt><trkpt lat="22.28423666666667" lon="114.07648166666668"><ele>67.6</ele><time>2026-05-10T06:21:40Z</time></trkpt><trkpt lat="22.284243333333333" lon="114.07646000000001"><ele>69.3</ele><time>2026-05-10T06:21:44Z</time></trkpt><trkpt lat="22.284246666666665" lon="114.076435"><ele>68.3</ele><time>2026-05-10T06:21:59Z</time></trkpt><trkpt lat="22.28422333333333" lon="114.07643000000002"><ele>67.6</ele><time>2026-05-10T06:22:01Z</time></trkpt><trkpt lat="22.28422666666667" lon="114.07645166666667"><ele>67.0</ele><time>2026-05-10T06:22:04Z</time></trkpt><trkpt lat="22.284235" lon="114.07647166666666"><ele>66.0</ele><time>2026-05-10T06:22:07Z</time></trkpt><trkpt lat="22.28422833333333" lon="114.0765"><ele>64.8</ele><time>2026-05-10T06:22:11Z</time></trkpt><trkpt lat="22.284218333333335" lon="114.07651833333333"><ele>63.0</ele><time>2026-05-10T06:22:16Z</time></trkpt><trkpt lat="22.284231666666663" lon="114.07650333333335"><ele>60.0</ele><time>2026-05-10T06:22:23Z</time></trkpt><trkpt lat="22.28423" lon="114.07655333333332"><ele>54.7</ele><time>2026-05-10T06:22:48Z</time></trkpt><trkpt lat="22.28423833333333" lon="114.07651833333333"><ele>51.0</ele><time>2026-05-10T06:23:08Z</time></trkpt><trkpt lat="22.28425333333333" lon="114.076505"><ele>49.5</ele><time>2026-05-10T06:23:12Z</time></trkpt><trkpt lat="22.284261666666666" lon="114.07648666666667"><ele>47.6</ele><time>2026-05-10T06:23:18Z</time></trkpt><trkpt lat="22.284245000000002" lon="114.07647333333334"><ele>47.0</ele><time>2026-05-10T06:23:21Z</time></trkpt><trkpt lat="22.28422333333333" lon="114.07646000000001"><ele>46.0</ele><time>2026-05-10T06:23:24Z</time></trkpt><trkpt lat="22.284201666666664" lon="114.07644666666666"><ele>44.9</ele><time>2026-05-10T06:23:28Z</time></trkpt><trkpt lat="22.28419" lon="114.07642499999999"><ele>44.2</ele><time>2026-05-10T06:23:30Z</time></trkpt><trkpt lat="22.28417833333333" lon="114.07644"><ele>41.5</ele><time>2026-05-10T06:23:38Z</time></trkpt><trkpt lat="22.284156666666664" lon="114.07643000000002"><ele>40.3</ele><time>2026-05-10T06:23:43Z</time></trkpt><trkpt lat="22.28418333333333" lon="114.07643333333333"><ele>39.0</ele><time>2026-05-10T06:23:53Z</time></trkpt><trkpt lat="22.284161666666666" lon="114.076435"><ele>38.0</ele><time>2026-05-10T06:23:56Z</time></trkpt><trkpt lat="22.284131666666667" lon="114.07643666666667"><ele>37.8</ele><time>2026-05-10T06:23:58Z</time></trkpt><trkpt lat="22.284126666666666" lon="114.07645666666667"><ele>37.4</ele><time>2026-05-10T06:24:00Z</time></trkpt><trkpt lat="22.284135" lon="114.076475"><ele>35.3</ele><time>2026-05-10T06:24:08Z</time></trkpt><trkpt lat="22.28418333333333" lon="114.07649833333335"><ele>34.1</ele><time>2026-05-10T06:24:16Z</time></trkpt><trkpt lat="22.284203333333334" lon="114.07650666666665"><ele>33.9</ele><time>2026-05-10T06:24:19Z</time></trkpt><trkpt lat="22.28422333333333" lon="114.07652166666666"><ele>34.3</ele><time>2026-05-10T06:24:21Z</time></trkpt><trkpt lat="22.28424166666667" lon="114.07654666666667"><ele>34.3</ele><time>2026-05-10T06:24:23Z</time></trkpt><trkpt lat="22.284263333333335" lon="114.07654333333333"><ele>33.9</ele><time>2026-05-10T06:24:28Z</time></trkpt><trkpt lat="22.284291666666665" lon="114.07653"><ele>33.6</ele><time>2026-05-10T06:24:31Z</time></trkpt><trkpt lat="22.284308333333335" lon="114.07651166666668"><ele>33.8</ele><time>2026-05-10T06:24:33Z</time></trkpt><trkpt lat="22.28432833333333" lon="114.07649666666666"><ele>33.5</ele><time>2026-05-10T06:24:35Z</time></trkpt><trkpt lat="22.284309999999998" lon="114.07649"><ele>33.6</ele><time>2026-05-10T06:24:38Z</time></trkpt><trkpt lat="22.284291666666665" lon="114.07649333333332"><ele>34.1</ele><time>2026-05-10T06:24:42Z</time></trkpt><trkpt lat="22.284261666666666" lon="114.07653166666665"><ele>49.2</ele><time>2026-05-10T06:24:54Z</time></trkpt><trkpt lat="22.28427333333333" lon="114.07656"><ele>47.3</ele><time>2026-05-10T06:25:03Z</time></trkpt><trkpt lat="22.284288333333333" lon="114.07657833333333"><ele>46.9</ele><time>2026-05-10T06:25:04Z</time></trkpt><trkpt lat="22.284303333333334" lon="114.07659"><ele>46.5</ele><time>2026-05-10T06:25:05Z</time></trkpt><trkpt lat="22.284325" lon="114.07661166666666"><ele>45.3</ele><time>2026-05-10T06:25:07Z</time></trkpt><trkpt lat="22.284345" lon="114.07661000000002"><ele>43.5</ele><time>2026-05-10T06:25:10Z</time></trkpt><trkpt lat="22.284321666666663" lon="114.07660499999999"><ele>41.5</ele><time>2026-05-10T06:25:14Z</time></trkpt><trkpt lat="22.284311666666667" lon="114.07658500000001"><ele>41.0</ele><time>2026-05-10T06:25:16Z</time></trkpt><trkpt lat="22.28432833333333" lon="114.07657499999999"><ele>39.4</ele><time>2026-05-10T06:25:20Z</time></trkpt><trkpt lat="22.28428666666667" lon="114.07657833333333"><ele>36.9</ele><time>2026-05-10T06:25:35Z</time></trkpt><trkpt lat="22.284288333333333" lon="114.07659833333334"><ele>36.6</ele><time>2026-05-10T06:25:38Z</time></trkpt><trkpt lat="22.284294999999997" lon="114.07658"><ele>35.6</ele><time>2026-05-10T06:25:42Z</time></trkpt><trkpt lat="22.28431333333333" lon="114.07657333333333"><ele>35.3</ele><time>2026-05-10T06:25:45Z</time></trkpt><trkpt lat="22.284333333333333" lon="114.07660666666668"><ele>31.299999999999997</ele><time>2026-05-10T06:26:10Z</time></trkpt><trkpt lat="22.284311666666667" lon="114.076565"><ele>29.3</ele><time>2026-05-10T06:26:30Z</time></trkpt><trkpt lat="22.284288333333333" lon="114.07656"><ele>29.5</ele><time>2026-05-10T06:26:32Z</time></trkpt><trkpt lat="22.284308333333335" lon="114.076565"><ele>29.3</ele><time>2026-05-10T06:26:42Z</time></trkpt><trkpt lat="22.284219999999998" lon="114.07653833333333"><ele>32.7</ele><time>2026-05-10T06:27:13Z</time></trkpt><trkpt lat="22.284174999999998" lon="114.07643166666666"><ele>41.6</ele><time>2026-05-10T06:27:46Z</time></trkpt><trkpt lat="22.284200000000002" lon="114.07639499999999"><ele>42.9</ele><time>2026-05-10T06:27:58Z</time></trkpt><trkpt lat="22.284188333333336" lon="114.07637666666666"><ele>42.6</ele><time>2026-05-10T06:28:07Z</time></trkpt><trkpt lat="22.28416333333333" lon="114.07636333333333"><ele>41.7</ele><time>2026-05-10T06:28:10Z</time></trkpt><trkpt lat="22.284164999999998" lon="114.07634333333333"><ele>42.0</ele><time>2026-05-10T06:28:12Z</time></trkpt><trkpt lat="22.284176666666667" lon="114.07636166666667"><ele>42.0</ele><time>2026-05-10T06:28:14Z</time></trkpt><trkpt lat="22.28418333333333" lon="114.07638333333334"><ele>42.0</ele><time>2026-05-10T06:28:18Z</time></trkpt><trkpt lat="22.284131666666667" lon="114.07642499999999"><ele>61.2</ele><time>2026-05-10T06:29:53Z</time></trkpt><trkpt lat="22.28414666666667" lon="114.07641166666666"><ele>63.599999999999994</ele><time>2026-05-10T06:29:56Z</time></trkpt><trkpt lat="22.284164999999998" lon="114.07641166666666"><ele>64.1</ele><time>2026-05-10T06:29:59Z</time></trkpt><trkpt lat="22.28415" lon="114.07642499999999"><ele>63.8</ele><time>2026-05-10T06:30:05Z</time></trkpt><trkpt lat="22.28419" lon="114.07637500000001"><ele>71.7</ele><time>2026-05-10T06:32:43Z</time></trkpt><trkpt lat="22.28414666666667" lon="114.07635833333333"><ele>86.6</ele><time>2026-05-10T06:33:12Z</time></trkpt><trkpt lat="22.284081666666665" lon="114.07631666666666"><ele>112.5</ele><time>2026-05-10T06:38:53Z</time></trkpt><trkpt lat="22.28406166666667" lon="114.07631833333335"><ele>114.1</ele><time>2026-05-10T06:40:10Z</time></trkpt><trkpt lat="22.284119999999998" lon="114.07632"><ele>112.8</ele><time>2026-05-10T06:47:28Z</time></trkpt><trkpt lat="22.2841" lon="114.07631166666667"><ele>114.1</ele><time>2026-05-10T06:47:44Z</time></trkpt><trkpt lat="22.284096666666663" lon="114.07634666666667"><ele>113.7</ele><time>2026-05-10T06:50:23Z</time></trkpt></trkseg><trkseg><trkpt lat="22.284043333333337" lon="114.07627166666667"><ele>108.6</ele><time>2026-05-10T07:10:17Z</time></trkpt><trkpt lat="22.284023333333334" lon="114.07621499999999"><ele>109.5</ele><time>2026-05-10T07:10:33Z</time></trkpt><trkpt lat="22.284018333333332" lon="114.07619500000001"><ele>109.7</ele><time>2026-05-10T07:10:36Z</time></trkpt><trkpt lat="22.28397" lon="114.07615333333334"><ele>110.6</ele><time>2026-05-10T07:10:59Z</time></trkpt><trkpt lat="22.28396" lon="114.07613500000001"><ele>110.5</ele><time>2026-05-10T07:11:01Z</time></trkpt><trkpt lat="22.28394166666667" lon="114.07611333333334"><ele>110.3</ele><time>2026-05-10T07:11:04Z</time></trkpt><trkpt lat="22.283923333333338" lon="114.07611"><ele>109.6</ele><time>2026-05-10T07:11:16Z</time></trkpt><trkpt lat="22.28391166666667" lon="114.07608833333333"><ele>109.3</ele><time>2026-05-10T07:11:18Z</time></trkpt><trkpt lat="22.283925" lon="114.07611"><ele>108.8</ele><time>2026-05-10T07:11:23Z</time></trkpt><trkpt lat="22.28391166666667" lon="114.07609333333333"><ele>107.7</ele><time>2026-05-10T07:11:33Z</time></trkpt><trkpt lat="22.283893333333335" lon="114.07608833333333"><ele>106.9</ele><time>2026-05-10T07:11:38Z</time></trkpt><trkpt lat="22.28388166666667" lon="114.07607166666666"><ele>105.3</ele><time>2026-05-10T07:12:02Z</time></trkpt><trkpt lat="22.283875" lon="114.07605"><ele>104.8</ele><time>2026-05-10T07:12:04Z</time></trkpt><trkpt lat="22.283865" lon="114.07603333333333"><ele>104.8</ele><time>2026-05-10T07:12:06Z</time></trkpt><trkpt lat="22.283849999999997" lon="114.07601833333335"><ele>105.2</ele><time>2026-05-10T07:12:11Z</time></trkpt><trkpt lat="22.283846666666665" lon="114.07599499999999"><ele>105.2</ele><time>2026-05-10T07:12:25Z</time></trkpt><trkpt lat="22.283821666666668" lon="114.07598333333333"><ele>104.9</ele><time>2026-05-10T07:12:28Z</time></trkpt><trkpt lat="22.283808333333333" lon="114.075965"><ele>104.0</ele><time>2026-05-10T07:12:35Z</time></trkpt><trkpt lat="22.28382333333333" lon="114.07590499999999"><ele>106.4</ele><time>2026-05-10T07:13:29Z</time></trkpt><trkpt lat="22.283803333333335" lon="114.07590166666665"><ele>106.5</ele><time>2026-05-10T07:15:34Z</time></trkpt><trkpt lat="22.283821666666668" lon="114.07589166666666"><ele>106.3</ele><time>2026-05-10T07:15:44Z</time></trkpt><trkpt lat="22.283856666666665" lon="114.07580000000002"><ele>107.9</ele><time>2026-05-10T07:19:04Z</time></trkpt><trkpt lat="22.283804999999997" lon="114.07581166666665"><ele>108.1</ele><time>2026-05-10T07:19:17Z</time></trkpt><trkpt lat="22.283788333333337" lon="114.07582166666667"><ele>108.1</ele><time>2026-05-10T07:19:19Z</time></trkpt><trkpt lat="22.28378" lon="114.07584166666666"><ele>108.0</ele><time>2026-05-10T07:19:24Z</time></trkpt><trkpt lat="22.283768333333335" lon="114.07586"><ele>107.6</ele><time>2026-05-10T07:19:28Z</time></trkpt><trkpt lat="22.283709999999996" lon="114.07588499999999"><ele>105.0</ele><time>2026-05-10T07:20:31Z</time></trkpt><trkpt lat="22.283743333333337" lon="114.07584333333334"><ele>105.6</ele><time>2026-05-10T07:20:48Z</time></trkpt><trkpt lat="22.283756666666665" lon="114.07582666666667"><ele>105.6</ele><time>2026-05-10T07:20:52Z</time></trkpt><trkpt lat="22.283714999999997" lon="114.075715"><ele>103.0</ele><time>2026-05-10T07:22:46Z</time></trkpt><trkpt lat="22.28374666666667" lon="114.075605"><ele>100.9</ele><time>2026-05-10T07:25:16Z</time></trkpt><trkpt lat="22.283784999999998" lon="114.07552166666667"><ele>97.4</ele><time>2026-05-10T07:26:35Z</time></trkpt><trkpt lat="22.283799999999996" lon="114.07549666666667"><ele>93.9</ele><time>2026-05-10T07:27:11Z</time></trkpt><trkpt lat="22.28380666666667" lon="114.07547666666666"><ele>90.3</ele><time>2026-05-10T07:27:39Z</time></trkpt><trkpt lat="22.283821666666668" lon="114.07546166666667"><ele>90.1</ele><time>2026-05-10T07:27:41Z</time></trkpt><trkpt lat="22.28380666666667" lon="114.07536499999999"><ele>86.0</ele><time>2026-05-10T07:28:34Z</time></trkpt><trkpt lat="22.283786666666668" lon="114.075355"><ele>86.2</ele><time>2026-05-10T07:28:37Z</time></trkpt><trkpt lat="22.283804999999997" lon="114.07532833333335"><ele>87.0</ele><time>2026-05-10T07:28:54Z</time></trkpt><trkpt lat="22.283783333333336" lon="114.07531833333333"><ele>86.8</ele><time>2026-05-10T07:28:58Z</time></trkpt><trkpt lat="22.283754999999996" lon="114.07531166666668"><ele>86.4</ele><time>2026-05-10T07:29:06Z</time></trkpt><trkpt lat="22.28374833333333" lon="114.07528499999998"><ele>86.5</ele><time>2026-05-10T07:29:11Z</time></trkpt><trkpt lat="22.283784999999998" lon="114.07530333333334"><ele>85.9</ele><time>2026-05-10T07:29:33Z</time></trkpt><trkpt lat="22.28379" lon="114.07528333333333"><ele>85.3</ele><time>2026-05-10T07:29:39Z</time></trkpt><trkpt lat="22.28377833333333" lon="114.07530166666666"><ele>85.3</ele><time>2026-05-10T07:29:43Z</time></trkpt><trkpt lat="22.283771666666667" lon="114.07532333333332"><ele>85.1</ele><time>2026-05-10T07:29:45Z</time></trkpt><trkpt lat="22.283784999999998" lon="114.07533666666669"><ele>84.5</ele><time>2026-05-10T07:29:48Z</time></trkpt><trkpt lat="22.283769999999997" lon="114.075325"><ele>83.8</ele><time>2026-05-10T07:29:58Z</time></trkpt><trkpt lat="22.283754999999996" lon="114.07530833333334"><ele>84.3</ele><time>2026-05-10T07:30:00Z</time></trkpt><trkpt lat="22.283743333333337" lon="114.07532833333335"><ele>83.5</ele><time>2026-05-10T07:30:06Z</time></trkpt><trkpt lat="22.28374666666667" lon="114.07535833333334"><ele>83.2</ele><time>2026-05-10T07:30:09Z</time></trkpt><trkpt lat="22.283745" lon="114.07538166666667"><ele>83.0</ele><time>2026-05-10T07:30:11Z</time></trkpt><trkpt lat="22.283756666666665" lon="114.07536499999999"><ele>82.6</ele><time>2026-05-10T07:30:18Z</time></trkpt><trkpt lat="22.283751666666664" lon="114.07533833333333"><ele>83.7</ele><time>2026-05-10T07:30:25Z</time></trkpt><trkpt lat="22.283706666666664" lon="114.07532833333335"><ele>84.6</ele><time>2026-05-10T07:30:30Z</time></trkpt><trkpt lat="22.283693333333336" lon="114.07530999999999"><ele>84.7</ele><time>2026-05-10T07:30:34Z</time></trkpt><trkpt lat="22.283675000000002" lon="114.07531166666668"><ele>84.2</ele><time>2026-05-10T07:30:43Z</time></trkpt><trkpt lat="22.283676666666665" lon="114.07529166666667"><ele>84.2</ele><time>2026-05-10T07:30:45Z</time></trkpt><trkpt lat="22.283661666666664" lon="114.07532166666667"><ele>82.4</ele><time>2026-05-10T07:30:52Z</time></trkpt><trkpt lat="22.283646666666662" lon="114.07533833333333"><ele>81.4</ele><time>2026-05-10T07:30:53Z</time></trkpt><trkpt lat="22.283653333333337" lon="114.07531333333333"><ele>80.7</ele><time>2026-05-10T07:30:59Z</time></trkpt><trkpt lat="22.283668333333335" lon="114.07529000000001"><ele>80.8</ele><time>2026-05-10T07:31:01Z</time></trkpt><trkpt lat="22.283686666666668" lon="114.07527499999999"><ele>81.2</ele><time>2026-05-10T07:31:03Z</time></trkpt><trkpt lat="22.28366" lon="114.07531166666668"><ele>78.3</ele><time>2026-05-10T07:31:58Z</time></trkpt><trkpt lat="22.28366" lon="114.07533333333335"><ele>77.4</ele><time>2026-05-10T07:32:01Z</time></trkpt><trkpt lat="22.283669999999997" lon="114.07529166666667"><ele>77.0</ele><time>2026-05-10T07:32:04Z</time></trkpt><trkpt lat="22.28362666666667" lon="114.07526000000001"><ele>76.3</ele><time>2026-05-10T07:32:18Z</time></trkpt><trkpt lat="22.28361166666667" lon="114.07524666666669"><ele>76.5</ele><time>2026-05-10T07:32:21Z</time></trkpt><trkpt lat="22.283588333333334" lon="114.07525833333332"><ele>76.6</ele><time>2026-05-10T07:32:23Z</time></trkpt><trkpt lat="22.283575000000003" lon="114.07527833333333"><ele>76.8</ele><time>2026-05-10T07:32:25Z</time></trkpt><trkpt lat="22.283573333333333" lon="114.0753"><ele>76.7</ele><time>2026-05-10T07:32:28Z</time></trkpt><trkpt lat="22.28355333333333" lon="114.07532666666665"><ele>75.9</ele><time>2026-05-10T07:32:50Z</time></trkpt><trkpt lat="22.283498333333334" lon="114.07533833333333"><ele>74.1</ele><time>2026-05-10T07:33:15Z</time></trkpt><trkpt lat="22.283486666666665" lon="114.07536333333334"><ele>73.6</ele><time>2026-05-10T07:33:17Z</time></trkpt><trkpt lat="22.283466666666662" lon="114.07539666666668"><ele>72.8</ele><time>2026-05-10T07:33:20Z</time></trkpt><trkpt lat="22.283453333333334" lon="114.07542666666669"><ele>72.5</ele><time>2026-05-10T07:33:21Z</time></trkpt><trkpt lat="22.283438333333333" lon="114.07545166666665"><ele>72.0</ele><time>2026-05-10T07:33:23Z</time></trkpt><trkpt lat="22.283440000000002" lon="114.07547166666667"><ele>70.7</ele><time>2026-05-10T07:33:27Z</time></trkpt><trkpt lat="22.283444999999997" lon="114.07544666666666"><ele>69.5</ele><time>2026-05-10T07:33:34Z</time></trkpt><trkpt lat="22.283450000000002" lon="114.07542333333335"><ele>69.0</ele><time>2026-05-10T07:33:38Z</time></trkpt><trkpt lat="22.283448333333332" lon="114.07532333333332"><ele>70.4</ele><time>2026-05-10T07:33:54Z</time></trkpt><trkpt lat="22.283468333333335" lon="114.07532833333335"><ele>70.5</ele><time>2026-05-10T07:33:58Z</time></trkpt><trkpt lat="22.283486666666665" lon="114.07531666666667"><ele>70.6</ele><time>2026-05-10T07:34:01Z</time></trkpt><trkpt lat="22.283483333333333" lon="114.07528833333332"><ele>70.7</ele><time>2026-05-10T07:34:10Z</time></trkpt><trkpt lat="22.283473333333337" lon="114.07526833333334"><ele>69.9</ele><time>2026-05-10T07:34:15Z</time></trkpt><trkpt lat="22.283485000000002" lon="114.07524666666669"><ele>69.5</ele><time>2026-05-10T07:34:19Z</time></trkpt><trkpt lat="22.283495000000002" lon="114.07523"><ele>69.5</ele><time>2026-05-10T07:34:23Z</time></trkpt><trkpt lat="22.283451666666664" lon="114.07526333333333"><ele>73.3</ele><time>2026-05-10T07:35:37Z</time></trkpt><trkpt lat="22.283448333333332" lon="114.07517000000001"><ele>74.0</ele><time>2026-05-10T07:36:05Z</time></trkpt><trkpt lat="22.283486666666665" lon="114.07525"><ele>65.6</ele><time>2026-05-10T07:38:50Z</time></trkpt><trkpt lat="22.28352333333333" lon="114.07526166666666"><ele>66.4</ele><time>2026-05-10T07:39:03Z</time></trkpt><trkpt lat="22.283516666666667" lon="114.075235"><ele>66.4</ele><time>2026-05-10T07:39:30Z</time></trkpt><trkpt lat="22.283530000000003" lon="114.07525166666667"><ele>67.3</ele><time>2026-05-10T07:39:40Z</time></trkpt><trkpt lat="22.283549999999998" lon="114.07525333333334"><ele>67.3</ele><time>2026-05-10T07:39:51Z</time></trkpt><trkpt lat="22.28356666666667" lon="114.07523166666667"><ele>69.1</ele><time>2026-05-10T07:39:58Z</time></trkpt><trkpt lat="22.283561666666667" lon="114.07521166666666"><ele>69.5</ele><time>2026-05-10T07:40:01Z</time></trkpt><trkpt lat="22.28355333333333" lon="114.07524166666666"><ele>69.7</ele><time>2026-05-10T07:40:04Z</time></trkpt><trkpt lat="22.283551666666668" lon="114.07526666666666"><ele>70.1</ele><time>2026-05-10T07:40:07Z</time></trkpt><trkpt lat="22.283546666666666" lon="114.07529166666667"><ele>70.8</ele><time>2026-05-10T07:40:10Z</time></trkpt><trkpt lat="22.283541666666665" lon="114.07531499999999"><ele>71.0</ele><time>2026-05-10T07:40:12Z</time></trkpt><trkpt lat="22.28352333333333" lon="114.075335"><ele>71.5</ele><time>2026-05-10T07:40:15Z</time></trkpt><trkpt lat="22.283530000000003" lon="114.07536166666665"><ele>71.8</ele><time>2026-05-10T07:40:17Z</time></trkpt><trkpt lat="22.283555" lon="114.07534"><ele>72.5</ele><time>2026-05-10T07:40:21Z</time></trkpt><trkpt lat="22.283560000000005" lon="114.07531666666667"><ele>72.9</ele><time>2026-05-10T07:40:23Z</time></trkpt><trkpt lat="22.28352" lon="114.07532666666665"><ele>77.2</ele><time>2026-05-10T07:42:35Z</time></trkpt><trkpt lat="22.283528333333333" lon="114.07530666666668"><ele>75.9</ele><time>2026-05-10T07:43:08Z</time></trkpt><trkpt lat="22.283443333333334" lon="114.07533166666666"><ele>78.5</ele><time>2026-05-10T07:43:58Z</time></trkpt><trkpt lat="22.28334333333333" lon="114.07532833333335"><ele>75.2</ele><time>2026-05-10T07:45:09Z</time></trkpt><trkpt lat="22.28328333333333" lon="114.07525666666668"><ele>71.5</ele><time>2026-05-10T07:46:22Z</time></trkpt><trkpt lat="22.283285" lon="114.07520833333335"><ele>69.4</ele><time>2026-05-10T07:47:08Z</time></trkpt><trkpt lat="22.283200000000004" lon="114.07519499999998"><ele>62.8</ele><time>2026-05-10T07:48:36Z</time></trkpt><trkpt lat="22.283191666666667" lon="114.075175"><ele>62.5</ele><time>2026-05-10T07:48:39Z</time></trkpt><trkpt lat="22.283228333333334" lon="114.07516833333332"><ele>61.8</ele><time>2026-05-10T07:48:50Z</time></trkpt><trkpt lat="22.283228333333334" lon="114.07514833333335"><ele>61.4</ele><time>2026-05-10T07:48:54Z</time></trkpt><trkpt lat="22.28320666666667" lon="114.07513166666668"><ele>61.4</ele><time>2026-05-10T07:49:21Z</time></trkpt><trkpt lat="22.28319666666666" lon="114.07511166666667"><ele>61.1</ele><time>2026-05-10T07:49:24Z</time></trkpt><trkpt lat="22.283174999999996" lon="114.07512333333334"><ele>59.7</ele><time>2026-05-10T07:49:28Z</time></trkpt><trkpt lat="22.283181666666664" lon="114.07510499999998"><ele>58.0</ele><time>2026-05-10T07:49:34Z</time></trkpt><trkpt lat="22.283115" lon="114.07508666666666"><ele>56.0</ele><time>2026-05-10T07:51:44Z</time></trkpt><trkpt lat="22.283095000000003" lon="114.07511833333335"><ele>51.2</ele><time>2026-05-10T07:52:10Z</time></trkpt><trkpt lat="22.283075" lon="114.075125"><ele>49.6</ele><time>2026-05-10T07:52:26Z</time></trkpt><trkpt lat="22.283111666666667" lon="114.075055"><ele>46.0</ele><time>2026-05-10T07:53:08Z</time></trkpt><trkpt lat="22.283078333333332" lon="114.07504333333333"><ele>45.9</ele><time>2026-05-10T07:53:16Z</time></trkpt><trkpt lat="22.283081666666664" lon="114.07507"><ele>45.6</ele><time>2026-05-10T07:53:28Z</time></trkpt><trkpt lat="22.283093333333333" lon="114.07508666666666"><ele>45.1</ele><time>2026-05-10T07:53:32Z</time></trkpt><trkpt lat="22.283081666666664" lon="114.07510666666667"><ele>43.7</ele><time>2026-05-10T07:53:41Z</time></trkpt><trkpt lat="22.283056666666667" lon="114.07510166666667"><ele>43.3</ele><time>2026-05-10T07:54:08Z</time></trkpt><trkpt lat="22.28308" lon="114.07510166666667"><ele>43.4</ele><time>2026-05-10T07:54:12Z</time></trkpt><trkpt lat="22.283098333333335" lon="114.07510166666667"><ele>43.3</ele><time>2026-05-10T07:54:16Z</time></trkpt><trkpt lat="22.283023333333336" lon="114.075035"><ele>45.4</ele><time>2026-05-10T07:55:29Z</time></trkpt><trkpt lat="22.282931666666666" lon="114.07502666666666"><ele>42.3</ele><time>2026-05-10T07:57:45Z</time></trkpt><trkpt lat="22.282926666666672" lon="114.07506166666666"><ele>40.2</ele><time>2026-05-10T07:58:12Z</time></trkpt><trkpt lat="22.282835" lon="114.07508333333332"><ele>37.0</ele><time>2026-05-10T07:59:58Z</time></trkpt><trkpt lat="22.28280833333333" lon="114.07506"><ele>36.5</ele><time>2026-05-10T08:00:24Z</time></trkpt><trkpt lat="22.282811666666664" lon="114.07512333333334"><ele>36.1</ele><time>2026-05-10T08:00:45Z</time></trkpt><trkpt lat="22.28277333333333" lon="114.07514166666667"><ele>36.2</ele><time>2026-05-10T08:00:47Z</time></trkpt><trkpt lat="22.282754999999998" lon="114.07512999999999"><ele>36.1</ele><time>2026-05-10T08:00:49Z</time></trkpt><trkpt lat="22.28276333333333" lon="114.07511166666667"><ele>35.9</ele><time>2026-05-10T08:00:53Z</time></trkpt><trkpt lat="22.282766666666664" lon="114.07508666666666"><ele>36.2</ele><time>2026-05-10T08:00:58Z</time></trkpt><trkpt lat="22.28281" lon="114.07507333333334"><ele>34.0</ele><time>2026-05-10T08:01:21Z</time></trkpt><trkpt lat="22.28279166666667" lon="114.07505333333332"><ele>34.1</ele><time>2026-05-10T08:01:23Z</time></trkpt><trkpt lat="22.28277333333333" lon="114.07505"><ele>34.6</ele><time>2026-05-10T08:01:28Z</time></trkpt><trkpt lat="22.282780000000002" lon="114.07506833333333"><ele>34.5</ele><time>2026-05-10T08:01:37Z</time></trkpt><trkpt lat="22.28279" lon="114.07504666666667"><ele>34.5</ele><time>2026-05-10T08:01:41Z</time></trkpt><trkpt lat="22.28280833333333" lon="114.07503166666666"><ele>34.5</ele><time>2026-05-10T08:01:44Z</time></trkpt><trkpt lat="22.28280833333333" lon="114.07505166666667"><ele>34.2</ele><time>2026-05-10T08:01:53Z</time></trkpt><trkpt lat="22.282826666666665" lon="114.07505166666667"><ele>32.5</ele><time>2026-05-10T08:01:57Z</time></trkpt><trkpt lat="22.282826666666665" lon="114.07503"><ele>31.299999999999997</ele><time>2026-05-10T08:02:04Z</time></trkpt><trkpt lat="22.28282166666667" lon="114.07500666666668"><ele>31.0</ele><time>2026-05-10T08:02:08Z</time></trkpt><trkpt lat="22.282801666666668" lon="114.07498"><ele>30.4</ele><time>2026-05-10T08:02:11Z</time></trkpt><trkpt lat="22.28282166666667" lon="114.07499166666666"><ele>30.3</ele><time>2026-05-10T08:02:13Z</time></trkpt><trkpt lat="22.282823333333333" lon="114.07501333333333"><ele>30.2</ele><time>2026-05-10T08:02:17Z</time></trkpt><trkpt lat="22.28281666666667" lon="114.07505"><ele>29.7</ele><time>2026-05-10T08:02:26Z</time></trkpt><trkpt lat="22.282823333333333" lon="114.07506833333333"><ele>29.6</ele><time>2026-05-10T08:02:28Z</time></trkpt><trkpt lat="22.28283333333333" lon="114.075085"><ele>29.6</ele><time>2026-05-10T08:02:30Z</time></trkpt><trkpt lat="22.28282" lon="114.07511333333332"><ele>28.6</ele><time>2026-05-10T08:02:36Z</time></trkpt><trkpt lat="22.282814999999996" lon="114.07513333333333"><ele>27.8</ele><time>2026-05-10T08:02:41Z</time></trkpt><trkpt lat="22.28280666666667" lon="114.07510666666667"><ele>27.0</ele><time>2026-05-10T08:02:44Z</time></trkpt><trkpt lat="22.28282" lon="114.07504499999999"><ele>26.9</ele><time>2026-05-10T08:03:29Z</time></trkpt><trkpt lat="22.28281666666667" lon="114.07502500000001"><ele>27.1</ele><time>2026-05-10T08:03:32Z</time></trkpt><trkpt lat="22.282814999999996" lon="114.07499833333334"><ele>27.7</ele><time>2026-05-10T08:03:37Z</time></trkpt><trkpt lat="22.28280333333333" lon="114.07497833333333"><ele>28.0</ele><time>2026-05-10T08:03:41Z</time></trkpt><trkpt lat="22.282801666666668" lon="114.07500666666668"><ele>27.1</ele><time>2026-05-10T08:03:49Z</time></trkpt><trkpt lat="22.282796666666666" lon="114.07503166666666"><ele>26.9</ele><time>2026-05-10T08:03:51Z</time></trkpt><trkpt lat="22.282753333333336" lon="114.07502000000001"><ele>25.6</ele><time>2026-05-10T08:04:06Z</time></trkpt><trkpt lat="22.28276166666667" lon="114.07492333333333"><ele>20.5</ele><time>2026-05-10T08:04:55Z</time></trkpt><trkpt lat="22.28274333333333" lon="114.07493333333332"><ele>12.6</ele><time>2026-05-10T08:07:33Z</time></trkpt><trkpt lat="22.28276166666667" lon="114.07490666666666"><ele>9.6</ele><time>2026-05-10T08:08:44Z</time></trkpt><trkpt lat="22.282775" lon="114.07489333333334"><ele>8.9</ele><time>2026-05-10T08:09:09Z</time></trkpt><trkpt lat="22.28276333333333" lon="114.07487166666667"><ele>1.4</ele><time>2026-05-10T08:10:52Z</time></trkpt><trkpt lat="22.28272666666667" lon="114.07478166666667"><ele>0.7999999999999998</ele><time>2026-05-10T08:11:45Z</time></trkpt><trkpt lat="22.282753333333336" lon="114.07468333333333"><ele>-2.7</ele><time>2026-05-10T08:14:07Z</time></trkpt><trkpt lat="22.28276333333333" lon="114.07466333333332"><ele>-3.3</ele><time>2026-05-10T08:14:14Z</time></trkpt><trkpt lat="22.282778333333333" lon="114.07465166666667"><ele>-3.6</ele><time>2026-05-10T08:14:19Z</time></trkpt><trkpt lat="22.28280666666667" lon="114.07464499999999"><ele>-3.7</ele><time>2026-05-10T08:14:26Z</time></trkpt><trkpt lat="22.28282166666667" lon="114.07462666666667"><ele>-3.6</ele><time>2026-05-10T08:14:29Z</time></trkpt><trkpt lat="22.282835" lon="114.07461333333335"><ele>-3.4</ele><time>2026-05-10T08:14:32Z</time></trkpt><trkpt lat="22.28285166666667" lon="114.07459500000002"><ele>-3.3</ele><time>2026-05-10T08:14:37Z</time></trkpt><trkpt lat="22.282871666666665" lon="114.07459166666668"><ele>-3.4</ele><time>2026-05-10T08:14:41Z</time></trkpt><trkpt lat="22.282888333333336" lon="114.07458"><ele>-3.6</ele><time>2026-05-10T08:14:45Z</time></trkpt><trkpt lat="22.282886666666666" lon="114.07455"><ele>-4.8</ele><time>2026-05-10T08:14:52Z</time></trkpt><trkpt lat="22.282873333333335" lon="114.07452833333333"><ele>-5.1</ele><time>2026-05-10T08:14:56Z</time></trkpt><trkpt lat="22.282876666666667" lon="114.07450666666666"><ele>-5.0</ele><time>2026-05-10T08:14:59Z</time></trkpt><trkpt lat="22.282859999999996" lon="114.07448500000001"><ele>-4.7</ele><time>2026-05-10T08:15:03Z</time></trkpt><trkpt lat="22.282831666666667" lon="114.07445666666666"><ele>-1.8</ele><time>2026-05-10T08:16:04Z</time></trkpt><trkpt lat="22.282801666666668" lon="114.074455"><ele>-1.8</ele><time>2026-05-10T08:16:07Z</time></trkpt><trkpt lat="22.282781666666665" lon="114.07444333333333"><ele>-1.9</ele><time>2026-05-10T08:16:10Z</time></trkpt><trkpt lat="22.28275833333333" lon="114.07443166666665"><ele>-2.3</ele><time>2026-05-10T08:16:12Z</time></trkpt><trkpt lat="22.282784999999997" lon="114.074425"><ele>-4.4</ele><time>2026-05-10T08:16:32Z</time></trkpt><trkpt lat="22.28276166666667" lon="114.07442333333331"><ele>-4.6</ele><time>2026-05-10T08:16:45Z</time></trkpt><trkpt lat="22.28274333333333" lon="114.07441833333333"><ele>-4.3</ele><time>2026-05-10T08:16:48Z</time></trkpt><trkpt lat="22.282723333333333" lon="114.07441166666668"><ele>-5.0</ele><time>2026-05-10T08:16:52Z</time></trkpt></trkseg></trk></gpx>