<?xml version='1.0' encoding='UTF-8' ?><gpx version="1.1" creator="HikingTrailHK" xsi:schemaLocation="http://www.topografix.com/GPX/1/1 http://www.topografix.com/GPX/1/1/gpx.xsd" xmlns="http://www.topografix.com/GPX/1/1" xmlns:xsi="http://www.w3.org/2001/XMLSchema-instance"><metadata><name>大上托 @ 2016-10-8</name><desc></desc></metadata><trk><trkseg><trkpt lat="22.297024253157712" lon="114.23743127501756" /><trkpt lat="22.29683178125" lon="114.23757279638671" /><trkpt lat="22.29677978125" lon="114.23761879638671" /><trkpt lat="22.29670478125" lon="114.23767979638671" /><trkpt lat="22.29644878125" lon="114.23786079638671" /><trkpt lat="22.29612978125" lon="114.23805679638672" /><trkpt lat="22.29598078125" lon="114.23812079638672" /><trkpt lat="22.29579678125" lon="114.23814179638671" /><trkpt lat="22.29568178125" lon="114.23814179638671" /><trkpt lat="22.29558178125" lon="114.23812079638672" /><trkpt lat="22.29549178125" lon="114.23810179638672" /><trkpt lat="22.29511378125" lon="114.23800579638672" /><trkpt lat="22.29455878125" lon="114.23785779638672" /><trkpt lat="22.29444778125" lon="114.23784679638672" /><trkpt lat="22.29435578125" lon="114.23784779638672" /><trkpt lat="22.29423978125" lon="114.23788179638672" /><trkpt lat="22.29408078125" lon="114.23795879638672" /><trkpt lat="22.29377278125" lon="114.23809679638671" /><trkpt lat="22.29368278125" lon="114.23814679638672" /><trkpt lat="22.29322478125" lon="114.23838179638672" /><trkpt lat="22.29316278125" lon="114.23839579638671" /><trkpt lat="22.29311878125" lon="114.23839179638672" /><trkpt lat="22.29307978125" lon="114.23838279638672" /><trkpt lat="22.29302678125" lon="114.23834779638672" /><trkpt lat="22.29280378125" lon="114.23811879638671" /><trkpt lat="22.29270478125" lon="114.23810079638672" /><trkpt lat="22.29265978125" lon="114.23812079638672" /><trkpt lat="22.29234178125" lon="114.23844079638671" /><trkpt lat="22.29229678125" lon="114.23855579638672" /><trkpt lat="22.29239878125" lon="114.23867779638672" /><trkpt lat="22.29258978125" lon="114.23889379638672" /><trkpt lat="22.29264178125" lon="114.23901779638672" /><trkpt lat="22.29248878125" lon="114.23903679638671" /><trkpt lat="22.29194378125" lon="114.23892379638671" /><trkpt lat="22.29153078125" lon="114.23881979638672" /><trkpt lat="22.29105978125" lon="114.23861179638672" /><trkpt lat="22.29049578125" lon="114.23838479638673" /><trkpt lat="22.29052378125" lon="114.23828579638672" /><trkpt lat="22.29031378125" lon="114.23814879638672" /><trkpt lat="22.29022978125" lon="114.23811179638672" /><trkpt lat="22.29002678125" lon="114.23802379638671" /><trkpt lat="22.28978078125" lon="114.23781479638671" /><trkpt lat="22.28963778125" lon="114.23767879638672" /><trkpt lat="22.28938878125" lon="114.23755379638672" /><trkpt lat="22.28912178125" lon="114.23741179638672" /><trkpt lat="22.28887478125" lon="114.23729279638673" /><trkpt lat="22.28867078125" lon="114.23703879638671" /><trkpt lat="22.28857578125" lon="114.23697579638672" /><trkpt lat="22.28850578125" lon="114.23697179638671" /><trkpt lat="22.28835178125" lon="114.23712079638672" /><trkpt lat="22.28831278125" lon="114.23716679638672" /><trkpt lat="22.28817678125" lon="114.23731579638672" /><trkpt lat="22.28780378125" lon="114.23779379638673" /><trkpt lat="22.28746978125" lon="114.23827479638672" /><trkpt lat="22.28739378125" lon="114.23833879638671" /><trkpt lat="22.28731778125" lon="114.23837079638672" /><trkpt lat="22.28712078125" lon="114.23857779638672" /><trkpt lat="22.28698678125" lon="114.23874479638671" /><trkpt lat="22.28673978125" lon="114.23933579638671" /><trkpt lat="22.28667178125" lon="114.23937479638671" /><trkpt lat="22.28661778125" lon="114.23952779638672" /><trkpt lat="22.28657678125" lon="114.23966579638672" /><trkpt lat="22.28643978125" lon="114.23967079638672" /><trkpt lat="22.28649878125" lon="114.23969779638672" /><trkpt lat="22.28653278125" lon="114.23980679638672" /><trkpt lat="22.28657378125" lon="114.23984579638672" /><trkpt lat="22.28679978125" lon="114.23992279638672" /><trkpt lat="22.28681178125" lon="114.23996079638673" /><trkpt lat="22.28687078125" lon="114.23998979638672" /><trkpt lat="22.28688678125" lon="114.24002779638671" /><trkpt lat="22.28685178125" lon="114.24008679638672" /><trkpt lat="22.28684878125" lon="114.24013279638672" /><trkpt lat="22.28697278125" lon="114.24015079638671" /><trkpt lat="22.28703078125" lon="114.24013779638672" /><trkpt lat="22.28705178125" lon="114.24008579638672" /><trkpt lat="22.28710178125" lon="114.24007879638671" /><trkpt lat="22.28722778125" lon="114.24017479638673" /><trkpt lat="22.28727578125" lon="114.24017779638672" /><trkpt lat="22.28734278125" lon="114.24016679638672" /><trkpt lat="22.28737478125" lon="114.24019379638672" /><trkpt lat="22.28743478125" lon="114.24027679638672" /><trkpt lat="22.28738778125" lon="114.24030379638671" /><trkpt lat="22.28739078125" lon="114.24044979638671" /><trkpt lat="22.28739178125" lon="114.24051479638672" /><trkpt lat="22.28742278125" lon="114.24056179638671" /><trkpt lat="22.28745178125" lon="114.24058579638672" /><trkpt lat="22.28749978125" lon="114.24067379638672" /><trkpt lat="22.28750678125" lon="114.24073579638672" /><trkpt lat="22.28754678125" lon="114.24077879638672" /><trkpt lat="22.28755778125" lon="114.24083679638672" /><trkpt lat="22.28754878125" lon="114.24089079638672" /><trkpt lat="22.28758378125" lon="114.24102479638672" /><trkpt lat="22.28758378125" lon="114.24110979638672" /><trkpt lat="22.28752878125" lon="114.24119079638672" /><trkpt lat="22.28747978125" lon="114.24149679638671" /><trkpt lat="22.28755478125" lon="114.24161079638672" /><trkpt lat="22.28749978125" lon="114.24169479638672" /><trkpt lat="22.28740478125" lon="114.24171679638673" /><trkpt lat="22.28733078125" lon="114.24188779638672" /><trkpt lat="22.28740478125" lon="114.24194679638671" /><trkpt lat="22.28747978125" lon="114.24191479638672" /><trkpt lat="22.28728078125" lon="114.24229079638671" /><trkpt lat="22.28727578125" lon="114.24237079638672" /><trkpt lat="22.28731778125" lon="114.24242079638672" /><trkpt lat="22.28737378125" lon="114.24255579638672" /><trkpt lat="22.28746078125" lon="114.24262879638673" /><trkpt lat="22.28749078125" lon="114.24268779638672" /><trkpt lat="22.28756878125" lon="114.24278979638672" /><trkpt lat="22.28759378125" lon="114.24268779638672" /><trkpt lat="22.28767278125" lon="114.24270379638672" /><trkpt lat="22.28784178125" lon="114.24266579638672" /><trkpt lat="22.28808978125" lon="114.24273079638672" /><trkpt lat="22.28815478125" lon="114.24280579638672" /><trkpt lat="22.28829878125" lon="114.24284279638673" /><trkpt lat="22.28857678125" lon="114.24345979638672" /><trkpt lat="22.28867378125" lon="114.24360279638672" /><trkpt lat="22.28871578125" lon="114.24387279638673" /><trkpt lat="22.28874678125" lon="114.24400779638673" /><trkpt lat="22.28878878125" lon="114.24403479638671" /><trkpt lat="22.28880878125" lon="114.24407779638672" /><trkpt lat="22.28886378125" lon="114.24412879638672" /><trkpt lat="22.28888078125" lon="114.24417879638672" /><trkpt lat="22.28892078125" lon="114.24420379638671" /><trkpt lat="22.28896578125" lon="114.24421679638672" /><trkpt lat="22.28904278125" lon="114.24423779638671" /><trkpt lat="22.28912178125" lon="114.24428879638671" /><trkpt lat="22.28917378125" lon="114.24431879638672" /><trkpt lat="22.28925378125" lon="114.24431879638672" /><trkpt lat="22.28934478125" lon="114.24435079638671" /><trkpt lat="22.28948178125" lon="114.24439079638672" /><trkpt lat="22.28959378125" lon="114.24441279638671" /><trkpt lat="22.28970978125" lon="114.24448279638672" /><trkpt lat="22.28982878125" lon="114.24457579638671" /><trkpt lat="22.28988078125" lon="114.24472379638672" /><trkpt lat="22.28989578125" lon="114.24482879638671" /><trkpt lat="22.28993878125" lon="114.24493579638671" /><trkpt lat="22.28999278125" lon="114.24501879638672" /><trkpt lat="22.29007278125" lon="114.24509679638672" /><trkpt lat="22.29012178125" lon="114.24513179638672" /><trkpt lat="22.29019378125" lon="114.24512879638672" /><trkpt lat="22.29023878125" lon="114.24515279638672" /><trkpt lat="22.29028378125" lon="114.24521179638671" /><trkpt lat="22.29038978125" lon="114.24533579638671" /><trkpt lat="22.29044178125" lon="114.24543679638671" /><trkpt lat="22.29052378125" lon="114.24557979638672" /><trkpt lat="22.29059578125" lon="114.24562479638672" /><trkpt lat="22.29060578125" lon="114.24567879638671" /><trkpt lat="22.29064778125" lon="114.24572679638672" /><trkpt lat="22.29065278125" lon="114.24579679638671" /><trkpt lat="22.29069978125" lon="114.24582379638672" /><trkpt lat="22.29071278125" lon="114.24584479638672" /><trkpt lat="22.29075978125" lon="114.24586079638672" /><trkpt lat="22.29081978125" lon="114.24591479638671" /><trkpt lat="22.29087178125" lon="114.24595979638671" /><trkpt lat="22.29089678125" lon="114.24602179638671" /><trkpt lat="22.29092378125" lon="114.24605379638672" /><trkpt lat="22.29095078125" lon="114.24611879638672" /><trkpt lat="22.29099078125" lon="114.24616379638672" /><trkpt lat="22.29108478125" lon="114.24616679638672" /><trkpt lat="22.29114478125" lon="114.24613979638671" /><trkpt lat="22.29118678125" lon="114.24613979638671" /><trkpt lat="22.29121178125" lon="114.24609479638671" /><trkpt lat="22.29126378125" lon="114.24607779638671" /><trkpt lat="22.29130378125" lon="114.24608379638671" /><trkpt lat="22.29137478125" lon="114.24609179638672" /><trkpt lat="22.29141978125" lon="114.24609679638672" /><trkpt lat="22.29150978125" lon="114.24613679638672" /><trkpt lat="22.29157778125" lon="114.24619079638671" /><trkpt lat="22.29164578125" lon="114.24626779638672" /><trkpt lat="22.29182578125" lon="114.24633479638672" /><trkpt lat="22.29194778125" lon="114.24636279638672" /><trkpt lat="22.29209878125" lon="114.24639279638671" /><trkpt lat="22.29228978125" lon="114.24637979638672" /><trkpt lat="22.29207978125" lon="114.24623479638672" /><trkpt lat="22.29194978125" lon="114.24608979638671" /><trkpt lat="22.29194578125" lon="114.24601779638672" /><trkpt lat="22.29207378125" lon="114.24583979638672" /><trkpt lat="22.29213178125" lon="114.24591179638672" /><trkpt lat="22.29224178125" lon="114.24593579638672" /><trkpt lat="22.29239378125" lon="114.24590079638672" /><trkpt lat="22.29260678125" lon="114.24592979638672" /><trkpt lat="22.29290778125" lon="114.24605679638672" /><trkpt lat="22.29340678125" lon="114.24632479638672" /><trkpt lat="22.29383178125" lon="114.24662679638672" /><trkpt lat="22.29391678125" lon="114.24666679638672" /><trkpt lat="22.29398878125" lon="114.24670579638672" /><trkpt lat="22.29408178125" lon="114.24671479638671" /><trkpt lat="22.29415678125" lon="114.24668579638671" /><trkpt lat="22.29423478125" lon="114.24663279638672" /><trkpt lat="22.29430878125" lon="114.24649079638672" /><trkpt lat="22.29437278125" lon="114.24641979638672" /><trkpt lat="22.29492578125" lon="114.24602779638671" /><trkpt lat="22.29502078125" lon="114.24584979638672" /><trkpt lat="22.29508278125" lon="114.24572279638672" /><trkpt lat="22.29513778125" lon="114.24559879638672" /><trkpt lat="22.29515178125" lon="114.24547879638672" /><trkpt lat="22.29552578125" lon="114.24550479638671" /><trkpt lat="22.29570178125" lon="114.24540879638671" /><trkpt lat="22.29589278125" lon="114.24543879638672" /><trkpt lat="22.29617078125" lon="114.24571879638673" /><trkpt lat="22.296260781249998" lon="114.24570479638672" /><trkpt lat="22.29637778125" lon="114.24598679638672" /><trkpt lat="22.29639678125" lon="114.24628879638672" /><trkpt lat="22.29646278125" lon="114.24635679638672" /><trkpt lat="22.29663678125" lon="114.24645579638671" /><trkpt lat="22.29719478125" lon="114.24659579638671" /><trkpt lat="22.29721478125" lon="114.24648979638673" /><trkpt lat="22.29730578125" lon="114.24644979638671" /><trkpt lat="22.29767278125" lon="114.24656179638671" /><trkpt lat="22.29789478125" lon="114.24599279638672" /><trkpt lat="22.29872178125" lon="114.24621479638672" /><trkpt lat="22.29877478125" lon="114.24613079638672" /><trkpt lat="22.29873678125" lon="114.24592779638672" /><trkpt lat="22.29891478125" lon="114.24584379638672" /><trkpt lat="22.29899478125" lon="114.24591479638671" /><trkpt lat="22.29937078125" lon="114.24590379638671" /><trkpt lat="22.30000378125" lon="114.24602379638672" /><trkpt lat="22.30047778125" lon="114.24552079638671" /><trkpt lat="22.30065378125" lon="114.24543479638672" /><trkpt lat="22.30075078125" lon="114.24559879638672" /><trkpt lat="22.30103578125" lon="114.24561179638673" /><trkpt lat="22.30116578125" lon="114.24575779638671" /><trkpt lat="22.30126578125" lon="114.24576179638672" /><trkpt lat="22.30126578125" lon="114.24589579638672" /><trkpt lat="22.30147078125" lon="114.24612279638671" /><trkpt lat="22.30171978125" lon="114.24609579638673" /><trkpt lat="22.30168578125" lon="114.24595679638672" /><trkpt lat="22.30157978125" lon="114.24518479638672" /><trkpt lat="22.30167178125" lon="114.24514079638672" /><trkpt lat="22.30170578125" lon="114.24506079638672" /><trkpt lat="22.30176778125" lon="114.24498579638671" /><trkpt lat="22.30180278125" lon="114.24489179638672" /><trkpt lat="22.30183278125" lon="114.24472779638671" /><trkpt lat="22.30185978125" lon="114.24470679638672" /><trkpt lat="22.30189978125" lon="114.24451079638672" /><trkpt lat="22.30193378125" lon="114.24442479638672" /><trkpt lat="22.30193678125" lon="114.24435279638672" /><trkpt lat="22.30196378125" lon="114.24431579638672" /><trkpt lat="22.30194578125" lon="114.24426779638672" /><trkpt lat="22.30192178125" lon="114.24423079638672" /><trkpt lat="22.30187978125" lon="114.24420279638672" /><trkpt lat="22.30184278125" lon="114.24419079638672" /><trkpt lat="22.30182878125" lon="114.24417879638672" /><trkpt lat="22.30185978125" lon="114.24413779638672" /><trkpt lat="22.30188578125" lon="114.24410279638671" /><trkpt lat="22.30189478125" lon="114.24405879638672" /><trkpt lat="22.30190278125" lon="114.24401779638671" /><trkpt lat="22.30191778125" lon="114.24399379638672" /><trkpt lat="22.30195378125" lon="114.24396879638672" /><trkpt lat="22.30198878125" lon="114.24393879638671" /><trkpt lat="22.30203078125" lon="114.24392179638672" /><trkpt lat="22.30206278125" lon="114.24396079638672" /><trkpt lat="22.30207778125" lon="114.24397079638672" /><trkpt lat="22.30210778125" lon="114.24400079638671" /><trkpt lat="22.30216978125" lon="114.24393179638672" /><trkpt lat="22.30215578125" lon="114.24388479638672" /><trkpt lat="22.30208678125" lon="114.24379379638673" /><trkpt lat="22.30210678125" lon="114.24362179638672" /><trkpt lat="22.30237978125" lon="114.24345579638671" /><trkpt lat="22.30248378125" lon="114.24326279638672" /><trkpt lat="22.30252478125" lon="114.24326179638672" /><trkpt lat="22.30263378125" lon="114.24313879638672" /><trkpt lat="22.30274378125" lon="114.24293979638672" /><trkpt lat="22.30276778125" lon="114.24278379638672" /><trkpt lat="22.30275278125" lon="114.24259379638671" /><trkpt lat="22.30291678125" lon="114.24234679638671" /><trkpt lat="22.30293678125" lon="114.24227779638672" /><trkpt lat="22.30301578125" lon="114.24214879638672" /><trkpt lat="22.30332878125" lon="114.24214879638672" /><trkpt lat="22.30340378125" lon="114.24206779638672" /><trkpt lat="22.30344278125" lon="114.24186479638672" /><trkpt lat="22.30355278125" lon="114.24178379638671" /><trkpt lat="22.30368378125" lon="114.24175679638672" /><trkpt lat="22.30381578125" lon="114.24164979638672" /><trkpt lat="22.30387878125" lon="114.24152879638672" /><trkpt lat="22.30398478125" lon="114.24142379638671" /><trkpt lat="22.30433578125" lon="114.24144979638672" /><trkpt lat="22.30443178125" lon="114.24138579638672" /><trkpt lat="22.30461978125" lon="114.24107879638672" /><trkpt lat="22.30472378125" lon="114.24099279638672" /><trkpt lat="22.30470578125" lon="114.24076979638672" /><trkpt lat="22.30491378125" lon="114.24067079638672" /><trkpt lat="22.30497878125" lon="114.24025479638672" /><trkpt lat="22.30512978125" lon="114.24015679638671" /><trkpt lat="22.30576478125" lon="114.24030279638671" /><trkpt lat="22.30540678125" lon="114.24017079638672" /><trkpt lat="22.30556178125" lon="114.24011079638672" /><trkpt lat="22.30567478125" lon="114.24006379638672" /><trkpt lat="22.30584778125" lon="114.23991379638672" /><trkpt lat="22.30608878125" lon="114.24010579638671" /><trkpt lat="22.30625778125" lon="114.24010079638671" /><trkpt lat="22.30641778125" lon="114.23999779638672" /><trkpt lat="22.30675878125" lon="114.24006879638672" /><trkpt lat="22.30703078125" lon="114.24007779638671" /><trkpt lat="22.30730078125" lon="114.24016579638672" /><trkpt lat="22.30758778125" lon="114.24027979638672" /><trkpt lat="22.30786878125" lon="114.24039079638672" /><trkpt lat="22.30800178125" lon="114.24048979638673" /><trkpt lat="22.30822878125" lon="114.24048279638671" /><trkpt lat="22.30836278125" lon="114.24051579638672" /><trkpt lat="22.30855078125" lon="114.24052179638672" /><trkpt lat="22.30862978125" lon="114.24060979638672" /><trkpt lat="22.30905778125" lon="114.24100679638671" /><trkpt lat="22.30905778125" lon="114.24134279638672" /><trkpt lat="22.30917478125" lon="114.24179679638672" /><trkpt lat="22.30971178125" lon="114.24184779638672" /><trkpt lat="22.30997978125" lon="114.24189379638672" /><trkpt lat="22.31003278125" lon="114.24188379638672" /><trkpt lat="22.31049878125" lon="114.24186279638671" /><trkpt lat="22.31066078125" lon="114.24199479638672" /><trkpt lat="22.31094078125" lon="114.24169079638672" /><trkpt lat="22.31113978125" lon="114.24161179638672" /><trkpt lat="22.31121741951067" lon="114.24166334835286" /><trkpt lat="22.31141717062519" lon="114.24188392026304" /><trkpt lat="22.31141765890908" lon="114.24188660247205" /><trkpt lat="22.31141765890908" lon="114.24189944724753" /><trkpt lat="22.311407733296804" lon="114.2419134245622" /><trkpt lat="22.31140077752255" lon="114.24191826101855" /><trkpt lat="22.311391393050087" lon="114.24192147118924" /><trkpt lat="22.31137547505206" lon="114.24192147118924" /><trkpt lat="22.31135603588013" lon="114.2418959544474" /><trkpt lat="22.31130678125" lon="114.24193979638672" /><trkpt lat="22.31149878125" lon="114.24206879638672" /><trkpt lat="22.31156078125" lon="114.24216779638672" /><trkpt lat="22.31154978125" lon="114.24233879638672" /><trkpt lat="22.31150578125" lon="114.24261979638672" /><trkpt lat="22.31155678125" lon="114.24280579638672" /><trkpt lat="22.31159378125" lon="114.24303579638672" /><trkpt lat="22.31158278125" lon="114.24328479638672" /><trkpt lat="22.31143978125" lon="114.24355879638672" /><trkpt lat="22.31138378125" lon="114.24364379638672" /><trkpt lat="22.31142478125" lon="114.24365979638672" /><trkpt lat="22.31159078125" lon="114.24391679638671" /><trkpt lat="22.31213378125" lon="114.24395979638672" /><trkpt lat="22.31249178125" lon="114.24389079638672" /><trkpt lat="22.31281978125" lon="114.24409779638673" /><trkpt lat="22.31294078125" lon="114.24449979638672" /><trkpt lat="22.31321078125" lon="114.24440579638672" /><trkpt lat="22.31345478125" lon="114.24504679638672" /><trkpt lat="22.31346278125" lon="114.24519379638672" /><trkpt lat="22.31353978125" lon="114.24544079638672" /><trkpt lat="22.31352978125" lon="114.24553779638671" /><trkpt lat="22.31355678125" lon="114.24564979638672" /><trkpt lat="22.31357478125" lon="114.24565179638672" /><trkpt lat="22.31359278125" lon="114.24564479638671" /><trkpt lat="22.31363378125" lon="114.24562979638672" /><trkpt lat="22.31367478125" lon="114.24562179638671" /><trkpt lat="22.31373278125" lon="114.24562179638671" /><trkpt lat="22.31380778125" lon="114.24561779638672" /><trkpt lat="22.31385278125" lon="114.24560879638672" /><trkpt lat="22.31388078125" lon="114.24559479638671" /><trkpt lat="22.31392878125" lon="114.24558379638673" /><trkpt lat="22.31395578125" lon="114.24558279638671" /><trkpt lat="22.31400378125" lon="114.24554879638671" /><trkpt lat="22.31405578125" lon="114.24550579638672" /><trkpt lat="22.31411678125" lon="114.24546179638672" /><trkpt lat="22.31415678125" lon="114.24544279638671" /><trkpt lat="22.31421378125" lon="114.24544479638672" /><trkpt lat="22.31428978125" lon="114.24541379638671" /><trkpt lat="22.31434978125" lon="114.24540679638672" /><trkpt lat="22.31441878125" lon="114.24539879638672" /><trkpt lat="22.31447878125" lon="114.24536279638671" /><trkpt lat="22.31452378125" lon="114.24532079638672" /><trkpt lat="22.31462678125" lon="114.24523779638672" /><trkpt lat="22.31478778125" lon="114.24517079638672" /><trkpt lat="22.31487278125" lon="114.24517379638672" /><trkpt lat="22.31492978125" lon="114.24516579638671" /><trkpt lat="22.31501378125" lon="114.24515479638671" /><trkpt lat="22.31511278125" lon="114.24503879638672" /><trkpt lat="22.31533678125" lon="114.24484079638673" /><trkpt lat="22.31550278125" lon="114.24479779638672" /><trkpt lat="22.31573078125" lon="114.24485379638672" /><trkpt lat="22.31582278125" lon="114.24490479638672" /><trkpt lat="22.31608278125" lon="114.24494079638671" /><trkpt lat="22.31610878125" lon="114.24514879638672" /><trkpt lat="22.31611478125" lon="114.24532679638672" /><trkpt lat="22.31613178125" lon="114.24542979638672" /><trkpt lat="22.31615678125" lon="114.24552179638673" /><trkpt lat="22.31619878125" lon="114.24558579638672" /><trkpt lat="22.31625078125" lon="114.24563279638672" /><trkpt lat="22.31631078125" lon="114.24566279638672" /><trkpt lat="22.31645678125" lon="114.24567779638672" /><trkpt lat="22.31651178125" lon="114.24569479638672" /><trkpt lat="22.31655678125" lon="114.24573079638672" /><trkpt lat="22.31658578125" lon="114.24578279638672" /><trkpt lat="22.31659878125" lon="114.24587579638671" /><trkpt lat="22.31662278125" lon="114.24591279638672" /><trkpt lat="22.31665578125" lon="114.24592079638671" /><trkpt lat="22.31669978125" lon="114.24591379638672" /><trkpt lat="22.31682378125" lon="114.24586779638672" /><trkpt lat="22.31687378125" lon="114.24582779638672" /><trkpt lat="22.31695278125" lon="114.24574279638672" /><trkpt lat="22.31701778125" lon="114.24569879638672" /><trkpt lat="22.31708978125" lon="114.24567179638672" /><trkpt lat="22.31730778125" lon="114.24562879638673" /><trkpt lat="22.31735578125" lon="114.24562879638673" /><trkpt lat="22.31740078125" lon="114.24563979638671" /><trkpt lat="22.31743978125" lon="114.24565879638672" /><trkpt lat="22.31747778125" lon="114.24568279638672" /><trkpt lat="22.31751578125" lon="114.24569479638672" /><trkpt lat="22.31755278125" lon="114.24569479638672" /><trkpt lat="22.31758978125" lon="114.24568479638671" /><trkpt lat="22.31773878125" lon="114.24557479638672" /><trkpt lat="22.31783478125" lon="114.24545279638672" /><trkpt lat="22.31803878125" lon="114.24525779638672" /><trkpt lat="22.31817778125" lon="114.24509279638671" /><trkpt lat="22.31824278125" lon="114.24503979638672" /><trkpt lat="22.31830978125" lon="114.24500679638672" /><trkpt lat="22.31839278125" lon="114.24498879638672" /><trkpt lat="22.31847078125" lon="114.24500379638671" /><trkpt lat="22.31853378125" lon="114.24503579638672" /><trkpt lat="22.31858478125" lon="114.24508479638672" /><trkpt lat="22.31871278125" lon="114.24526479638672" /><trkpt lat="22.31874178125" lon="114.24528779638672" /><trkpt lat="22.31877278125" lon="114.24529779638672" /><trkpt lat="22.31880578125" lon="114.24529979638672" /><trkpt lat="22.31907878125" lon="114.24526379638672" /><trkpt lat="22.31912478125" lon="114.24524679638672" /><trkpt lat="22.31916478125" lon="114.24521979638672" /><trkpt lat="22.31928278125" lon="114.24512279638672" /><trkpt lat="22.31931678125" lon="114.24507979638672" /><trkpt lat="22.31941378125" lon="114.24493879638672" /><trkpt lat="22.31945778125" lon="114.24488779638672" /><trkpt lat="22.31950978125" lon="114.24486279638671" /><trkpt lat="22.31957078125" lon="114.24485179638671" /><trkpt lat="22.31962778125" lon="114.24485679638671" /><trkpt lat="22.31967878125" lon="114.24487679638672" /><trkpt lat="22.31971978125" lon="114.24491379638673" /><trkpt lat="22.31976978125" lon="114.24497479638671" /><trkpt lat="22.31984178125" lon="114.24502779638672" /><trkpt lat="22.31994178125" lon="114.24507779638672" /><trkpt lat="22.32003478125" lon="114.24512979638672" /><trkpt lat="22.32016978125" lon="114.24522279638671" /><trkpt lat="22.32033078125" lon="114.24531879638671" /><trkpt lat="22.32044278125" lon="114.24537079638672" /><trkpt lat="22.32058478125" lon="114.24541079638672" /><trkpt lat="22.32072878125" lon="114.24542479638671" /><trkpt lat="22.32087178125" lon="114.24542579638671" /><trkpt lat="22.32146078125" lon="114.24534879638672" /><trkpt lat="22.32159078125" lon="114.24534379638672" /><trkpt lat="22.32169578125" lon="114.24536279638671" /><trkpt lat="22.32177078125" lon="114.24539279638672" /><trkpt lat="22.32186378125" lon="114.24545279638672" /><trkpt lat="22.32195878125" lon="114.24553479638672" /><trkpt lat="22.32203078125" lon="114.24562679638672" /><trkpt lat="22.32207978125" lon="114.24572479638672" /><trkpt lat="22.32210078125" lon="114.24585779638672" /><trkpt lat="22.32226578125" lon="114.24581879638671" /><trkpt lat="22.32248278125" lon="114.24582379638672" /><trkpt lat="22.32278478125" lon="114.24588379638672" /><trkpt lat="22.32297178125" lon="114.24597579638672" /><trkpt lat="22.32313278125" lon="114.24605279638672" /><trkpt lat="22.32323678125" lon="114.24606679638671" /><trkpt lat="22.32332078125" lon="114.24601879638672" /><trkpt lat="22.32338278125" lon="114.24591879638672" /><trkpt lat="22.32345278125" lon="114.24578779638672" /><trkpt lat="22.32350678125" lon="114.24570979638672" /><trkpt lat="22.32399878125" lon="114.24558679638672" /><trkpt lat="22.32415978125" lon="114.24555979638671" /><trkpt lat="22.32430378125" lon="114.24548679638671" /><trkpt lat="22.32440278125" lon="114.24537479638671" /><trkpt lat="22.32448478125" lon="114.24532379638671" /><trkpt lat="22.32459178125" lon="114.24535579638672" /><trkpt lat="22.32475278125" lon="114.24540679638672" /><trkpt lat="22.32498478125" lon="114.24542079638672" /><trkpt lat="22.32524278125" lon="114.24541479638673" /><trkpt lat="22.32546478125" lon="114.24545479638672" /><trkpt lat="22.32564578125" lon="114.24552179638673" /><trkpt lat="22.32576978125" lon="114.24555979638671" /><trkpt lat="22.32590578125" lon="114.24557079638672" /><trkpt lat="22.32609578125" lon="114.24565279638672" /><trkpt lat="22.32627378125" lon="114.24574479638672" /><trkpt lat="22.32640478125" lon="114.24584079638672" /><trkpt lat="22.32650678125" lon="114.24587379638672" /><trkpt lat="22.32664378125" lon="114.24585179638672" /><trkpt lat="22.32667378125" lon="114.24572479638672" /><trkpt lat="22.32672178125" lon="114.24562079638672" /><trkpt lat="22.32669778125" lon="114.24553679638672" /><trkpt lat="22.32651078125" lon="114.24529379638672" /><trkpt lat="22.32650778125" lon="114.24523779638672" /><trkpt lat="22.32637478125" lon="114.24513079638672" /><trkpt lat="22.32633378125" lon="114.24505279638672" /><trkpt lat="22.32625278125" lon="114.24502479638672" /><trkpt lat="22.32616278125" lon="114.24488979638672" /><trkpt lat="22.32606378125" lon="114.24481479638672" /><trkpt lat="22.32597778125" lon="114.24470979638672" /><trkpt lat="22.32590678125" lon="114.24466879638672" /><trkpt lat="22.32588778125" lon="114.24456879638672" /><trkpt lat="22.32590878125" lon="114.24448379638672" /><trkpt lat="22.32587678125" lon="114.24430779638672" /><trkpt lat="22.32584078125" lon="114.24422379638672" /><trkpt lat="22.32577478125" lon="114.24415679638672" /><trkpt lat="22.32569678125" lon="114.24411879638672" /><trkpt lat="22.32557678125" lon="114.24399279638672" /><trkpt lat="22.32557978125" lon="114.24388879638671" /><trkpt lat="22.32562378125" lon="114.24381279638672" /><trkpt lat="22.32565478125" lon="114.24372979638672" /><trkpt lat="22.32565578125" lon="114.24364579638672" /><trkpt lat="22.32559178125" lon="114.24360179638671" /><trkpt lat="22.32556078125" lon="114.24351679638671" /><trkpt lat="22.32556478125" lon="114.24341879638672" /><trkpt lat="22.32557978125" lon="114.24333779638673" /><trkpt lat="22.32554378125" lon="114.24325979638672" /><trkpt lat="22.32550778125" lon="114.24308379638671" /><trkpt lat="22.32542078125" lon="114.24299679638672" /><trkpt lat="22.32535978125" lon="114.24286879638672" /><trkpt lat="22.32529278125" lon="114.24281479638672" /><trkpt lat="22.32526478125" lon="114.24265179638672" /><trkpt lat="22.32524178125" lon="114.24256379638672" /><trkpt lat="22.32519478125" lon="114.24237779638672" /><trkpt lat="22.32507478125" lon="114.24223879638672" /><trkpt lat="22.32493578125" lon="114.24217779638671" /><trkpt lat="22.32488378125" lon="114.24209979638673" /><trkpt lat="22.32494378125" lon="114.24203379638672" /><trkpt lat="22.32495078125" lon="114.24195279638671" /><trkpt lat="22.32497278125" lon="114.24186779638671" /><trkpt lat="22.32497578125" lon="114.24159379638672" /><trkpt lat="22.32490778125" lon="114.24151579638672" /><trkpt lat="22.32490378125" lon="114.24142579638672" /><trkpt lat="22.32487778125" lon="114.24135179638672" /><trkpt lat="22.324835781250002" lon="114.24129379638671" /><trkpt lat="22.32480678125" lon="114.24118579638672" /><trkpt lat="22.32484178125" lon="114.24110279638671" /><trkpt lat="22.32485078125" lon="114.24101879638673" /><trkpt lat="22.32488378125" lon="114.24092579638672" /><trkpt lat="22.32493378125" lon="114.24088979638672" /><trkpt lat="22.32499478125" lon="114.24081279638672" /><trkpt lat="22.32505778125" lon="114.24064579638672" /><trkpt lat="22.32502878125" lon="114.24048079638672" /><trkpt lat="22.32502278125" lon="114.24037479638672" /><trkpt lat="22.32496978125" lon="114.24031079638672" /><trkpt lat="22.32495378125" lon="114.24021879638671" /><trkpt lat="22.32497478125" lon="114.24013179638672" /><trkpt lat="22.32498778125" lon="114.24001679638671" /><trkpt lat="22.32498378125" lon="114.23993479638672" /><trkpt lat="22.32506378125" lon="114.23966979638672" /><trkpt lat="22.32505978125" lon="114.23957279638672" /><trkpt lat="22.32499578125" lon="114.23952679638671" /><trkpt lat="22.32494978125" lon="114.23940679638672" /><trkpt lat="22.32489678125" lon="114.23923179638672" /><trkpt lat="22.32497278125" lon="114.23909279638671" /><trkpt lat="22.32503078125" lon="114.23903679638671" /><trkpt lat="22.32508578125" lon="114.23896379638671" /><trkpt lat="22.32510278125" lon="114.23886579638672" /><trkpt lat="22.32513778125" lon="114.23876679638671" /><trkpt lat="22.32517278125" lon="114.23871279638672" /><trkpt lat="22.32520578125" lon="114.23861679638672" /><trkpt lat="22.325267781249998" lon="114.23856279638672" /><trkpt lat="22.32534578125" lon="114.23852579638672" /><trkpt lat="22.32541178125" lon="114.23847179638672" /><trkpt lat="22.32547778125" lon="114.23840279638672" /><trkpt lat="22.32550978125" lon="114.23831779638672" /><trkpt lat="22.32557678125" lon="114.23824979638673" /><trkpt lat="22.32563378125" lon="114.23817679638672" /><trkpt lat="22.32569978125" lon="114.23812379638672" /><trkpt lat="22.32577978125" lon="114.23809379638672" /><trkpt lat="22.32584178125" lon="114.23801379638672" /><trkpt lat="22.32592278125" lon="114.23798079638672" /><trkpt lat="22.32608278125" lon="114.23794279638672" /><trkpt lat="22.32615478125" lon="114.23790079638673" /><trkpt lat="22.32632478125" lon="114.23788379638673" /><trkpt lat="22.32641178125" lon="114.23786779638672" /><trkpt lat="22.32659078125" lon="114.23785179638672" /><trkpt lat="22.32674278125" lon="114.23774979638672" /><trkpt lat="22.32691578125" lon="114.23767579638672" /><trkpt lat="22.32697678125" lon="114.23762479638673" /><trkpt lat="22.32703678125" lon="114.23753979638671" /><trkpt lat="22.32710978125" lon="114.23749679638672" /><trkpt lat="22.32719478125" lon="114.23746579638672" /><trkpt lat="22.32728278125" lon="114.23745379638672" /><trkpt lat="22.32736678125" lon="114.23745079638672" /><trkpt lat="22.32744878125" lon="114.23741779638672" /><trkpt lat="22.32750678125" lon="114.23735479638673" /><trkpt lat="22.32777578125" lon="114.23724379638672" /><trkpt lat="22.32783178125" lon="114.23717679638672" /><trkpt lat="22.32790078125" lon="114.23713679638672" /><trkpt lat="22.32796978125" lon="114.23708179638672" /><trkpt lat="22.32803178125" lon="114.23700179638672" /><trkpt lat="22.32808478125" lon="114.23691779638672" /><trkpt lat="22.32826678125" lon="114.23671379638672" /><trkpt lat="22.32829278125" lon="114.23663379638671" /><trkpt lat="22.32834478125" lon="114.23656479638672" /><trkpt lat="22.32839978125" lon="114.23638679638672" /><trkpt lat="22.32841278125" lon="114.23629879638672" /><trkpt lat="22.32846178125" lon="114.23621879638672" /><trkpt lat="22.32850278125" lon="114.23613679638672" /><trkpt lat="22.32857378125" lon="114.23604579638672" /><trkpt lat="22.32858878125" lon="114.23595079638672" /><trkpt lat="22.32857778125" lon="114.23588479638671" /><trkpt lat="22.32887878125" lon="114.23598179638672" /><trkpt lat="22.32901978125" lon="114.23597379638672" /><trkpt lat="22.32911178125" lon="114.23595279638671" /><trkpt lat="22.32919778125" lon="114.23595279638671" /><trkpt lat="22.32928678125" lon="114.23592779638672" /><trkpt lat="22.32934878125" lon="114.23587079638672" /><trkpt lat="22.32949378125" lon="114.23577579638672" /><trkpt lat="22.32957278125" lon="114.23578979638671" /><trkpt lat="22.32971878125" lon="114.23589979638672" /><trkpt lat="22.32979278125" lon="114.23592179638672" /><trkpt lat="22.32985978125" lon="114.23596079638672" /><trkpt lat="22.33006178125" lon="114.23594379638672" /><trkpt lat="22.33013278125" lon="114.23596479638672" /><trkpt lat="22.33023878125" lon="114.23597279638672" /><trkpt lat="22.33033378125" lon="114.23595379638672" /><trkpt lat="22.33050278125" lon="114.23597279638672" /><trkpt lat="22.33053778125" lon="114.23614179638672" /><trkpt lat="22.33061178125" lon="114.23619579638672" /><trkpt lat="22.33066278125" lon="114.23637379638672" /><trkpt lat="22.33073978125" lon="114.23642179638672" /><trkpt lat="22.33083278125" lon="114.23644579638672" /><trkpt lat="22.33097778125" lon="114.23655679638672" /><trkpt lat="22.33105978125" lon="114.23660879638672" /><trkpt lat="22.33112678125" lon="114.23667479638672" /><trkpt lat="22.33119278125" lon="114.23675379638672" /><trkpt lat="22.33122978125" lon="114.23682279638672" /><trkpt lat="22.33135478125" lon="114.23697279638672" /><trkpt lat="22.33144378125" lon="114.23698579638672" /><trkpt lat="22.33151778125" lon="114.23702279638673" /><trkpt lat="22.33159978125" lon="114.23704679638672" /><trkpt lat="22.33167278125" lon="114.23699479638672" /><trkpt lat="22.33168778125" lon="114.23688579638672" /><trkpt lat="22.33172578125" lon="114.23678979638672" /><trkpt lat="22.33175178125" lon="114.23669879638672" /><trkpt lat="22.33176978125" lon="114.23659779638672" /><trkpt lat="22.33179578125" lon="114.23650479638673" /><trkpt lat="22.33181678125" lon="114.23640079638672" /><trkpt lat="22.33179978125" lon="114.23629379638672" /><trkpt lat="22.33183578125" lon="114.23620279638672" /><trkpt lat="22.33185878125" lon="114.23610479638671" /><trkpt lat="22.33186678125" lon="114.23600779638672" /><trkpt lat="22.33191678125" lon="114.23587979638671" /><trkpt lat="22.33279378125" lon="114.23586379638672" /><trkpt lat="22.33295678125" lon="114.23582979638672" /><trkpt lat="22.33308978125" lon="114.23582079638672" /><trkpt lat="22.33318378125" lon="114.23588079638672" /><trkpt lat="22.33328378125" lon="114.23601379638671" /><trkpt lat="22.33334678125" lon="114.23623879638671" /><trkpt lat="22.33343178125" lon="114.23643579638671" /><trkpt lat="22.33350278125" lon="114.23636979638673" /><trkpt lat="22.33366978125" lon="114.23680779638671" /><trkpt lat="22.33379978125" lon="114.23716079638672" /><trkpt lat="22.33392778125" lon="114.23748379638671" /><trkpt lat="22.33399378125" lon="114.23755379638672" /><trkpt lat="22.33403878125" lon="114.23756379638672" /><trkpt lat="22.33408378125" lon="114.23754179638672" /><trkpt lat="22.33410478125" lon="114.23750579638671" /><trkpt lat="22.33410078125" lon="114.23739179638672" /><trkpt lat="22.33412378125" lon="114.23744979638671" /><trkpt lat="22.334160925679843" lon="114.23754398392941" /></trkseg></trk></gpx>