<?xml version='1.0' encoding='UTF-8' ?><gpx version="1.1" creator="HikingTrailHK" xsi:schemaLocation="http://www.topografix.com/GPX/1/1 http://www.topografix.com/GPX/1/1/gpx.xsd" xmlns="http://www.topografix.com/GPX/1/1" xmlns:xsi="http://www.w3.org/2001/XMLSchema-instance"><metadata><name>大帽山貓屋 @ 2023-02-04</name><desc></desc></metadata><trk><trkseg><trkpt lat="22.375295423542727" lon="114.11473234651633" /><trkpt lat="22.37534178125" lon="114.11466479638672" /><trkpt lat="22.37537778125" lon="114.11464179638672" /><trkpt lat="22.37539878125" lon="114.11466979638672" /><trkpt lat="22.37543478125" lon="114.11464879638672" /><trkpt lat="22.37595878125" lon="114.11488779638672" /><trkpt lat="22.37597978125" lon="114.11499779638672" /><trkpt lat="22.37598978125" lon="114.11506779638673" /><trkpt lat="22.37599178125" lon="114.11508879638671" /><trkpt lat="22.37599078125" lon="114.11511179638671" /><trkpt lat="22.37596878125" lon="114.11532279638672" /><trkpt lat="22.37596078125" lon="114.11537179638673" /><trkpt lat="22.37593878125" lon="114.11549179638672" /><trkpt lat="22.37593778125" lon="114.11550879638672" /><trkpt lat="22.37593878125" lon="114.11552579638672" /><trkpt lat="22.37594178125" lon="114.11554579638671" /><trkpt lat="22.37594778125" lon="114.11556579638672" /><trkpt lat="22.37595878125" lon="114.11558679638672" /><trkpt lat="22.37596978125" lon="114.11560179638671" /><trkpt lat="22.37598478125" lon="114.11561679638672" /><trkpt lat="22.37600078125" lon="114.11562779638672" /><trkpt lat="22.37625578125" lon="114.11573879638672" /><trkpt lat="22.37630578125" lon="114.11576079638672" /><trkpt lat="22.37622678125" lon="114.11613079638671" /><trkpt lat="22.37622478125" lon="114.11614779638671" /><trkpt lat="22.37622578125" lon="114.11616379638672" /><trkpt lat="22.37623078125" lon="114.11617779638672" /><trkpt lat="22.37623778125" lon="114.11618979638672" /><trkpt lat="22.37624578125" lon="114.11620079638672" /><trkpt lat="22.37638778125" lon="114.11635179638672" /><trkpt lat="22.37639878125" lon="114.11636779638673" /><trkpt lat="22.37640778125" lon="114.11638379638671" /><trkpt lat="22.37641278125" lon="114.11639879638672" /><trkpt lat="22.37641578125" lon="114.11641279638673" /><trkpt lat="22.37641778125" lon="114.11642679638672" /><trkpt lat="22.37641778125" lon="114.11644179638672" /><trkpt lat="22.37640878125" lon="114.11648079638672" /><trkpt lat="22.37640078125" lon="114.11649979638672" /><trkpt lat="22.37638978125" lon="114.11652079638672" /><trkpt lat="22.37637578125" lon="114.11654179638671" /><trkpt lat="22.37635978125" lon="114.11656379638671" /><trkpt lat="22.37634378125" lon="114.11658179638673" /><trkpt lat="22.37632378125" lon="114.11659879638673" /><trkpt lat="22.37630378125" lon="114.11661479638671" /><trkpt lat="22.37628378125" lon="114.11662979638672" /><trkpt lat="22.37623178125" lon="114.11666279638672" /><trkpt lat="22.37621078125" lon="114.11667879638672" /><trkpt lat="22.37619078125" lon="114.11669779638672" /><trkpt lat="22.37617278125" lon="114.11671579638671" /><trkpt lat="22.37616178125" lon="114.11673079638672" /><trkpt lat="22.37615478125" lon="114.11674379638671" /><trkpt lat="22.37615178125" lon="114.11675979638672" /><trkpt lat="22.37615278125" lon="114.11677579638672" /><trkpt lat="22.37615678125" lon="114.11679179638672" /><trkpt lat="22.37616078125" lon="114.11680079638671" /><trkpt lat="22.37611278125" lon="114.11684679638672" /><trkpt lat="22.37599878125" lon="114.11703379638672" /><trkpt lat="22.37605378125" lon="114.11706979638672" /><trkpt lat="22.37610178125" lon="114.11710079638672" /><trkpt lat="22.37618178125" lon="114.11698279638672" /><trkpt lat="22.37630978125" lon="114.11702079638673" /><trkpt lat="22.37629878125" lon="114.11707079638671" /><trkpt lat="22.37646178125" lon="114.11717379638672" /><trkpt lat="22.37651778125" lon="114.11716179638672" /><trkpt lat="22.37657478125" lon="114.11715479638671" /><trkpt lat="22.37661478125" lon="114.11716379638672" /><trkpt lat="22.37665378125" lon="114.11718579638672" /><trkpt lat="22.37674178125" lon="114.11726779638671" /><trkpt lat="22.37688878125" lon="114.11744479638672" /><trkpt lat="22.37694578125" lon="114.11752179638673" /><trkpt lat="22.37695878125" lon="114.11754379638671" /><trkpt lat="22.37697078125" lon="114.11756679638673" /><trkpt lat="22.37697578125" lon="114.11758779638672" /><trkpt lat="22.37697878125" lon="114.11761179638673" /><trkpt lat="22.37698178125" lon="114.11791879638672" /><trkpt lat="22.37719778125" lon="114.11792779638672" /><trkpt lat="22.37754178125" lon="114.11791879638672" /><trkpt lat="22.37759178125" lon="114.11805279638672" /><trkpt lat="22.37796078125" lon="114.11808879638671" /><trkpt lat="22.37836478125" lon="114.11812979638673" /><trkpt lat="22.37842378125" lon="114.11806979638672" /><trkpt lat="22.37847278125" lon="114.11800679638672" /><trkpt lat="22.37854178125" lon="114.11795279638672" /><trkpt lat="22.37863078125" lon="114.11786479638671" /><trkpt lat="22.37879678125" lon="114.11789979638672" /><trkpt lat="22.37888878125" lon="114.11786479638671" /><trkpt lat="22.37894478125" lon="114.11779379638672" /><trkpt lat="22.37901378125" lon="114.11771079638672" /><trkpt lat="22.37911378125" lon="114.11771079638672" /><trkpt lat="22.379227781250002" lon="114.11762179638671" /><trkpt lat="22.37932678125" lon="114.11764279638672" /><trkpt lat="22.37936978125" lon="114.11747379638672" /><trkpt lat="22.37936378125" lon="114.11734079638671" /><trkpt lat="22.37956978125" lon="114.11719279638672" /><trkpt lat="22.37967778125" lon="114.11720879638672" /><trkpt lat="22.37973478125" lon="114.11724279638672" /><trkpt lat="22.37982878125" lon="114.11738079638671" /><trkpt lat="22.37997078125" lon="114.11745179638672" /><trkpt lat="22.38007378125" lon="114.11762779638671" /><trkpt lat="22.38007678125" lon="114.11770179638673" /><trkpt lat="22.38011078125" lon="114.11770779638672" /><trkpt lat="22.38015578125" lon="114.11766179638671" /><trkpt lat="22.38030478125" lon="114.11766179638671" /><trkpt lat="22.38037278125" lon="114.11772579638672" /><trkpt lat="22.38038178125" lon="114.11779379638672" /><trkpt lat="22.38053278125" lon="114.11769879638672" /><trkpt lat="22.38062678125" lon="114.11759679638672" /><trkpt lat="22.38082978125" lon="114.11762279638671" /><trkpt lat="22.38087778125" lon="114.11762879638673" /><trkpt lat="22.38089378125" lon="114.11761979638672" /><trkpt lat="22.38090378125" lon="114.11760979638672" /><trkpt lat="22.38094078125" lon="114.11757479638672" /><trkpt lat="22.38099078125" lon="114.11759079638672" /><trkpt lat="22.38101778125" lon="114.11760679638672" /><trkpt lat="22.38106478125" lon="114.11756879638672" /><trkpt lat="22.38107778125" lon="114.11752279638672" /><trkpt lat="22.38109278125" lon="114.11750479638673" /><trkpt lat="22.38111478125" lon="114.11747979638672" /><trkpt lat="22.38113378125" lon="114.11754579638672" /><trkpt lat="22.38121778125" lon="114.11772179638672" /><trkpt lat="22.38122778125" lon="114.11776679638672" /><trkpt lat="22.38122978125" lon="114.11781479638672" /><trkpt lat="22.38122678125" lon="114.11785679638672" /><trkpt lat="22.38118078125" lon="114.11812979638673" /><trkpt lat="22.38117778125" lon="114.11818079638672" /><trkpt lat="22.38118278125" lon="114.11822279638672" /><trkpt lat="22.38119378125" lon="114.11825779638671" /><trkpt lat="22.38123478125" lon="114.11831779638672" /><trkpt lat="22.38127678125" lon="114.11836679638672" /><trkpt lat="22.38131278125" lon="114.11838279638671" /><trkpt lat="22.38138778125" lon="114.11839879638671" /><trkpt lat="22.38159978125" lon="114.11841479638672" /><trkpt lat="22.38162778125" lon="114.11842179638671" /><trkpt lat="22.38165178125" lon="114.11843379638673" /><trkpt lat="22.38166878125" lon="114.11844579638672" /><trkpt lat="22.38168978125" lon="114.11846379638672" /><trkpt lat="22.38170778125" lon="114.11848479638672" /><trkpt lat="22.38187678125" lon="114.11875879638671" /><trkpt lat="22.38188678125" lon="114.11879379638673" /><trkpt lat="22.38189178125" lon="114.11882479638672" /><trkpt lat="22.38189078125" lon="114.11886279638672" /><trkpt lat="22.38187378125" lon="114.11896679638672" /><trkpt lat="22.38187378125" lon="114.11900079638671" /><trkpt lat="22.38187578125" lon="114.11905779638671" /><trkpt lat="22.38194378125" lon="114.11946979638672" /><trkpt lat="22.38194578125" lon="114.11952979638671" /><trkpt lat="22.38194478125" lon="114.11959079638672" /><trkpt lat="22.38193278125" lon="114.11966179638672" /><trkpt lat="22.38191878125" lon="114.11972579638672" /><trkpt lat="22.38179378125" lon="114.12002879638672" /><trkpt lat="22.38177878125" lon="114.12008079638672" /><trkpt lat="22.38177478125" lon="114.12015079638672" /><trkpt lat="22.38177978125" lon="114.12020979638672" /><trkpt lat="22.38180078125" lon="114.12027879638671" /><trkpt lat="22.38184678125" lon="114.12034779638672" /><trkpt lat="22.38192178125" lon="114.12044479638672" /><trkpt lat="22.38200278125" lon="114.12052979638672" /><trkpt lat="22.38208178125" lon="114.12059779638672" /><trkpt lat="22.38216378125" lon="114.12049279638671" /><trkpt lat="22.38216778125" lon="114.12048179638671" /><trkpt lat="22.38217078125" lon="114.12046379638672" /><trkpt lat="22.38214778125" lon="114.12039979638672" /><trkpt lat="22.38224478125" lon="114.12001479638671" /><trkpt lat="22.38255078125" lon="114.11967179638673" /><trkpt lat="22.38261178125" lon="114.11945579638672" /><trkpt lat="22.38301678125" lon="114.11929179638672" /><trkpt lat="22.38309778125" lon="114.11920879638672" /><trkpt lat="22.38338778125" lon="114.11906579638672" /><trkpt lat="22.38351878125" lon="114.11884379638671" /><trkpt lat="22.38360678125" lon="114.11875579638672" /><trkpt lat="22.38367678125" lon="114.11871679638672" /><trkpt lat="22.38381978125" lon="114.11867279638672" /><trkpt lat="22.38392678125" lon="114.11860079638672" /><trkpt lat="22.38399678125" lon="114.11851579638672" /><trkpt lat="22.38409378125" lon="114.11847179638671" /><trkpt lat="22.38412178125" lon="114.11844479638673" /><trkpt lat="22.38419778125" lon="114.11836479638671" /><trkpt lat="22.38440578125" lon="114.11846879638672" /><trkpt lat="22.38452978125" lon="114.11848079638672" /><trkpt lat="22.38468478125" lon="114.11847979638672" /><trkpt lat="22.38509178125" lon="114.11846479638672" /><trkpt lat="22.38528878125" lon="114.11844179638672" /><trkpt lat="22.38598078125" lon="114.11835679638672" /><trkpt lat="22.38610778125" lon="114.11823979638672" /><trkpt lat="22.38620278125" lon="114.11814079638673" /><trkpt lat="22.38633478125" lon="114.11805779638672" /><trkpt lat="22.38645178125" lon="114.11791979638672" /><trkpt lat="22.38685778125" lon="114.11782779638672" /><trkpt lat="22.38721778125" lon="114.11774579638671" /><trkpt lat="22.38755778125" lon="114.11776879638671" /><trkpt lat="22.38768378125" lon="114.11780179638671" /><trkpt lat="22.38793178125" lon="114.11775679638671" /><trkpt lat="22.38826078125" lon="114.11801879638672" /><trkpt lat="22.38831878125" lon="114.11804479638671" /><trkpt lat="22.38886878125" lon="114.11803079638672" /><trkpt lat="22.38919978125" lon="114.11801479638672" /><trkpt lat="22.38978778125" lon="114.11825079638672" /><trkpt lat="22.39009878125" lon="114.11838779638671" /><trkpt lat="22.39016578125" lon="114.11834379638672" /><trkpt lat="22.39044578125" lon="114.11797779638673" /><trkpt lat="22.39041578125" lon="114.11789279638671" /><trkpt lat="22.39045278125" lon="114.11780979638672" /><trkpt lat="22.39052178125" lon="114.11773779638672" /><trkpt lat="22.39055278125" lon="114.11759679638672" /><trkpt lat="22.39052778125" lon="114.11700279638671" /><trkpt lat="22.39046378125" lon="114.11694579638672" /><trkpt lat="22.39037378125" lon="114.11693479638672" /><trkpt lat="22.38976378125" lon="114.11688979638672" /><trkpt lat="22.38969478125" lon="114.11683579638672" /><trkpt lat="22.38951178125" lon="114.11637879638671" /><trkpt lat="22.38930778125" lon="114.11618479638672" /><trkpt lat="22.38920678125" lon="114.11562679638672" /><trkpt lat="22.38924478125" lon="114.11551479638672" /><trkpt lat="22.38937878125" lon="114.11545379638672" /><trkpt lat="22.38960178125" lon="114.11545779638672" /><trkpt lat="22.38968878125" lon="114.11543479638672" /><trkpt lat="22.38988178125" lon="114.11514879638672" /><trkpt lat="22.38996778125" lon="114.11493879638672" /><trkpt lat="22.39003278125" lon="114.11487779638672" /><trkpt lat="22.39012878125" lon="114.11484179638671" /><trkpt lat="22.39018378125" lon="114.11480279638671" /><trkpt lat="22.39020378125" lon="114.11467079638672" /><trkpt lat="22.39005478125" lon="114.11439779638673" /><trkpt lat="22.39005078125" lon="114.11437979638671" /><trkpt lat="22.39004978125" lon="114.11436179638672" /><trkpt lat="22.39005278125" lon="114.11434479638672" /><trkpt lat="22.39005878125" lon="114.11433279638672" /><trkpt lat="22.39006778125" lon="114.11431979638672" /><trkpt lat="22.39010778125" lon="114.11427479638672" /><trkpt lat="22.39012678125" lon="114.11425179638672" /><trkpt lat="22.39014778125" lon="114.11422479638672" /><trkpt lat="22.39023378125" lon="114.11410379638671" /><trkpt lat="22.39024478125" lon="114.11408679638672" /><trkpt lat="22.39025178125" lon="114.11407179638672" /><trkpt lat="22.39025778125" lon="114.11405579638672" /><trkpt lat="22.39027178125" lon="114.11400679638672" /><trkpt lat="22.39027878125" lon="114.11398679638671" /><trkpt lat="22.39028578125" lon="114.11397079638672" /><trkpt lat="22.39029578125" lon="114.11395479638672" /><trkpt lat="22.39030778125" lon="114.11393879638672" /><trkpt lat="22.39031978125" lon="114.11392479638671" /><trkpt lat="22.39033278125" lon="114.11391079638672" /><trkpt lat="22.39034678125" lon="114.11389979638672" /><trkpt lat="22.39040978125" lon="114.11385479638672" /><trkpt lat="22.39043778125" lon="114.11383379638671" /><trkpt lat="22.39046678125" lon="114.11380879638672" /><trkpt lat="22.39049578125" lon="114.11378379638671" /><trkpt lat="22.39053978125" lon="114.11374279638672" /><trkpt lat="22.39058378125" lon="114.11369779638672" /><trkpt lat="22.39071878125" lon="114.11355479638672" /><trkpt lat="22.39073578125" lon="114.11353379638672" /><trkpt lat="22.39075078125" lon="114.11351279638671" /><trkpt lat="22.39076178125" lon="114.11349079638671" /><trkpt lat="22.39077178125" lon="114.11346079638672" /><trkpt lat="22.39077878125" lon="114.11343279638672" /><trkpt lat="22.39078178125" lon="114.11340379638672" /><trkpt lat="22.39078178125" lon="114.11337679638672" /><trkpt lat="22.39077978125" lon="114.11335179638672" /><trkpt lat="22.39077278125" lon="114.11332379638672" /><trkpt lat="22.39076278125" lon="114.11329379638671" /><trkpt lat="22.39075178125" lon="114.11326879638672" /><trkpt lat="22.39074178125" lon="114.11324979638673" /><trkpt lat="22.39072778125" lon="114.11323079638672" /><trkpt lat="22.39071178125" lon="114.11320979638671" /><trkpt lat="22.39069378125" lon="114.11319079638672" /><trkpt lat="22.39067578125" lon="114.11317179638672" /><trkpt lat="22.39064378125" lon="114.11314379638672" /><trkpt lat="22.39061978125" lon="114.11311879638671" /><trkpt lat="22.39059978125" lon="114.11309579638672" /><trkpt lat="22.39057578125" lon="114.11306479638672" /><trkpt lat="22.39055778125" lon="114.11303479638671" /><trkpt lat="22.39053678125" lon="114.11299479638672" /><trkpt lat="22.39051778125" lon="114.11295279638672" /><trkpt lat="22.39049078125" lon="114.11288479638672" /><trkpt lat="22.39047378125" lon="114.11283779638671" /><trkpt lat="22.39046078125" lon="114.11279679638672" /><trkpt lat="22.39044278125" lon="114.11273379638672" /><trkpt lat="22.39043478125" lon="114.11268679638673" /><trkpt lat="22.39043178125" lon="114.11265579638672" /><trkpt lat="22.39043278125" lon="114.11262679638672" /><trkpt lat="22.39043478125" lon="114.11260279638672" /><trkpt lat="22.39044278125" lon="114.11257579638672" /><trkpt lat="22.39045278125" lon="114.11255179638673" /><trkpt lat="22.39046378125" lon="114.11253279638672" /><trkpt lat="22.39048078125" lon="114.11251179638671" /><trkpt lat="22.39050378125" lon="114.11249079638672" /><trkpt lat="22.39056578125" lon="114.11243879638671" /><trkpt lat="22.39059278125" lon="114.11240879638672" /><trkpt lat="22.39071078125" lon="114.11228379638672" /><trkpt lat="22.39087278125" lon="114.11239479638672" /><trkpt lat="22.39103978125" lon="114.11233579638672" /><trkpt lat="22.39115878125" lon="114.11222079638672" /><trkpt lat="22.39139578125" lon="114.11222479638671" /><trkpt lat="22.39156578125" lon="114.11238379638672" /><trkpt lat="22.39166578125" lon="114.11247979638672" /><trkpt lat="22.39197378125" lon="114.11304879638672" /><trkpt lat="22.39205478125" lon="114.11334979638671" /><trkpt lat="22.39197778125" lon="114.11368779638671" /><trkpt lat="22.39199978125" lon="114.11440279638671" /><trkpt lat="22.39211878125" lon="114.11456479638672" /><trkpt lat="22.39218178125" lon="114.11507279638671" /><trkpt lat="22.39234778125" lon="114.11519279638672" /><trkpt lat="22.39249378125" lon="114.11524479638672" /><trkpt lat="22.39269778125" lon="114.11539179638672" /><trkpt lat="22.39311678125" lon="114.11563979638672" /><trkpt lat="22.39322478125" lon="114.11574179638671" /><trkpt lat="22.39333478125" lon="114.11578879638672" /><trkpt lat="22.39347278125" lon="114.11588679638672" /><trkpt lat="22.39357578125" lon="114.11597579638672" /><trkpt lat="22.39360678125" lon="114.11603579638673" /><trkpt lat="22.39369178125" lon="114.11619779638671" /><trkpt lat="22.39375378125" lon="114.11620679638672" /><trkpt lat="22.39374078125" lon="114.11647379638671" /><trkpt lat="22.39366678125" lon="114.11659079638672" /><trkpt lat="22.39364378125" lon="114.11665279638672" /><trkpt lat="22.39357578125" lon="114.11672279638672" /><trkpt lat="22.39352378125" lon="114.11685479638672" /><trkpt lat="22.39345078125" lon="114.11703779638673" /><trkpt lat="22.39353478125" lon="114.11707079638671" /><trkpt lat="22.39369478125" lon="114.11732179638672" /><trkpt lat="22.39378878125" lon="114.11736579638672" /><trkpt lat="22.39393978125" lon="114.11735479638672" /><trkpt lat="22.39398678125" lon="114.11739979638672" /><trkpt lat="22.39417678125" lon="114.11740379638672" /><trkpt lat="22.39426378125" lon="114.11740879638671" /><trkpt lat="22.39440378125" lon="114.11742379638672" /><trkpt lat="22.39444678125" lon="114.11747279638672" /><trkpt lat="22.39446178125" lon="114.11745879638671" /><trkpt lat="22.39449978125" lon="114.11746879638672" /><trkpt lat="22.39457378125" lon="114.11755679638672" /><trkpt lat="22.39466778125" lon="114.11766779638671" /><trkpt lat="22.39469778125" lon="114.11766379638672" /><trkpt lat="22.39476478125" lon="114.11772079638672" /><trkpt lat="22.39482978125" lon="114.11768779638672" /><trkpt lat="22.39485678125" lon="114.11762679638672" /><trkpt lat="22.39493378125" lon="114.11760679638672" /><trkpt lat="22.39503778125" lon="114.11768279638672" /><trkpt lat="22.39525778125" lon="114.11774279638672" /><trkpt lat="22.39541978125" lon="114.11784179638671" /><trkpt lat="22.39559478125" lon="114.11791279638672" /><trkpt lat="22.39568878125" lon="114.11802179638671" /><trkpt lat="22.39572078125" lon="114.11807579638672" /><trkpt lat="22.39578778125" lon="114.11817279638672" /><trkpt lat="22.39587178125" lon="114.11820379638672" /><trkpt lat="22.39599478125" lon="114.11821279638671" /><trkpt lat="22.39615478125" lon="114.11823979638672" /><trkpt lat="22.39633478125" lon="114.11827179638672" /><trkpt lat="22.39663778125" lon="114.11841179638672" /><trkpt lat="22.39671478125" lon="114.11839079638672" /><trkpt lat="22.39674478125" lon="114.11830979638673" /><trkpt lat="22.39689078125" lon="114.11819779638672" /><trkpt lat="22.39703778125" lon="114.11815579638672" /><trkpt lat="22.39761878125" lon="114.11792679638671" /><trkpt lat="22.39769978125" lon="114.11785779638672" /><trkpt lat="22.39775878125" lon="114.11786279638672" /><trkpt lat="22.39819878125" lon="114.11774779638672" /><trkpt lat="22.39830978125" lon="114.11784079638672" /><trkpt lat="22.39838778125" lon="114.11785479638672" /><trkpt lat="22.39853978125" lon="114.11787479638672" /><trkpt lat="22.39871978125" lon="114.11798679638672" /><trkpt lat="22.39887078125" lon="114.11801679638671" /><trkpt lat="22.39909778125" lon="114.11816079638672" /><trkpt lat="22.39914578125" lon="114.11817479638673" /><trkpt lat="22.39923778125" lon="114.11820079638672" /><trkpt lat="22.39928078125" lon="114.11822479638671" /><trkpt lat="22.39943478125" lon="114.11831179638672" /><trkpt lat="22.39960078125" lon="114.11826079638672" /><trkpt lat="22.39966778125" lon="114.11831579638672" /><trkpt lat="22.39984278125" lon="114.11838579638672" /><trkpt lat="22.40004278125" lon="114.11835979638671" /><trkpt lat="22.40008478125" lon="114.11832679638673" /><trkpt lat="22.40015978125" lon="114.11832679638673" /><trkpt lat="22.40025678125" lon="114.11827579638671" /><trkpt lat="22.40037578125" lon="114.11825479638672" /><trkpt lat="22.40049278125" lon="114.11831479638671" /><trkpt lat="22.40069278125" lon="114.11829879638672" /><trkpt lat="22.40075678125" lon="114.11831579638672" /><trkpt lat="22.40085178125" lon="114.11832479638672" /><trkpt lat="22.40102378125" lon="114.11832379638672" /><trkpt lat="22.40106378125" lon="114.11834479638672" /><trkpt lat="22.40110078125" lon="114.11842979638672" /><trkpt lat="22.40111878125" lon="114.11852279638671" /><trkpt lat="22.40114178125" lon="114.11855279638672" /><trkpt lat="22.40134578125" lon="114.11867479638671" /><trkpt lat="22.40136678125" lon="114.11870779638672" /><trkpt lat="22.40152578125" lon="114.11878279638672" /><trkpt lat="22.40178478125" lon="114.11893079638672" /><trkpt lat="22.40182678125" lon="114.11895979638672" /><trkpt lat="22.40183478125" lon="114.11898879638672" /><trkpt lat="22.40191078125" lon="114.11903679638672" /><trkpt lat="22.40195178125" lon="114.11908279638672" /><trkpt lat="22.40203078125" lon="114.11912779638672" /><trkpt lat="22.40213478125" lon="114.11920779638672" /><trkpt lat="22.40218878125" lon="114.11926279638672" /><trkpt lat="22.40226178125" lon="114.11928279638671" /><trkpt lat="22.40234578125" lon="114.11936479638672" /><trkpt lat="22.40250378125" lon="114.11967979638672" /><trkpt lat="22.40254178125" lon="114.11979079638672" /><trkpt lat="22.40259078125" lon="114.11984179638672" /><trkpt lat="22.40259978125" lon="114.11993779638672" /><trkpt lat="22.40263478125" lon="114.11999179638671" /><trkpt lat="22.40265578125" lon="114.12014579638672" /><trkpt lat="22.40267078125" lon="114.12020279638672" /><trkpt lat="22.40262578125" lon="114.12030279638672" /><trkpt lat="22.40264678125" lon="114.12037879638672" /><trkpt lat="22.40269478125" lon="114.12040079638672" /><trkpt lat="22.40271478125" lon="114.12039179638671" /><trkpt lat="22.40278878125" lon="114.12043379638672" /><trkpt lat="22.40289078125" lon="114.12048479638672" /><trkpt lat="22.40292078125" lon="114.12054079638672" /><trkpt lat="22.40297078125" lon="114.12053979638672" /><trkpt lat="22.40301278125" lon="114.12061279638672" /><trkpt lat="22.40305678125" lon="114.12058579638672" /><trkpt lat="22.40308878125" lon="114.12058379638673" /><trkpt lat="22.40310478125" lon="114.12073379638672" /><trkpt lat="22.40312178125" lon="114.12076679638672" /><trkpt lat="22.40314978125" lon="114.12076279638671" /><trkpt lat="22.40316478125" lon="114.12073479638671" /><trkpt lat="22.40317778125" lon="114.12073979638672" /><trkpt lat="22.40329578125" lon="114.12087779638672" /><trkpt lat="22.40332178125" lon="114.12088279638672" /><trkpt lat="22.40335078125" lon="114.12085279638671" /><trkpt lat="22.40336778125" lon="114.12085879638671" /><trkpt lat="22.40343578125" lon="114.12100279638672" /><trkpt lat="22.40349778125" lon="114.12102179638671" /><trkpt lat="22.40357878125" lon="114.12102279638673" /><trkpt lat="22.40362178125" lon="114.12103479638672" /><trkpt lat="22.40368278125" lon="114.12103779638672" /><trkpt lat="22.40373078125" lon="114.12106279638672" /><trkpt lat="22.40396678125" lon="114.12117979638671" /><trkpt lat="22.40403878125" lon="114.12124479638672" /><trkpt lat="22.40407778125" lon="114.12124079638672" /><trkpt lat="22.40426478125" lon="114.12130479638672" /><trkpt lat="22.40441178125" lon="114.12133379638672" /><trkpt lat="22.40453278125" lon="114.12130579638672" /><trkpt lat="22.40457578125" lon="114.12127179638672" /><trkpt lat="22.40462378125" lon="114.12125579638672" /><trkpt lat="22.40464578125" lon="114.12122379638672" /><trkpt lat="22.40468978125" lon="114.12120179638671" /><trkpt lat="22.40473178125" lon="114.12120879638672" /><trkpt lat="22.40482578125" lon="114.12123179638672" /><trkpt lat="22.40486678125" lon="114.12125379638672" /><trkpt lat="22.40489878125" lon="114.12125079638672" /><trkpt lat="22.40497478125" lon="114.12129679638672" /><trkpt lat="22.40509278125" lon="114.12132279638672" /><trkpt lat="22.40519278125" lon="114.12137579638672" /><trkpt lat="22.40526778125" lon="114.12138579638672" /><trkpt lat="22.40577978125" lon="114.12120379638672" /><trkpt lat="22.40587278125" lon="114.12119379638672" /><trkpt lat="22.40593778125" lon="114.12120579638672" /><trkpt lat="22.40600278125" lon="114.12125479638672" /><trkpt lat="22.40607678125" lon="114.12127479638671" /><trkpt lat="22.40620378125" lon="114.12127079638672" /><trkpt lat="22.40629778125" lon="114.12122679638672" /><trkpt lat="22.40642578125" lon="114.12120179638671" /><trkpt lat="22.40649078125" lon="114.12122379638672" /><trkpt lat="22.40654478125" lon="114.12135679638672" /><trkpt lat="22.40658578125" lon="114.12139779638672" /><trkpt lat="22.40684278125" lon="114.12143679638672" /><trkpt lat="22.40687978125" lon="114.12149579638672" /><trkpt lat="22.40682878125" lon="114.12150479638672" /><trkpt lat="22.40682178125" lon="114.12150779638672" /><trkpt lat="22.40677178125" lon="114.12153079638672" /><trkpt lat="22.40666278125" lon="114.12162279638672" /><trkpt lat="22.40663278125" lon="114.12180179638672" /><trkpt lat="22.40670878125" lon="114.12194779638672" /><trkpt lat="22.40673878125" lon="114.12198379638671" /><trkpt lat="22.40676678125" lon="114.12214879638672" /><trkpt lat="22.40683878125" lon="114.12213179638673" /><trkpt lat="22.40683978125" lon="114.12220979638671" /><trkpt lat="22.40686378125" lon="114.12222079638671" /><trkpt lat="22.40688078125" lon="114.12232379638672" /><trkpt lat="22.40691578125" lon="114.12236679638671" /><trkpt lat="22.40692778125" lon="114.12239379638672" /><trkpt lat="22.40695378125" lon="114.12239179638672" /><trkpt lat="22.40697078125" lon="114.12242279638672" /><trkpt lat="22.40691778125" lon="114.12253479638672" /><trkpt lat="22.40690778125" lon="114.12255679638672" /><trkpt lat="22.40689978125" lon="114.12257979638672" /><trkpt lat="22.40689578125" lon="114.12259679638672" /><trkpt lat="22.40689578125" lon="114.12261579638673" /><trkpt lat="22.40689978125" lon="114.12263179638671" /><trkpt lat="22.40690678125" lon="114.12264779638672" /><trkpt lat="22.40691878125" lon="114.12266779638672" /><trkpt lat="22.40695778125" lon="114.12272079638672" /><trkpt lat="22.40697978125" lon="114.12274779638672" /><trkpt lat="22.40701878125" lon="114.12278979638671" /><trkpt lat="22.40703378125" lon="114.12280679638671" /><trkpt lat="22.40704778125" lon="114.12282679638672" /><trkpt lat="22.40705878125" lon="114.12284179638672" /><trkpt lat="22.40706678125" lon="114.12285979638672" /><trkpt lat="22.40706978125" lon="114.12287679638672" /><trkpt lat="22.40706978125" lon="114.12289479638672" /><trkpt lat="22.40706878125" lon="114.12291479638672" /><trkpt lat="22.40706578125" lon="114.12293579638671" /><trkpt lat="22.40706078125" lon="114.12295679638672" /><trkpt lat="22.40704578125" lon="114.12299879638672" /><trkpt lat="22.40703278125" lon="114.12303179638671" /><trkpt lat="22.40701678125" lon="114.12306479638671" /><trkpt lat="22.40700178125" lon="114.12309179638672" /><trkpt lat="22.40698278125" lon="114.12311779638672" /><trkpt lat="22.40688078125" lon="114.12324779638672" /><trkpt lat="22.40685978125" lon="114.12327479638672" /><trkpt lat="22.40683878125" lon="114.12330579638672" /><trkpt lat="22.40682078125" lon="114.12333979638672" /><trkpt lat="22.40680078125" lon="114.12338479638672" /><trkpt lat="22.40679078125" lon="114.12341079638672" /><trkpt lat="22.40678478125" lon="114.12343679638671" /><trkpt lat="22.40678878125" lon="114.12356979638672" /><trkpt lat="22.40682478125" lon="114.12364679638672" /><trkpt lat="22.40685778125" lon="114.12368179638672" /><trkpt lat="22.40689778125" lon="114.12371779638671" /><trkpt lat="22.40697278125" lon="114.12381479638672" /><trkpt lat="22.40700178125" lon="114.12385979638672" /><trkpt lat="22.40702178125" lon="114.12390179638672" /><trkpt lat="22.40704078125" lon="114.12395079638672" /><trkpt lat="22.40705578125" lon="114.12403279638671" /><trkpt lat="22.40706678125" lon="114.12410379638672" /><trkpt lat="22.40707878125" lon="114.12419979638672" /><trkpt lat="22.40710078125" lon="114.12426079638672" /><trkpt lat="22.40712478125" lon="114.12430879638671" /><trkpt lat="22.40715478125" lon="114.12435879638672" /><trkpt lat="22.40741078125" lon="114.12472279638672" /><trkpt lat="22.40744478125" lon="114.12476879638672" /><trkpt lat="22.40746578125" lon="114.12479379638671" /><trkpt lat="22.40748778125" lon="114.12480679638672" /><trkpt lat="22.40750978125" lon="114.12481279638672" /><trkpt lat="22.40753478125" lon="114.12481379638672" /><trkpt lat="22.40755478125" lon="114.12480179638672" /><trkpt lat="22.40756678125" lon="114.12478779638671" /><trkpt lat="22.40757078125" lon="114.12476779638672" /><trkpt lat="22.40756978125" lon="114.12474479638672" /><trkpt lat="22.40756278125" lon="114.12472379638672" /><trkpt lat="22.40763778125" lon="114.12470679638672" /><trkpt lat="22.40770578125" lon="114.12473279638672" /><trkpt lat="22.40772878125" lon="114.12476279638672" /><trkpt lat="22.40776178125" lon="114.12476779638672" /><trkpt lat="22.40783778125" lon="114.12485579638673" /><trkpt lat="22.40790178125" lon="114.12489579638672" /><trkpt lat="22.40793878125" lon="114.12495279638672" /><trkpt lat="22.40796978125" lon="114.12496679638672" /><trkpt lat="22.40791178125" lon="114.12507179638672" /><trkpt lat="22.40789278125" lon="114.12513179638673" /><trkpt lat="22.40787378125" lon="114.12523779638671" /><trkpt lat="22.40786478125" lon="114.12529679638672" /><trkpt lat="22.40786778125" lon="114.12534779638672" /><trkpt lat="22.40787778125" lon="114.12538879638672" /><trkpt lat="22.40789378125" lon="114.12540679638671" /><trkpt lat="22.40793478125" lon="114.12543179638672" /><trkpt lat="22.40796178125" lon="114.12543079638672" /><trkpt lat="22.40798078125" lon="114.12541979638672" /><trkpt lat="22.40798978125" lon="114.12539079638672" /><trkpt lat="22.40798778125" lon="114.12535779638672" /><trkpt lat="22.40797178125" lon="114.12527579638672" /><trkpt lat="22.40796178125" lon="114.12520079638672" /><trkpt lat="22.40796478125" lon="114.12515879638671" /><trkpt lat="22.40797678125" lon="114.12511979638671" /><trkpt lat="22.40799978125" lon="114.12508579638671" /><trkpt lat="22.40807278125" lon="114.12501279638671" /><trkpt lat="22.40814378125" lon="114.12493479638673" /><trkpt lat="22.40817178125" lon="114.12488379638671" /><trkpt lat="22.40819778125" lon="114.12482779638673" /><trkpt lat="22.40821878125" lon="114.12473779638673" /><trkpt lat="22.40822778125" lon="114.12464479638672" /><trkpt lat="22.40822578125" lon="114.12429679638672" /><trkpt lat="22.40822278125" lon="114.12421279638671" /><trkpt lat="22.40823278125" lon="114.12415879638672" /><trkpt lat="22.40825178125" lon="114.12411379638672" /><trkpt lat="22.408272781249998" lon="114.12408079638672" /><trkpt lat="22.40829478125" lon="114.12406179638671" /><trkpt lat="22.40832578125" lon="114.12404679638672" /><trkpt lat="22.40835078125" lon="114.12404079638672" /><trkpt lat="22.40837778125" lon="114.12404779638672" /><trkpt lat="22.40839578125" lon="114.12407379638672" /><trkpt lat="22.40839878125" lon="114.12410779638672" /><trkpt lat="22.40835878125" lon="114.12420879638672" /><trkpt lat="22.40834078125" lon="114.12427079638672" /><trkpt lat="22.40833478125" lon="114.12432579638671" /><trkpt lat="22.40833578125" lon="114.12445779638672" /><trkpt lat="22.40834278125" lon="114.12459779638672" /><trkpt lat="22.40835278125" lon="114.12465979638672" /><trkpt lat="22.40837578125" lon="114.12477979638672" /><trkpt lat="22.40838178125" lon="114.12486379638672" /><trkpt lat="22.40837778125" lon="114.12491679638671" /><trkpt lat="22.40834778125" lon="114.12511279638672" /><trkpt lat="22.40835078125" lon="114.12524179638672" /><trkpt lat="22.40836378125" lon="114.12527479638672" /><trkpt lat="22.40839878125" lon="114.12531779638672" /><trkpt lat="22.40845878125" lon="114.12533579638672" /><trkpt lat="22.40861278125" lon="114.12536179638671" /><trkpt lat="22.40864378125" lon="114.12536079638672" /><trkpt lat="22.40867178125" lon="114.12535879638672" /><trkpt lat="22.40881478125" lon="114.12533579638672" /><trkpt lat="22.40883578125" lon="114.12533379638671" /><trkpt lat="22.40885778125" lon="114.12533579638672" /><trkpt lat="22.40887878125" lon="114.12533879638671" /><trkpt lat="22.40889478125" lon="114.12534279638672" /><trkpt lat="22.40890978125" lon="114.12534879638672" /><trkpt lat="22.40897078125" lon="114.12537779638672" /><trkpt lat="22.40900878125" lon="114.12539379638672" /><trkpt lat="22.40911278125" lon="114.12543379638672" /><trkpt lat="22.40914078125" lon="114.12544679638673" /><trkpt lat="22.40916778125" lon="114.12546079638672" /><trkpt lat="22.40919278125" lon="114.12547679638672" /><trkpt lat="22.40925478125" lon="114.12552279638672" /><trkpt lat="22.40927378125" lon="114.12553479638672" /><trkpt lat="22.40929378125" lon="114.12554579638672" /><trkpt lat="22.40931478125" lon="114.12555479638672" /><trkpt lat="22.40932878125" lon="114.12556079638672" /><trkpt lat="22.40934378125" lon="114.12556579638672" /><trkpt lat="22.40935978125" lon="114.12556979638671" /><trkpt lat="22.40938178125" lon="114.12557179638672" /><trkpt lat="22.40940378125" lon="114.12557279638672" /><trkpt lat="22.40942778125" lon="114.12557279638672" /><trkpt lat="22.40945178125" lon="114.12556979638671" /><trkpt lat="22.40947378125" lon="114.12556379638671" /><trkpt lat="22.40962178125" lon="114.12551279638672" /><trkpt lat="22.40964278125" lon="114.12550679638672" /><trkpt lat="22.40965978125" lon="114.12550279638671" /><trkpt lat="22.40967978125" lon="114.12549979638672" /><trkpt lat="22.40970178125" lon="114.12549879638672" /><trkpt lat="22.40972478125" lon="114.12549879638672" /><trkpt lat="22.40974978125" lon="114.12549979638672" /><trkpt lat="22.40977078125" lon="114.12550279638671" /><trkpt lat="22.40978278125" lon="114.12550579638672" /><trkpt lat="22.40979978125" lon="114.12551179638672" /><trkpt lat="22.40981278125" lon="114.12551879638671" /><trkpt lat="22.40982678125" lon="114.12552879638672" /><trkpt lat="22.40983778125" lon="114.12553879638672" /><trkpt lat="22.40985178125" lon="114.12555579638672" /><trkpt lat="22.40986178125" lon="114.12557379638672" /><trkpt lat="22.40986878125" lon="114.12559579638672" /><trkpt lat="22.40987178125" lon="114.12561979638672" /><trkpt lat="22.40987378125" lon="114.12568679638672" /><trkpt lat="22.40987578125" lon="114.12570879638672" /><trkpt lat="22.40988078125" lon="114.12572779638671" /><trkpt lat="22.40988978125" lon="114.12574279638672" /><trkpt lat="22.40989478125" lon="114.12575179638672" /><trkpt lat="22.40990178125" lon="114.12576079638671" /><trkpt lat="22.40990978125" lon="114.12576679638671" /><trkpt lat="22.40991978125" lon="114.12577279638671" /><trkpt lat="22.40993178125" lon="114.12577679638672" /><trkpt lat="22.40994978125" lon="114.12578279638672" /><trkpt lat="22.41002178125" lon="114.12579779638672" /><trkpt lat="22.41006178125" lon="114.12580379638672" /><trkpt lat="22.41009578125" lon="114.12580579638671" /><trkpt lat="22.41012678125" lon="114.12580579638671" /><trkpt lat="22.41015678125" lon="114.12580279638672" /><trkpt lat="22.41018778125" lon="114.12579579638673" /><trkpt lat="22.41022478125" lon="114.12578479638672" /><trkpt lat="22.41025878125" lon="114.12577279638671" /><trkpt lat="22.41028478125" lon="114.12576179638671" /><trkpt lat="22.41033478125" lon="114.12573979638672" /><trkpt lat="22.41036578125" lon="114.12572779638671" /><trkpt lat="22.41039478125" lon="114.12571979638672" /><trkpt lat="22.41042478125" lon="114.12571379638672" /><trkpt lat="22.41048478125" lon="114.12570479638671" /><trkpt lat="22.41051078125" lon="114.12570079638672" /><trkpt lat="22.41056678125" lon="114.12568879638673" /><trkpt lat="22.41058978125" lon="114.12568479638672" /><trkpt lat="22.41060778125" lon="114.12568279638671" /><trkpt lat="22.41062678125" lon="114.12568279638671" /><trkpt lat="22.41064478125" lon="114.12568379638672" /><trkpt lat="22.41066478125" lon="114.12568779638671" /><trkpt lat="22.41068578125" lon="114.12569379638671" /><trkpt lat="22.41070678125" lon="114.12570079638672" /><trkpt lat="22.41074978125" lon="114.12571879638672" /><trkpt lat="22.41077678125" lon="114.12572779638671" /><trkpt lat="22.41080078125" lon="114.12573379638673" /><trkpt lat="22.41082478125" lon="114.12573679638672" /><trkpt lat="22.41084878125" lon="114.12573679638672" /><trkpt lat="22.410871781250002" lon="114.12573379638673" /><trkpt lat="22.41089578125" lon="114.12572679638672" /><trkpt lat="22.41092178125" lon="114.12571679638671" /><trkpt lat="22.41094878125" lon="114.12570279638672" /><trkpt lat="22.41097878125" lon="114.12568379638672" /><trkpt lat="22.41121978125" lon="114.12548479638671" /><trkpt lat="22.41128678125" lon="114.12542679638672" /><trkpt lat="22.41131878125" lon="114.12539279638672" /><trkpt lat="22.41134378125" lon="114.12535679638673" /><trkpt lat="22.41136578125" lon="114.12531279638672" /><trkpt lat="22.41137878125" lon="114.12525879638672" /><trkpt lat="22.41138878125" lon="114.12518879638672" /><trkpt lat="22.41139078125" lon="114.12508879638672" /><trkpt lat="22.41140078125" lon="114.12505779638671" /><trkpt lat="22.41141378125" lon="114.12503479638671" /><trkpt lat="22.41142778125" lon="114.12501579638672" /><trkpt lat="22.41144378125" lon="114.12500479638672" /><trkpt lat="22.41146178125" lon="114.12499079638673" /><trkpt lat="22.41157578125" lon="114.12497579638672" /><trkpt lat="22.41165378125" lon="114.12496579638672" /><trkpt lat="22.41193478125" lon="114.12494479638671" /><trkpt lat="22.41199778125" lon="114.12489679638672" /><trkpt lat="22.41216378125" lon="114.12476279638672" /><trkpt lat="22.41219678125" lon="114.12473779638673" /><trkpt lat="22.41222678125" lon="114.12471779638672" /><trkpt lat="22.41225478125" lon="114.12469979638672" /><trkpt lat="22.41230678125" lon="114.12466779638672" /><trkpt lat="22.41234078125" lon="114.12464979638672" /><trkpt lat="22.412364781249998" lon="114.12463879638672" /><trkpt lat="22.41238778125" lon="114.12462979638671" /><trkpt lat="22.41242678125" lon="114.12461879638671" /><trkpt lat="22.41245178125" lon="114.12460879638672" /><trkpt lat="22.41247778125" lon="114.12459679638673" /><trkpt lat="22.41285878125" lon="114.12442079638672" /><trkpt lat="22.41301078125" lon="114.12434879638671" /><trkpt lat="22.41302778125" lon="114.12433979638672" /><trkpt lat="22.41304578125" lon="114.12432879638672" /><trkpt lat="22.41305978125" lon="114.12431779638672" /><trkpt lat="22.41307578125" lon="114.12430279638671" /><trkpt lat="22.41308678125" lon="114.12428879638672" /><trkpt lat="22.41309878125" lon="114.12427179638672" /><trkpt lat="22.41310878125" lon="114.12425179638672" /><trkpt lat="22.41311678125" lon="114.12423279638672" /><trkpt lat="22.41312178125" lon="114.12421079638672" /><trkpt lat="22.41312278125" lon="114.12419379638672" /><trkpt lat="22.41312278125" lon="114.12417079638672" /><trkpt lat="22.41312078125" lon="114.12415079638672" /><trkpt lat="22.41311578125" lon="114.12412979638673" /><trkpt lat="22.41310878125" lon="114.12410879638672" /><trkpt lat="22.41309878125" lon="114.12408679638672" /><trkpt lat="22.41303878125" lon="114.12399079638672" /><trkpt lat="22.41287978125" lon="114.12378479638672" /><trkpt lat="22.41285478125" lon="114.12370179638671" /><trkpt lat="22.41285878125" lon="114.12364279638672" /><trkpt lat="22.41287478125" lon="114.12361679638671" /><trkpt lat="22.41289678125" lon="114.12359579638672" /><trkpt lat="22.41292478125" lon="114.12358879638671" /><trkpt lat="22.41294978125" lon="114.12359179638672" /><trkpt lat="22.41313278125" lon="114.12374179638672" /><trkpt lat="22.41321478125" lon="114.12377479638671" /><trkpt lat="22.41345278125" lon="114.12380479638672" /><trkpt lat="22.41348278125" lon="114.12381779638672" /><trkpt lat="22.41349778125" lon="114.12383579638671" /><trkpt lat="22.413508781250002" lon="114.12386079638672" /><trkpt lat="22.41358778125" lon="114.12431279638672" /><trkpt lat="22.41360278125" lon="114.12435279638672" /><trkpt lat="22.41361978125" lon="114.12438079638672" /><trkpt lat="22.41364578125" lon="114.12441479638672" /><trkpt lat="22.41366978125" lon="114.12443179638672" /><trkpt lat="22.41369778125" lon="114.12443879638671" /><trkpt lat="22.41372178125" lon="114.12443779638672" /><trkpt lat="22.41374078125" lon="114.12443079638672" /><trkpt lat="22.41374978125" lon="114.12441879638672" /><trkpt lat="22.41391578125" lon="114.12356579638671" /><trkpt lat="22.41393578125" lon="114.12353079638672" /><trkpt lat="22.41394678125" lon="114.12351879638672" /><trkpt lat="22.413954461938577" lon="114.12351407181652" /><trkpt lat="22.414015630304263" lon="114.12343682849422" /><trkpt lat="22.414040465548695" lon="114.12333795435296" /><trkpt lat="22.414046088934143" lon="114.1229858724044" /><trkpt lat="22.4141156359411" lon="114.12299069390406" /><trkpt lat="22.414158709609808" lon="114.12304162059871" /><trkpt lat="22.414162564448205" lon="114.12312411535981" /><trkpt lat="22.414135719436544" lon="114.12325394738986" /><trkpt lat="22.414038060702254" lon="114.12344336883496" /><trkpt lat="22.4140180434463" lon="114.12350221281899" /><trkpt lat="22.41407378125" lon="114.12354779638672" /><trkpt lat="22.41407978125" lon="114.12356179638672" /><trkpt lat="22.41408278125" lon="114.12357579638672" /><trkpt lat="22.41408578125" lon="114.12359379638671" /><trkpt lat="22.414099781250002" lon="114.12388979638672" /><trkpt lat="22.41413078125" lon="114.12403979638673" /><trkpt lat="22.41427078125" lon="114.12434079638672" /><trkpt lat="22.41432978125" lon="114.12440979638671" /><trkpt lat="22.41481578125" lon="114.12466679638672" /><trkpt lat="22.41487278125" lon="114.12467279638672" /><trkpt lat="22.41487978125" lon="114.12484579638672" /><trkpt lat="22.41488178125" lon="114.12487179638671" /><trkpt lat="22.41488678125" lon="114.12489879638672" /><trkpt lat="22.41489278125" lon="114.12492079638672" /><trkpt lat="22.41490078125" lon="114.12494279638672" /><trkpt lat="22.41490878125" lon="114.12495979638672" /><trkpt lat="22.41491778125" lon="114.12497479638672" /><trkpt lat="22.41492678125" lon="114.12498579638672" /><trkpt lat="22.41493778125" lon="114.12499679638672" /><trkpt lat="22.41494878125" lon="114.12500779638673" /><trkpt lat="22.41495778125" lon="114.12501379638672" /><trkpt lat="22.41496978125" lon="114.12501879638671" /><trkpt lat="22.41498178125" lon="114.12502179638672" /><trkpt lat="22.41500878125" lon="114.12502479638673" /><trkpt lat="22.41504978125" lon="114.12502879638672" /><trkpt lat="22.41534778125" lon="114.12504879638672" /><trkpt lat="22.41536978125" lon="114.12505179638671" /><trkpt lat="22.41539178125" lon="114.12505579638672" /><trkpt lat="22.41541178125" lon="114.12506279638671" /><trkpt lat="22.41543078125" lon="114.12506979638673" /><trkpt lat="22.41544878125" lon="114.12507879638672" /><trkpt lat="22.41546578125" lon="114.12508979638672" /><trkpt lat="22.41548678125" lon="114.12510479638672" /><trkpt lat="22.41550478125" lon="114.12511979638671" /><trkpt lat="22.41552278125" lon="114.12513679638671" /><trkpt lat="22.41564278125" lon="114.12525379638672" /><trkpt lat="22.41571078125" lon="114.12532479638672" /><trkpt lat="22.41576278125" lon="114.12537979638672" /><trkpt lat="22.41580878125" lon="114.12542979638671" /><trkpt lat="22.41603178125" lon="114.12536079638672" /><trkpt lat="22.41622878125" lon="114.12514479638672" /><trkpt lat="22.41633278125" lon="114.12513179638673" /><trkpt lat="22.41659378125" lon="114.12501179638672" /><trkpt lat="22.41664678125" lon="114.12500779638673" /><trkpt lat="22.41673378125" lon="114.12510379638672" /><trkpt lat="22.41682278125" lon="114.12530579638671" /><trkpt lat="22.41702078125" lon="114.12549179638673" /><trkpt lat="22.41712378125" lon="114.12556379638671" /><trkpt lat="22.41725278125" lon="114.12558679638671" /><trkpt lat="22.41760378125" lon="114.12582579638672" /><trkpt lat="22.41786478125" lon="114.12590779638671" /><trkpt lat="22.41794978125" lon="114.12590279638673" /><trkpt lat="22.41806478125" lon="114.12596279638672" /><trkpt lat="22.41833978125" lon="114.12595979638672" /><trkpt lat="22.41847778125" lon="114.12599879638672" /><trkpt lat="22.41865978125" lon="114.12608479638672" /><trkpt lat="22.41871378125" lon="114.12608079638672" /><trkpt lat="22.41885978125" lon="114.12600079638672" /><trkpt lat="22.41894078125" lon="114.12596279638672" /><trkpt lat="22.41931978125" lon="114.12598779638672" /><trkpt lat="22.41936378125" lon="114.12599579638672" /><trkpt lat="22.41942078125" lon="114.12592279638672" /><trkpt lat="22.41964878125" lon="114.12585479638672" /><trkpt lat="22.41978478125" lon="114.12589679638671" /><trkpt lat="22.41997878125" lon="114.12596179638672" /><trkpt lat="22.42006078125" lon="114.12601079638672" /><trkpt lat="22.42013678125" lon="114.12596979638671" /><trkpt lat="22.42028078125" lon="114.12592279638672" /><trkpt lat="22.42039478125" lon="114.12570279638672" /><trkpt lat="22.42045878125" lon="114.12559479638672" /><trkpt lat="22.42059778125" lon="114.12553079638671" /><trkpt lat="22.42083078125" lon="114.12527379638672" /><trkpt lat="22.42102378125" lon="114.12517679638673" /><trkpt lat="22.42119278125" lon="114.12515579638672" /><trkpt lat="22.42140578125" lon="114.12509679638671" /><trkpt lat="22.42152478125" lon="114.12503779638672" /><trkpt lat="22.42170878125" lon="114.12490279638672" /><trkpt lat="22.42172878125" lon="114.12484379638671" /><trkpt lat="22.42182978125" lon="114.12467279638672" /><trkpt lat="22.42198178125" lon="114.12453179638672" /><trkpt lat="22.42209978125" lon="114.12450679638673" /><trkpt lat="22.42212978125" lon="114.12448579638672" /><trkpt lat="22.42218278125" lon="114.12448079638672" /><trkpt lat="22.42221378125" lon="114.12446479638672" /><trkpt lat="22.42227878125" lon="114.12446279638672" /><trkpt lat="22.42232078125" lon="114.12446079638671" /><trkpt lat="22.42237278125" lon="114.12445379638672" /><trkpt lat="22.42244178125" lon="114.12442379638672" /><trkpt lat="22.42248278125" lon="114.12442279638672" /><trkpt lat="22.42253178125" lon="114.12443679638672" /><trkpt lat="22.422549318361416" lon="114.12445345331172" /><trkpt lat="22.42261578125" lon="114.12441479638672" /><trkpt lat="22.42266178125" lon="114.12435379638671" /><trkpt lat="22.42269778125" lon="114.12427279638672" /><trkpt lat="22.42279978125" lon="114.12416979638672" /><trkpt lat="22.42285678125" lon="114.12407179638672" /><trkpt lat="22.42288278125" lon="114.12405079638671" /><trkpt lat="22.42290278125" lon="114.12400179638672" /><trkpt lat="22.42289178125" lon="114.12391379638672" /><trkpt lat="22.42291778125" lon="114.12380779638671" /><trkpt lat="22.42309978125" lon="114.12332579638672" /><trkpt lat="22.42318978125" lon="114.12315579638671" /><trkpt lat="22.42342278125" lon="114.12290579638672" /><trkpt lat="22.42347978125" lon="114.12287079638672" /><trkpt lat="22.42357578125" lon="114.12269679638672" /><trkpt lat="22.42360778125" lon="114.12268479638672" /><trkpt lat="22.42379078125" lon="114.12246579638672" /><trkpt lat="22.42388978125" lon="114.12241779638671" /><trkpt lat="22.42399878125" lon="114.12230479638671" /><trkpt lat="22.42424578125" lon="114.12212179638672" /><trkpt lat="22.42451578125" lon="114.12197679638672" /><trkpt lat="22.42464078125" lon="114.12190279638672" /><trkpt lat="22.42481278125" lon="114.12186479638672" /><trkpt lat="22.42512178125" lon="114.12158979638671" /><trkpt lat="22.42521078125" lon="114.12156679638672" /><trkpt lat="22.42529878125" lon="114.12146779638672" /><trkpt lat="22.42537478125" lon="114.12130479638672" /><trkpt lat="22.42544078125" lon="114.12122879638672" /><trkpt lat="22.42554578125" lon="114.12113079638672" /><trkpt lat="22.42569678125" lon="114.12110279638672" /><trkpt lat="22.42581178125" lon="114.12104079638672" /><trkpt lat="22.42592578125" lon="114.12087279638672" /><trkpt lat="22.42605978125" lon="114.12085979638672" /><trkpt lat="22.42605278125" lon="114.12089979638672" /><trkpt lat="22.42604478125" lon="114.12094279638671" /><trkpt lat="22.42605378125" lon="114.12107879638671" /><trkpt lat="22.42602478125" lon="114.12119879638672" /><trkpt lat="22.42592978125" lon="114.12126379638671" /><trkpt lat="22.42581778125" lon="114.12132879638672" /><trkpt lat="22.42566278125" lon="114.12138179638671" /><trkpt lat="22.42612078125" lon="114.12148979638673" /><trkpt lat="22.42636678125" lon="114.12141179638672" /><trkpt lat="22.42641178125" lon="114.12140779638672" /><trkpt lat="22.42643678125" lon="114.12143079638672" /><trkpt lat="22.42645078125" lon="114.12148079638672" /><trkpt lat="22.42642778125" lon="114.12151979638672" /><trkpt lat="22.42597178125" lon="114.12195679638671" /><trkpt lat="22.42586278125" lon="114.12247679638672" /><trkpt lat="22.425905781250002" lon="114.12254879638672" /><trkpt lat="22.42593178125" lon="114.12250979638672" /><trkpt lat="22.42610378125" lon="114.12236779638671" /><trkpt lat="22.42614778125" lon="114.12239079638672" /><trkpt lat="22.42606678125" lon="114.12260179638672" /><trkpt lat="22.42607778125" lon="114.12266579638671" /><trkpt lat="22.42643078125" lon="114.12279679638672" /><trkpt lat="22.42665078125" lon="114.12278079638672" /><trkpt lat="22.42696278125" lon="114.12291279638671" /><trkpt lat="22.42715678125" lon="114.12287379638671" /><trkpt lat="22.42766078125" lon="114.12253279638672" /><trkpt lat="22.42778678125" lon="114.12277779638671" /><trkpt lat="22.42822178125" lon="114.12258079638671" /><trkpt lat="22.42851578125" lon="114.12236979638672" /><trkpt lat="22.42900678125" lon="114.12193579638672" /><trkpt lat="22.42950278125" lon="114.12158679638672" /><trkpt lat="22.42940778125" lon="114.12147279638671" /><trkpt lat="22.42953678125" lon="114.12128679638671" /><trkpt lat="22.42943578125" lon="114.12106779638673" /><trkpt lat="22.42936978125" lon="114.12076779638672" /><trkpt lat="22.42948978125" lon="114.12034779638672" /><trkpt lat="22.42969578125" lon="114.12025579638672" /><trkpt lat="22.42970478125" lon="114.12013979638672" /><trkpt lat="22.42989178125" lon="114.12002479638672" /><trkpt lat="22.42996778125" lon="114.12005779638672" /><trkpt lat="22.43001278125" lon="114.11988879638672" /><trkpt lat="22.43014178125" lon="114.11974479638671" /><trkpt lat="22.43034278125" lon="114.11961879638672" /><trkpt lat="22.43041878125" lon="114.11982179638672" /><trkpt lat="22.43052078125" lon="114.11977279638671" /><trkpt lat="22.43052078125" lon="114.11964279638671" /><trkpt lat="22.43060178125" lon="114.11958479638672" /><trkpt lat="22.43063278125" lon="114.11970579638673" /><trkpt lat="22.43103478125" lon="114.11957079638672" /><trkpt lat="22.43112378125" lon="114.11958479638672" /><trkpt lat="22.43112378125" lon="114.11973079638672" /><trkpt lat="22.43126278125" lon="114.11976779638672" /><trkpt lat="22.43142778125" lon="114.11968079638672" /><trkpt lat="22.43156378125" lon="114.11947579638672" /><trkpt lat="22.43161778125" lon="114.11939379638672" /><trkpt lat="22.43165778125" lon="114.11929179638672" /><trkpt lat="22.43192678125" lon="114.11913879638672" /><trkpt lat="22.43220878125" lon="114.11869979638672" /><trkpt lat="22.43218078125" lon="114.11867379638672" /><trkpt lat="22.43211878125" lon="114.11861579638672" /><trkpt lat="22.43208578125" lon="114.11858479638671" /><trkpt lat="22.43215078125" lon="114.11847579638672" /><trkpt lat="22.43204578125" lon="114.11813279638672" /><trkpt lat="22.43239978125" lon="114.11751279638672" /><trkpt lat="22.43250278125" lon="114.11731879638671" /><trkpt lat="22.43263178125" lon="114.11727979638673" /><trkpt lat="22.43292078125" lon="114.11730779638673" /><trkpt lat="22.43308678125" lon="114.11757179638671" /><trkpt lat="22.43345087354039" lon="114.11742862469332" /></trkseg></trk></gpx>