<?xml version='1.0' encoding='UTF-8' ?><gpx version="1.1" creator="HikingTrailHK" xsi:schemaLocation="http://www.topografix.com/GPX/1/1 http://www.topografix.com/GPX/1/1/gpx.xsd" xmlns="http://www.topografix.com/GPX/1/1" xmlns:xsi="http://www.w3.org/2001/XMLSchema-instance"><metadata><name>大刀屻 @ 2016-7</name><desc></desc></metadata><trk><trkseg><trkpt lat="22.43351078125" lon="114.11713679638672" /><trkpt lat="22.43358278125" lon="114.11719979638671" /><trkpt lat="22.43364878125" lon="114.11732679638672" /><trkpt lat="22.43373478125" lon="114.11729479638672" /><trkpt lat="22.43395478125" lon="114.11720479638672" /><trkpt lat="22.43450178125" lon="114.11721879638672" /><trkpt lat="22.43459578125" lon="114.11708179638671" /><trkpt lat="22.43463278125" lon="114.11679079638672" /><trkpt lat="22.43481978125" lon="114.11636779638673" /><trkpt lat="22.43508778125" lon="114.11595379638672" /><trkpt lat="22.43518678125" lon="114.11568779638672" /><trkpt lat="22.43518378125" lon="114.11557979638673" /><trkpt lat="22.43526578125" lon="114.11549379638672" /><trkpt lat="22.43558778125" lon="114.11564479638672" /><trkpt lat="22.43577178125" lon="114.11563979638672" /><trkpt lat="22.43593178125" lon="114.11555879638672" /><trkpt lat="22.43613378125" lon="114.11537179638673" /><trkpt lat="22.43628178125" lon="114.11529679638672" /><trkpt lat="22.43635078125" lon="114.11528979638672" /><trkpt lat="22.43642678125" lon="114.11523579638671" /><trkpt lat="22.43641778125" lon="114.11514279638672" /><trkpt lat="22.43653678125" lon="114.11509279638672" /><trkpt lat="22.43685178125" lon="114.11499379638671" /><trkpt lat="22.43701978125" lon="114.11499079638672" /><trkpt lat="22.43713078125" lon="114.11493979638672" /><trkpt lat="22.43730778125" lon="114.11468479638671" /><trkpt lat="22.43748878125" lon="114.11448179638671" /><trkpt lat="22.43775778125" lon="114.11436479638672" /><trkpt lat="22.43802878125" lon="114.11420379638672" /><trkpt lat="22.43849378125" lon="114.11404479638672" /><trkpt lat="22.43865978125" lon="114.11401979638671" /><trkpt lat="22.43900678125" lon="114.11388879638672" /><trkpt lat="22.43931378125" lon="114.11377579638672" /><trkpt lat="22.43931578125" lon="114.11360679638672" /><trkpt lat="22.43938278125" lon="114.11346679638672" /><trkpt lat="22.43945578125" lon="114.11346579638672" /><trkpt lat="22.439484781250002" lon="114.11318279638672" /><trkpt lat="22.43971378125" lon="114.11326979638672" /><trkpt lat="22.43993978125" lon="114.11330479638671" /><trkpt lat="22.44012778125" lon="114.11327979638672" /><trkpt lat="22.44026778125" lon="114.11321979638672" /><trkpt lat="22.44042578125" lon="114.11298079638672" /><trkpt lat="22.44088778125" lon="114.11262479638673" /><trkpt lat="22.44127678125" lon="114.11247379638672" /><trkpt lat="22.44142178125" lon="114.11255979638672" /><trkpt lat="22.44169378125" lon="114.11271279638672" /><trkpt lat="22.44215178125" lon="114.11266279638672" /><trkpt lat="22.44251278125" lon="114.11246879638672" /><trkpt lat="22.44285278125" lon="114.11216879638671" /><trkpt lat="22.44386878125" lon="114.11194979638672" /><trkpt lat="22.44419578125" lon="114.11206979638672" /><trkpt lat="22.44427878125" lon="114.11223479638672" /><trkpt lat="22.44447078125" lon="114.11232679638672" /><trkpt lat="22.44467778125" lon="114.11250879638672" /><trkpt lat="22.44493978125" lon="114.11269579638672" /><trkpt lat="22.44505278125" lon="114.11270579638672" /><trkpt lat="22.44525778125" lon="114.11277279638672" /><trkpt lat="22.44552478125" lon="114.11301879638673" /><trkpt lat="22.44563278125" lon="114.11315879638671" /><trkpt lat="22.44603578125" lon="114.11346879638671" /><trkpt lat="22.44655478125" lon="114.11368579638672" /><trkpt lat="22.44670678125" lon="114.11383279638672" /><trkpt lat="22.44679878125" lon="114.11400279638671" /><trkpt lat="22.44699078125" lon="114.11411879638672" /><trkpt lat="22.44713378125" lon="114.11415979638672" /><trkpt lat="22.44740478125" lon="114.11427579638672" /><trkpt lat="22.44761678125" lon="114.11456979638672" /><trkpt lat="22.44807578125" lon="114.11475879638672" /><trkpt lat="22.44818278125" lon="114.11490679638672" /><trkpt lat="22.44835678125" lon="114.11503979638672" /><trkpt lat="22.44856378125" lon="114.11512179638672" /><trkpt lat="22.44861878125" lon="114.11528879638672" /><trkpt lat="22.44881978125" lon="114.11562179638672" /><trkpt lat="22.44896878125" lon="114.11573679638671" /><trkpt lat="22.44915278125" lon="114.11601779638671" /><trkpt lat="22.44966678125" lon="114.11646679638672" /><trkpt lat="22.44988378125" lon="114.11696479638672" /><trkpt lat="22.45007978125" lon="114.11715179638672" /><trkpt lat="22.45027678125" lon="114.11728979638671" /><trkpt lat="22.45039578125" lon="114.11734979638672" /><trkpt lat="22.45050978125" lon="114.11750979638671" /><trkpt lat="22.45064678125" lon="114.11763079638672" /><trkpt lat="22.45085078125" lon="114.11794479638672" /><trkpt lat="22.45101978125" lon="114.11812279638671" /><trkpt lat="22.45108778125" lon="114.11824679638671" /><trkpt lat="22.45130678125" lon="114.11830979638673" /><trkpt lat="22.45134778125" lon="114.11833279638672" /><trkpt lat="22.45144478125" lon="114.11842279638672" /><trkpt lat="22.45162078125" lon="114.11847179638671" /><trkpt lat="22.45178278125" lon="114.11841779638672" /><trkpt lat="22.45188678125" lon="114.11837379638672" /><trkpt lat="22.45201278125" lon="114.11835879638672" /><trkpt lat="22.45209878125" lon="114.11836679638672" /><trkpt lat="22.45219178125" lon="114.11831179638672" /><trkpt lat="22.45236378125" lon="114.11829879638672" /><trkpt lat="22.45261878125" lon="114.11833979638672" /><trkpt lat="22.45294978125" lon="114.11862979638671" /><trkpt lat="22.45307778125" lon="114.11889879638672" /><trkpt lat="22.45317478125" lon="114.11886379638672" /><trkpt lat="22.45317478125" lon="114.11904079638671" /><trkpt lat="22.45331178125" lon="114.11908479638672" /><trkpt lat="22.45341378125" lon="114.11932179638671" /><trkpt lat="22.45350278125" lon="114.11936279638672" /><trkpt lat="22.45366878125" lon="114.11936579638672" /><trkpt lat="22.45380478125" lon="114.11942179638672" /><trkpt lat="22.45391678125" lon="114.11952779638672" /><trkpt lat="22.45405978125" lon="114.11972479638672" /><trkpt lat="22.45423578125" lon="114.11984079638673" /><trkpt lat="22.45439978125" lon="114.12003379638672" /><trkpt lat="22.45451578125" lon="114.12015379638672" /><trkpt lat="22.45471078125" lon="114.12034679638671" /><trkpt lat="22.45481578125" lon="114.12043779638672" /><trkpt lat="22.45485178125" lon="114.12048579638672" /><trkpt lat="22.45504778125" lon="114.12076479638672" /><trkpt lat="22.45517278125" lon="114.12099779638672" /><trkpt lat="22.45525678125" lon="114.12128679638671" /><trkpt lat="22.45547278125" lon="114.12148879638671" /><trkpt lat="22.45555878125" lon="114.12163679638672" /><trkpt lat="22.45568078125" lon="114.12174979638672" /><trkpt lat="22.45578078125" lon="114.12178679638671" /><trkpt lat="22.45596478125" lon="114.12176479638671" /><trkpt lat="22.45623278125" lon="114.12189779638672" /><trkpt lat="22.45700178125" lon="114.12198079638672" /><trkpt lat="22.45758978125" lon="114.12211679638672" /><trkpt lat="22.45790478125" lon="114.12230979638672" /><trkpt lat="22.45807178125" lon="114.12241679638672" /><trkpt lat="22.45820578125" lon="114.12254579638672" /><trkpt lat="22.45842178125" lon="114.12283679638672" /><trkpt lat="22.45860878125" lon="114.12297879638672" /><trkpt lat="22.45887878125" lon="114.12335579638672" /><trkpt lat="22.45921778125" lon="114.12372279638672" /><trkpt lat="22.45934478125" lon="114.12381779638672" /><trkpt lat="22.45961578125" lon="114.12391379638672" /><trkpt lat="22.45985078125" lon="114.12387079638673" /><trkpt lat="22.45999478125" lon="114.12390679638672" /><trkpt lat="22.46022978125" lon="114.12405279638672" /><trkpt lat="22.46033178125" lon="114.12419479638672" /><trkpt lat="22.46044678125" lon="114.12431779638672" /><trkpt lat="22.46055878125" lon="114.12438279638671" /><trkpt lat="22.46097178125" lon="114.12416079638672" /><trkpt lat="22.46110178125" lon="114.12410779638672" /><trkpt lat="22.46119578125" lon="114.12409679638672" /><trkpt lat="22.46127578125" lon="114.12408679638672" /><trkpt lat="22.46138678125" lon="114.12406279638672" /><trkpt lat="22.46149278125" lon="114.12410479638672" /><trkpt lat="22.46161878125" lon="114.12420279638673" /><trkpt lat="22.46172678125" lon="114.12425679638672" /><trkpt lat="22.46188878125" lon="114.12429679638672" /><trkpt lat="22.46204878125" lon="114.12443479638672" /><trkpt lat="22.46232178125" lon="114.12451879638672" /><trkpt lat="22.46239478125" lon="114.12456279638671" /><trkpt lat="22.46244378125" lon="114.12459079638671" /><trkpt lat="22.46277978125" lon="114.12463579638671" /><trkpt lat="22.46297578125" lon="114.12470279638671" /><trkpt lat="22.46306778125" lon="114.12472779638672" /><trkpt lat="22.46324078125" lon="114.12478879638672" /><trkpt lat="22.46369878125" lon="114.12479679638672" /><trkpt lat="22.46397678125" lon="114.12486479638672" /><trkpt lat="22.46421878125" lon="114.12496579638672" /><trkpt lat="22.46428878125" lon="114.12499179638672" /><trkpt lat="22.46439478125" lon="114.12509979638672" /><trkpt lat="22.46442178125" lon="114.12515179638672" /><trkpt lat="22.46441678125" lon="114.12533279638672" /><trkpt lat="22.46442678125" lon="114.12540679638671" /><trkpt lat="22.46442878125" lon="114.12548879638672" /><trkpt lat="22.46442778125" lon="114.12553179638672" /><trkpt lat="22.46443178125" lon="114.12557679638672" /><trkpt lat="22.46443578125" lon="114.12562279638672" /><trkpt lat="22.46444078125" lon="114.12567179638671" /><trkpt lat="22.46445978125" lon="114.12574679638672" /><trkpt lat="22.46450278125" lon="114.12584679638672" /><trkpt lat="22.46453278125" lon="114.12591879638671" /><trkpt lat="22.46454678125" lon="114.12598779638672" /><trkpt lat="22.46456878125" lon="114.12608179638671" /><trkpt lat="22.46457478125" lon="114.12612679638671" /><trkpt lat="22.46456678125" lon="114.12620879638672" /><trkpt lat="22.46455778125" lon="114.12627979638673" /><trkpt lat="22.46453378125" lon="114.12633779638672" /><trkpt lat="22.46453578125" lon="114.12642379638672" /><trkpt lat="22.46453178125" lon="114.12649679638672" /><trkpt lat="22.46450278125" lon="114.12661679638671" /><trkpt lat="22.46451278125" lon="114.12681379638671" /><trkpt lat="22.46454678125" lon="114.12693979638672" /><trkpt lat="22.46454078125" lon="114.12704279638672" /><trkpt lat="22.46450778125" lon="114.12712779638672" /><trkpt lat="22.46434978125" lon="114.12736779638672" /><trkpt lat="22.46465478125" lon="114.12756879638673" /><trkpt lat="22.46483378125" lon="114.12760779638671" /><trkpt lat="22.46499678125" lon="114.12761479638672" /><trkpt lat="22.46516678125" lon="114.12755579638672" /><trkpt lat="22.46525178125" lon="114.12758479638671" /><trkpt lat="22.46549378125" lon="114.12771379638671" /><trkpt lat="22.46563078125" lon="114.12791179638671" /><trkpt lat="22.46571678125" lon="114.12795679638671" /><trkpt lat="22.46583378125" lon="114.12793079638672" /><trkpt lat="22.46597478125" lon="114.12776579638673" /><trkpt lat="22.46604078125" lon="114.12778679638672" /><trkpt lat="22.46610478125" lon="114.12771679638672" /><trkpt lat="22.46613178125" lon="114.12768679638671" /><trkpt lat="22.46615978125" lon="114.12764979638672" /><trkpt lat="22.46619878125" lon="114.12765779638671" /><trkpt lat="22.46627478125" lon="114.12769379638672" /><trkpt lat="22.46632478125" lon="114.12767879638672" /><trkpt lat="22.46636578125" lon="114.12765479638672" /><trkpt lat="22.46640178125" lon="114.12768279638672" /><trkpt lat="22.46642478125" lon="114.12770379638673" /><trkpt lat="22.46645778125" lon="114.12773179638671" /><trkpt lat="22.46656478125" lon="114.12782679638671" /><trkpt lat="22.46663178125" lon="114.12787579638672" /><trkpt lat="22.46664378125" lon="114.12791279638672" /><trkpt lat="22.46669778125" lon="114.12803979638672" /><trkpt lat="22.46677778125" lon="114.12807279638672" /><trkpt lat="22.46683178125" lon="114.12810979638672" /><trkpt lat="22.46691378125" lon="114.12817379638672" /><trkpt lat="22.46700278125" lon="114.12820679638672" /><trkpt lat="22.46708578125" lon="114.12834679638672" /><trkpt lat="22.46722278125" lon="114.12846979638672" /><trkpt lat="22.46733178125" lon="114.12876079638671" /><trkpt lat="22.46741878125" lon="114.12877879638671" /><trkpt lat="22.46755078125" lon="114.12873179638672" /><trkpt lat="22.46771078125" lon="114.12867879638672" /><trkpt lat="22.46786378125" lon="114.12864579638672" /><trkpt lat="22.46799278125" lon="114.12875379638672" /><trkpt lat="22.46806778125" lon="114.12874979638671" /><trkpt lat="22.46815978125" lon="114.12869079638672" /><trkpt lat="22.46822378125" lon="114.12862379638672" /><trkpt lat="22.46830778125" lon="114.12857879638672" /><trkpt lat="22.46853178125" lon="114.12814679638672" /><trkpt lat="22.46879378125" lon="114.12794279638672" /><trkpt lat="22.46922578125" lon="114.12783179638672" /><trkpt lat="22.46967378125" lon="114.12768479638672" /><trkpt lat="22.47026878125" lon="114.12761879638671" /><trkpt lat="22.47045278125" lon="114.12745579638671" /><trkpt lat="22.47049478125" lon="114.12717279638672" /><trkpt lat="22.47086878125" lon="114.12648879638672" /><trkpt lat="22.47129578125" lon="114.12622279638671" /><trkpt lat="22.47151578125" lon="114.12597779638672" /><trkpt lat="22.47168578125" lon="114.12594479638672" /><trkpt lat="22.47192478125" lon="114.12588579638673" /><trkpt lat="22.47210678125" lon="114.12556979638671" /><trkpt lat="22.47218378125" lon="114.12552979638672" /><trkpt lat="22.47247278125" lon="114.12550779638671" /><trkpt lat="22.47279678125" lon="114.12528079638672" /><trkpt lat="22.47294078125" lon="114.12524179638672" /><trkpt lat="22.47311378125" lon="114.12524979638673" /><trkpt lat="22.47314878125" lon="114.12530079638672" /><trkpt lat="22.47341378125" lon="114.12525579638672" /><trkpt lat="22.47363178125" lon="114.12533079638672" /><trkpt lat="22.47436678125" lon="114.12502579638672" /><trkpt lat="22.47441778125" lon="114.12503279638672" /><trkpt lat="22.47461578125" lon="114.12505779638671" /><trkpt lat="22.47505678125" lon="114.12562479638672" /><trkpt lat="22.47523878125" lon="114.12576579638672" /><trkpt lat="22.47540378125" lon="114.12589379638672" /><trkpt lat="22.47559878125" lon="114.12610179638672" /><trkpt lat="22.47580578125" lon="114.12632179638672" /><trkpt lat="22.47602178125" lon="114.12641779638672" /><trkpt lat="22.47648178125" lon="114.12660079638673" /><trkpt lat="22.47694878125" lon="114.12699279638672" /><trkpt lat="22.47729078125" lon="114.12734479638672" /><trkpt lat="22.47766178125" lon="114.12760179638671" /><trkpt lat="22.47786478125" lon="114.12770779638672" /><trkpt lat="22.47795578125" lon="114.12783479638672" /><trkpt lat="22.47804678125" lon="114.12799579638671" /><trkpt lat="22.47817378125" lon="114.12810479638672" /><trkpt lat="22.47829378125" lon="114.12813779638672" /><trkpt lat="22.47835178125" lon="114.12820079638672" /><trkpt lat="22.47843478125" lon="114.12831079638671" /><trkpt lat="22.47849378125" lon="114.12842579638672" /><trkpt lat="22.47865178125" lon="114.12854679638671" /><trkpt lat="22.47882278125" lon="114.12867179638671" /><trkpt lat="22.47905578125" lon="114.12883979638671" /><trkpt lat="22.47917878125" lon="114.12892779638672" /><trkpt lat="22.47930578125" lon="114.12897779638672" /><trkpt lat="22.47943578125" lon="114.12902779638672" /><trkpt lat="22.479744781249998" lon="114.12901579638672" /><trkpt lat="22.48018678125" lon="114.12921779638671" /><trkpt lat="22.48035478125" lon="114.12925079638671" /><trkpt lat="22.48057978125" lon="114.12927579638672" /><trkpt lat="22.48084078125" lon="114.12939579638672" /><trkpt lat="22.48101778125" lon="114.12943079638671" /><trkpt lat="22.48123478125" lon="114.12938279638672" /><trkpt lat="22.48134078125" lon="114.12938879638672" /><trkpt lat="22.48147178125" lon="114.12953179638671" /><trkpt lat="22.48161778125" lon="114.12971379638672" /><trkpt lat="22.48176478125" lon="114.12984079638672" /><trkpt lat="22.48197678125" lon="114.13008279638672" /><trkpt lat="22.48210278125" lon="114.13031979638671" /><trkpt lat="22.48235578125" lon="114.13063179638672" /><trkpt lat="22.48277078125" lon="114.13127379638672" /><trkpt lat="22.48285078125" lon="114.13142779638672" /><trkpt lat="22.48415278125" lon="114.13122479638672" /><trkpt lat="22.48435778125" lon="114.13136979638672" /><trkpt lat="22.48441078125" lon="114.13143479638671" /><trkpt lat="22.48547978125" lon="114.13273779638672" /><trkpt lat="22.48616478125" lon="114.13365579638672" /><trkpt lat="22.48679978125" lon="114.13428679638672" /><trkpt lat="22.48691178125" lon="114.13441979638672" /><trkpt lat="22.48699978125" lon="114.13462879638672" /><trkpt lat="22.48708478125" lon="114.13490579638672" /><trkpt lat="22.48715078125" lon="114.13519179638672" /><trkpt lat="22.48718578125" lon="114.13535479638672" /><trkpt lat="22.48732578125" lon="114.13545679638672" /><trkpt lat="22.48740678125" lon="114.13548979638672" /><trkpt lat="22.48747578125" lon="114.13553879638673" /><trkpt lat="22.48756278125" lon="114.13556079638671" /><trkpt lat="22.48764378125" lon="114.13561379638672" /><trkpt lat="22.48790578125" lon="114.13560479638672" /><trkpt lat="22.48806578125" lon="114.13555779638672" /><trkpt lat="22.48813478125" lon="114.13551379638672" /><trkpt lat="22.48823278125" lon="114.13549179638672" /><trkpt lat="22.48831778125" lon="114.13552979638672" /><trkpt lat="22.48838678125" lon="114.13557779638671" /><trkpt lat="22.48848178125" lon="114.13560779638672" /><trkpt lat="22.48857478125" lon="114.13561079638671" /><trkpt lat="22.48864878125" lon="114.13557079638672" /><trkpt lat="22.48874278125" lon="114.13555379638672" /><trkpt lat="22.48882778125" lon="114.13556579638671" /><trkpt lat="22.48896178125" lon="114.13568679638672" /><trkpt lat="22.48906978125" lon="114.13582679638672" /><trkpt lat="22.48911878125" lon="114.13590879638672" /><trkpt lat="22.48914278125" lon="114.13599379638671" /><trkpt lat="22.48922778125" lon="114.13614779638672" /><trkpt lat="22.48977078125" lon="114.13603479638672" /><trkpt lat="22.48992978125" lon="114.13606779638671" /><trkpt lat="22.49002278125" lon="114.13610979638672" /><trkpt lat="22.49009978125" lon="114.13616479638672" /><trkpt lat="22.49023178125" lon="114.13651079638672" /><trkpt lat="22.49037678125" lon="114.13673079638671" /><trkpt lat="22.49048178125" lon="114.13685279638672" /><trkpt lat="22.49052778125" lon="114.13689979638671" /><trkpt lat="22.49061378125" lon="114.13689879638672" /><trkpt lat="22.49062878125" lon="114.13692079638672" /><trkpt lat="22.49085178125" lon="114.13724479638672" /><trkpt lat="22.49092478125" lon="114.13733179638672" /><trkpt lat="22.49103878125" lon="114.13751279638672" /><trkpt lat="22.49107578125" lon="114.13761279638672" /><trkpt lat="22.49114678125" lon="114.13764479638672" /><trkpt lat="22.49121778125" lon="114.13770179638672" /><trkpt lat="22.49125278125" lon="114.13780979638672" /><trkpt lat="22.49126178125" lon="114.13791079638672" /><trkpt lat="22.49124978125" lon="114.13794579638672" /><trkpt lat="22.49120878125" lon="114.13800979638673" /><trkpt lat="22.49126378125" lon="114.13807579638672" /><trkpt lat="22.49133278125" lon="114.13816079638671" /><trkpt lat="22.49138578125" lon="114.13822979638672" /><trkpt lat="22.491416710075047" lon="114.13819275818572" /><trkpt lat="22.491460249063365" lon="114.13824497219451" /><trkpt lat="22.49144529551546" lon="114.13828392164618" /><trkpt lat="22.4914106310095" lon="114.13829926994225" /><trkpt lat="22.491418640789142" lon="114.13838926089888" /><trkpt lat="22.49144878125" lon="114.13840879638671" /><trkpt lat="22.49175878125" lon="114.13874179638673" /><trkpt lat="22.49180578125" lon="114.13880579638672" /><trkpt lat="22.491913055374575" lon="114.13891307038661" /></trkseg></trk></gpx>