<?xml version='1.0' encoding='UTF-8' ?><gpx version="1.1" creator="HikingTrailHK" xsi:schemaLocation="http://www.topografix.com/GPX/1/1 http://www.topografix.com/GPX/1/1/gpx.xsd https://hikingtrailhk.appspot.com/xml/gpxextensions/v1 https://hikingtrailhk.appspot.com/xml/gpxextensions/v1/gpxextensions.xsd" xmlns="http://www.topografix.com/GPX/1/1" xmlns:h="https://hikingtrailhk.appspot.com/xml/gpxextensions/v1" xmlns:xsi="http://www.w3.org/2001/XMLSchema-instance"><metadata><name>大帽山日出 @ 2015-12-31</name><desc></desc><extensions><h:categoryid>scenery_route</h:categoryid></extensions></metadata><trk><trkseg><trkpt lat="22.440913930776336" lon="114.12708118646728" /><trkpt lat="22.44082478125" lon="114.12700279638672" /><trkpt lat="22.44078978125" lon="114.12698679638672" /><trkpt lat="22.44067978125" lon="114.12687079638673" /><trkpt lat="22.44061978125" lon="114.12687679638672" /><trkpt lat="22.44047978125" lon="114.12689479638672" /><trkpt lat="22.44039078125" lon="114.12691179638672" /><trkpt lat="22.44028078125" lon="114.12698279638671" /><trkpt lat="22.44018478125" lon="114.12704779638672" /><trkpt lat="22.44011778125" lon="114.12711079638672" /><trkpt lat="22.44006978125" lon="114.12717779638672" /><trkpt lat="22.44002078125" lon="114.12722679638672" /><trkpt lat="22.43996978125" lon="114.12728379638672" /><trkpt lat="22.43988478125" lon="114.12732679638673" /><trkpt lat="22.43983978125" lon="114.12733779638671" /><trkpt lat="22.43976478125" lon="114.12734079638672" /><trkpt lat="22.43973178125" lon="114.12736179638672" /><trkpt lat="22.43968678125" lon="114.12740379638672" /><trkpt lat="22.43962978125" lon="114.12745479638671" /><trkpt lat="22.43957178125" lon="114.12750379638672" /><trkpt lat="22.43949178125" lon="114.12755279638672" /><trkpt lat="22.43943778125" lon="114.12758279638672" /><trkpt lat="22.43940178125" lon="114.12758879638672" /><trkpt lat="22.43934878125" lon="114.12757779638672" /><trkpt lat="22.43932778125" lon="114.12756679638672" /><trkpt lat="22.43930678125" lon="114.12756579638672" /><trkpt lat="22.43927878125" lon="114.12756779638671" /><trkpt lat="22.43925278125" lon="114.12760979638672" /><trkpt lat="22.43924478125" lon="114.12764479638672" /><trkpt lat="22.43922478125" lon="114.12773179638671" /><trkpt lat="22.43921578125" lon="114.12775879638671" /><trkpt lat="22.43919478125" lon="114.12777679638671" /><trkpt lat="22.43916978125" lon="114.12778079638672" /><trkpt lat="22.43912378125" lon="114.12774079638672" /><trkpt lat="22.43908178125" lon="114.12768679638671" /><trkpt lat="22.43903478125" lon="114.12761279638671" /><trkpt lat="22.43899378125" lon="114.12756779638671" /><trkpt lat="22.43894178125" lon="114.12752679638672" /><trkpt lat="22.43884278125" lon="114.12747179638671" /><trkpt lat="22.43883178125" lon="114.12746579638672" /><trkpt lat="22.43880278125" lon="114.12745379638672" /><trkpt lat="22.43873078125" lon="114.12743279638671" /><trkpt lat="22.43867878125" lon="114.12744179638672" /><trkpt lat="22.43862478125" lon="114.12743879638671" /><trkpt lat="22.43856978125" lon="114.12742679638671" /><trkpt lat="22.438537781249998" lon="114.12742879638672" /><trkpt lat="22.43848278125" lon="114.12746279638672" /><trkpt lat="22.43846578125" lon="114.12748579638672" /><trkpt lat="22.43845778125" lon="114.12749679638672" /><trkpt lat="22.43839578125" lon="114.12751379638672" /><trkpt lat="22.43834578125" lon="114.12749979638672" /><trkpt lat="22.43823678125" lon="114.12746379638672" /><trkpt lat="22.43819678125" lon="114.12745179638672" /><trkpt lat="22.43808478125" lon="114.12745279638672" /><trkpt lat="22.43803878125" lon="114.12748779638672" /><trkpt lat="22.43802878125" lon="114.12748979638671" /><trkpt lat="22.43801078125" lon="114.12749679638672" /><trkpt lat="22.43797878125" lon="114.12751979638672" /><trkpt lat="22.43791078125" lon="114.12756379638672" /><trkpt lat="22.43784478125" lon="114.12757379638671" /><trkpt lat="22.43781178125" lon="114.12758279638672" /><trkpt lat="22.43777378125" lon="114.12759479638672" /><trkpt lat="22.43773478125" lon="114.12761779638672" /><trkpt lat="22.43767578125" lon="114.12767879638672" /><trkpt lat="22.43759678125" lon="114.12776579638673" /><trkpt lat="22.43757978125" lon="114.12778279638673" /><trkpt lat="22.43756478125" lon="114.12779279638671" /><trkpt lat="22.43754478125" lon="114.12780279638672" /><trkpt lat="22.43751578125" lon="114.12780779638672" /><trkpt lat="22.43739878125" lon="114.12781779638672" /><trkpt lat="22.43737078125" lon="114.12782679638671" /><trkpt lat="22.43734478125" lon="114.12783879638671" /><trkpt lat="22.43730478125" lon="114.12786579638671" /><trkpt lat="22.43723278125" lon="114.12794879638672" /><trkpt lat="22.43710878125" lon="114.12785279638672" /><trkpt lat="22.43709078125" lon="114.12783379638672" /><trkpt lat="22.43708078125" lon="114.12780779638672" /><trkpt lat="22.43707278125" lon="114.12775979638671" /><trkpt lat="22.43707078125" lon="114.12774479638672" /><trkpt lat="22.43706578125" lon="114.12772779638672" /><trkpt lat="22.43705678125" lon="114.12771479638671" /><trkpt lat="22.43693178125" lon="114.12760979638672" /><trkpt lat="22.43686878125" lon="114.12768279638672" /><trkpt lat="22.43684478125" lon="114.12772779638672" /><trkpt lat="22.43674878125" lon="114.12776079638672" /><trkpt lat="22.43669178125" lon="114.12775779638672" /><trkpt lat="22.43659078125" lon="114.12801379638672" /><trkpt lat="22.43650478125" lon="114.12807879638672" /><trkpt lat="22.43647978125" lon="114.12811979638671" /><trkpt lat="22.43644378125" lon="114.12812079638672" /><trkpt lat="22.43617978125" lon="114.12815079638672" /><trkpt lat="22.43610478125" lon="114.12820179638672" /><trkpt lat="22.43606778125" lon="114.12822379638672" /><trkpt lat="22.43600878125" lon="114.12824979638673" /><trkpt lat="22.43590178125" lon="114.12825879638672" /><trkpt lat="22.43578078125" lon="114.12837579638672" /><trkpt lat="22.43576678125" lon="114.12849279638672" /><trkpt lat="22.43578178125" lon="114.12865479638671" /><trkpt lat="22.43581278125" lon="114.12879979638672" /><trkpt lat="22.43580478125" lon="114.12886979638672" /><trkpt lat="22.43578278125" lon="114.12890879638672" /><trkpt lat="22.43566178125" lon="114.12893779638672" /><trkpt lat="22.43548878125" lon="114.12904379638672" /><trkpt lat="22.43535378125" lon="114.12921379638672" /><trkpt lat="22.43522878125" lon="114.12945779638672" /><trkpt lat="22.43515678125" lon="114.12975079638672" /><trkpt lat="22.43516178125" lon="114.12985379638671" /><trkpt lat="22.43510978125" lon="114.13002479638672" /><trkpt lat="22.43513578125" lon="114.13009379638672" /><trkpt lat="22.43507278125" lon="114.13014379638672" /><trkpt lat="22.43498578125" lon="114.13010979638672" /><trkpt lat="22.43473878125" lon="114.13016079638672" /><trkpt lat="22.43429678125" lon="114.12988579638672" /><trkpt lat="22.43422378125" lon="114.12992679638671" /><trkpt lat="22.43411178125" lon="114.12989979638672" /><trkpt lat="22.43395978125" lon="114.12990679638672" /><trkpt lat="22.43388078125" lon="114.12980479638672" /><trkpt lat="22.43380578125" lon="114.12977879638672" /><trkpt lat="22.43372478125" lon="114.12984679638672" /><trkpt lat="22.43363878125" lon="114.12986579638672" /><trkpt lat="22.43347378125" lon="114.12982079638672" /><trkpt lat="22.43340178125" lon="114.12976979638673" /><trkpt lat="22.43332578125" lon="114.12974479638672" /><trkpt lat="22.43324978125" lon="114.12978679638672" /><trkpt lat="22.43308078125" lon="114.12983179638672" /><trkpt lat="22.43291778125" lon="114.12978279638672" /><trkpt lat="22.43286178125" lon="114.12984579638672" /><trkpt lat="22.43278178125" lon="114.12988279638672" /><trkpt lat="22.43269678125" lon="114.12987779638672" /><trkpt lat="22.43261178125" lon="114.12985179638672" /><trkpt lat="22.43251778125" lon="114.12975679638672" /><trkpt lat="22.43239678125" lon="114.12972679638672" /><trkpt lat="22.43224978125" lon="114.12973079638672" /><trkpt lat="22.43208978125" lon="114.12971879638671" /><trkpt lat="22.43199878125" lon="114.12967279638671" /><trkpt lat="22.43195478125" lon="114.12974879638672" /><trkpt lat="22.43205678125" lon="114.12990479638673" /><trkpt lat="22.43224978125" lon="114.13014479638672" /><trkpt lat="22.43229378125" lon="114.13031179638672" /><trkpt lat="22.43226578125" lon="114.13047079638672" /><trkpt lat="22.43215878125" lon="114.13064379638672" /><trkpt lat="22.43148578125" lon="114.13087579638672" /><trkpt lat="22.43123378125" lon="114.13096279638673" /><trkpt lat="22.43111378125" lon="114.13087479638672" /><trkpt lat="22.43083978125" lon="114.13086679638671" /><trkpt lat="22.43049278125" lon="114.13105279638671" /><trkpt lat="22.43030878125" lon="114.13110479638672" /><trkpt lat="22.42996678125" lon="114.13124579638672" /><trkpt lat="22.42976778125" lon="114.13131979638672" /><trkpt lat="22.42942178125" lon="114.13139679638672" /><trkpt lat="22.42923278125" lon="114.13144979638672" /><trkpt lat="22.42894578125" lon="114.13148179638672" /><trkpt lat="22.42862378125" lon="114.13161579638673" /><trkpt lat="22.42827978125" lon="114.13160779638672" /><trkpt lat="22.42802378125" lon="114.13162179638672" /><trkpt lat="22.42788978125" lon="114.13164179638672" /><trkpt lat="22.42772478125" lon="114.13172179638671" /><trkpt lat="22.42750878125" lon="114.13173379638671" /><trkpt lat="22.42719578125" lon="114.13179279638672" /><trkpt lat="22.42709778125" lon="114.13176679638671" /><trkpt lat="22.42700178125" lon="114.13173479638672" /><trkpt lat="22.42692778125" lon="114.13160179638672" /><trkpt lat="22.42696178125" lon="114.13149379638672" /><trkpt lat="22.42683078125" lon="114.13138779638672" /><trkpt lat="22.42678978125" lon="114.13116479638671" /><trkpt lat="22.42666478125" lon="114.13122479638672" /><trkpt lat="22.42656378125" lon="114.13112579638671" /><trkpt lat="22.42631778125" lon="114.13129479638671" /><trkpt lat="22.42617078125" lon="114.13155079638672" /><trkpt lat="22.42605478125" lon="114.13159279638671" /><trkpt lat="22.42595578125" lon="114.13154979638672" /><trkpt lat="22.42579578125" lon="114.13148079638673" /><trkpt lat="22.42563878125" lon="114.13133179638672" /><trkpt lat="22.42549378125" lon="114.13141579638672" /><trkpt lat="22.42511478125" lon="114.13135779638672" /><trkpt lat="22.42509878125" lon="114.13140279638672" /><trkpt lat="22.42489978125" lon="114.13145379638672" /><trkpt lat="22.42492978125" lon="114.13117879638672" /><trkpt lat="22.42449678125" lon="114.13130779638672" /><trkpt lat="22.42434478125" lon="114.13142879638671" /><trkpt lat="22.42429478125" lon="114.13169879638671" /><trkpt lat="22.42418378125" lon="114.13167679638671" /><trkpt lat="22.42397078125" lon="114.13222179638672" /><trkpt lat="22.42380078125" lon="114.13176779638673" /><trkpt lat="22.42372878125" lon="114.13152579638673" /><trkpt lat="22.42361378125" lon="114.13137879638671" /><trkpt lat="22.42348578125" lon="114.13128979638672" /><trkpt lat="22.42344778125" lon="114.13101179638672" /><trkpt lat="22.42350278125" lon="114.13084379638671" /><trkpt lat="22.42339378125" lon="114.13055379638672" /><trkpt lat="22.42336478125" lon="114.13041679638673" /><trkpt lat="22.42325578125" lon="114.13021079638672" /><trkpt lat="22.42324878125" lon="114.13008879638672" /><trkpt lat="22.42308278125" lon="114.12999779638672" /><trkpt lat="22.42283778125" lon="114.12960779638672" /><trkpt lat="22.42274578125" lon="114.12904679638672" /><trkpt lat="22.42201578125" lon="114.12880079638671" /><trkpt lat="22.42167178125" lon="114.12890679638672" /><trkpt lat="22.42118478125" lon="114.12889679638671" /><trkpt lat="22.42069778125" lon="114.12897879638672" /><trkpt lat="22.42049278125" lon="114.12892879638672" /><trkpt lat="22.42037778125" lon="114.12898879638672" /><trkpt lat="22.42015978125" lon="114.12901179638672" /><trkpt lat="22.42001478125" lon="114.12934779638672" /><trkpt lat="22.41984178125" lon="114.12958579638672" /><trkpt lat="22.41992678125" lon="114.12982779638672" /><trkpt lat="22.41986678125" lon="114.12994879638671" /><trkpt lat="22.41970778125" lon="114.12997479638672" /><trkpt lat="22.41931778125" lon="114.13029679638672" /><trkpt lat="22.41880978125" lon="114.13024579638672" /><trkpt lat="22.41857678125" lon="114.13037179638673" /><trkpt lat="22.41793378125" lon="114.13055479638672" /><trkpt lat="22.41775478125" lon="114.13076679638672" /><trkpt lat="22.41764878125" lon="114.13099279638672" /><trkpt lat="22.41765678125" lon="114.13137079638672" /><trkpt lat="22.41721978125" lon="114.13161979638672" /><trkpt lat="22.41703878125" lon="114.13192479638671" /><trkpt lat="22.41688678125" lon="114.13233679638672" /><trkpt lat="22.41679278125" lon="114.13233679638672" /><trkpt lat="22.41678378125" lon="114.13227779638672" /><trkpt lat="22.41673878125" lon="114.13213179638672" /><trkpt lat="22.41673278125" lon="114.13201779638672" /><trkpt lat="22.41678578125" lon="114.13182479638672" /><trkpt lat="22.41682878125" lon="114.13158279638672" /><trkpt lat="22.41679878125" lon="114.13139279638672" /><trkpt lat="22.41674578125" lon="114.13127279638672" /><trkpt lat="22.41653278125" lon="114.13103279638672" /><trkpt lat="22.41649178125" lon="114.13082079638671" /><trkpt lat="22.41650178125" lon="114.13067079638672" /><trkpt lat="22.41654578125" lon="114.13048879638671" /><trkpt lat="22.41678378125" lon="114.12999579638672" /><trkpt lat="22.41669678125" lon="114.12958179638672" /><trkpt lat="22.41672078125" lon="114.12945479638672" /><trkpt lat="22.41688478125" lon="114.12860879638671" /><trkpt lat="22.41691278125" lon="114.12846379638673" /><trkpt lat="22.41688578125" lon="114.12815079638672" /><trkpt lat="22.41678478125" lon="114.12785779638672" /><trkpt lat="22.41670178125" lon="114.12786079638671" /><trkpt lat="22.41658378125" lon="114.12789179638672" /><trkpt lat="22.41643878125" lon="114.12787679638672" /><trkpt lat="22.41642578125" lon="114.12779079638672" /><trkpt lat="22.41647078125" lon="114.12738379638672" /><trkpt lat="22.41644178125" lon="114.12706379638672" /><trkpt lat="22.41638878125" lon="114.12670079638671" /><trkpt lat="22.41623478125" lon="114.12633579638671" /><trkpt lat="22.41620678125" lon="114.12576279638672" /><trkpt lat="22.41596678125" lon="114.12561079638672" /><trkpt lat="22.41551178125" lon="114.12510879638671" /><trkpt lat="22.41532878125" lon="114.12504479638672" /><trkpt lat="22.41500078125" lon="114.12504779638672" /><trkpt lat="22.41490278125" lon="114.12490979638672" /><trkpt lat="22.41484278125" lon="114.12466779638672" /><trkpt lat="22.41427878125" lon="114.12435379638671" /><trkpt lat="22.41416978125" lon="114.12413879638672" /><trkpt lat="22.41411878125" lon="114.12390579638672" /><trkpt lat="22.41411378125" lon="114.12367179638672" /><trkpt lat="22.41411278125" lon="114.12353879638673" /><trkpt lat="22.41407078125" lon="114.12349079638672" /><trkpt lat="22.41401478125" lon="114.12354179638672" /><trkpt lat="22.41392178125" lon="114.12372179638672" /><trkpt lat="22.41381778125" lon="114.12439479638672" /><trkpt lat="22.41377778125" lon="114.12445279638672" /><trkpt lat="22.41372278125" lon="114.12446779638672" /><trkpt lat="22.41365578125" lon="114.12442379638672" /><trkpt lat="22.41359978125" lon="114.12430979638673" /><trkpt lat="22.41349778125" lon="114.12381179638672" /><trkpt lat="22.41318178125" lon="114.12374679638671" /><trkpt lat="22.41300578125" lon="114.12363179638672" /><trkpt lat="22.41294278125" lon="114.12364379638672" /><trkpt lat="22.41292878125" lon="114.12370179638671" /><trkpt lat="22.41296478125" lon="114.12382179638672" /><trkpt lat="22.41317278125" lon="114.12402479638672" /><trkpt lat="22.41319378125" lon="114.12421179638672" /><trkpt lat="22.41306678125" lon="114.12435579638672" /><trkpt lat="22.41226578125" lon="114.12470579638672" /><trkpt lat="22.41199778125" lon="114.12489679638672" /><trkpt lat="22.41131578259909" lon="114.12499646747914" /><trkpt lat="22.41143976373344" lon="114.12510912025776" /><trkpt lat="22.41158734533154" lon="114.1249535521349" /><trkpt lat="22.41188369216988" lon="114.12498850401629" /><trkpt lat="22.411891054128105" lon="114.1249911030611" /><trkpt lat="22.41190708807345" lon="114.1249911030611" /><trkpt lat="22.411910891034893" lon="114.12499227587271" /><trkpt lat="22.41191203337621" lon="114.12500183189717" /><trkpt lat="22.41192244581387" lon="114.1250071963152" /><trkpt lat="22.411933430934752" lon="114.12501548424937" /><trkpt lat="22.41194786002832" lon="114.1250364570153" /><trkpt lat="22.41195806905756" lon="114.1250447472414" /><trkpt lat="22.411965442513974" lon="114.12505513490781" /><trkpt lat="22.411965442513974" lon="114.12506620491352" /><trkpt lat="22.41194178125" lon="114.12490879638672" /><trkpt lat="22.41199778125" lon="114.12489679638672" /><trkpt lat="22.41205878125" lon="114.12485779638672" /><trkpt lat="22.41226578125" lon="114.12470579638672" /><trkpt lat="22.41306678125" lon="114.12435579638672" /><trkpt lat="22.41319378125" lon="114.12421179638672" /><trkpt lat="22.41317278125" lon="114.12402479638672" /><trkpt lat="22.41296478125" lon="114.12382179638672" /><trkpt lat="22.41292878125" lon="114.12370179638671" /><trkpt lat="22.41294278125" lon="114.12364379638672" /><trkpt lat="22.41300578125" lon="114.12363179638672" /><trkpt lat="22.41318178125" lon="114.12374679638671" /><trkpt lat="22.41349778125" lon="114.12381179638672" /><trkpt lat="22.41359978125" lon="114.12430979638673" /><trkpt lat="22.41365578125" lon="114.12442379638672" /><trkpt lat="22.41372278125" lon="114.12446779638672" /><trkpt lat="22.41377778125" lon="114.12445279638672" /><trkpt lat="22.41381778125" lon="114.12439479638672" /><trkpt lat="22.41392178125" lon="114.12372179638672" /><trkpt lat="22.41401478125" lon="114.12354179638672" /><trkpt lat="22.41407078125" lon="114.12349079638672" /><trkpt lat="22.41411278125" lon="114.12353879638673" /><trkpt lat="22.41411378125" lon="114.12367179638672" /><trkpt lat="22.41411878125" lon="114.12390579638672" /><trkpt lat="22.41416978125" lon="114.12413879638672" /><trkpt lat="22.41427878125" lon="114.12435379638671" /><trkpt lat="22.41484278125" lon="114.12466779638672" /><trkpt lat="22.41490278125" lon="114.12490979638672" /><trkpt lat="22.41500078125" lon="114.12504779638672" /><trkpt lat="22.41532878125" lon="114.12504479638672" /><trkpt lat="22.41551178125" lon="114.12510879638671" /><trkpt lat="22.41596678125" lon="114.12561079638672" /><trkpt lat="22.41620678125" lon="114.12576279638672" /><trkpt lat="22.41623478125" lon="114.12633579638671" /><trkpt lat="22.41638878125" lon="114.12670079638671" /><trkpt lat="22.41644178125" lon="114.12706379638672" /><trkpt lat="22.41647078125" lon="114.12738379638672" /><trkpt lat="22.41642578125" lon="114.12779079638672" /><trkpt lat="22.41643878125" lon="114.12787679638672" /><trkpt lat="22.41658378125" lon="114.12789179638672" /><trkpt lat="22.41670178125" lon="114.12786079638671" /><trkpt lat="22.41678478125" lon="114.12785779638672" /><trkpt lat="22.41688578125" lon="114.12815079638672" /><trkpt lat="22.41691278125" lon="114.12846379638673" /><trkpt lat="22.41688478125" lon="114.12860879638671" /><trkpt lat="22.41672078125" lon="114.12945479638672" /><trkpt lat="22.41669678125" lon="114.12958179638672" /><trkpt lat="22.41678378125" lon="114.12999579638672" /><trkpt lat="22.41654578125" lon="114.13048879638671" /><trkpt lat="22.41650178125" lon="114.13067079638672" /><trkpt lat="22.41649178125" lon="114.13082079638671" /><trkpt lat="22.41653278125" lon="114.13103279638672" /><trkpt lat="22.41674578125" lon="114.13127279638672" /><trkpt lat="22.41679878125" lon="114.13139279638672" /><trkpt lat="22.41682878125" lon="114.13158279638672" /><trkpt lat="22.41678578125" lon="114.13182479638672" /><trkpt lat="22.41673278125" lon="114.13201779638672" /><trkpt lat="22.41673878125" lon="114.13213179638672" /><trkpt lat="22.41678378125" lon="114.13227779638672" /><trkpt lat="22.41679278125" lon="114.13233679638672" /><trkpt lat="22.41679378125" lon="114.13241579638672" /><trkpt lat="22.41677178125" lon="114.13255079638672" /><trkpt lat="22.41676478125" lon="114.13262679638672" /><trkpt lat="22.41677978125" lon="114.13297979638672" /><trkpt lat="22.41681278125" lon="114.13302079638672" /><trkpt lat="22.41683578125" lon="114.13306979638672" /><trkpt lat="22.41683678125" lon="114.13312479638672" /><trkpt lat="22.41656478125" lon="114.13388379638671" /><trkpt lat="22.41664478125" lon="114.13413379638672" /><trkpt lat="22.41672778125" lon="114.13431179638673" /><trkpt lat="22.41676578125" lon="114.13442479638672" /><trkpt lat="22.41676578125" lon="114.13458979638672" /><trkpt lat="22.41679978125" lon="114.13473379638671" /><trkpt lat="22.41683178125" lon="114.13484479638672" /><trkpt lat="22.41695278125" lon="114.13489579638672" /><trkpt lat="22.41700778125" lon="114.13498779638672" /><trkpt lat="22.41715578125" lon="114.13524379638672" /><trkpt lat="22.41715778125" lon="114.13536679638672" /><trkpt lat="22.417130781250002" lon="114.13545379638671" /><trkpt lat="22.41711078125" lon="114.13553279638671" /><trkpt lat="22.41709178125" lon="114.13562279638671" /><trkpt lat="22.41708678125" lon="114.13569979638672" /><trkpt lat="22.41718478125" lon="114.13585079638672" /><trkpt lat="22.41718278125" lon="114.13591179638672" /><trkpt lat="22.41719178125" lon="114.13599279638672" /><trkpt lat="22.41720478125" lon="114.13607879638671" /><trkpt lat="22.41720078125" lon="114.13629279638671" /><trkpt lat="22.41724378125" lon="114.13646179638671" /><trkpt lat="22.41711378125" lon="114.13669379638672" /><trkpt lat="22.41711278125" lon="114.13683979638672" /><trkpt lat="22.41719478125" lon="114.13701479638672" /><trkpt lat="22.41727078125" lon="114.13709279638672" /><trkpt lat="22.41746278125" lon="114.13722179638673" /><trkpt lat="22.41751878125" lon="114.13737079638672" /><trkpt lat="22.41754478125" lon="114.13749679638671" /><trkpt lat="22.41760078125" lon="114.13758179638671" /><trkpt lat="22.41761578125" lon="114.13771479638672" /><trkpt lat="22.41752878125" lon="114.13795079638672" /><trkpt lat="22.41744578125" lon="114.13835279638671" /><trkpt lat="22.41727778125" lon="114.13840879638671" /><trkpt lat="22.41722878125" lon="114.13864479638671" /><trkpt lat="22.41722678125" lon="114.13900079638672" /><trkpt lat="22.41740178125" lon="114.13943279638671" /><trkpt lat="22.41740178125" lon="114.13954079638673" /><trkpt lat="22.41712478125" lon="114.13993779638672" /><trkpt lat="22.41706478125" lon="114.14017979638672" /><trkpt lat="22.41707378125" lon="114.14046679638672" /><trkpt lat="22.41687278125" lon="114.14094379638672" /><trkpt lat="22.41669878125" lon="114.14113479638672" /><trkpt lat="22.41658978125" lon="114.14116479638672" /><trkpt lat="22.41634378125" lon="114.14147679638671" /><trkpt lat="22.41616978125" lon="114.14186379638672" /><trkpt lat="22.41602378125" lon="114.14205379638672" /><trkpt lat="22.41604578125" lon="114.14219979638672" /><trkpt lat="22.41593078125" lon="114.14249779638672" /><trkpt lat="22.41590978125" lon="114.14288179638672" /><trkpt lat="22.41581878125" lon="114.14304879638672" /><trkpt lat="22.41583778125" lon="114.14327979638672" /><trkpt lat="22.41576278125" lon="114.14348179638672" /><trkpt lat="22.41602178125" lon="114.14418379638671" /><trkpt lat="22.41617178125" lon="114.14429479638672" /><trkpt lat="22.41640778125" lon="114.14493479638672" /><trkpt lat="22.41657978125" lon="114.14544679638672" /><trkpt lat="22.41661378125" lon="114.14577979638672" /><trkpt lat="22.41685278125" lon="114.14612479638672" /><trkpt lat="22.41679478125" lon="114.14639779638672" /><trkpt lat="22.41686678125" lon="114.14673479638672" /><trkpt lat="22.41668578125" lon="114.14726979638672" /><trkpt lat="22.41652478125" lon="114.14754879638672" /><trkpt lat="22.41666678125" lon="114.14783279638672" /><trkpt lat="22.41662378125" lon="114.14794879638671" /><trkpt lat="22.41629678125" lon="114.14826379638671" /><trkpt lat="22.41602078125" lon="114.14837079638671" /><trkpt lat="22.41568578125" lon="114.14863579638671" /><trkpt lat="22.41541778125" lon="114.14934979638672" /><trkpt lat="22.41509978125" lon="114.14983079638672" /><trkpt lat="22.41498178125" lon="114.15018179638672" /><trkpt lat="22.41478878125" lon="114.15027979638671" /><trkpt lat="22.41455478125" lon="114.15073979638672" /><trkpt lat="22.41453478125" lon="114.15087979638672" /><trkpt lat="22.41437478125" lon="114.15100079638673" /><trkpt lat="22.41422478125" lon="114.15102279638671" /><trkpt lat="22.41382878125" lon="114.15175879638672" /><trkpt lat="22.413349781249998" lon="114.15221279638672" /><trkpt lat="22.41316978125" lon="114.15228979638673" /><trkpt lat="22.41307578125" lon="114.15282779638672" /><trkpt lat="22.41303178125" lon="114.15291979638671" /><trkpt lat="22.41287578125" lon="114.15317879638671" /><trkpt lat="22.41294178125" lon="114.15352079638672" /><trkpt lat="22.41290078125" lon="114.15369279638672" /><trkpt lat="22.41294578125" lon="114.15393179638671" /><trkpt lat="22.412955781249998" lon="114.15436579638671" /><trkpt lat="22.41301178125" lon="114.15476279638672" /><trkpt lat="22.41304878125" lon="114.15492279638671" /><trkpt lat="22.41299378125" lon="114.15501879638671" /><trkpt lat="22.41294078125" lon="114.15500179638671" /><trkpt lat="22.41292578125" lon="114.15532879638671" /><trkpt lat="22.41273678125" lon="114.15554179638671" /><trkpt lat="22.41248778125" lon="114.15569079638672" /><trkpt lat="22.41217778125" lon="114.15664479638671" /><trkpt lat="22.41225978125" lon="114.15698479638672" /><trkpt lat="22.41216078125" lon="114.15712079638672" /><trkpt lat="22.41225278125" lon="114.15731779638672" /><trkpt lat="22.41227578125" lon="114.15750979638672" /><trkpt lat="22.41213178125" lon="114.15777179638673" /><trkpt lat="22.41182978125" lon="114.15816579638673" /><trkpt lat="22.41226278125" lon="114.15812079638673" /><trkpt lat="22.41252378125" lon="114.15811679638672" /><trkpt lat="22.41276778125" lon="114.15806879638671" /><trkpt lat="22.41290978125" lon="114.15809179638671" /><trkpt lat="22.41338778125" lon="114.15797279638672" /><trkpt lat="22.41366978125" lon="114.15803379638672" /><trkpt lat="22.41385378125" lon="114.15807379638672" /><trkpt lat="22.41401878125" lon="114.15814479638672" /><trkpt lat="22.41419378125" lon="114.15825379638672" /><trkpt lat="22.41436778125" lon="114.15839179638672" /><trkpt lat="22.41459178125" lon="114.15853279638672" /><trkpt lat="22.41482978125" lon="114.15865879638672" /><trkpt lat="22.41534978125" lon="114.15884679638671" /><trkpt lat="22.41568578125" lon="114.15895679638672" /><trkpt lat="22.41609978125" lon="114.15901779638672" /><trkpt lat="22.41628578125" lon="114.15898879638672" /><trkpt lat="22.41649378125" lon="114.15897579638671" /><trkpt lat="22.41672378125" lon="114.15898779638673" /><trkpt lat="22.41732978125" lon="114.15914979638671" /><trkpt lat="22.41794878125" lon="114.15914479638671" /><trkpt lat="22.41832378125" lon="114.15915979638672" /><trkpt lat="22.41861678125" lon="114.15919179638672" /><trkpt lat="22.418782781250002" lon="114.15918079638672" /><trkpt lat="22.41888678125" lon="114.15918479638673" /><trkpt lat="22.41906178125" lon="114.15920379638672" /><trkpt lat="22.41946478125" lon="114.15924079638671" /><trkpt lat="22.41966478125" lon="114.15928079638672" /><trkpt lat="22.42007778125" lon="114.15933779638672" /><trkpt lat="22.42037178125" lon="114.15930979638672" /><trkpt lat="22.42055178125" lon="114.15923779638672" /><trkpt lat="22.42084978125" lon="114.15921379638672" /><trkpt lat="22.42109478125" lon="114.15924379638672" /><trkpt lat="22.42126178125" lon="114.15923979638671" /><trkpt lat="22.42184478125" lon="114.15932579638672" /><trkpt lat="22.42228178125" lon="114.15942179638672" /><trkpt lat="22.42291078125" lon="114.15948679638672" /><trkpt lat="22.42320478125" lon="114.15954079638672" /><trkpt lat="22.42374278125" lon="114.15976379638671" /><trkpt lat="22.42399578125" lon="114.15987979638672" /><trkpt lat="22.42418078125" lon="114.16001479638672" /><trkpt lat="22.42428078125" lon="114.16006079638672" /><trkpt lat="22.42441778125" lon="114.16024179638671" /><trkpt lat="22.42446478125" lon="114.16027179638672" /><trkpt lat="22.42453278125" lon="114.16027979638672" /><trkpt lat="22.42455278125" lon="114.16031279638672" /><trkpt lat="22.42457878125" lon="114.16032479638672" /><trkpt lat="22.42458778125" lon="114.16035079638672" /><trkpt lat="22.42461578125" lon="114.16036379638672" /><trkpt lat="22.42469178125" lon="114.16040379638672" /><trkpt lat="22.42481178125" lon="114.16047879638671" /><trkpt lat="22.42486378125" lon="114.16051279638671" /><trkpt lat="22.42489578125" lon="114.16051879638673" /><trkpt lat="22.42493978125" lon="114.16052179638672" /><trkpt lat="22.42508378125" lon="114.16058179638672" /><trkpt lat="22.42511478125" lon="114.16056379638673" /><trkpt lat="22.42520178125" lon="114.16055779638671" /><trkpt lat="22.42533478125" lon="114.16060179638671" /><trkpt lat="22.42563378125" lon="114.16066579638672" /><trkpt lat="22.42577678125" lon="114.16065979638672" /><trkpt lat="22.42586478125" lon="114.16067079638673" /><trkpt lat="22.42600378125" lon="114.16072679638673" /><trkpt lat="22.42612078125" lon="114.16081479638672" /><trkpt lat="22.42622978125" lon="114.16091179638671" /><trkpt lat="22.42632578125" lon="114.16100379638672" /><trkpt lat="22.42640678125" lon="114.16101779638672" /><trkpt lat="22.42650178125" lon="114.16103179638672" /><trkpt lat="22.42658378125" lon="114.16101679638672" /><trkpt lat="22.42670178125" lon="114.16097979638671" /><trkpt lat="22.42678178125" lon="114.16100179638671" /><trkpt lat="22.42680578125" lon="114.16102179638672" /><trkpt lat="22.42684578125" lon="114.16107879638672" /><trkpt lat="22.42685678125" lon="114.16114379638672" /><trkpt lat="22.42684978125" lon="114.16136079638672" /><trkpt lat="22.42684878125" lon="114.16157679638673" /><trkpt lat="22.42684578125" lon="114.16163279638671" /><trkpt lat="22.42685178125" lon="114.16167379638672" /><trkpt lat="22.42687878125" lon="114.16174579638673" /><trkpt lat="22.42698078125" lon="114.16179379638672" /><trkpt lat="22.42710778125" lon="114.16182479638672" /><trkpt lat="22.42727078125" lon="114.16186179638672" /><trkpt lat="22.42738878125" lon="114.16193079638671" /><trkpt lat="22.42744778125" lon="114.16198779638673" /><trkpt lat="22.42755578125" lon="114.16210479638671" /><trkpt lat="22.42761578125" lon="114.16217179638672" /><trkpt lat="22.42765978125" lon="114.16220879638672" /><trkpt lat="22.42779678125" lon="114.16230679638672" /><trkpt lat="22.42788278125" lon="114.16235579638672" /><trkpt lat="22.42799278125" lon="114.16237279638672" /><trkpt lat="22.42821178125" lon="114.16235879638671" /><trkpt lat="22.42833278125" lon="114.16234179638671" /><trkpt lat="22.42842278125" lon="114.16231979638673" /><trkpt lat="22.42850078125" lon="114.16226279638671" /><trkpt lat="22.42854678125" lon="114.16221979638672" /><trkpt lat="22.42865978125" lon="114.16209679638672" /><trkpt lat="22.42872378125" lon="114.16204379638671" /><trkpt lat="22.42882978125" lon="114.16197479638672" /><trkpt lat="22.42889178125" lon="114.16193879638672" /><trkpt lat="22.42896978125" lon="114.16189079638671" /><trkpt lat="22.42898978125" lon="114.16199479638672" /><trkpt lat="22.42905578125" lon="114.16202879638672" /><trkpt lat="22.42912478125" lon="114.16204179638672" /><trkpt lat="22.42919078125" lon="114.16203979638672" /><trkpt lat="22.42924778125" lon="114.16202079638671" /><trkpt lat="22.42932478125" lon="114.16197479638672" /><trkpt lat="22.42940578125" lon="114.16190879638671" /><trkpt lat="22.42943478125" lon="114.16193479638672" /><trkpt lat="22.42949978125" lon="114.16199779638671" /><trkpt lat="22.42966878125" lon="114.16223279638672" /><trkpt lat="22.42979278125" lon="114.16249679638672" /><trkpt lat="22.42980678125" lon="114.16256679638671" /><trkpt lat="22.42980878125" lon="114.16264979638672" /><trkpt lat="22.42981078125" lon="114.16276879638671" /><trkpt lat="22.42983978125" lon="114.16283879638672" /><trkpt lat="22.43001378125" lon="114.16292479638672" /><trkpt lat="22.43020178125" lon="114.16301479638672" /><trkpt lat="22.43029078125" lon="114.16308779638672" /><trkpt lat="22.43043778125" lon="114.16321579638672" /><trkpt lat="22.43057378125" lon="114.16329979638672" /><trkpt lat="22.43060978125" lon="114.16331979638672" /><trkpt lat="22.43074978125" lon="114.16330479638673" /><trkpt lat="22.43087678125" lon="114.16335179638672" /><trkpt lat="22.43107178125" lon="114.16336779638672" /><trkpt lat="22.43116978125" lon="114.16337679638671" /><trkpt lat="22.43134878125" lon="114.16340079638672" /><trkpt lat="22.43154178125" lon="114.16343179638672" /><trkpt lat="22.43168278125" lon="114.16345579638671" /><trkpt lat="22.43173578125" lon="114.16346579638672" /><trkpt lat="22.43182178125" lon="114.16348179638672" /><trkpt lat="22.43202078125" lon="114.16353179638672" /><trkpt lat="22.432115228175306" lon="114.16352959994714" /></trkseg></trk></gpx>