<?xml version='1.0' encoding='UTF-8' ?><gpx version="1.1" creator="HikingTrailHK" xsi:schemaLocation="http://www.topografix.com/GPX/1/1 http://www.topografix.com/GPX/1/1/gpx.xsd https://hikingtrailhk.appspot.com/xml/gpxextensions/v1 https://hikingtrailhk.appspot.com/xml/gpxextensions/v1/gpxextensions.xsd" xmlns="http://www.topografix.com/GPX/1/1" xmlns:h="https://hikingtrailhk.appspot.com/xml/gpxextensions/v1" xmlns:xsi="http://www.w3.org/2001/XMLSchema-instance"><metadata><name>大城石澗 @ 2016</name><desc></desc><extensions><h:categoryid>stream</h:categoryid></extensions></metadata><trk><trkseg><trkpt lat="22.38440978125" lon="114.14379879638672" /><trkpt lat="22.38445178125" lon="114.14378379638671" /><trkpt lat="22.38449278125" lon="114.14374679638672" /><trkpt lat="22.38452278125" lon="114.14369879638672" /><trkpt lat="22.38459178125" lon="114.14375779638672" /><trkpt lat="22.38465578125" lon="114.14379179638672" /><trkpt lat="22.38477778125" lon="114.14382979638673" /><trkpt lat="22.38489178125" lon="114.14389079638671" /><trkpt lat="22.38494878125" lon="114.14389379638672" /><trkpt lat="22.38497578125" lon="114.14396079638672" /><trkpt lat="22.38517478125" lon="114.14436579638672" /><trkpt lat="22.38519578125" lon="114.14440679638672" /><trkpt lat="22.38532578125" lon="114.14465279638672" /><trkpt lat="22.38539978125" lon="114.14478879638672" /><trkpt lat="22.38557278125" lon="114.14478179638672" /><trkpt lat="22.38574678125" lon="114.14496079638671" /><trkpt lat="22.38578878125" lon="114.14524679638672" /><trkpt lat="22.38585278125" lon="114.14541679638671" /><trkpt lat="22.38599278125" lon="114.14578379638672" /><trkpt lat="22.38633978125" lon="114.14590979638672" /><trkpt lat="22.38637778125" lon="114.14617879638672" /><trkpt lat="22.38690178125" lon="114.14627679638672" /><trkpt lat="22.38706578125" lon="114.14588679638672" /><trkpt lat="22.38707878125" lon="114.14606179638672" /><trkpt lat="22.38713778125" lon="114.14612179638672" /><trkpt lat="22.38781778125" lon="114.14641679638672" /><trkpt lat="22.38794578125" lon="114.14636679638672" /><trkpt lat="22.38804078125" lon="114.14639179638672" /><trkpt lat="22.38840078125" lon="114.14663679638672" /><trkpt lat="22.38882278125" lon="114.14661479638671" /><trkpt lat="22.38900278125" lon="114.14668879638671" /><trkpt lat="22.38921478125" lon="114.14693379638672" /><trkpt lat="22.38984578125" lon="114.14660979638671" /><trkpt lat="22.38992178125" lon="114.14685179638671" /><trkpt lat="22.38994678125" lon="114.14672179638671" /><trkpt lat="22.39003678125" lon="114.14675879638672" /><trkpt lat="22.39008778125" lon="114.14681979638672" /><trkpt lat="22.39018578125" lon="114.14686079638672" /><trkpt lat="22.39037678125" lon="114.14712479638672" /><trkpt lat="22.39072678125" lon="114.14738979638672" /><trkpt lat="22.39094078125" lon="114.14740579638672" /><trkpt lat="22.39128278125" lon="114.14747779638672" /><trkpt lat="22.39151578125" lon="114.14747179638672" /><trkpt lat="22.39178878125" lon="114.14736279638672" /><trkpt lat="22.39196378125" lon="114.14736379638671" /><trkpt lat="22.39212178125" lon="114.14745379638671" /><trkpt lat="22.39214978125" lon="114.14764179638672" /><trkpt lat="22.39210378125" lon="114.14780179638672" /><trkpt lat="22.39203378125" lon="114.14806979638672" /><trkpt lat="22.39200078125" lon="114.14820679638672" /><trkpt lat="22.39198978125" lon="114.14827179638672" /><trkpt lat="22.39209978125" lon="114.14857279638672" /><trkpt lat="22.39221378125" lon="114.14880179638672" /><trkpt lat="22.39244778125" lon="114.14889879638672" /><trkpt lat="22.39256378125" lon="114.14896879638673" /><trkpt lat="22.39259178125" lon="114.14909679638671" /><trkpt lat="22.39265178125" lon="114.14926279638672" /><trkpt lat="22.39263878125" lon="114.14939179638672" /><trkpt lat="22.39263278125" lon="114.14949779638673" /><trkpt lat="22.39265778125" lon="114.14959079638672" /><trkpt lat="22.39286678125" lon="114.14971079638671" /><trkpt lat="22.39296678125" lon="114.14979179638672" /><trkpt lat="22.39301878125" lon="114.14988479638671" /><trkpt lat="22.39308678125" lon="114.14997979638672" /><trkpt lat="22.39313078125" lon="114.15005679638672" /><trkpt lat="22.39320978125" lon="114.15013879638671" /><trkpt lat="22.39331578125" lon="114.15020879638672" /><trkpt lat="22.39347078125" lon="114.15023579638672" /><trkpt lat="22.39358378125" lon="114.15020179638672" /><trkpt lat="22.39368378125" lon="114.15015779638672" /><trkpt lat="22.39377878125" lon="114.15007079638671" /><trkpt lat="22.39384978125" lon="114.14997279638672" /><trkpt lat="22.39392978125" lon="114.14986379638673" /><trkpt lat="22.39400778125" lon="114.14976579638672" /><trkpt lat="22.39410078125" lon="114.14960979638671" /><trkpt lat="22.39416278125" lon="114.14948079638671" /><trkpt lat="22.39424378125" lon="114.14941479638672" /><trkpt lat="22.39437178125" lon="114.14945779638671" /><trkpt lat="22.39445978125" lon="114.14960079638672" /><trkpt lat="22.39449978125" lon="114.14976979638672" /><trkpt lat="22.39455778125" lon="114.14990879638673" /><trkpt lat="22.394655781250002" lon="114.14998179638673" /><trkpt lat="22.39478078125" lon="114.15000879638671" /><trkpt lat="22.39494678125" lon="114.15004879638671" /><trkpt lat="22.39502378125" lon="114.15006079638673" /><trkpt lat="22.39509978125" lon="114.15001179638672" /><trkpt lat="22.39520478125" lon="114.14994379638672" /><trkpt lat="22.39537678125" lon="114.14983179638672" /><trkpt lat="22.39551478125" lon="114.14982479638672" /><trkpt lat="22.39556878125" lon="114.14990679638672" /><trkpt lat="22.39574578125" lon="114.15006179638672" /><trkpt lat="22.39588278125" lon="114.15019379638672" /><trkpt lat="22.39593978125" lon="114.15031679638672" /><trkpt lat="22.39587178125" lon="114.15054179638672" /><trkpt lat="22.39616178125" lon="114.15084379638672" /><trkpt lat="22.39630678125" lon="114.15068979638671" /><trkpt lat="22.39647678125" lon="114.15072679638672" /><trkpt lat="22.39659478125" lon="114.15063679638672" /><trkpt lat="22.39663578125" lon="114.15035979638672" /><trkpt lat="22.39678678125" lon="114.15006079638673" /><trkpt lat="22.39692178125" lon="114.14998579638672" /><trkpt lat="22.39700878125" lon="114.14990479638672" /><trkpt lat="22.39730078125" lon="114.14981779638671" /><trkpt lat="22.39740878125" lon="114.14970479638671" /><trkpt lat="22.39758578125" lon="114.14971579638672" /><trkpt lat="22.39761478125" lon="114.14964679638672" /><trkpt lat="22.39762278125" lon="114.14940579638672" /><trkpt lat="22.397883781250002" lon="114.14910479638672" /><trkpt lat="22.39794078125" lon="114.14893479638671" /><trkpt lat="22.39806678125" lon="114.14883579638672" /><trkpt lat="22.39810378125" lon="114.14870479638672" /><trkpt lat="22.39806178125" lon="114.14829179638672" /><trkpt lat="22.39810778125" lon="114.14811579638672" /><trkpt lat="22.39821478125" lon="114.14797179638671" /><trkpt lat="22.39827078125" lon="114.14788479638672" /><trkpt lat="22.39879978125" lon="114.14771679638672" /><trkpt lat="22.39906578125" lon="114.14730979638672" /><trkpt lat="22.39905278125" lon="114.14720279638672" /><trkpt lat="22.39900278125" lon="114.14709179638672" /><trkpt lat="22.39914978125" lon="114.14694179638671" /><trkpt lat="22.39913678125" lon="114.14671279638672" /><trkpt lat="22.39921078125" lon="114.14663879638672" /><trkpt lat="22.39926878125" lon="114.14639179638672" /><trkpt lat="22.39929578125" lon="114.14625279638672" /><trkpt lat="22.39933878125" lon="114.14619879638671" /><trkpt lat="22.39930078125" lon="114.14609579638672" /><trkpt lat="22.39927578125" lon="114.14590979638672" /><trkpt lat="22.39919578125" lon="114.14577379638672" /><trkpt lat="22.39925178125" lon="114.14560079638672" /><trkpt lat="22.39935878125" lon="114.14544479638671" /><trkpt lat="22.39959778125" lon="114.14535779638672" /><trkpt lat="22.39965578125" lon="114.14532579638671" /><trkpt lat="22.39968878125" lon="114.14526779638672" /><trkpt lat="22.39986578125" lon="114.14527679638672" /><trkpt lat="22.39990778125" lon="114.14517979638671" /><trkpt lat="22.40004278125" lon="114.14509479638672" /><trkpt lat="22.40023778125" lon="114.14504579638673" /><trkpt lat="22.40036978125" lon="114.14502279638671" /><trkpt lat="22.40051678125" lon="114.14509479638672" /><trkpt lat="22.40060178125" lon="114.14494779638672" /><trkpt lat="22.40066178125" lon="114.14493379638672" /><trkpt lat="22.40064978125" lon="114.14463479638673" /><trkpt lat="22.40064378125" lon="114.14462879638671" /><trkpt lat="22.40063578125" lon="114.14456479638672" /><trkpt lat="22.40060178125" lon="114.14435579638672" /><trkpt lat="22.40056378125" lon="114.14423379638671" /><trkpt lat="22.40049278125" lon="114.14419179638672" /><trkpt lat="22.40061378125" lon="114.14392879638672" /><trkpt lat="22.40080278125" lon="114.14366979638672" /><trkpt lat="22.40101178125" lon="114.14343879638672" /><trkpt lat="22.40110478125" lon="114.14342579638672" /><trkpt lat="22.40117378125" lon="114.14321979638672" /><trkpt lat="22.40127478125" lon="114.14324579638672" /><trkpt lat="22.40136378125" lon="114.14311979638671" /><trkpt lat="22.40153978125" lon="114.14309279638672" /><trkpt lat="22.40176078125" lon="114.14293479638673" /><trkpt lat="22.40201478125" lon="114.14291979638672" /><trkpt lat="22.40206178125" lon="114.14297279638672" /><trkpt lat="22.40268778125" lon="114.14260879638672" /><trkpt lat="22.40280678125" lon="114.14244579638672" /><trkpt lat="22.40281078125" lon="114.14231779638672" /><trkpt lat="22.40296178125" lon="114.14223379638672" /><trkpt lat="22.40296278125" lon="114.14213279638672" /><trkpt lat="22.40301178125" lon="114.14214179638672" /><trkpt lat="22.40315478125" lon="114.14199479638671" /><trkpt lat="22.40327778125" lon="114.14171979638672" /><trkpt lat="22.40333878125" lon="114.14153579638672" /><trkpt lat="22.40345178125" lon="114.14138179638672" /><trkpt lat="22.40369078125" lon="114.14127779638672" /><trkpt lat="22.40388178125" lon="114.14132379638671" /><trkpt lat="22.40406978125" lon="114.14112379638672" /><trkpt lat="22.40416078125" lon="114.14111079638671" /><trkpt lat="22.40425978125" lon="114.14100579638672" /><trkpt lat="22.40422578125" lon="114.14097579638671" /><trkpt lat="22.40442378125" lon="114.14095379638673" /><trkpt lat="22.40457878125" lon="114.14087279638672" /><trkpt lat="22.40476078125" lon="114.14065779638672" /><trkpt lat="22.40493378125" lon="114.14048879638672" /><trkpt lat="22.40496778125" lon="114.14041779638671" /><trkpt lat="22.40503778125" lon="114.14022279638672" /><trkpt lat="22.40504578125" lon="114.14020579638672" /><trkpt lat="22.40503178125" lon="114.14009479638672" /><trkpt lat="22.40520678125" lon="114.13982579638672" /><trkpt lat="22.40533578125" lon="114.13967579638671" /><trkpt lat="22.40547178125" lon="114.13955279638672" /><trkpt lat="22.40556278125" lon="114.13926279638672" /><trkpt lat="22.40564078125" lon="114.13918479638671" /><trkpt lat="22.40578378125" lon="114.13903079638672" /><trkpt lat="22.40591778125" lon="114.13891179638672" /><trkpt lat="22.40603978125" lon="114.13891979638672" /><trkpt lat="22.40612578125" lon="114.13903979638673" /><trkpt lat="22.40628078125" lon="114.13914379638672" /><trkpt lat="22.40650078125" lon="114.13918679638672" /><trkpt lat="22.40665778125" lon="114.13918779638672" /><trkpt lat="22.40670478125" lon="114.13918779638672" /><trkpt lat="22.40676878125" lon="114.13919379638672" /><trkpt lat="22.40684878125" lon="114.13921179638672" /><trkpt lat="22.40703878125" lon="114.13917279638672" /><trkpt lat="22.40715778125" lon="114.13919079638671" /><trkpt lat="22.40737078125" lon="114.13913979638671" /><trkpt lat="22.40775278125" lon="114.13900279638672" /><trkpt lat="22.40787278125" lon="114.13896179638672" /><trkpt lat="22.40804378125" lon="114.13890379638671" /><trkpt lat="22.40816678125" lon="114.13882079638672" /><trkpt lat="22.40822578125" lon="114.13873579638671" /><trkpt lat="22.40837778125" lon="114.13866179638671" /><trkpt lat="22.40852178125" lon="114.13859279638672" /><trkpt lat="22.40869678125" lon="114.13848479638672" /><trkpt lat="22.40879378125" lon="114.13834179638671" /><trkpt lat="22.40875578125" lon="114.13815379638672" /><trkpt lat="22.40875378125" lon="114.13804279638671" /><trkpt lat="22.40884978125" lon="114.13786679638672" /><trkpt lat="22.40883378125" lon="114.13775779638672" /><trkpt lat="22.40891378125" lon="114.13769479638673" /><trkpt lat="22.40887878125" lon="114.13752379638672" /><trkpt lat="22.40898178125" lon="114.13726179638672" /><trkpt lat="22.40918778125" lon="114.13704879638672" /><trkpt lat="22.40945078125" lon="114.13702779638672" /><trkpt lat="22.40961978125" lon="114.13693479638673" /><trkpt lat="22.40979878125" lon="114.13700379638672" /><trkpt lat="22.40987878125" lon="114.13741279638671" /><trkpt lat="22.40979678125" lon="114.13747479638671" /><trkpt lat="22.40991078125" lon="114.13756379638671" /><trkpt lat="22.41022878125" lon="114.13771379638672" /><trkpt lat="22.41029778125" lon="114.13772379638672" /><trkpt lat="22.41042178125" lon="114.13771879638672" /><trkpt lat="22.41065978125" lon="114.13774579638672" /><trkpt lat="22.41082878125" lon="114.13770279638672" /><trkpt lat="22.41095278125" lon="114.13772979638672" /><trkpt lat="22.41115578125" lon="114.13769779638672" /><trkpt lat="22.41126478125" lon="114.13761179638672" /><trkpt lat="22.41143878125" lon="114.13759579638672" /><trkpt lat="22.41151778125" lon="114.13747179638672" /><trkpt lat="22.41157678125" lon="114.13728979638672" /><trkpt lat="22.41157678125" lon="114.13709079638672" /><trkpt lat="22.41195378125" lon="114.13689279638672" /><trkpt lat="22.41216278125" lon="114.13684979638671" /><trkpt lat="22.41257378125" lon="114.13646879638672" /><trkpt lat="22.41272778125" lon="114.13642579638672" /><trkpt lat="22.41315378125" lon="114.13622179638672" /><trkpt lat="22.41334778125" lon="114.13601279638672" /><trkpt lat="22.41355078125" lon="114.13591079638672" /><trkpt lat="22.41366978125" lon="114.13593279638673" /><trkpt lat="22.41382378125" lon="114.13581479638673" /><trkpt lat="22.41387378125" lon="114.13576079638672" /><trkpt lat="22.41396778125" lon="114.13569679638672" /><trkpt lat="22.41422578125" lon="114.13564779638672" /><trkpt lat="22.41431978125" lon="114.13559479638671" /><trkpt lat="22.41442878125" lon="114.13514979638671" /><trkpt lat="22.41451278125" lon="114.13505779638672" /><trkpt lat="22.41490978125" lon="114.13492979638671" /><trkpt lat="22.41500878125" lon="114.13481179638671" /><trkpt lat="22.41504878125" lon="114.13468279638671" /><trkpt lat="22.41500378125" lon="114.13459679638672" /><trkpt lat="22.41508478125" lon="114.13411979638671" /><trkpt lat="22.41525678125" lon="114.13386679638671" /><trkpt lat="22.41533178125" lon="114.13370579638672" /><trkpt lat="22.41546978125" lon="114.13359379638672" /><trkpt lat="22.41559378125" lon="114.13338979638672" /><trkpt lat="22.41564378125" lon="114.13287979638672" /><trkpt lat="22.41575278125" lon="114.13278379638672" /><trkpt lat="22.41617078125" lon="114.13260679638672" /><trkpt lat="22.41651678125" lon="114.13261779638673" /><trkpt lat="22.41661578125" lon="114.13257979638672" /><trkpt lat="22.41668478125" lon="114.13257179638671" /><trkpt lat="22.41677178125" lon="114.13255079638672" /><trkpt lat="22.41679378125" lon="114.13241579638672" /><trkpt lat="22.41679278125" lon="114.13233679638672" /><trkpt lat="22.41688678125" lon="114.13233679638672" /><trkpt lat="22.41703878125" lon="114.13192479638671" /><trkpt lat="22.41721978125" lon="114.13161979638672" /><trkpt lat="22.41765678125" lon="114.13137079638672" /><trkpt lat="22.41764878125" lon="114.13099279638672" /><trkpt lat="22.41775478125" lon="114.13076679638672" /><trkpt lat="22.41793378125" lon="114.13055479638672" /><trkpt lat="22.41857678125" lon="114.13037179638673" /><trkpt lat="22.41880978125" lon="114.13024579638672" /><trkpt lat="22.41931778125" lon="114.13029679638672" /><trkpt lat="22.41970778125" lon="114.12997479638672" /><trkpt lat="22.41986678125" lon="114.12994879638671" /><trkpt lat="22.41992678125" lon="114.12982779638672" /><trkpt lat="22.41984178125" lon="114.12958579638672" /><trkpt lat="22.42001478125" lon="114.12934779638672" /><trkpt lat="22.42015978125" lon="114.12901179638672" /><trkpt lat="22.42037778125" lon="114.12898879638672" /><trkpt lat="22.42049278125" lon="114.12892879638672" /><trkpt lat="22.42069778125" lon="114.12897879638672" /><trkpt lat="22.42118478125" lon="114.12889679638671" /><trkpt lat="22.42167178125" lon="114.12890679638672" /><trkpt lat="22.42201578125" lon="114.12880079638671" /><trkpt lat="22.42274578125" lon="114.12904679638672" /><trkpt lat="22.42283778125" lon="114.12960779638672" /><trkpt lat="22.42308278125" lon="114.12999779638672" /><trkpt lat="22.42324878125" lon="114.13008879638672" /><trkpt lat="22.42325578125" lon="114.13021079638672" /><trkpt lat="22.42336478125" lon="114.13041679638673" /><trkpt lat="22.42339378125" lon="114.13055379638672" /><trkpt lat="22.42349378125" lon="114.13087079638672" /><trkpt lat="22.42344778125" lon="114.13101179638672" /><trkpt lat="22.42348578125" lon="114.13128979638672" /><trkpt lat="22.42361378125" lon="114.13137879638671" /><trkpt lat="22.42372878125" lon="114.13152579638673" /><trkpt lat="22.42380078125" lon="114.13176779638673" /><trkpt lat="22.42397078125" lon="114.13222179638672" /><trkpt lat="22.42418378125" lon="114.13167679638671" /><trkpt lat="22.42429478125" lon="114.13169879638671" /><trkpt lat="22.42434478125" lon="114.13142879638671" /><trkpt lat="22.42449678125" lon="114.13130779638672" /><trkpt lat="22.42492978125" lon="114.13117879638672" /><trkpt lat="22.42489978125" lon="114.13145379638672" /><trkpt lat="22.42509878125" lon="114.13140279638672" /><trkpt lat="22.42511478125" lon="114.13135779638672" /><trkpt lat="22.42549378125" lon="114.13141579638672" /><trkpt lat="22.42563878125" lon="114.13133179638672" /><trkpt lat="22.42579578125" lon="114.13148079638673" /><trkpt lat="22.42595578125" lon="114.13154979638672" /><trkpt lat="22.42605478125" lon="114.13159279638671" /><trkpt lat="22.42617078125" lon="114.13155079638672" /><trkpt lat="22.42631778125" lon="114.13129479638671" /><trkpt lat="22.42656378125" lon="114.13112579638671" /><trkpt lat="22.42666478125" lon="114.13122479638672" /><trkpt lat="22.42678978125" lon="114.13116479638671" /><trkpt lat="22.42683078125" lon="114.13138779638672" /><trkpt lat="22.42696178125" lon="114.13149379638672" /><trkpt lat="22.42692778125" lon="114.13160179638672" /><trkpt lat="22.42683778125" lon="114.13168079638672" /><trkpt lat="22.42676278125" lon="114.13177179638672" /><trkpt lat="22.42668878125" lon="114.13186279638671" /><trkpt lat="22.42673878125" lon="114.13194879638672" /><trkpt lat="22.426758707823396" lon="114.13191723578478" /><trkpt lat="22.426738526648847" lon="114.1318837081721" /><trkpt lat="22.426697929820225" lon="114.13185154612657" /><trkpt lat="22.42676278125" lon="114.13177179638672" /><trkpt lat="22.42683778125" lon="114.13168079638672" /><trkpt lat="22.42692778125" lon="114.13160179638672" /><trkpt lat="22.42700178125" lon="114.13173479638672" /><trkpt lat="22.42709778125" lon="114.13176679638671" /><trkpt lat="22.42735478125" lon="114.13184579638671" /><trkpt lat="22.42724478125" lon="114.13187979638671" /><trkpt lat="22.427228824655174" lon="114.13187116523517" /><trkpt lat="22.427218907296094" lon="114.13185502241816" /><trkpt lat="22.427222626305834" lon="114.13183586375311" /><trkpt lat="22.427216278371546" lon="114.13178893272033" /><trkpt lat="22.42750878125" lon="114.13173379638671" /><trkpt lat="22.42772478125" lon="114.13172179638671" /><trkpt lat="22.42788978125" lon="114.13164179638672" /><trkpt lat="22.42802378125" lon="114.13162179638672" /><trkpt lat="22.42827978125" lon="114.13160779638672" /><trkpt lat="22.42862378125" lon="114.13161579638673" /><trkpt lat="22.42894578125" lon="114.13148179638672" /><trkpt lat="22.42923278125" lon="114.13144979638672" /><trkpt lat="22.42942178125" lon="114.13139679638672" /><trkpt lat="22.42976778125" lon="114.13131979638672" /><trkpt lat="22.42996678125" lon="114.13124579638672" /><trkpt lat="22.43030878125" lon="114.13110479638672" /><trkpt lat="22.43049278125" lon="114.13105279638671" /><trkpt lat="22.43083978125" lon="114.13086679638671" /><trkpt lat="22.43111378125" lon="114.13087479638672" /><trkpt lat="22.43123378125" lon="114.13096279638673" /><trkpt lat="22.43148578125" lon="114.13087579638672" /><trkpt lat="22.43215878125" lon="114.13064379638672" /><trkpt lat="22.43226578125" lon="114.13047079638672" /><trkpt lat="22.43229378125" lon="114.13031179638672" /><trkpt lat="22.43224978125" lon="114.13014479638672" /><trkpt lat="22.43205678125" lon="114.12990479638673" /><trkpt lat="22.43195478125" lon="114.12974879638672" /><trkpt lat="22.43199878125" lon="114.12967279638671" /><trkpt lat="22.43208778125" lon="114.12978279638672" /><trkpt lat="22.43221278125" lon="114.12979679638671" /><trkpt lat="22.43229278125" lon="114.12983679638671" /><trkpt lat="22.43241578125" lon="114.12991079638672" /><trkpt lat="22.43281978125" lon="114.13001979638672" /><trkpt lat="22.43296778125" lon="114.12991379638672" /><trkpt lat="22.43318878125" lon="114.12990679638672" /><trkpt lat="22.43335378125" lon="114.12976979638673" /><trkpt lat="22.43361078125" lon="114.12989979638672" /><trkpt lat="22.43382178125" lon="114.12978279638672" /><trkpt lat="22.43411478125" lon="114.13008779638672" /><trkpt lat="22.43434778125" lon="114.13003179638672" /><trkpt lat="22.43478278125" lon="114.13026479638671" /><trkpt lat="22.43502878125" lon="114.13022579638672" /><trkpt lat="22.43519178125" lon="114.13017379638671" /><trkpt lat="22.43523878125" lon="114.12998979638672" /><trkpt lat="22.43523578125" lon="114.12975979638672" /><trkpt lat="22.43522878125" lon="114.12945779638672" /><trkpt lat="22.43535378125" lon="114.12921379638672" /><trkpt lat="22.43548878125" lon="114.12904379638672" /><trkpt lat="22.43566178125" lon="114.12893779638672" /><trkpt lat="22.43578278125" lon="114.12890879638672" /><trkpt lat="22.43580478125" lon="114.12886979638672" /><trkpt lat="22.43581278125" lon="114.12879979638672" /><trkpt lat="22.43578178125" lon="114.12865479638671" /><trkpt lat="22.43576678125" lon="114.12849279638672" /><trkpt lat="22.43578078125" lon="114.12837579638672" /><trkpt lat="22.43590178125" lon="114.12825879638672" /><trkpt lat="22.43600878125" lon="114.12824979638673" /><trkpt lat="22.43606778125" lon="114.12822379638672" /><trkpt lat="22.43610478125" lon="114.12820179638672" /><trkpt lat="22.43617978125" lon="114.12815079638672" /><trkpt lat="22.43644378125" lon="114.12812079638672" /><trkpt lat="22.43647978125" lon="114.12811979638671" /><trkpt lat="22.43650478125" lon="114.12807879638672" /><trkpt lat="22.43659078125" lon="114.12801379638672" /><trkpt lat="22.43669178125" lon="114.12775779638672" /><trkpt lat="22.43674878125" lon="114.12776079638672" /><trkpt lat="22.43684478125" lon="114.12772779638672" /><trkpt lat="22.43686878125" lon="114.12768279638672" /><trkpt lat="22.43693178125" lon="114.12760979638672" /><trkpt lat="22.43705678125" lon="114.12771479638671" /><trkpt lat="22.43706578125" lon="114.12772779638672" /><trkpt lat="22.43707078125" lon="114.12774479638672" /><trkpt lat="22.43707278125" lon="114.12775979638671" /><trkpt lat="22.43708078125" lon="114.12780779638672" /><trkpt lat="22.43709078125" lon="114.12783379638672" /><trkpt lat="22.43710878125" lon="114.12785279638672" /><trkpt lat="22.43723278125" lon="114.12794879638672" /><trkpt lat="22.43730478125" lon="114.12786579638671" /><trkpt lat="22.43734478125" lon="114.12783879638671" /><trkpt lat="22.43737078125" lon="114.12782679638671" /><trkpt lat="22.43739878125" lon="114.12781779638672" /><trkpt lat="22.43751578125" lon="114.12780779638672" /><trkpt lat="22.43754478125" lon="114.12780279638672" /><trkpt lat="22.43756478125" lon="114.12779279638671" /><trkpt lat="22.43757978125" lon="114.12778279638673" /><trkpt lat="22.43759678125" lon="114.12776579638673" /><trkpt lat="22.43767578125" lon="114.12767879638672" /><trkpt lat="22.43773478125" lon="114.12761779638672" /><trkpt lat="22.43777378125" lon="114.12759479638672" /><trkpt lat="22.43781178125" lon="114.12758279638672" /><trkpt lat="22.43784478125" lon="114.12757379638671" /><trkpt lat="22.43791078125" lon="114.12756379638672" /><trkpt lat="22.43797878125" lon="114.12751979638672" /><trkpt lat="22.43801078125" lon="114.12749679638672" /><trkpt lat="22.43802878125" lon="114.12748979638671" /><trkpt lat="22.43803878125" lon="114.12748779638672" /><trkpt lat="22.43808478125" lon="114.12745279638672" /><trkpt lat="22.43819678125" lon="114.12745179638672" /><trkpt lat="22.43823678125" lon="114.12746379638672" /><trkpt lat="22.43834578125" lon="114.12749979638672" /><trkpt lat="22.43839578125" lon="114.12751379638672" /><trkpt lat="22.43845778125" lon="114.12749679638672" /><trkpt lat="22.43846578125" lon="114.12748579638672" /><trkpt lat="22.43848278125" lon="114.12746279638672" /><trkpt lat="22.438537781249998" lon="114.12742879638672" /><trkpt lat="22.43856978125" lon="114.12742679638671" /><trkpt lat="22.43862478125" lon="114.12743879638671" /><trkpt lat="22.43867878125" lon="114.12744179638672" /><trkpt lat="22.43873078125" lon="114.12743279638671" /><trkpt lat="22.43880278125" lon="114.12745379638672" /><trkpt lat="22.43883178125" lon="114.12746579638672" /><trkpt lat="22.43884278125" lon="114.12747179638671" /><trkpt lat="22.43894178125" lon="114.12752679638672" /><trkpt lat="22.43899378125" lon="114.12756779638671" /><trkpt lat="22.43903478125" lon="114.12761279638671" /><trkpt lat="22.43908178125" lon="114.12768679638671" /><trkpt lat="22.43912378125" lon="114.12774079638672" /><trkpt lat="22.43916978125" lon="114.12778079638672" /><trkpt lat="22.43919478125" lon="114.12777679638671" /><trkpt lat="22.43921578125" lon="114.12775879638671" /><trkpt lat="22.43922478125" lon="114.12773179638671" /><trkpt lat="22.43924478125" lon="114.12764479638672" /><trkpt lat="22.43925278125" lon="114.12760979638672" /><trkpt lat="22.43927878125" lon="114.12756779638671" /><trkpt lat="22.43930678125" lon="114.12756579638672" /><trkpt lat="22.43932778125" lon="114.12756679638672" /><trkpt lat="22.43934878125" lon="114.12757779638672" /><trkpt lat="22.43940178125" lon="114.12758879638672" /><trkpt lat="22.43943778125" lon="114.12758279638672" /><trkpt lat="22.43949178125" lon="114.12755279638672" /><trkpt lat="22.43957178125" lon="114.12750379638672" /><trkpt lat="22.43962978125" lon="114.12745479638671" /><trkpt lat="22.43968678125" lon="114.12740379638672" /><trkpt lat="22.43973178125" lon="114.12736179638672" /><trkpt lat="22.43976478125" lon="114.12734079638672" /><trkpt lat="22.43983978125" lon="114.12733779638671" /><trkpt lat="22.43988478125" lon="114.12732679638673" /><trkpt lat="22.43996978125" lon="114.12728379638672" /><trkpt lat="22.44002078125" lon="114.12722679638672" /><trkpt lat="22.44006978125" lon="114.12717779638672" /><trkpt lat="22.44011778125" lon="114.12711079638672" /><trkpt lat="22.44018478125" lon="114.12704779638672" /><trkpt lat="22.44028078125" lon="114.12698279638671" /><trkpt lat="22.44039078125" lon="114.12691179638672" /><trkpt lat="22.44047978125" lon="114.12689479638672" /><trkpt lat="22.44061978125" lon="114.12687679638672" /><trkpt lat="22.44067978125" lon="114.12687079638673" /><trkpt lat="22.44078978125" lon="114.12698679638672" /><trkpt lat="22.44082478125" lon="114.12700279638672" /><trkpt lat="22.44090256740026" lon="114.12707119452827" /></trkseg></trk></gpx>