<?xml version='1.0' encoding='UTF-8' ?><gpx version="1.1" creator="HikingTrailHK" xsi:schemaLocation="http://www.topografix.com/GPX/1/1 http://www.topografix.com/GPX/1/1/gpx.xsd" xmlns="http://www.topografix.com/GPX/1/1" xmlns:xsi="http://www.w3.org/2001/XMLSchema-instance"><metadata><name>大潭篤水壩</name><desc></desc></metadata><trk><trkseg><trkpt lat="22.246271540097183" lon="114.22120975269385" /><trkpt lat="22.24607178125" lon="114.22121379638672" /><trkpt lat="22.24583278125" lon="114.22141279638672" /><trkpt lat="22.24573778125" lon="114.22135879638672" /><trkpt lat="22.24560378125" lon="114.22145579638672" /><trkpt lat="22.24551478125" lon="114.22142879638672" /><trkpt lat="22.24529578125" lon="114.22148779638673" /><trkpt lat="22.24520678125" lon="114.22145579638672" /><trkpt lat="22.24511778125" lon="114.22150379638671" /><trkpt lat="22.24501778125" lon="114.22146679638672" /><trkpt lat="22.24489978125" lon="114.22152779638672" /><trkpt lat="22.24481578125" lon="114.22158079638672" /><trkpt lat="22.24468627922021" lon="114.22173036907918" /></trkseg></trk></gpx>