<?xml version='1.0' encoding='UTF-8' ?><gpx version="1.1" creator="HikingTrailHK" xsi:schemaLocation="http://www.topografix.com/GPX/1/1 http://www.topografix.com/GPX/1/1/gpx.xsd https://hikingtrailhk.appspot.com/xml/gpxextensions/v1 https://hikingtrailhk.appspot.com/xml/gpxextensions/v1/gpxextensions.xsd" xmlns="http://www.topografix.com/GPX/1/1" xmlns:h="https://hikingtrailhk.appspot.com/xml/gpxextensions/v1" xmlns:xsi="http://www.w3.org/2001/XMLSchema-instance"><metadata><name>大潭道 @ 2015-12-19</name><desc></desc><extensions><h:categoryid>scenery_route</h:categoryid></extensions></metadata><trk><trkseg><trkpt lat="22.257396959865062" lon="114.19320034924422" /><trkpt lat="22.25738878125" lon="114.19320279638671" /><trkpt lat="22.25730878125" lon="114.19322379638672" /><trkpt lat="22.25732278125" lon="114.19325879638671" /><trkpt lat="22.25723778125" lon="114.19335379638672" /><trkpt lat="22.25712178125" lon="114.19340679638672" /><trkpt lat="22.25714178125" lon="114.19368779638671" /><trkpt lat="22.25712878125" lon="114.19386679638671" /><trkpt lat="22.25708278125" lon="114.19421379638672" /><trkpt lat="22.25707178125" lon="114.19438779638672" /><trkpt lat="22.25707178125" lon="114.19446179638672" /><trkpt lat="22.25710878125" lon="114.19458079638672" /><trkpt lat="22.25712478125" lon="114.19461479638672" /><trkpt lat="22.25720678125" lon="114.19479779638672" /><trkpt lat="22.25713378125" lon="114.19481079638672" /><trkpt lat="22.25701778125" lon="114.19455579638672" /><trkpt lat="22.25696778125" lon="114.19451879638672" /><trkpt lat="22.25690778125" lon="114.19449779638671" /><trkpt lat="22.25684778125" lon="114.19450179638672" /><trkpt lat="22.25647678125" lon="114.19462179638671" /><trkpt lat="22.25637078125" lon="114.19444079638671" /><trkpt lat="22.25632778125" lon="114.19436679638672" /><trkpt lat="22.25620278125" lon="114.19425679638672" /><trkpt lat="22.25615778125" lon="114.19420779638672" /><trkpt lat="22.25592378125" lon="114.19405879638671" /><trkpt lat="22.25570778125" lon="114.19404779638671" /><trkpt lat="22.25561778125" lon="114.19411279638672" /><trkpt lat="22.25551578125" lon="114.19415579638672" /><trkpt lat="22.25548278125" lon="114.19415279638672" /><trkpt lat="22.25529078125" lon="114.19413379638672" /><trkpt lat="22.25494578125" lon="114.19429679638672" /><trkpt lat="22.25490478125" lon="114.19429379638672" /><trkpt lat="22.25433678125" lon="114.19425779638672" /><trkpt lat="22.25412378125" lon="114.19437279638672" /><trkpt lat="22.25408078125" lon="114.19444279638672" /><trkpt lat="22.25405078125" lon="114.19444979638672" /><trkpt lat="22.25398878125" lon="114.19446379638671" /><trkpt lat="22.25396678125" lon="114.19444779638673" /><trkpt lat="22.25367778125" lon="114.19424079638672" /><trkpt lat="22.25345278125" lon="114.19401879638671" /><trkpt lat="22.25279778125" lon="114.19387579638672" /><trkpt lat="22.25269678125" lon="114.19390879638672" /><trkpt lat="22.25266778125" lon="114.19391779638671" /><trkpt lat="22.25252278125" lon="114.19391179638671" /><trkpt lat="22.25249278125" lon="114.19391979638672" /><trkpt lat="22.25186078125" lon="114.19409779638671" /><trkpt lat="22.25138678125" lon="114.19417079638671" /><trkpt lat="22.25122778125" lon="114.19452279638672" /><trkpt lat="22.25108178125" lon="114.19466979638672" /><trkpt lat="22.25103678125" lon="114.19471579638672" /><trkpt lat="22.25089178125" lon="114.19472379638673" /><trkpt lat="22.25083078125" lon="114.19472679638672" /><trkpt lat="22.25054878125" lon="114.19471379638672" /><trkpt lat="22.25040678125" lon="114.19465179638672" /><trkpt lat="22.25020978125" lon="114.19459579638672" /><trkpt lat="22.25007778125" lon="114.19439979638672" /><trkpt lat="22.24997578125" lon="114.19434179638672" /><trkpt lat="22.24986978125" lon="114.19455279638672" /><trkpt lat="22.24972378125" lon="114.19457679638671" /><trkpt lat="22.24950978125" lon="114.19457379638672" /><trkpt lat="22.24921878125" lon="114.19448479638672" /><trkpt lat="22.24899978125" lon="114.19431679638672" /><trkpt lat="22.24866178125" lon="114.19436479638672" /><trkpt lat="22.24848878125" lon="114.19450179638672" /><trkpt lat="22.24845378125" lon="114.19467579638672" /><trkpt lat="22.24837378125" lon="114.19477779638672" /><trkpt lat="22.24830178125" lon="114.19476679638672" /><trkpt lat="22.24810878125" lon="114.19454979638672" /><trkpt lat="22.24811078125" lon="114.19436179638672" /><trkpt lat="22.24823678125" lon="114.19420379638672" /><trkpt lat="22.24822878125" lon="114.19391979638672" /><trkpt lat="22.24815878125" lon="114.19380679638672" /><trkpt lat="22.24792978125" lon="114.19371679638672" /><trkpt lat="22.24778078125" lon="114.19380979638672" /><trkpt lat="22.24747078125" lon="114.19387679638672" /><trkpt lat="22.24743578125" lon="114.19407779638672" /><trkpt lat="22.24713778125" lon="114.19406179638672" /><trkpt lat="22.24692278125" lon="114.19389679638672" /><trkpt lat="22.24664278125" lon="114.19369979638672" /><trkpt lat="22.24652878125" lon="114.19373479638672" /><trkpt lat="22.24644878125" lon="114.19384279638672" /><trkpt lat="22.24615278125" lon="114.19387179638672" /><trkpt lat="22.24592778125" lon="114.19392279638672" /><trkpt lat="22.24588678125" lon="114.19404979638672" /><trkpt lat="22.24563578125" lon="114.19407079638673" /><trkpt lat="22.24516678125" lon="114.19438279638672" /><trkpt lat="22.24481178125" lon="114.19439479638672" /><trkpt lat="22.24455378125" lon="114.19440479638672" /><trkpt lat="22.24409178125" lon="114.19416079638673" /><trkpt lat="22.24382878125" lon="114.19405379638673" /><trkpt lat="22.24345378125" lon="114.19381879638672" /><trkpt lat="22.24341978125" lon="114.19367179638672" /><trkpt lat="22.24321878125" lon="114.19349579638671" /><trkpt lat="22.24305378125" lon="114.19362779638672" /><trkpt lat="22.24293878125" lon="114.19369479638672" /><trkpt lat="22.24275478125" lon="114.19376379638672" /><trkpt lat="22.24258978125" lon="114.19384279638672" /><trkpt lat="22.24234978125" lon="114.19418279638671" /><trkpt lat="22.24242278125" lon="114.19435679638671" /><trkpt lat="22.24240078125" lon="114.19461079638671" /><trkpt lat="22.24245778125" lon="114.19474079638672" /><trkpt lat="22.24281478125" lon="114.19513979638671" /><trkpt lat="22.24306078125" lon="114.19555779638672" /><trkpt lat="22.24307578125" lon="114.19595979638672" /><trkpt lat="22.24311278125" lon="114.19619779638671" /><trkpt lat="22.24308278125" lon="114.19648179638672" /><trkpt lat="22.24315178125" lon="114.19667679638673" /><trkpt lat="22.24310878125" lon="114.19690279638672" /><trkpt lat="22.24303978125" lon="114.19706079638672" /><trkpt lat="22.24287478125" lon="114.19719479638673" /><trkpt lat="22.24286278125" lon="114.19755379638671" /><trkpt lat="22.24271678125" lon="114.19758979638672" /><trkpt lat="22.24255878125" lon="114.19764179638672" /><trkpt lat="22.24240778125" lon="114.19782479638671" /><trkpt lat="22.24221178125" lon="114.19788479638672" /><trkpt lat="22.24208378125" lon="114.19782579638672" /><trkpt lat="22.24192278125" lon="114.19774679638672" /><trkpt lat="22.24166978125" lon="114.19775079638671" /><trkpt lat="22.24137078125" lon="114.19785779638671" /><trkpt lat="22.24100378125" lon="114.19783379638672" /><trkpt lat="22.24066778125" lon="114.19792379638672" /><trkpt lat="22.24047478125" lon="114.19793779638673" /><trkpt lat="22.24033878125" lon="114.19797579638671" /><trkpt lat="22.24027678125" lon="114.19807479638672" /><trkpt lat="22.24032678125" lon="114.19827479638671" /><trkpt lat="22.24049978125" lon="114.19840479638673" /><trkpt lat="22.24044178125" lon="114.19864379638672" /><trkpt lat="22.24047178125" lon="114.19896879638672" /><trkpt lat="22.24068078125" lon="114.19945779638672" /><trkpt lat="22.24077978125" lon="114.19985779638672" /><trkpt lat="22.24085078125" lon="114.19992879638671" /><trkpt lat="22.24086578125" lon="114.20012379638672" /><trkpt lat="22.24124078125" lon="114.20033579638672" /><trkpt lat="22.24139178125" lon="114.20050479638672" /><trkpt lat="22.24177878125" lon="114.20094479638672" /><trkpt lat="22.24184178125" lon="114.20126679638672" /><trkpt lat="22.24176278125" lon="114.20157979638672" /><trkpt lat="22.24175578125" lon="114.20192679638672" /><trkpt lat="22.24192078125" lon="114.20230979638671" /><trkpt lat="22.24181878125" lon="114.20246079638672" /><trkpt lat="22.24183678125" lon="114.20270579638672" /><trkpt lat="22.24199678125" lon="114.20296779638672" /><trkpt lat="22.24175378125" lon="114.20316279638672" /><trkpt lat="22.24173978125" lon="114.20327279638671" /><trkpt lat="22.24112878125" lon="114.20374379638672" /><trkpt lat="22.24107278125" lon="114.20382579638672" /><trkpt lat="22.24106178125" lon="114.20401579638671" /><trkpt lat="22.24103878125" lon="114.20418079638672" /><trkpt lat="22.24096878125" lon="114.20429979638672" /><trkpt lat="22.24110478125" lon="114.20445479638671" /><trkpt lat="22.24135078125" lon="114.20463879638672" /><trkpt lat="22.24149078125" lon="114.20485079638672" /><trkpt lat="22.24149878125" lon="114.20513079638671" /><trkpt lat="22.24174278125" lon="114.20553879638672" /><trkpt lat="22.24176178125" lon="114.20567079638671" /><trkpt lat="22.24169278125" lon="114.20571879638672" /><trkpt lat="22.24161878125" lon="114.20570479638671" /><trkpt lat="22.24159178125" lon="114.20573279638671" /><trkpt lat="22.24159478125" lon="114.20578179638672" /><trkpt lat="22.24172178125" lon="114.20602379638672" /><trkpt lat="22.24181878125" lon="114.20619779638672" /><trkpt lat="22.24197078125" lon="114.20654579638672" /><trkpt lat="22.24197178125" lon="114.20667279638671" /><trkpt lat="22.24168778125" lon="114.20692979638672" /><trkpt lat="22.24159378125" lon="114.20700879638672" /><trkpt lat="22.24162678125" lon="114.20705879638672" /><trkpt lat="22.24177678125" lon="114.20706879638672" /><trkpt lat="22.24214778125" lon="114.20701779638672" /><trkpt lat="22.24249378125" lon="114.20703579638672" /><trkpt lat="22.24269078125" lon="114.20702579638672" /><trkpt lat="22.24287078125" lon="114.20700479638671" /><trkpt lat="22.24302778125" lon="114.20708179638672" /><trkpt lat="22.24316578125" lon="114.20733779638672" /><trkpt lat="22.24326178125" lon="114.20741579638671" /><trkpt lat="22.24351378125" lon="114.20732479638671" /><trkpt lat="22.24382778125" lon="114.20738579638672" /><trkpt lat="22.24393878125" lon="114.20745579638672" /><trkpt lat="22.24404778125" lon="114.20762079638672" /><trkpt lat="22.24451378125" lon="114.20780679638672" /><trkpt lat="22.24522478125" lon="114.20856079638672" /><trkpt lat="22.24523778125" lon="114.20876779638672" /><trkpt lat="22.24519278125" lon="114.20889879638672" /><trkpt lat="22.24518378125" lon="114.20920779638672" /><trkpt lat="22.24533078125" lon="114.20972479638672" /><trkpt lat="22.24526978125" lon="114.20991079638672" /><trkpt lat="22.24526678125" lon="114.21001479638672" /><trkpt lat="22.24534578125" lon="114.21007279638673" /><trkpt lat="22.24555878125" lon="114.21008679638672" /><trkpt lat="22.24564678125" lon="114.21015179638673" /><trkpt lat="22.24577378125" lon="114.21032279638672" /><trkpt lat="22.24617878125" lon="114.21095079638673" /><trkpt lat="22.24636678125" lon="114.21110279638673" /><trkpt lat="22.24638378125" lon="114.21125979638671" /><trkpt lat="22.24628778125" lon="114.21149079638671" /><trkpt lat="22.24586878125" lon="114.21191379638672" /><trkpt lat="22.24582778125" lon="114.21196979638673" /><trkpt lat="22.24582478125" lon="114.21202079638672" /><trkpt lat="22.24586278125" lon="114.21205979638673" /><trkpt lat="22.24590778125" lon="114.21206779638672" /><trkpt lat="22.24659178125" lon="114.21186579638672" /><trkpt lat="22.24667178125" lon="114.21186579638672" /><trkpt lat="22.24677078125" lon="114.21190479638672" /><trkpt lat="22.24683578125" lon="114.21197279638672" /><trkpt lat="22.24706778125" lon="114.21206579638672" /><trkpt lat="22.24719478125" lon="114.21208679638671" /><trkpt lat="22.24727778125" lon="114.21214079638672" /><trkpt lat="22.24734278125" lon="114.21224879638672" /><trkpt lat="22.24734878125" lon="114.21235879638672" /><trkpt lat="22.24731578125" lon="114.21246979638671" /><trkpt lat="22.24724478125" lon="114.21255779638672" /><trkpt lat="22.24721978125" lon="114.21262579638672" /><trkpt lat="22.24723878125" lon="114.21267179638672" /><trkpt lat="22.24731778125" lon="114.21269179638672" /><trkpt lat="22.24764978125" lon="114.21265479638672" /><trkpt lat="22.24774678125" lon="114.21267579638672" /><trkpt lat="22.24784678125" lon="114.21272079638672" /><trkpt lat="22.24790278125" lon="114.21278679638672" /><trkpt lat="22.24793978125" lon="114.21278779638672" /><trkpt lat="22.24812878125" lon="114.21267979638672" /><trkpt lat="22.24820578125" lon="114.21276079638672" /><trkpt lat="22.24835378125" lon="114.21313079638672" /><trkpt lat="22.24836078125" lon="114.21328179638672" /><trkpt lat="22.24826478125" lon="114.21339779638672" /><trkpt lat="22.24816778125" lon="114.21374379638672" /><trkpt lat="22.24825278125" lon="114.21402879638671" /><trkpt lat="22.24802578125" lon="114.21415679638672" /><trkpt lat="22.24765578125" lon="114.21422279638672" /><trkpt lat="22.24754578125" lon="114.21427679638671" /><trkpt lat="22.24731278125" lon="114.21438879638671" /><trkpt lat="22.24710378125" lon="114.21452879638672" /><trkpt lat="22.24690778125" lon="114.21466079638672" /><trkpt lat="22.24642078125" lon="114.21502679638672" /><trkpt lat="22.24611378125" lon="114.21515279638672" /><trkpt lat="22.24572278125" lon="114.21539279638672" /><trkpt lat="22.24550378125" lon="114.21563679638672" /><trkpt lat="22.24516378125" lon="114.21609779638672" /><trkpt lat="22.24500078125" lon="114.21622979638671" /><trkpt lat="22.24481578125" lon="114.21631679638672" /><trkpt lat="22.24466478125" lon="114.21650379638672" /><trkpt lat="22.24431978125" lon="114.21675179638672" /><trkpt lat="22.24411778125" lon="114.21682579638671" /><trkpt lat="22.24391878125" lon="114.21679479638672" /><trkpt lat="22.24366878125" lon="114.21687579638672" /><trkpt lat="22.24365278125" lon="114.21693779638672" /><trkpt lat="22.24359678125" lon="114.21725079638672" /><trkpt lat="22.24350578125" lon="114.21769179638672" /><trkpt lat="22.24340178125" lon="114.21778879638671" /><trkpt lat="22.24335378125" lon="114.21784279638672" /><trkpt lat="22.24304078125" lon="114.21801179638672" /><trkpt lat="22.24274278125" lon="114.21817279638672" /><trkpt lat="22.24254078125" lon="114.21820079638672" /><trkpt lat="22.24230678125" lon="114.21810979638671" /><trkpt lat="22.24204878125" lon="114.21794279638672" /><trkpt lat="22.24157678125" lon="114.21769879638671" /><trkpt lat="22.24141578125" lon="114.21787379638671" /><trkpt lat="22.24121478125" lon="114.21810979638671" /><trkpt lat="22.24114078125" lon="114.21822879638673" /><trkpt lat="22.24133778125" lon="114.21851979638672" /><trkpt lat="22.24140978125" lon="114.21872079638672" /><trkpt lat="22.24136178125" lon="114.21899979638673" /><trkpt lat="22.24125978125" lon="114.21908079638672" /><trkpt lat="22.24107978125" lon="114.21933179638671" /><trkpt lat="22.24089278125" lon="114.21943479638672" /><trkpt lat="22.24057178125" lon="114.21963379638672" /><trkpt lat="22.24041778125" lon="114.21991479638672" /><trkpt lat="22.24039378125" lon="114.22026579638671" /><trkpt lat="22.24035378125" lon="114.22050779638671" /><trkpt lat="22.24031378125" lon="114.22064779638671" /><trkpt lat="22.24026378125" lon="114.22082079638672" /><trkpt lat="22.24016378125" lon="114.22097479638671" /><trkpt lat="22.24009778125" lon="114.22107579638671" /><trkpt lat="22.24005778125" lon="114.22113679638672" /><trkpt lat="22.24001978125" lon="114.22123379638671" /><trkpt lat="22.23997878125" lon="114.22134279638672" /><trkpt lat="22.23995678125" lon="114.22143779638672" /><trkpt lat="22.239881705255346" lon="114.22142830267656" /></trkseg></trk></gpx>