<?xml version='1.0' encoding='UTF-8' ?><gpx version="1.1" creator="HikingTrailHK" xsi:schemaLocation="http://www.topografix.com/GPX/1/1 http://www.topografix.com/GPX/1/1/gpx.xsd" xmlns="http://www.topografix.com/GPX/1/1" xmlns:xsi="http://www.w3.org/2001/XMLSchema-instance"><metadata><name>大蛇頂 @ 2022-04-17</name><desc></desc></metadata><wpt lat="22.35927248176523" lon="114.33817102566292"><name>石平台</name></wpt><trk><trkseg><trkpt lat="22.368919689487416" lon="114.34416620841294" /><trkpt lat="22.36865378125" lon="114.34411679638671" /><trkpt lat="22.36853078125" lon="114.34417779638672" /><trkpt lat="22.36855578125" lon="114.34402279638672" /><trkpt lat="22.36833278125" lon="114.34385079638672" /><trkpt lat="22.36832178125" lon="114.34372079638672" /><trkpt lat="22.36813378125" lon="114.34357979638672" /><trkpt lat="22.36803678125" lon="114.34357979638672" /><trkpt lat="22.36800278125" lon="114.34334479638672" /><trkpt lat="22.36762078125" lon="114.34330779638672" /><trkpt lat="22.36755778125" lon="114.34343779638672" /><trkpt lat="22.36742678125" lon="114.34335779638671" /><trkpt lat="22.36724478125" lon="114.34343179638672" /><trkpt lat="22.36670378125" lon="114.34335779638671" /><trkpt lat="22.36661778125" lon="114.34340079638672" /><trkpt lat="22.36646978125" lon="114.34330779638672" /><trkpt lat="22.36628178125" lon="114.34333279638672" /><trkpt lat="22.36613378125" lon="114.34316079638671" /><trkpt lat="22.36594578125" lon="114.34315379638672" /><trkpt lat="22.36552978125" lon="114.34327079638672" /><trkpt lat="22.36551278125" lon="114.34333879638672" /><trkpt lat="22.36513078125" lon="114.34346179638672" /><trkpt lat="22.36509078125" lon="114.34353579638672" /><trkpt lat="22.36493078125" lon="114.34357279638672" /><trkpt lat="22.36486878125" lon="114.34369679638672" /><trkpt lat="22.36481678125" lon="114.34370879638672" /><trkpt lat="22.36473178125" lon="114.34388179638673" /><trkpt lat="22.36473178125" lon="114.34396779638672" /><trkpt lat="22.36462378125" lon="114.34401079638671" /><trkpt lat="22.36461278125" lon="114.34407579638672" /><trkpt lat="22.36448778125" lon="114.34422479638671" /><trkpt lat="22.36451278125" lon="114.34432079638673" /><trkpt lat="22.36444278125" lon="114.34438779638671" /><trkpt lat="22.36448378125" lon="114.34459379638672" /><trkpt lat="22.36445878125" lon="114.34483879638672" /><trkpt lat="22.36392578125" lon="114.34498379638671" /><trkpt lat="22.36373278125" lon="114.34494879638672" /><trkpt lat="22.36366778125" lon="114.34501579638672" /><trkpt lat="22.36358278125" lon="114.34530879638672" /><trkpt lat="22.36353478125" lon="114.34538479638672" /><trkpt lat="22.36340178125" lon="114.34551679638672" /><trkpt lat="22.36332478125" lon="114.34562479638672" /><trkpt lat="22.36329178125" lon="114.34571579638671" /><trkpt lat="22.36304378125" lon="114.34603979638672" /><trkpt lat="22.36302478125" lon="114.34624279638672" /><trkpt lat="22.36292378125" lon="114.34640579638672" /><trkpt lat="22.36275378125" lon="114.34646979638671" /><trkpt lat="22.36259278125" lon="114.34670479638672" /><trkpt lat="22.36255878125" lon="114.34690779638672" /><trkpt lat="22.362557344799537" lon="114.34688998889179" /><trkpt lat="22.36257778125" lon="114.34698079638672" /><trkpt lat="22.36247978125" lon="114.34713079638672" /><trkpt lat="22.36245178125" lon="114.34717179638672" /><trkpt lat="22.36236878125" lon="114.34734079638672" /><trkpt lat="22.36244778125" lon="114.34753079638672" /><trkpt lat="22.36216878125" lon="114.34760579638672" /><trkpt lat="22.36200078125" lon="114.34762179638672" /><trkpt lat="22.36161378125" lon="114.34751979638672" /><trkpt lat="22.36131578125" lon="114.34737979638672" /><trkpt lat="22.36090378125" lon="114.34742279638672" /><trkpt lat="22.36070578125" lon="114.34732079638673" /><trkpt lat="22.36040278125" lon="114.34743479638672" /><trkpt lat="22.35990678125" lon="114.34751479638672" /><trkpt lat="22.35940578125" lon="114.34740479638671" /><trkpt lat="22.35902378125" lon="114.34710279638672" /><trkpt lat="22.35880178125" lon="114.34713979638671" /><trkpt lat="22.35848278125" lon="114.34698579638672" /><trkpt lat="22.35823378125" lon="114.34697879638672" /><trkpt lat="22.35798078125" lon="114.34697279638672" /><trkpt lat="22.35757678125" lon="114.34687479638671" /><trkpt lat="22.35698378125" lon="114.34709579638672" /><trkpt lat="22.35611178125" lon="114.34678179638672" /><trkpt lat="22.35586078125" lon="114.34677579638672" /><trkpt lat="22.35570178125" lon="114.34674479638672" /><trkpt lat="22.35575878125" lon="114.34659079638672" /><trkpt lat="22.35574678125" lon="114.34630779638672" /><trkpt lat="22.35558178125" lon="114.34620879638672" /><trkpt lat="22.35559278125" lon="114.34604279638671" /><trkpt lat="22.35537078125" lon="114.34607979638672" /><trkpt lat="22.35496678125" lon="114.34602979638672" /><trkpt lat="22.35460778125" lon="114.34603679638671" /><trkpt lat="22.35421978125" lon="114.34570979638671" /><trkpt lat="22.35390678125" lon="114.34567279638672" /><trkpt lat="22.35376378125" lon="114.34538979638671" /><trkpt lat="22.35352978125" lon="114.34537679638672" /><trkpt lat="22.35328478125" lon="114.34515479638672" /><trkpt lat="22.35325078125" lon="114.34498279638672" /><trkpt lat="22.35297178125" lon="114.34488379638672" /><trkpt lat="22.35252178125" lon="114.34392879638672" /><trkpt lat="22.35237478125" lon="114.34393079638672" /><trkpt lat="22.35278478125" lon="114.34351779638672" /><trkpt lat="22.35337978125" lon="114.34332479638672" /><trkpt lat="22.35371778125" lon="114.34311079638672" /><trkpt lat="22.35395578125" lon="114.34291779638671" /><trkpt lat="22.35420978125" lon="114.34261879638672" /><trkpt lat="22.35437778125" lon="114.34255279638671" /><trkpt lat="22.35466978125" lon="114.34266279638672" /><trkpt lat="22.35472378125" lon="114.34264779638671" /><trkpt lat="22.35486778125" lon="114.34252579638672" /><trkpt lat="22.35521378125" lon="114.34217679638672" /><trkpt lat="22.35542778125" lon="114.34200279638672" /><trkpt lat="22.35550378125" lon="114.34192879638672" /><trkpt lat="22.35571378125" lon="114.34170879638671" /><trkpt lat="22.35574878125" lon="114.34167979638671" /><trkpt lat="22.35607678125" lon="114.34145579638673" /><trkpt lat="22.35643578125" lon="114.34139379638673" /><trkpt lat="22.35671378125" lon="114.34124379638672" /><trkpt lat="22.35709078125" lon="114.34085779638671" /><trkpt lat="22.35730878125" lon="114.34042779638672" /><trkpt lat="22.35740878125" lon="114.34017079638672" /><trkpt lat="22.35768678125" lon="114.33959179638671" /><trkpt lat="22.35806378125" lon="114.33926979638672" /><trkpt lat="22.35819978125" lon="114.33904879638672" /><trkpt lat="22.35838078125" lon="114.33875479638672" /><trkpt lat="22.35857978125" lon="114.33843179638671" /><trkpt lat="22.35861878125" lon="114.33836879638672" /><trkpt lat="22.35917478125" lon="114.33819679638673" /><trkpt lat="22.35937978125" lon="114.33817979638673" /><trkpt lat="22.35949278125" lon="114.33807179638671" /><trkpt lat="22.35961078125" lon="114.33781079638672" /><trkpt lat="22.35982978125" lon="114.33757479638672" /><trkpt lat="22.36000778125" lon="114.33718779638671" /><trkpt lat="22.36003878125" lon="114.33706379638672" /><trkpt lat="22.36006778125" lon="114.33680179638672" /><trkpt lat="22.36002778125" lon="114.33617979638672" /><trkpt lat="22.36026578125" lon="114.33581479638671" /><trkpt lat="22.36042478125" lon="114.33544979638671" /><trkpt lat="22.36064278125" lon="114.33495679638672" /><trkpt lat="22.36082178125" lon="114.33450579638672" /><trkpt lat="22.36113878125" lon="114.33405579638672" /><trkpt lat="22.36155578125" lon="114.33381979638672" /><trkpt lat="22.36187378125" lon="114.33332579638672" /><trkpt lat="22.36209178125" lon="114.33291779638672" /><trkpt lat="22.362317088620898" lon="114.33265908409957" /><trkpt lat="22.362341867057708" lon="114.33247491624377" /><trkpt lat="22.362418129341847" lon="114.3322659820841" /><trkpt lat="22.362408779309973" lon="114.33210054863821" /><trkpt lat="22.362299158637253" lon="114.33188192084211" /><trkpt lat="22.36230478125" lon="114.33188079638671" /><trkpt lat="22.36249378125" lon="114.33180979638672" /><trkpt lat="22.36273578125" lon="114.33167679638672" /><trkpt lat="22.36288478125" lon="114.33159479638672" /><trkpt lat="22.36308278125" lon="114.33146479638671" /><trkpt lat="22.36328178125" lon="114.33132479638672" /><trkpt lat="22.36344978125" lon="114.33125779638672" /><trkpt lat="22.36359678125" lon="114.33119379638671" /><trkpt lat="22.36353698881591" lon="114.33131155459068" /><trkpt lat="22.3635417898863" lon="114.33145124860579" /><trkpt lat="22.363644120831253" lon="114.33156212352912" /><trkpt lat="22.36366545760578" lon="114.33165179638927" /><trkpt lat="22.36395678125" lon="114.33165179638672" /><trkpt lat="22.36437378125" lon="114.33182379638671" /><trkpt lat="22.364385783521097" lon="114.33184761377603" /><trkpt lat="22.36450178125" lon="114.33207779638671" /><trkpt lat="22.36469578125" lon="114.33228379638672" /><trkpt lat="22.36485478125" lon="114.33250679638672" /><trkpt lat="22.36507178125" lon="114.33269579638672" /><trkpt lat="22.36528678125" lon="114.33296079638671" /><trkpt lat="22.36534378125" lon="114.33306979638672" /><trkpt lat="22.36527278125" lon="114.33325079638672" /><trkpt lat="22.36516778125" lon="114.33341179638671" /><trkpt lat="22.36536878125" lon="114.33343079638672" /><trkpt lat="22.36561678125" lon="114.33335379638672" /><trkpt lat="22.36575578125" lon="114.33328579638672" /><trkpt lat="22.36590078125" lon="114.33325079638672" /><trkpt lat="22.36602178125" lon="114.33328579638672" /><trkpt lat="22.36610978125" lon="114.33335279638672" /><trkpt lat="22.36623678125" lon="114.33343379638671" /><trkpt lat="22.36628478125" lon="114.33344679638672" /><trkpt lat="22.36633578125" lon="114.33344379638672" /><trkpt lat="22.36650078125" lon="114.33339979638671" /><trkpt lat="22.36659278125" lon="114.33339279638672" /><trkpt lat="22.36669278125" lon="114.33343479638671" /><trkpt lat="22.36689878125" lon="114.33359479638672" /><trkpt lat="22.36699278125" lon="114.33381979638672" /><trkpt lat="22.36700578125" lon="114.33390679638671" /><trkpt lat="22.36689978125" lon="114.33402179638672" /><trkpt lat="22.36683178125" lon="114.33411079638672" /><trkpt lat="22.36684078125" lon="114.33427279638671" /><trkpt lat="22.36694978125" lon="114.33431979638672" /><trkpt lat="22.36708678125" lon="114.33431079638672" /><trkpt lat="22.36720578125" lon="114.33435379638672" /><trkpt lat="22.36731878125" lon="114.33444279638672" /><trkpt lat="22.36737178125" lon="114.33455279638672" /><trkpt lat="22.36736478125" lon="114.33467179638671" /><trkpt lat="22.36725878125" lon="114.33496879638672" /><trkpt lat="22.36721978125" lon="114.33514379638672" /><trkpt lat="22.36723078125" lon="114.33529979638672" /><trkpt lat="22.36736978125" lon="114.33549279638672" /><trkpt lat="22.36760778125" lon="114.33594379638672" /><trkpt lat="22.36764778125" lon="114.33622279638672" /><trkpt lat="22.36768778125" lon="114.33647979638671" /><trkpt lat="22.36766778125" lon="114.33680179638672" /><trkpt lat="22.36744978125" lon="114.33693079638672" /><trkpt lat="22.36754878125" lon="114.33731679638672" /><trkpt lat="22.36762778125" lon="114.33768179638672" /><trkpt lat="22.36774678125" lon="114.33819679638673" /><trkpt lat="22.36786578125" lon="114.33849679638672" /><trkpt lat="22.36760778125" lon="114.33868979638672" /><trkpt lat="22.36742978125" lon="114.33890479638671" /><trkpt lat="22.36738978125" lon="114.33931279638672" /><trkpt lat="22.36750878125" lon="114.33969879638671" /><trkpt lat="22.36752878125" lon="114.33997779638672" /><trkpt lat="22.36764778125" lon="114.34042779638672" /><trkpt lat="22.36764778125" lon="114.34079279638672" /><trkpt lat="22.36796578125" lon="114.34083579638671" /><trkpt lat="22.36810478125" lon="114.34111479638672" /><trkpt lat="22.36816378125" lon="114.34150079638673" /><trkpt lat="22.36848178125" lon="114.34128679638673" /><trkpt lat="22.36860078125" lon="114.34100779638672" /><trkpt lat="22.36873978125" lon="114.34055679638672" /><trkpt lat="22.36881878125" lon="114.33991379638672" /><trkpt lat="22.36899778125" lon="114.33948379638672" /><trkpt lat="22.36919578125" lon="114.33922679638673" /><trkpt lat="22.36915578125" lon="114.33896879638672" /><trkpt lat="22.36935478125" lon="114.33843279638671" /><trkpt lat="22.36957278125" lon="114.33796079638672" /><trkpt lat="22.36973178125" lon="114.33765979638672" /><trkpt lat="22.37016778125" lon="114.33770279638672" /><trkpt lat="22.37056478125" lon="114.33778879638672" /><trkpt lat="22.37070378125" lon="114.33753179638671" /><trkpt lat="22.37094178125" lon="114.33776779638671" /><trkpt lat="22.37125978125" lon="114.33800379638672" /><trkpt lat="22.37151778125" lon="114.33809579638672" /><trkpt lat="22.37165678125" lon="114.33819279638672" /><trkpt lat="22.37164678125" lon="114.33846079638671" /><trkpt lat="22.37147778125" lon="114.33865379638672" /><trkpt lat="22.37121978125" lon="114.33881879638672" /><trkpt lat="22.37111278125" lon="114.33898179638672" /><trkpt lat="22.37072378125" lon="114.33909779638672" /><trkpt lat="22.37044578125" lon="114.33928279638671" /><trkpt lat="22.37020778125" lon="114.33961279638672" /><trkpt lat="22.37012878125" lon="114.33991379638672" /><trkpt lat="22.36998978125" lon="114.34055679638672" /><trkpt lat="22.36990978125" lon="114.34109379638672" /><trkpt lat="22.37014778125" lon="114.34145779638672" /><trkpt lat="22.37038678125" lon="114.34184479638672" /><trkpt lat="22.37060478125" lon="114.34216679638672" /><trkpt lat="22.37071378125" lon="114.34228879638673" /><trkpt lat="22.37081478125" lon="114.34232079638672" /><trkpt lat="22.37092478125" lon="114.34212079638672" /><trkpt lat="22.37191278125" lon="114.34178579638672" /><trkpt lat="22.37274978125" lon="114.34141779638672" /><trkpt lat="22.37373978125" lon="114.34087879638672" /><trkpt lat="22.37380778125" lon="114.34083479638672" /><trkpt lat="22.37423124568665" lon="114.34056004431865" /><trkpt lat="22.37474178125" lon="114.34022879638673" /><trkpt lat="22.37551378125" lon="114.33964079638672" /><trkpt lat="22.37598178125" lon="114.33920479638672" /><trkpt lat="22.37631278125" lon="114.33887279638672" /><trkpt lat="22.37641978125" lon="114.33882879638672" /><trkpt lat="22.37645978125" lon="114.33881679638672" /><trkpt lat="22.37657778125" lon="114.33879479638672" /><trkpt lat="22.37672178125" lon="114.33883679638672" /><trkpt lat="22.37680778125" lon="114.33887779638673" /><trkpt lat="22.37688078125" lon="114.33899679638672" /><trkpt lat="22.37693078125" lon="114.33906779638671" /><trkpt lat="22.37700878125" lon="114.33912679638672" /><trkpt lat="22.37709478125" lon="114.33918879638672" /><trkpt lat="22.37718278125" lon="114.33923479638672" /><trkpt lat="22.37727178125" lon="114.33926979638672" /><trkpt lat="22.37740778125" lon="114.33928179638671" /><trkpt lat="22.37754478125" lon="114.33928179638671" /><trkpt lat="22.37774078125" lon="114.33922179638672" /><trkpt lat="22.37791578125" lon="114.33916779638672" /><trkpt lat="22.37813578125" lon="114.33908279638672" /><trkpt lat="22.37817378125" lon="114.33906179638672" /><trkpt lat="22.37825278125" lon="114.33901179638671" /><trkpt lat="22.37830578125" lon="114.33896279638672" /><trkpt lat="22.37839278125" lon="114.33885479638671" /><trkpt lat="22.37844178125" lon="114.33875579638672" /><trkpt lat="22.37863678125" lon="114.33818479638671" /><trkpt lat="22.37872078125" lon="114.33803179638672" /><trkpt lat="22.37888478125" lon="114.33789479638672" /><trkpt lat="22.37904778125" lon="114.33778279638672" /><trkpt lat="22.37924878125" lon="114.33768879638671" /><trkpt lat="22.37975178125" lon="114.33750979638671" /><trkpt lat="22.37982778125" lon="114.33748479638672" /><trkpt lat="22.38008478125" lon="114.33741879638671" /><trkpt lat="22.38022178125" lon="114.33734579638671" /><trkpt lat="22.38034878125" lon="114.33724279638672" /><trkpt lat="22.38064478125" lon="114.33693079638672" /><trkpt lat="22.38096178125" lon="114.33650179638671" /><trkpt lat="22.38118078125" lon="114.33613679638673" /><trkpt lat="22.38147378125" lon="114.33571079638672" /><trkpt lat="22.38166178125" lon="114.33553479638672" /><trkpt lat="22.38193478125" lon="114.33540679638672" /><trkpt lat="22.38215978125" lon="114.33525379638672" /><trkpt lat="22.38235678125" lon="114.33494479638672" /><trkpt lat="22.38247078125" lon="114.33467579638672" /><trkpt lat="22.38250778125" lon="114.33462679638671" /><trkpt lat="22.38256178125" lon="114.33456979638672" /><trkpt lat="22.38262178125" lon="114.33450079638672" /><trkpt lat="22.38267478125" lon="114.33447079638673" /><trkpt lat="22.38280078125" lon="114.33442379638672" /><trkpt lat="22.38315578125" lon="114.33447379638672" /><trkpt lat="22.38332478125" lon="114.33457079638671" /><trkpt lat="22.38335178125" lon="114.33434779638672" /><trkpt lat="22.38347278125" lon="114.33432179638672" /><trkpt lat="22.38373478125" lon="114.33409879638671" /><trkpt lat="22.38372478125" lon="114.33403279638672" /><trkpt lat="22.38369578125" lon="114.33384179638672" /><trkpt lat="22.38378378125" lon="114.33381579638672" /><trkpt lat="22.38374178125" lon="114.33356779638672" /><trkpt lat="22.38362178125" lon="114.33358079638671" /><trkpt lat="22.38362978125" lon="114.33339679638672" /><trkpt lat="22.38372178125" lon="114.33327979638672" /><trkpt lat="22.38365778125" lon="114.33313879638672" /><trkpt lat="22.38368878125" lon="114.33274879638672" /><trkpt lat="22.38361478125" lon="114.33243679638672" /><trkpt lat="22.38381178125" lon="114.33200979638671" /><trkpt lat="22.38394778125" lon="114.33190779638672" /><trkpt lat="22.38416878125" lon="114.33191579638672" /><trkpt lat="22.38427678125" lon="114.33183179638672" /><trkpt lat="22.38455678125" lon="114.33182879638672" /><trkpt lat="22.38480278125" lon="114.33204579638672" /><trkpt lat="22.38502978125" lon="114.33234079638672" /><trkpt lat="22.38552578125" lon="114.33236379638672" /><trkpt lat="22.38593378125" lon="114.33238379638672" /><trkpt lat="22.38617978125" lon="114.33252779638671" /><trkpt lat="22.38643678125" lon="114.33253879638671" /><trkpt lat="22.38654578125" lon="114.33255779638672" /><trkpt lat="22.38676378125" lon="114.33243279638671" /><trkpt lat="22.38696978125" lon="114.33215679638671" /><trkpt lat="22.38722778125" lon="114.33215779638672" /><trkpt lat="22.38754478125" lon="114.33187779638672" /><trkpt lat="22.38774178125" lon="114.33191979638671" /><trkpt lat="22.38797678125" lon="114.33174579638671" /><trkpt lat="22.38824778125" lon="114.33163179638672" /><trkpt lat="22.38870878125" lon="114.33109479638672" /><trkpt lat="22.38885278125" lon="114.33072579638672" /><trkpt lat="22.38922178125" lon="114.33043579638672" /><trkpt lat="22.38941178125" lon="114.33014979638672" /><trkpt lat="22.38948278125" lon="114.33000079638671" /><trkpt lat="22.38973278125" lon="114.32982979638672" /><trkpt lat="22.38980678125" lon="114.32964079638671" /><trkpt lat="22.39008778125" lon="114.32945579638672" /><trkpt lat="22.39066178125" lon="114.32954279638672" /><trkpt lat="22.39083778125" lon="114.32950879638672" /><trkpt lat="22.39123278125" lon="114.32962879638671" /><trkpt lat="22.39145078125" lon="114.32955779638672" /><trkpt lat="22.39171078125" lon="114.32931179638672" /><trkpt lat="22.39198078125" lon="114.32930779638671" /><trkpt lat="22.39227778125" lon="114.32941179638672" /><trkpt lat="22.39234178125" lon="114.32955779638672" /><trkpt lat="22.39268078125" lon="114.32969979638672" /><trkpt lat="22.39285578125" lon="114.32957079638672" /><trkpt lat="22.39313178125" lon="114.32950979638672" /><trkpt lat="22.39331478125" lon="114.32950579638671" /><trkpt lat="22.39349378125" lon="114.32960879638672" /><trkpt lat="22.39369478125" lon="114.32941979638672" /><trkpt lat="22.39384378125" lon="114.32916779638671" /><trkpt lat="22.39388978125" lon="114.32914879638672" /><trkpt lat="22.39401978125" lon="114.32912179638672" /><trkpt lat="22.39431278125" lon="114.32920479638672" /><trkpt lat="22.39448378125" lon="114.32955179638672" /><trkpt lat="22.39444678125" lon="114.32960679638671" /><trkpt lat="22.39472478125" lon="114.32955179638672" /><trkpt lat="22.39474978125" lon="114.32960979638672" /><trkpt lat="22.39476378125" lon="114.32979279638671" /><trkpt lat="22.39482278125" lon="114.32995679638672" /><trkpt lat="22.39484678125" lon="114.33006879638671" /><trkpt lat="22.39479678125" lon="114.33012579638672" /><trkpt lat="22.39483378125" lon="114.33024579638672" /><trkpt lat="22.39492478125" lon="114.33018679638671" /><trkpt lat="22.39507778125" lon="114.33000979638672" /><trkpt lat="22.39517078125" lon="114.32986879638672" /><trkpt lat="22.39549378125" lon="114.32947579638672" /><trkpt lat="22.39567778125" lon="114.32918479638671" /><trkpt lat="22.39573778125" lon="114.32890479638672" /><trkpt lat="22.39578978125" lon="114.32865779638672" /><trkpt lat="22.39582178125" lon="114.32829879638672" /><trkpt lat="22.39590178125" lon="114.32792879638671" /><trkpt lat="22.39595878125" lon="114.32770279638672" /><trkpt lat="22.39610978125" lon="114.32747579638672" /><trkpt lat="22.39628978125" lon="114.32715979638672" /><trkpt lat="22.39646478125" lon="114.32690379638672" /><trkpt lat="22.39677178125" lon="114.32660179638673" /><trkpt lat="22.39699878125" lon="114.32643579638672" /><trkpt lat="22.39723478125" lon="114.32625679638672" /><trkpt lat="22.39746678125" lon="114.32608179638672" /><trkpt lat="22.39764578125" lon="114.32593779638673" /><trkpt lat="22.39775778125" lon="114.32586679638672" /><trkpt lat="22.39805378125" lon="114.32567779638671" /><trkpt lat="22.39834278125" lon="114.32558879638673" /><trkpt lat="22.39862678125" lon="114.32554179638672" /><trkpt lat="22.39895778125" lon="114.32544079638672" /><trkpt lat="22.39917078125" lon="114.32529979638672" /><trkpt lat="22.39935378125" lon="114.32515779638672" /><trkpt lat="22.39954378125" lon="114.32497879638672" /><trkpt lat="22.39973178125" lon="114.32475579638673" /><trkpt lat="22.39987978125" lon="114.32454879638672" /><trkpt lat="22.39996578125" lon="114.32425479638673" /><trkpt lat="22.40000578125" lon="114.32395979638672" /><trkpt lat="22.40000878125" lon="114.32381479638671" /><trkpt lat="22.39999878125" lon="114.32366379638673" /><trkpt lat="22.39997078125" lon="114.32351879638672" /><trkpt lat="22.39995578125" lon="114.32345979638671" /><trkpt lat="22.39990078125" lon="114.32331579638672" /><trkpt lat="22.39986078125" lon="114.32323379638672" /><trkpt lat="22.39976178125" lon="114.32305979638672" /><trkpt lat="22.39923578125" lon="114.32218079638672" /><trkpt lat="22.39920242198831" lon="114.32212493881144" /></trkseg></trk></gpx>