<?xml version='1.0' encoding='UTF-8' ?><gpx version="1.1" creator="HikingTrailHK" xsi:schemaLocation="http://www.topografix.com/GPX/1/1 http://www.topografix.com/GPX/1/1/gpx.xsd" xmlns="http://www.topografix.com/GPX/1/1" xmlns:xsi="http://www.w3.org/2001/XMLSchema-instance"><metadata><name>大頭洲 @ 2023-12-25</name><desc></desc></metadata><trk><trkseg><trkpt lat="22.230750983038373" lon="114.25107599456598" /><trkpt lat="22.23081678125" lon="114.25100079638672" /><trkpt lat="22.23089078125" lon="114.25103779638673" /><trkpt lat="22.2310551365599" lon="114.25116113264421" /><trkpt lat="22.23108278125" lon="114.25119279638672" /><trkpt lat="22.23126278125" lon="114.25135479638672" /><trkpt lat="22.23139278125" lon="114.25130779638671" /><trkpt lat="22.23146678125" lon="114.25118679638672" /><trkpt lat="22.23155378125" lon="114.25111779638672" /><trkpt lat="22.23177178125" lon="114.25120579638671" /><trkpt lat="22.23201978125" lon="114.25137179638672" /><trkpt lat="22.23222278125" lon="114.25154579638672" /><trkpt lat="22.23193178125" lon="114.25160979638672" /><trkpt lat="22.23171178125" lon="114.25164379638672" /><trkpt lat="22.23133478125" lon="114.25184179638671" /><trkpt lat="22.23116578125" lon="114.25207379638672" /><trkpt lat="22.23108078125" lon="114.25199079638672" /><trkpt lat="22.23100378125" lon="114.25198879638671" /><trkpt lat="22.23078278125" lon="114.25204779638672" /><trkpt lat="22.23074478125" lon="114.25192979638672" /><trkpt lat="22.23051278125" lon="114.25202079638672" /><trkpt lat="22.23052378125" lon="114.25207079638672" /><trkpt lat="22.23046478125" lon="114.25210079638671" /><trkpt lat="22.23042478125" lon="114.25214779638672" /><trkpt lat="22.230306970342188" lon="114.2521379762758" /><trkpt lat="22.23028778125" lon="114.25216679638672" /><trkpt lat="22.23025778125" lon="114.25218579638671" /><trkpt lat="22.23013678125" lon="114.25223479638672" /><trkpt lat="22.23005678125" lon="114.25229679638672" /><trkpt lat="22.23004278125" lon="114.25235079638672" /><trkpt lat="22.23003578125" lon="114.25241079638671" /><trkpt lat="22.23005978125" lon="114.25254479638672" /><trkpt lat="22.23008378125" lon="114.25268579638671" /><trkpt lat="22.23012078125" lon="114.25285379638672" /><trkpt lat="22.23015078125" lon="114.25298779638672" /><trkpt lat="22.23016278125" lon="114.25305379638672" /><trkpt lat="22.23016678125" lon="114.25310479638672" /><trkpt lat="22.23016978125" lon="114.25315879638671" /><trkpt lat="22.23016478125" lon="114.25319679638672" /><trkpt lat="22.23013578125" lon="114.25325379638672" /><trkpt lat="22.23011278125" lon="114.25326879638672" /><trkpt lat="22.23001278125" lon="114.25331279638672" /><trkpt lat="22.22998878125" lon="114.25333679638672" /><trkpt lat="22.22996178125" lon="114.25339379638672" /><trkpt lat="22.22989778125" lon="114.25344179638672" /><trkpt lat="22.22986478125" lon="114.25346679638672" /><trkpt lat="22.22978878125" lon="114.25350079638672" /><trkpt lat="22.22974278125" lon="114.25351079638672" /><trkpt lat="22.22954878125" lon="114.25354279638672" /><trkpt lat="22.22945078125" lon="114.25360179638672" /><trkpt lat="22.22930378125" lon="114.25384279638672" /><trkpt lat="22.22917478125" lon="114.25411179638672" /><trkpt lat="22.22909878125" lon="114.25435879638673" /><trkpt lat="22.22895678125" lon="114.25479779638673" /><trkpt lat="22.22884578125" lon="114.25516379638673" /><trkpt lat="22.22870978125" lon="114.25555379638672" /><trkpt lat="22.228666825302504" lon="114.25568486693938" /><trkpt lat="22.22875678125" lon="114.25570079638672" /><trkpt lat="22.22880778125" lon="114.25570979638672" /><trkpt lat="22.22922078125" lon="114.25578479638672" /><trkpt lat="22.22921878125" lon="114.25579879638671" /><trkpt lat="22.22927578125" lon="114.25579979638673" /><trkpt lat="22.22931378125" lon="114.25580379638672" /><trkpt lat="22.22933878125" lon="114.25580279638672" /><trkpt lat="22.22935978125" lon="114.25579879638671" /><trkpt lat="22.22937478125" lon="114.25580479638671" /><trkpt lat="22.22943778125" lon="114.25586379638672" /><trkpt lat="22.22951578125" lon="114.25591679638671" /><trkpt lat="22.22977378125" lon="114.25611479638673" /><trkpt lat="22.22980478125" lon="114.25613279638672" /><trkpt lat="22.22983278125" lon="114.25613979638672" /><trkpt lat="22.22985778125" lon="114.25614079638672" /><trkpt lat="22.22994078125" lon="114.25612679638672" /><trkpt lat="22.22999778125" lon="114.25624779638672" /><trkpt lat="22.23004378125" lon="114.25644579638671" /><trkpt lat="22.23008578125" lon="114.25663079638672" /><trkpt lat="22.23009678125" lon="114.25664279638671" /><trkpt lat="22.23014478125" lon="114.25668479638672" /><trkpt lat="22.23010878125" lon="114.25695879638671" /><trkpt lat="22.23011478125" lon="114.25709879638671" /><trkpt lat="22.23012378125" lon="114.25730579638672" /><trkpt lat="22.23010678125" lon="114.25738679638673" /><trkpt lat="22.23012878125" lon="114.25741479638671" /><trkpt lat="22.23003823419525" lon="114.25749579935683" /><trkpt lat="22.230041872198655" lon="114.25752096287181" /><trkpt lat="22.23006278125" lon="114.25747679638671" /><trkpt lat="22.23012878125" lon="114.25741479638671" /><trkpt lat="22.23017878125" lon="114.25744079638672" /><trkpt lat="22.23023178125" lon="114.25745779638672" /><trkpt lat="22.23025978125" lon="114.25748779638671" /><trkpt lat="22.23029278125" lon="114.25752579638672" /><trkpt lat="22.23031378125" lon="114.25769879638672" /><trkpt lat="22.23029378125" lon="114.25779779638673" /><trkpt lat="22.23023078125" lon="114.25787579638671" /><trkpt lat="22.23015378125" lon="114.25794079638672" /><trkpt lat="22.23012478125" lon="114.25797479638672" /><trkpt lat="22.23014078125" lon="114.25805779638672" /><trkpt lat="22.23012078125" lon="114.25810779638672" /><trkpt lat="22.23008078125" lon="114.25815779638671" /><trkpt lat="22.23005178125" lon="114.25819079638671" /><trkpt lat="22.22999578125" lon="114.25822479638671" /><trkpt lat="22.229935728911343" lon="114.2580689143096" /><trkpt lat="22.229932746436873" lon="114.25806823163032" /><trkpt lat="22.229938776854794" lon="114.25807532244886" /><trkpt lat="22.22994030767012" lon="114.25807651686495" /><trkpt lat="22.229941092339757" lon="114.25807908755195" /><trkpt lat="22.22994271561994" lon="114.2580800991035" /><trkpt lat="22.22994396066923" lon="114.25807988140127" /><trkpt lat="22.22994718034745" lon="114.25808181502282" /><trkpt lat="22.229948475069875" lon="114.25808151435905" /><trkpt lat="22.229950948210828" lon="114.25808298357646" /><trkpt lat="22.229951438086346" lon="114.25808212373448" /><trkpt lat="22.22995778125" lon="114.25811279638671" /><trkpt lat="22.22999578125" lon="114.25822479638671" /><trkpt lat="22.22999178125" lon="114.25844379638671" /><trkpt lat="22.22980778125" lon="114.25871079638672" /><trkpt lat="22.22983878125" lon="114.25872879638672" /><trkpt lat="22.22988078125" lon="114.25877379638672" /><trkpt lat="22.229886024199587" lon="114.25889935280651" /><trkpt lat="22.229899506087307" lon="114.25892990753704" /><trkpt lat="22.22991291408826" lon="114.25896016819144" /><trkpt lat="22.229919723636584" lon="114.25894141379462" /><trkpt lat="22.229916819220634" lon="114.25892284242673" /><trkpt lat="22.229908472789006" lon="114.2588963732565" /><trkpt lat="22.22989832337477" lon="114.25887885471019" /><trkpt lat="22.229888357175597" lon="114.2588509678393" /><trkpt lat="22.22988078125" lon="114.25877379638672" /><trkpt lat="22.22999878125" lon="114.25874479638672" /><trkpt lat="22.23007478125" lon="114.25885979638672" /><trkpt lat="22.23014078125" lon="114.25890279638672" /><trkpt lat="22.23020478125" lon="114.25898779638672" /><trkpt lat="22.23023978125" lon="114.25906679638672" /><trkpt lat="22.23032478125" lon="114.25912179638672" /><trkpt lat="22.23033178125" lon="114.25927579638672" /><trkpt lat="22.23035578125" lon="114.25943279638672" /><trkpt lat="22.23032778125" lon="114.25957479638672" /><trkpt lat="22.23032978125" lon="114.25963279638673" /><trkpt lat="22.23022478125" lon="114.25972179638671" /><trkpt lat="22.23013578125" lon="114.25968079638672" /><trkpt lat="22.23008578125" lon="114.25969479638673" /><trkpt lat="22.230054071848798" lon="114.25968783784947" /><trkpt lat="22.230047139466038" lon="114.25969443161335" /><trkpt lat="22.230036008373233" lon="114.25972778246586" /><trkpt lat="22.230053456003347" lon="114.25975527636189" /><trkpt lat="22.23008511452332" lon="114.25974853569517" /><trkpt lat="22.230102108572687" lon="114.25969022382891" /><trkpt lat="22.23013578125" lon="114.25968079638672" /><trkpt lat="22.23022478125" lon="114.25972179638671" /><trkpt lat="22.23032978125" lon="114.25963279638673" /><trkpt lat="22.23032778125" lon="114.25957479638672" /><trkpt lat="22.23035578125" lon="114.25943279638672" /><trkpt lat="22.23033178125" lon="114.25927579638672" /><trkpt lat="22.23032478125" lon="114.25912179638672" /><trkpt lat="22.23023978125" lon="114.25906679638672" /><trkpt lat="22.23020478125" lon="114.25898779638672" /><trkpt lat="22.23014078125" lon="114.25890279638672" /><trkpt lat="22.23007478125" lon="114.25885979638672" /><trkpt lat="22.22999878125" lon="114.25874479638672" /><trkpt lat="22.23002178125" lon="114.25867879638672" /><trkpt lat="22.23003178125" lon="114.25851179638671" /><trkpt lat="22.23001678125" lon="114.25847279638671" /><trkpt lat="22.22999178125" lon="114.25844379638671" /><trkpt lat="22.22999578125" lon="114.25822479638671" /><trkpt lat="22.23005178125" lon="114.25819079638671" /><trkpt lat="22.23008078125" lon="114.25815779638671" /><trkpt lat="22.23012078125" lon="114.25810779638672" /><trkpt lat="22.23014078125" lon="114.25805779638672" /><trkpt lat="22.23012478125" lon="114.25797479638672" /><trkpt lat="22.23015378125" lon="114.25794079638672" /><trkpt lat="22.23023078125" lon="114.25787579638671" /><trkpt lat="22.23029378125" lon="114.25779779638673" /><trkpt lat="22.23031378125" lon="114.25769879638672" /><trkpt lat="22.23029278125" lon="114.25752579638672" /><trkpt lat="22.23025378125" lon="114.25740579638672" /><trkpt lat="22.23025878125" lon="114.25735779638671" /><trkpt lat="22.23033578125" lon="114.25725279638672" /><trkpt lat="22.23038278125" lon="114.25718079638672" /><trkpt lat="22.23039278125" lon="114.25711979638672" /><trkpt lat="22.23041378125" lon="114.25708679638672" /><trkpt lat="22.23042178125" lon="114.25705979638671" /><trkpt lat="22.23040778125" lon="114.25703879638672" /><trkpt lat="22.23038978125" lon="114.25698879638672" /><trkpt lat="22.23035778125" lon="114.25689079638671" /><trkpt lat="22.23030778125" lon="114.25686279638671" /><trkpt lat="22.23014478125" lon="114.25668479638672" /><trkpt lat="22.23013978125" lon="114.25653179638672" /><trkpt lat="22.23014678125" lon="114.25650179638671" /><trkpt lat="22.23017678125" lon="114.25634779638672" /><trkpt lat="22.23017178125" lon="114.25630479638671" /><trkpt lat="22.23014178125" lon="114.25621379638672" /><trkpt lat="22.23012878125" lon="114.25619079638672" /><trkpt lat="22.23008178125" lon="114.25615579638672" /><trkpt lat="22.23004978125" lon="114.25614379638672" /><trkpt lat="22.22996978125" lon="114.25613079638671" /><trkpt lat="22.22994078125" lon="114.25612679638672" /><trkpt lat="22.22985778125" lon="114.25614079638672" /><trkpt lat="22.22983278125" lon="114.25613979638672" /><trkpt lat="22.22980478125" lon="114.25613279638672" /><trkpt lat="22.22977378125" lon="114.25611479638673" /><trkpt lat="22.22951578125" lon="114.25591679638671" /><trkpt lat="22.22943778125" lon="114.25586379638672" /><trkpt lat="22.22937478125" lon="114.25580479638671" /><trkpt lat="22.22935978125" lon="114.25579879638671" /><trkpt lat="22.22933878125" lon="114.25580279638672" /><trkpt lat="22.22931378125" lon="114.25580379638672" /><trkpt lat="22.22927578125" lon="114.25579979638673" /><trkpt lat="22.22921878125" lon="114.25579879638671" /><trkpt lat="22.22922078125" lon="114.25578479638672" /><trkpt lat="22.22880778125" lon="114.25570979638672" /><trkpt lat="22.22875678125" lon="114.25570079638672" /><trkpt lat="22.22866078125" lon="114.25568379638672" /><trkpt lat="22.22865278125" lon="114.25572079638673" /><trkpt lat="22.22867778125" lon="114.25580679638672" /><trkpt lat="22.22873178125" lon="114.25584979638671" /><trkpt lat="22.22873978125" lon="114.25589579638672" /><trkpt lat="22.22871278125" lon="114.25595379638672" /><trkpt lat="22.22860978125" lon="114.25599479638672" /><trkpt lat="22.22846878125" lon="114.25600779638673" /><trkpt lat="22.22840978125" lon="114.25597079638672" /><trkpt lat="22.22844178125" lon="114.25590879638672" /><trkpt lat="22.22833478125" lon="114.25595679638671" /><trkpt lat="22.22828778125" lon="114.25592279638671" /><trkpt lat="22.22827678125" lon="114.25584079638672" /><trkpt lat="22.22825078125" lon="114.25575579638672" /><trkpt lat="22.22820878125" lon="114.25568079638671" /><trkpt lat="22.22824278125" lon="114.25553379638671" /><trkpt lat="22.228278807252295" lon="114.25548926771887" /><trkpt lat="22.228325089727306" lon="114.25529034528694" /><trkpt lat="22.228436240875894" lon="114.25508307482403" /><trkpt lat="22.2284560338515" lon="114.25502232976407" /><trkpt lat="22.228503754114882" lon="114.25472449393419" /><trkpt lat="22.228563148368607" lon="114.25455524174242" /><trkpt lat="22.22860559756481" lon="114.25446966929917" /><trkpt lat="22.228648412695378" lon="114.25441201970534" /><trkpt lat="22.22867944257247" lon="114.25434600884813" /><trkpt lat="22.228769777200682" lon="114.25400681508381" /><trkpt lat="22.228869689900222" lon="114.25379727355198" /><trkpt lat="22.22890473000882" lon="114.2536427277829" /><trkpt lat="22.228936129145097" lon="114.25357577920795" /><trkpt lat="22.228956061959025" lon="114.25350204624772" /><trkpt lat="22.229003851994463" lon="114.25340635032723" /><trkpt lat="22.229035039840568" lon="114.25336314065419" /><trkpt lat="22.22928969015767" lon="114.25275017998968" /><trkpt lat="22.22951091221202" lon="114.25243031133985" /><trkpt lat="22.22948878125" lon="114.25241279638672" /><trkpt lat="22.22970678125" lon="114.25209579638671" /><trkpt lat="22.22976778125" lon="114.25215479638672" /><trkpt lat="22.22990378125" lon="114.25212379638671" /><trkpt lat="22.22992078125" lon="114.25216179638672" /><trkpt lat="22.22996978125" lon="114.25216179638672" /><trkpt lat="22.22999078125" lon="114.25222079638672" /><trkpt lat="22.23003178125" lon="114.25222479638671" /><trkpt lat="22.23005678125" lon="114.25229679638672" /><trkpt lat="22.23013678125" lon="114.25223479638672" /><trkpt lat="22.23025778125" lon="114.25218579638671" /><trkpt lat="22.23028778125" lon="114.25216679638672" /><trkpt lat="22.23032478125" lon="114.25214379638672" /><trkpt lat="22.23042478125" lon="114.25214779638672" /><trkpt lat="22.23046478125" lon="114.25210079638671" /><trkpt lat="22.23052378125" lon="114.25207079638672" /><trkpt lat="22.23051278125" lon="114.25202079638672" /><trkpt lat="22.23074478125" lon="114.25192979638672" /><trkpt lat="22.23078378125" lon="114.25191879638672" /><trkpt lat="22.23078878125" lon="114.25189279638671" /><trkpt lat="22.23078478125" lon="114.25185079638672" /><trkpt lat="22.23078278125" lon="114.25181379638671" /><trkpt lat="22.23079678125" lon="114.25178379638672" /><trkpt lat="22.23081578125" lon="114.25175479638672" /><trkpt lat="22.23083878125" lon="114.25174379638672" /><trkpt lat="22.23088878125" lon="114.25172379638671" /><trkpt lat="22.23092978125" lon="114.25169979638672" /><trkpt lat="22.23099878125" lon="114.25165179638672" /><trkpt lat="22.23107678125" lon="114.25155479638671" /><trkpt lat="22.23101278125" lon="114.25124479638671" /><trkpt lat="22.23103878125" lon="114.25117779638671" /><trkpt lat="22.230898201214714" lon="114.25104481520748" /></trkseg></trk></gpx>