<?xml version='1.0' encoding='UTF-8' ?><gpx version="1.1" creator="HikingTrailHK" xsi:schemaLocation="http://www.topografix.com/GPX/1/1 http://www.topografix.com/GPX/1/1/gpx.xsd" xmlns="http://www.topografix.com/GPX/1/1" xmlns:xsi="http://www.w3.org/2001/XMLSchema-instance"><metadata><name>天后誕 @ 2025-04-20</name><desc></desc></metadata><trk><trkseg><trkpt lat="22.272903942492327" lon="114.29125470818472" /><trkpt lat="22.27274578125" lon="114.29127579638671" /><trkpt lat="22.27255278125" lon="114.29130579638672" /><trkpt lat="22.27228078125" lon="114.29134279638672" /><trkpt lat="22.27190278125" lon="114.29135579638672" /><trkpt lat="22.27174078125" lon="114.29135379638672" /><trkpt lat="22.27173878125" lon="114.29121679638672" /><trkpt lat="22.27165578125" lon="114.29102579638672" /><trkpt lat="22.27153778125" lon="114.29085279638672" /><trkpt lat="22.27123078125" lon="114.29061379638672" /><trkpt lat="22.27088778125" lon="114.29042579638671" /><trkpt lat="22.27083978125" lon="114.29021179638671" /><trkpt lat="22.27063578125" lon="114.29014079638672" /><trkpt lat="22.27047978125" lon="114.29009279638672" /><trkpt lat="22.27037078125" lon="114.29005479638671" /><trkpt lat="22.27033978125" lon="114.28997379638672" /><trkpt lat="22.27023878125" lon="114.28991779638672" /><trkpt lat="22.27047378125" lon="114.28958079638672" /><trkpt lat="22.27066578125" lon="114.28974079638672" /><trkpt lat="22.27070778125" lon="114.28957479638672" /><trkpt lat="22.27076778125" lon="114.28931579638672" /><trkpt lat="22.27080178125" lon="114.28925279638672" /><trkpt lat="22.27092278125" lon="114.28907979638672" /><trkpt lat="22.27088878125" lon="114.28887879638671" /><trkpt lat="22.27088578125" lon="114.28866279638672" /><trkpt lat="22.27086478125" lon="114.28849579638671" /><trkpt lat="22.27081278125" lon="114.28828579638672" /><trkpt lat="22.27079378125" lon="114.28815179638671" /><trkpt lat="22.27080678125" lon="114.28805379638672" /><trkpt lat="22.27089978125" lon="114.28784279638671" /><trkpt lat="22.27095278125" lon="114.28779379638672" /><trkpt lat="22.27105478125" lon="114.28757779638671" /><trkpt lat="22.27124378125" lon="114.28733379638672" /><trkpt lat="22.27132178125" lon="114.28714579638672" /><trkpt lat="22.27125978125" lon="114.28634179638672" /><trkpt lat="22.27111578125" lon="114.28607279638672" /><trkpt lat="22.27122078125" lon="114.28588879638671" /><trkpt lat="22.27120178125" lon="114.28579179638672" /><trkpt lat="22.27118178125" lon="114.28569079638672" /><trkpt lat="22.27119878125" lon="114.28563479638672" /><trkpt lat="22.27099078125" lon="114.28557079638672" /><trkpt lat="22.27080978125" lon="114.28561679638672" /><trkpt lat="22.27066078125" lon="114.28548179638672" /><trkpt lat="22.270711735719104" lon="114.28546831586522" /><trkpt lat="22.270748693498774" lon="114.28550604748807" /><trkpt lat="22.270751315013044" lon="114.28556382462432" /><trkpt lat="22.27080978125" lon="114.28561679638672" /><trkpt lat="22.27099078125" lon="114.28557079638672" /><trkpt lat="22.27119878125" lon="114.28563479638672" /><trkpt lat="22.27122078125" lon="114.28556379638673" /><trkpt lat="22.27116778125" lon="114.28494079638672" /><trkpt lat="22.27162678125" lon="114.28420479638672" /><trkpt lat="22.27163978125" lon="114.28397779638672" /><trkpt lat="22.27180978125" lon="114.28363879638673" /><trkpt lat="22.27196778125" lon="114.28344979638672" /><trkpt lat="22.27216378125" lon="114.28321379638672" /><trkpt lat="22.27259578125" lon="114.28298679638672" /><trkpt lat="22.27268778125" lon="114.28239279638672" /><trkpt lat="22.27296278125" lon="114.28234979638673" /><trkpt lat="22.27308078125" lon="114.28206679638672" /><trkpt lat="22.27329078125" lon="114.28192579638672" /><trkpt lat="22.27355278125" lon="114.28184079638672" /><trkpt lat="22.27369678125" lon="114.28137279638672" /><trkpt lat="22.27390578125" lon="114.28099079638672" /><trkpt lat="22.27401078125" lon="114.28096279638672" /><trkpt lat="22.27414178125" lon="114.28089179638671" /><trkpt lat="22.27397178125" lon="114.28060879638672" /><trkpt lat="22.27405078125" lon="114.28036779638671" /><trkpt lat="22.27398478125" lon="114.28019779638672" /><trkpt lat="22.27411578125" lon="114.27973079638672" /><trkpt lat="22.27398478125" lon="114.27920679638672" /><trkpt lat="22.27370978125" lon="114.27871179638672" /><trkpt lat="22.27349978125" lon="114.27859879638672" /><trkpt lat="22.27329078125" lon="114.27879679638671" /><trkpt lat="22.27195378125" lon="114.27927779638672" /><trkpt lat="22.27177078125" lon="114.27927779638672" /><trkpt lat="22.27114178125" lon="114.27910779638673" /><trkpt lat="22.27107678125" lon="114.27900879638672" /><trkpt lat="22.27043178125" lon="114.27892579638672" /><trkpt lat="22.27044778125" lon="114.27878279638672" /><trkpt lat="22.27027778125" lon="114.27881079638672" /><trkpt lat="22.26951778125" lon="114.27868379638672" /><trkpt lat="22.26932478125" lon="114.27866279638671" /><trkpt lat="22.26874478125" lon="114.27885379638671" /><trkpt lat="22.268553855485692" lon="114.27884086517233" /><trkpt lat="22.26851098029472" lon="114.27859869090656" /><trkpt lat="22.268431958669705" lon="114.27883259696796" /><trkpt lat="22.26867078125" lon="114.27884879638673" /><trkpt lat="22.26874478125" lon="114.27885379638671" /><trkpt lat="22.26932478125" lon="114.27866279638671" /><trkpt lat="22.26951778125" lon="114.27868379638672" /><trkpt lat="22.27027778125" lon="114.27881079638672" /><trkpt lat="22.27044778125" lon="114.27878279638672" /><trkpt lat="22.27043178125" lon="114.27892579638672" /><trkpt lat="22.27107678125" lon="114.27900879638672" /><trkpt lat="22.27114178125" lon="114.27910779638673" /><trkpt lat="22.27177078125" lon="114.27927779638672" /><trkpt lat="22.27195378125" lon="114.27927779638672" /><trkpt lat="22.27329078125" lon="114.27879679638671" /><trkpt lat="22.27349978125" lon="114.27859879638672" /><trkpt lat="22.27370978125" lon="114.27871179638672" /><trkpt lat="22.27398478125" lon="114.27920679638672" /><trkpt lat="22.27411578125" lon="114.27973079638672" /><trkpt lat="22.27398478125" lon="114.28019779638672" /><trkpt lat="22.27405078125" lon="114.28036779638671" /><trkpt lat="22.27397178125" lon="114.28060879638672" /><trkpt lat="22.27414178125" lon="114.28089179638671" /><trkpt lat="22.27401078125" lon="114.28096279638672" /><trkpt lat="22.27390578125" lon="114.28099079638672" /><trkpt lat="22.27369678125" lon="114.28137279638672" /><trkpt lat="22.27355278125" lon="114.28184079638672" /><trkpt lat="22.27329078125" lon="114.28192579638672" /><trkpt lat="22.27308078125" lon="114.28206679638672" /><trkpt lat="22.27296278125" lon="114.28234979638673" /><trkpt lat="22.27268778125" lon="114.28239279638672" /><trkpt lat="22.27259578125" lon="114.28298679638672" /><trkpt lat="22.27216378125" lon="114.28321379638672" /><trkpt lat="22.27196778125" lon="114.28344979638672" /><trkpt lat="22.27180978125" lon="114.28363879638673" /><trkpt lat="22.27163978125" lon="114.28397779638672" /><trkpt lat="22.27162678125" lon="114.28420479638672" /><trkpt lat="22.27116778125" lon="114.28494079638672" /><trkpt lat="22.27122078125" lon="114.28556379638673" /><trkpt lat="22.27119878125" lon="114.28563479638672" /><trkpt lat="22.27118178125" lon="114.28569079638672" /><trkpt lat="22.27120178125" lon="114.28579179638672" /><trkpt lat="22.27122078125" lon="114.28588879638671" /><trkpt lat="22.27111578125" lon="114.28607279638672" /><trkpt lat="22.27125978125" lon="114.28634179638672" /><trkpt lat="22.27132178125" lon="114.28714579638672" /><trkpt lat="22.27124378125" lon="114.28733379638672" /><trkpt lat="22.27105478125" lon="114.28757779638671" /><trkpt lat="22.27095278125" lon="114.28779379638672" /><trkpt lat="22.27089978125" lon="114.28784279638671" /><trkpt lat="22.27080678125" lon="114.28805379638672" /><trkpt lat="22.27079378125" lon="114.28815179638671" /><trkpt lat="22.27081278125" lon="114.28828579638672" /><trkpt lat="22.27086478125" lon="114.28849579638671" /><trkpt lat="22.27088578125" lon="114.28866279638672" /><trkpt lat="22.27088878125" lon="114.28887879638671" /><trkpt lat="22.27092278125" lon="114.28907979638672" /><trkpt lat="22.27080178125" lon="114.28925279638672" /><trkpt lat="22.27076778125" lon="114.28931579638672" /><trkpt lat="22.27070778125" lon="114.28957479638672" /><trkpt lat="22.27066578125" lon="114.28974079638672" /><trkpt lat="22.27047378125" lon="114.28958079638672" /><trkpt lat="22.27039578125" lon="114.28948679638673" /><trkpt lat="22.27041478125" lon="114.28933179638672" /><trkpt lat="22.269855105909524" lon="114.28870499590742" /></trkseg></trk></gpx>