<?xml version='1.0' encoding='UTF-8' ?><gpx version="1.1" creator="HikingTrailHK" xsi:schemaLocation="http://www.topografix.com/GPX/1/1 http://www.topografix.com/GPX/1/1/gpx.xsd https://hikingtrailhk.appspot.com/xml/gpxextensions/v1 https://hikingtrailhk.appspot.com/xml/gpxextensions/v1/gpxextensions.xsd" xmlns="http://www.topografix.com/GPX/1/1" xmlns:h="https://hikingtrailhk.appspot.com/xml/gpxextensions/v1" xmlns:xsi="http://www.w3.org/2001/XMLSchema-instance"><metadata><name>天崖海角 @ 2016-12-5</name><desc></desc><extensions><h:categoryid>scenery_route</h:categoryid></extensions></metadata><trk><trkseg><trkpt lat="22.296190772369172" lon="114.29165379934719" /><trkpt lat="22.29616378125" lon="114.29166279638672" /><trkpt lat="22.29611378125" lon="114.29165079638672" /><trkpt lat="22.29607778125" lon="114.29171979638672" /><trkpt lat="22.29604878125" lon="114.29176979638672" /><trkpt lat="22.296025781250002" lon="114.29182179638671" /><trkpt lat="22.29600578125" lon="114.29188779638672" /><trkpt lat="22.29598178125" lon="114.29197879638672" /><trkpt lat="22.29595878125" lon="114.29207479638671" /><trkpt lat="22.29595078125" lon="114.29215679638672" /><trkpt lat="22.29594378125" lon="114.29225579638671" /><trkpt lat="22.29592578125" lon="114.29237979638671" /><trkpt lat="22.29588178125" lon="114.29248679638673" /><trkpt lat="22.29584078125" lon="114.29254879638673" /><trkpt lat="22.29566378125" lon="114.29272479638672" /><trkpt lat="22.29542478125" lon="114.29291179638672" /><trkpt lat="22.29523078125" lon="114.29310579638671" /><trkpt lat="22.29509778125" lon="114.29326679638672" /><trkpt lat="22.29496378125" lon="114.29341479638671" /><trkpt lat="22.29488578125" lon="114.29347379638672" /><trkpt lat="22.29482178125" lon="114.29352179638671" /><trkpt lat="22.29473378125" lon="114.29356479638672" /><trkpt lat="22.29460078125" lon="114.29360179638672" /><trkpt lat="22.29448078125" lon="114.29369179638672" /><trkpt lat="22.29429778125" lon="114.29391479638672" /><trkpt lat="22.29435078125" lon="114.29385379638671" /><trkpt lat="22.29442078125" lon="114.29389279638671" /><trkpt lat="22.29446678125" lon="114.29389079638672" /><trkpt lat="22.29449578125" lon="114.29390079638672" /><trkpt lat="22.29454378125" lon="114.29389679638672" /><trkpt lat="22.29455878125" lon="114.29393279638671" /><trkpt lat="22.29461378125" lon="114.29395879638672" /><trkpt lat="22.29462678125" lon="114.29400979638672" /><trkpt lat="22.29465378125" lon="114.29403179638672" /><trkpt lat="22.29465678125" lon="114.29408179638672" /><trkpt lat="22.29467978125" lon="114.29412079638672" /><trkpt lat="22.29471178125" lon="114.29420779638671" /><trkpt lat="22.29475278125" lon="114.29425079638672" /><trkpt lat="22.29482178125" lon="114.29428479638672" /><trkpt lat="22.29526978125" lon="114.29510779638672" /><trkpt lat="22.295287849099463" lon="114.29519010530002" /><trkpt lat="22.29536878125" lon="114.29555879638671" /><trkpt lat="22.29552778125" lon="114.29581579638672" /><trkpt lat="22.29552778125" lon="114.29635279638671" /><trkpt lat="22.29565978125" lon="114.29656079638671" /><trkpt lat="22.29578578125" lon="114.29676079638672" /><trkpt lat="22.29630178125" lon="114.29787579638672" /><trkpt lat="22.29649978125" lon="114.29804779638673" /><trkpt lat="22.29665878125" lon="114.29862679638671" /><trkpt lat="22.29665878125" lon="114.29912079638672" /><trkpt lat="22.29685478125" lon="114.29926079638672" /><trkpt lat="22.29687578125" lon="114.29946879638672" /><trkpt lat="22.29681878125" lon="114.29954379638671" /><trkpt lat="22.29670878125" lon="114.30002579638672" /><trkpt lat="22.29674078125" lon="114.30034079638672" /><trkpt lat="22.29671978125" lon="114.30075779638672" /><trkpt lat="22.29667478125" lon="114.30084379638672" /><trkpt lat="22.29685878125" lon="114.30130979638672" /><trkpt lat="22.29718278125" lon="114.30154379638672" /><trkpt lat="22.29713378125" lon="114.30184479638672" /><trkpt lat="22.29716778125" lon="114.30193779638672" /><trkpt lat="22.29697178125" lon="114.30228579638671" /><trkpt lat="22.29711678125" lon="114.30242679638671" /><trkpt lat="22.29732978125" lon="114.30266579638672" /><trkpt lat="22.29742678125" lon="114.30283679638671" /><trkpt lat="22.29754578125" lon="114.30308479638671" /><trkpt lat="22.29765578125" lon="114.30319679638671" /><trkpt lat="22.29775578125" lon="114.30335679638672" /><trkpt lat="22.29802078125" lon="114.30371979638672" /><trkpt lat="22.29821978125" lon="114.30406479638673" /><trkpt lat="22.29827078125" lon="114.30415479638671" /><trkpt lat="22.29823578125" lon="114.30429979638672" /><trkpt lat="22.29819978125" lon="114.30440779638671" /><trkpt lat="22.29823578125" lon="114.30451079638672" /><trkpt lat="22.29829378125" lon="114.30463879638671" /><trkpt lat="22.29845978125" lon="114.30468279638671" /><trkpt lat="22.29897378125" lon="114.30484679638671" /><trkpt lat="22.29916178125" lon="114.30488779638672" /><trkpt lat="22.29921078125" lon="114.30500779638672" /><trkpt lat="22.29938478125" lon="114.30501079638672" /><trkpt lat="22.29949878125" lon="114.30510579638671" /><trkpt lat="22.29978578125" lon="114.30543679638672" /><trkpt lat="22.29981578125" lon="114.30556979638672" /><trkpt lat="22.29973878125" lon="114.30621079638672" /><trkpt lat="22.29983378125" lon="114.30670879638672" /><trkpt lat="22.29977378125" lon="114.30681979638672" /><trkpt lat="22.29968278125" lon="114.30753879638672" /><trkpt lat="22.29959778125" lon="114.30781479638672" /><trkpt lat="22.29956978125" lon="114.30822979638671" /><trkpt lat="22.29958078125" lon="114.30843179638671" /><trkpt lat="22.29967978125" lon="114.30860479638672" /><trkpt lat="22.29962478125" lon="114.30903679638672" /><trkpt lat="22.29964578125" lon="114.30923579638672" /><trkpt lat="22.29958878125" lon="114.30942979638672" /><trkpt lat="22.29965778125" lon="114.30950679638671" /><trkpt lat="22.29958778125" lon="114.30962379638672" /><trkpt lat="22.29956378125" lon="114.30981479638672" /><trkpt lat="22.29933878125" lon="114.31010679638672" /><trkpt lat="22.29928978125" lon="114.31016279638672" /><trkpt lat="22.29925478125" lon="114.31009679638672" /><trkpt lat="22.29912078125" lon="114.30998479638671" /><trkpt lat="22.29907678125" lon="114.30998779638672" /><trkpt lat="22.29900678125" lon="114.30992179638672" /><trkpt lat="22.29884278125" lon="114.30982579638672" /><trkpt lat="22.29875878125" lon="114.30984879638672" /><trkpt lat="22.29868378125" lon="114.30992579638672" /><trkpt lat="22.29867378125" lon="114.31003179638672" /><trkpt lat="22.29852578125" lon="114.31011779638672" /><trkpt lat="22.29846778125" lon="114.31026579638672" /><trkpt lat="22.29828978125" lon="114.31037279638672" /><trkpt lat="22.29823978125" lon="114.31048079638671" /><trkpt lat="22.29813978125" lon="114.31058679638672" /><trkpt lat="22.29804478125" lon="114.31058579638672" /><trkpt lat="22.29799278125" lon="114.31063779638671" /><trkpt lat="22.29792178125" lon="114.31068379638671" /><trkpt lat="22.29789278125" lon="114.31078379638672" /><trkpt lat="22.29789078125" lon="114.31088879638672" /><trkpt lat="22.29790878125" lon="114.31099079638672" /><trkpt lat="22.29790178125" lon="114.31106979638672" /><trkpt lat="22.29791878125" lon="114.31120379638672" /><trkpt lat="22.297857336756792" lon="114.3112419422626" /><trkpt lat="22.29784239994116" lon="114.31119498759244" /><trkpt lat="22.297914074882904" lon="114.31116670270684" /><trkpt lat="22.29790178125" lon="114.31106979638672" /><trkpt lat="22.29790878125" lon="114.31099079638672" /><trkpt lat="22.29789078125" lon="114.31088879638672" /><trkpt lat="22.29789278125" lon="114.31078379638672" /><trkpt lat="22.29792178125" lon="114.31068379638671" /><trkpt lat="22.29799278125" lon="114.31063779638671" /><trkpt lat="22.29804478125" lon="114.31058579638672" /><trkpt lat="22.29813978125" lon="114.31058679638672" /><trkpt lat="22.29823978125" lon="114.31048079638671" /><trkpt lat="22.29828978125" lon="114.31037279638672" /><trkpt lat="22.29826478125" lon="114.31027479638672" /><trkpt lat="22.29827178125" lon="114.31016379638672" /><trkpt lat="22.29819978125" lon="114.30990479638672" /><trkpt lat="22.29821878125" lon="114.30979379638671" /><trkpt lat="22.29816278125" lon="114.30975579638672" /><trkpt lat="22.29813478125" lon="114.30968979638672" /><trkpt lat="22.29810978125" lon="114.30956079638672" /><trkpt lat="22.29807878125" lon="114.30951079638672" /><trkpt lat="22.29801278125" lon="114.30946179638671" /><trkpt lat="22.29796678125" lon="114.30937079638672" /><trkpt lat="22.29791378125" lon="114.30942079638672" /><trkpt lat="22.29782678125" lon="114.30944979638672" /><trkpt lat="22.29777878125" lon="114.30941679638671" /><trkpt lat="22.29768478125" lon="114.30939679638672" /><trkpt lat="22.29760778125" lon="114.30934579638672" /><trkpt lat="22.29761178125" lon="114.30919179638671" /><trkpt lat="22.29755178125" lon="114.30910379638672" /><trkpt lat="22.29755478125" lon="114.30898179638672" /><trkpt lat="22.29755378125" lon="114.30883979638672" /><trkpt lat="22.29738578125" lon="114.30863179638672" /><trkpt lat="22.29729978125" lon="114.30861679638672" /><trkpt lat="22.29720678125" lon="114.30851579638671" /><trkpt lat="22.29709778125" lon="114.30848579638672" /><trkpt lat="22.29705878125" lon="114.30849879638671" /><trkpt lat="22.29703178125" lon="114.30847779638673" /><trkpt lat="22.29699578125" lon="114.30843179638671" /><trkpt lat="22.29695478125" lon="114.30844579638672" /><trkpt lat="22.29693478125" lon="114.30859179638672" /><trkpt lat="22.29679278125" lon="114.30872779638672" /><trkpt lat="22.29664478125" lon="114.30864079638671" /><trkpt lat="22.29623978125" lon="114.30893679638672" /><trkpt lat="22.29627978125" lon="114.30922679638672" /><trkpt lat="22.29611978125" lon="114.30926379638672" /><trkpt lat="22.29570878125" lon="114.30896279638672" /><trkpt lat="22.29560978125" lon="114.30897679638672" /><trkpt lat="22.29551278125" lon="114.30895279638672" /><trkpt lat="22.29544178125" lon="114.30890579638672" /><trkpt lat="22.29515878125" lon="114.30883679638671" /><trkpt lat="22.29505678125" lon="114.30864979638672" /><trkpt lat="22.29472278125" lon="114.30872279638672" /><trkpt lat="22.29452678125" lon="114.30845879638672" /><trkpt lat="22.29440678125" lon="114.30849979638671" /><trkpt lat="22.29425378125" lon="114.30846779638672" /><trkpt lat="22.29449578125" lon="114.30811879638672" /><trkpt lat="22.29459778125" lon="114.30726479638672" /><trkpt lat="22.29464378125" lon="114.30602479638672" /><trkpt lat="22.29450978125" lon="114.30507979638672" /><trkpt lat="22.29443478125" lon="114.30404579638672" /><trkpt lat="22.29466578125" lon="114.30338179638672" /><trkpt lat="22.29478978125" lon="114.30326679638672" /><trkpt lat="22.294825537900508" lon="114.30319182428414" /><trkpt lat="22.29485178125" lon="114.30313679638672" /><trkpt lat="22.29492978125" lon="114.30300579638671" /><trkpt lat="22.29504478125" lon="114.30285879638672" /><trkpt lat="22.29519578125" lon="114.30277579638671" /><trkpt lat="22.29536878125" lon="114.30278179638672" /><trkpt lat="22.29548178125" lon="114.30275579638672" /><trkpt lat="22.29564878125" lon="114.30263479638671" /><trkpt lat="22.29541678125" lon="114.30261679638672" /><trkpt lat="22.29517778125" lon="114.30245579638672" /><trkpt lat="22.29506478125" lon="114.30235179638672" /><trkpt lat="22.29497478125" lon="114.30236479638671" /><trkpt lat="22.29489978125" lon="114.30232779638672" /><trkpt lat="22.29467378125" lon="114.30231679638672" /><trkpt lat="22.29457678125" lon="114.30227479638671" /><trkpt lat="22.29436178125" lon="114.30234679638671" /><trkpt lat="22.29414078125" lon="114.30242179638672" /><trkpt lat="22.29396678125" lon="114.30245379638671" /><trkpt lat="22.29385378125" lon="114.30247579638672" /><trkpt lat="22.29380078125" lon="114.30243279638673" /><trkpt lat="22.29357178125" lon="114.30222879638671" /><trkpt lat="22.29348978125" lon="114.30208779638672" /><trkpt lat="22.29330178125" lon="114.30214779638672" /><trkpt lat="22.29326378125" lon="114.30207079638672" /><trkpt lat="22.29311678125" lon="114.30209979638671" /><trkpt lat="22.29304778125" lon="114.30209279638672" /><trkpt lat="22.29298578125" lon="114.30204979638673" /><trkpt lat="22.29289178125" lon="114.30203479638672" /><trkpt lat="22.29281078125" lon="114.30195979638673" /><trkpt lat="22.29257178125" lon="114.30197779638672" /><trkpt lat="22.29210778125" lon="114.30194079638672" /><trkpt lat="22.29186378125" lon="114.30219279638672" /><trkpt lat="22.29169478125" lon="114.30209879638672" /><trkpt lat="22.29165378125" lon="114.30202179638673" /><trkpt lat="22.29150378125" lon="114.30195679638672" /><trkpt lat="22.29152714920737" lon="114.30188669165284" /><trkpt lat="22.29155225919258" lon="114.30191670656625" /><trkpt lat="22.29163178125" lon="114.30193879638672" /><trkpt lat="22.29172478125" lon="114.30172279638671" /><trkpt lat="22.291734308032773" lon="114.30173062740253" /><trkpt lat="22.29182578125" lon="114.30177379638671" /><trkpt lat="22.29186678125" lon="114.30177379638671" /><trkpt lat="22.29191778125" lon="114.30177079638672" /><trkpt lat="22.29196778125" lon="114.30176379638672" /><trkpt lat="22.29200578125" lon="114.30175779638672" /><trkpt lat="22.29207278125" lon="114.30174179638672" /><trkpt lat="22.29213878125" lon="114.30171079638671" /><trkpt lat="22.29219578125" lon="114.30166579638671" /><trkpt lat="22.29222778125" lon="114.30163779638671" /><trkpt lat="22.29228078125" lon="114.30156479638671" /><trkpt lat="22.29233478125" lon="114.30147279638672" /><trkpt lat="22.29237678125" lon="114.30134879638672" /><trkpt lat="22.29240378125" lon="114.30114179638672" /><trkpt lat="22.29245278125" lon="114.30075479638671" /><trkpt lat="22.29252578125" lon="114.30043879638671" /><trkpt lat="22.29262678125" lon="114.30025179638672" /><trkpt lat="22.29277178125" lon="114.30013379638672" /><trkpt lat="22.29289478125" lon="114.30008279638672" /><trkpt lat="22.29306278125" lon="114.30006479638672" /><trkpt lat="22.29344078125" lon="114.30007479638672" /><trkpt lat="22.29380278125" lon="114.30001879638672" /><trkpt lat="22.29402178125" lon="114.29990279638672" /><trkpt lat="22.29414278125" lon="114.29977779638672" /><trkpt lat="22.29425878125" lon="114.29963779638672" /><trkpt lat="22.29432078125" lon="114.29947579638672" /><trkpt lat="22.29437778125" lon="114.29929979638672" /><trkpt lat="22.29438178125" lon="114.29910279638672" /><trkpt lat="22.29438078125" lon="114.29889379638672" /><trkpt lat="22.29431478125" lon="114.29870079638673" /><trkpt lat="22.29417078125" lon="114.29832679638672" /><trkpt lat="22.29407478125" lon="114.29804479638672" /><trkpt lat="22.29400978125" lon="114.29785379638672" /><trkpt lat="22.29394478125" lon="114.29765779638672" /><trkpt lat="22.29387378125" lon="114.29754879638672" /><trkpt lat="22.29378778125" lon="114.29743979638671" /><trkpt lat="22.29371878125" lon="114.29727879638672" /><trkpt lat="22.29369678125" lon="114.29712279638672" /><trkpt lat="22.29372478125" lon="114.29692279638672" /><trkpt lat="22.29376978125" lon="114.29673079638673" /><trkpt lat="22.29382678125" lon="114.29653879638671" /><trkpt lat="22.29388578125" lon="114.29635379638673" /><trkpt lat="22.29393178125" lon="114.29617279638671" /><trkpt lat="22.29399678125" lon="114.29592179638672" /><trkpt lat="22.29400578125" lon="114.29567679638672" /><trkpt lat="22.29399278125" lon="114.29542579638672" /><trkpt lat="22.29397478125" lon="114.29503779638672" /><trkpt lat="22.29395878125" lon="114.29468479638672" /><trkpt lat="22.29401378125" lon="114.29439979638671" /><trkpt lat="22.29417178125" lon="114.29409479638672" /><trkpt lat="22.29429778125" lon="114.29391479638672" /><trkpt lat="22.29448078125" lon="114.29369179638672" /><trkpt lat="22.29460078125" lon="114.29360179638672" /><trkpt lat="22.29473378125" lon="114.29356479638672" /><trkpt lat="22.29482178125" lon="114.29352179638671" /><trkpt lat="22.29488578125" lon="114.29347379638672" /><trkpt lat="22.29496378125" lon="114.29341479638671" /><trkpt lat="22.29509778125" lon="114.29326679638672" /><trkpt lat="22.29523078125" lon="114.29310579638671" /><trkpt lat="22.29542478125" lon="114.29291179638672" /><trkpt lat="22.29566378125" lon="114.29272479638672" /><trkpt lat="22.29584078125" lon="114.29254879638673" /><trkpt lat="22.29588178125" lon="114.29248679638673" /><trkpt lat="22.29592578125" lon="114.29237979638671" /><trkpt lat="22.29594378125" lon="114.29225579638671" /><trkpt lat="22.29595078125" lon="114.29215679638672" /><trkpt lat="22.29595878125" lon="114.29207479638671" /><trkpt lat="22.29598178125" lon="114.29197879638672" /><trkpt lat="22.29600578125" lon="114.29188779638672" /><trkpt lat="22.296025781250002" lon="114.29182179638671" /><trkpt lat="22.29604878125" lon="114.29176979638672" /><trkpt lat="22.29607778125" lon="114.29171979638672" /><trkpt lat="22.29611378125" lon="114.29165079638672" /><trkpt lat="22.296107038491215" lon="114.29164493311731" /></trkseg></trk></gpx>