<?xml version='1.0' encoding='UTF-8' ?><gpx version="1.1" creator="HikingTrailHK" xsi:schemaLocation="http://www.topografix.com/GPX/1/1 http://www.topografix.com/GPX/1/1/gpx.xsd" xmlns="http://www.topografix.com/GPX/1/1" xmlns:xsi="http://www.w3.org/2001/XMLSchema-instance"><metadata><name>孟公屋路村 @ 2026-04-29</name><desc></desc></metadata><trk><trkseg><trkpt lat="22.31592176537354" lon="114.27117994495809" /><trkpt lat="22.31589878125" lon="114.27120879638672" /><trkpt lat="22.31585578125" lon="114.27128279638671" /><trkpt lat="22.31583278125" lon="114.27134979638672" /><trkpt lat="22.31582078125" lon="114.27139679638672" /><trkpt lat="22.31581378125" lon="114.27145879638672" /><trkpt lat="22.31581078125" lon="114.27150879638671" /><trkpt lat="22.31576578125" lon="114.27160779638672" /><trkpt lat="22.31572778125" lon="114.27166279638672" /><trkpt lat="22.31570078125" lon="114.27170179638672" /><trkpt lat="22.31566378125" lon="114.27175979638672" /><trkpt lat="22.31561678125" lon="114.27184879638672" /><trkpt lat="22.31558378125" lon="114.27193279638672" /><trkpt lat="22.31553078125" lon="114.27203679638671" /><trkpt lat="22.31548978125" lon="114.27212579638672" /><trkpt lat="22.31540678125" lon="114.27227079638672" /><trkpt lat="22.31533178125" lon="114.27237779638672" /><trkpt lat="22.31525278125" lon="114.27240879638671" /><trkpt lat="22.31517278125" lon="114.27244479638672" /><trkpt lat="22.31510478125" lon="114.27247679638671" /><trkpt lat="22.31503778125" lon="114.27252079638671" /><trkpt lat="22.31495878125" lon="114.27260879638672" /><trkpt lat="22.31488378125" lon="114.27272979638671" /><trkpt lat="22.31481578125" lon="114.27277679638672" /><trkpt lat="22.31477278125" lon="114.27284579638672" /><trkpt lat="22.31470378125" lon="114.27293879638673" /><trkpt lat="22.31468878125" lon="114.27302779638671" /><trkpt lat="22.31466478125" lon="114.27311379638672" /><trkpt lat="22.31464678125" lon="114.27317179638672" /><trkpt lat="22.31462678125" lon="114.27324479638672" /><trkpt lat="22.31459778125" lon="114.27331479638671" /><trkpt lat="22.31458278125" lon="114.27338979638672" /><trkpt lat="22.31456178125" lon="114.27343679638672" /><trkpt lat="22.31454078125" lon="114.27347879638671" /><trkpt lat="22.31451578125" lon="114.27353679638672" /><trkpt lat="22.31450578125" lon="114.27364179638671" /><trkpt lat="22.31449978125" lon="114.27369679638672" /><trkpt lat="22.31443578125" lon="114.27379279638672" /><trkpt lat="22.31439078125" lon="114.27385979638672" /><trkpt lat="22.31432978125" lon="114.27395779638672" /><trkpt lat="22.31426578125" lon="114.27398779638672" /><trkpt lat="22.31420478125" lon="114.27402479638671" /><trkpt lat="22.31414778125" lon="114.27406679638672" /><trkpt lat="22.31411278125" lon="114.27415979638671" /><trkpt lat="22.31407278125" lon="114.27420979638671" /><trkpt lat="22.31401278125" lon="114.27426879638672" /><trkpt lat="22.31397378125" lon="114.27431679638671" /><trkpt lat="22.31393478125" lon="114.27437579638672" /><trkpt lat="22.31390578125" lon="114.27444479638672" /><trkpt lat="22.31387978125" lon="114.27451779638672" /><trkpt lat="22.31384878125" lon="114.27458779638673" /><trkpt lat="22.31383878125" lon="114.27461279638672" /><trkpt lat="22.31382878125" lon="114.27465179638672" /><trkpt lat="22.31382678125" lon="114.27468479638672" /><trkpt lat="22.31380478125" lon="114.27474879638672" /><trkpt lat="22.31383678125" lon="114.27480679638671" /><trkpt lat="22.31387678125" lon="114.27489979638672" /><trkpt lat="22.31387478125" lon="114.27500379638671" /><trkpt lat="22.31389278125" lon="114.27503279638672" /><trkpt lat="22.31392178125" lon="114.27505879638672" /><trkpt lat="22.31389478125" lon="114.27539179638671" /><trkpt lat="22.313853932734048" lon="114.27544163414655" /><trkpt lat="22.31384338653376" lon="114.27546513015676" /><trkpt lat="22.31383758060855" lon="114.27548763697206" /><trkpt lat="22.31383702257704" lon="114.27552312570027" /><trkpt lat="22.31420778125" lon="114.27564579638671" /><trkpt lat="22.31428078125" lon="114.27566979638672" /><trkpt lat="22.31429378125" lon="114.27570579638672" /><trkpt lat="22.31429478125" lon="114.27573579638671" /><trkpt lat="22.31428478125" lon="114.27581079638672" /><trkpt lat="22.31427378125" lon="114.27589079638672" /><trkpt lat="22.31430878125" lon="114.27589179638672" /><trkpt lat="22.314325781249998" lon="114.27575579638672" /><trkpt lat="22.31433178125" lon="114.27570079638672" /><trkpt lat="22.31428978125" lon="114.27563079638672" /><trkpt lat="22.31424678125" lon="114.27556179638673" /><trkpt lat="22.31423178125" lon="114.27554179638672" /><trkpt lat="22.31417178125" lon="114.27548979638672" /><trkpt lat="22.31407978125" lon="114.27545879638672" /><trkpt lat="22.31389478125" lon="114.27539179638671" /><trkpt lat="22.31384278125" lon="114.27532879638672" /><trkpt lat="22.31380178125" lon="114.27524879638672" /><trkpt lat="22.31377478125" lon="114.27525279638672" /><trkpt lat="22.31373478125" lon="114.27525979638672" /><trkpt lat="22.313696781250002" lon="114.27525079638671" /><trkpt lat="22.31365478125" lon="114.27522979638672" /><trkpt lat="22.31357578125" lon="114.27520479638672" /><trkpt lat="22.31332278125" lon="114.27502979638672" /><trkpt lat="22.31324278125" lon="114.27502079638671" /><trkpt lat="22.31317878125" lon="114.27499479638672" /><trkpt lat="22.31310978125" lon="114.27496379638671" /><trkpt lat="22.31304878125" lon="114.27493879638672" /><trkpt lat="22.31298378125" lon="114.27491579638672" /><trkpt lat="22.31288178125" lon="114.27488979638672" /><trkpt lat="22.31276978125" lon="114.27487479638671" /><trkpt lat="22.31271078125" lon="114.27487379638671" /><trkpt lat="22.31256778125" lon="114.27485979638672" /><trkpt lat="22.31256578125" lon="114.27494979638672" /><trkpt lat="22.31253378125" lon="114.27506479638672" /><trkpt lat="22.31247478125" lon="114.27513979638672" /><trkpt lat="22.31245178125" lon="114.27519779638672" /><trkpt lat="22.31239578125" lon="114.27540379638671" /><trkpt lat="22.31239678125" lon="114.27553179638672" /><trkpt lat="22.31242178125" lon="114.27566279638671" /><trkpt lat="22.31242378125" lon="114.27585179638672" /><trkpt lat="22.31240478125" lon="114.27591579638671" /><trkpt lat="22.31237478125" lon="114.27596879638672" /><trkpt lat="22.31230478125" lon="114.27605479638672" /><trkpt lat="22.31226578125" lon="114.27610279638672" /><trkpt lat="22.31221178125" lon="114.27616379638673" /><trkpt lat="22.31212078125" lon="114.27630779638672" /><trkpt lat="22.31206278125" lon="114.27638379638672" /><trkpt lat="22.31198578125" lon="114.27647679638672" /><trkpt lat="22.31193878125" lon="114.27653079638672" /><trkpt lat="22.31185978125" lon="114.27665279638671" /><trkpt lat="22.31182378125" lon="114.27670379638671" /><trkpt lat="22.31171078125" lon="114.27689579638673" /><trkpt lat="22.31165578125" lon="114.27696779638671" /><trkpt lat="22.31159878125" lon="114.27704179638671" /><trkpt lat="22.31155978125" lon="114.27708679638671" /><trkpt lat="22.31143478125" lon="114.27718979638672" /><trkpt lat="22.31138978125" lon="114.27725579638673" /><trkpt lat="22.31132678125" lon="114.27734879638672" /><trkpt lat="22.31128178125" lon="114.27741479638672" /><trkpt lat="22.31124478125" lon="114.27745379638672" /><trkpt lat="22.31134378125" lon="114.27749279638672" /><trkpt lat="22.31138778125" lon="114.27750679638672" /><trkpt lat="22.31141078125" lon="114.27747579638672" /><trkpt lat="22.311491781249998" lon="114.27748479638672" /><trkpt lat="22.31154578125" lon="114.27750779638671" /><trkpt lat="22.31167778125" lon="114.27757179638672" /><trkpt lat="22.31164878125" lon="114.27763079638672" /><trkpt lat="22.31173478125" lon="114.27768979638672" /><trkpt lat="22.31184178125" lon="114.27775379638672" /><trkpt lat="22.31196178125" lon="114.27783379638672" /><trkpt lat="22.31201078125" lon="114.27787279638672" /><trkpt lat="22.31205678125" lon="114.27789879638672" /><trkpt lat="22.31208978125" lon="114.27792579638673" /><trkpt lat="22.31223278125" lon="114.27795379638673" /><trkpt lat="22.31233578125" lon="114.27801179638672" /><trkpt lat="22.31237378125" lon="114.27805479638671" /><trkpt lat="22.31239778125" lon="114.27810279638672" /><trkpt lat="22.31240678125" lon="114.27820679638671" /><trkpt lat="22.31249178125" lon="114.27834679638671" /><trkpt lat="22.31261078125" lon="114.27849879638671" /><trkpt lat="22.31268078125" lon="114.27839679638672" /><trkpt lat="22.31271378125" lon="114.27835179638672" /><trkpt lat="22.31273978125" lon="114.27828079638672" /><trkpt lat="22.31277478125" lon="114.27827879638672" /><trkpt lat="22.31278778125" lon="114.27818879638671" /><trkpt lat="22.31279578125" lon="114.27810279638672" /><trkpt lat="22.31281678125" lon="114.27807379638672" /><trkpt lat="22.31284878125" lon="114.27805279638672" /><trkpt lat="22.31288778125" lon="114.27803079638672" /><trkpt lat="22.31293678125" lon="114.27802079638671" /><trkpt lat="22.31295278125" lon="114.27798779638672" /><trkpt lat="22.31296378125" lon="114.27796479638671" /><trkpt lat="22.31297778125" lon="114.27793579638671" /><trkpt lat="22.31301178125" lon="114.27790779638671" /><trkpt lat="22.31303678125" lon="114.27788579638671" /><trkpt lat="22.31307778125" lon="114.27786979638672" /><trkpt lat="22.31312778125" lon="114.27785679638671" /><trkpt lat="22.31317978125" lon="114.27788079638673" /><trkpt lat="22.31320478125" lon="114.27788879638672" /><trkpt lat="22.31324478125" lon="114.27789979638672" /><trkpt lat="22.31329178125" lon="114.27788979638672" /><trkpt lat="22.31333478125" lon="114.27787479638671" /><trkpt lat="22.31339078125" lon="114.27783679638672" /><trkpt lat="22.31340378125" lon="114.27779979638672" /><trkpt lat="22.31343678125" lon="114.27772379638672" /><trkpt lat="22.31354478125" lon="114.27772879638673" /><trkpt lat="22.31376278125" lon="114.27759879638671" /><trkpt lat="22.31378878125" lon="114.27764279638671" /><trkpt lat="22.31388678125" lon="114.27762179638673" /><trkpt lat="22.31405178125" lon="114.27750579638672" /><trkpt lat="22.31410578125" lon="114.27744479638672" /><trkpt lat="22.31412778125" lon="114.27736979638672" /><trkpt lat="22.31410378125" lon="114.27727979638672" /><trkpt lat="22.31410578125" lon="114.27719379638671" /><trkpt lat="22.31416078125" lon="114.27715779638672" /><trkpt lat="22.31420278125" lon="114.27713679638671" /><trkpt lat="22.31428478125" lon="114.27708279638672" /><trkpt lat="22.31430578125" lon="114.27704479638672" /><trkpt lat="22.31435078125" lon="114.27697379638671" /><trkpt lat="22.31437878125" lon="114.27693279638672" /><trkpt lat="22.31437778125" lon="114.27687379638672" /><trkpt lat="22.31437978125" lon="114.27680979638671" /><trkpt lat="22.31439078125" lon="114.27666979638671" /><trkpt lat="22.31442278125" lon="114.27663279638672" /><trkpt lat="22.31441178125" lon="114.27648879638672" /><trkpt lat="22.31444878125" lon="114.27637979638672" /><trkpt lat="22.31440678125" lon="114.27634679638672" /><trkpt lat="22.31442678125" lon="114.27623379638672" /><trkpt lat="22.31443878125" lon="114.27614779638672" /><trkpt lat="22.31445878125" lon="114.27609279638672" /><trkpt lat="22.31448278125" lon="114.27600879638672" /><trkpt lat="22.31451578125" lon="114.27591279638672" /><trkpt lat="22.31452878125" lon="114.27584479638672" /><trkpt lat="22.31457378125" lon="114.27571879638671" /><trkpt lat="22.31461178125" lon="114.27554779638672" /><trkpt lat="22.31464478125" lon="114.27548579638672" /><trkpt lat="22.31473378125" lon="114.27546379638672" /><trkpt lat="22.31485878125" lon="114.27541179638672" /><trkpt lat="22.31497278125" lon="114.27538979638672" /><trkpt lat="22.31511578125" lon="114.27537179638672" /><trkpt lat="22.31516978125" lon="114.27536579638672" /><trkpt lat="22.31514878125" lon="114.27545979638671" /><trkpt lat="22.31507678125" lon="114.27553779638671" /><trkpt lat="22.31498678125" lon="114.27558079638672" /><trkpt lat="22.31485278125" lon="114.27561679638671" /><trkpt lat="22.31487578125" lon="114.27575779638671" /><trkpt lat="22.31489678125" lon="114.27579479638672" /><trkpt lat="22.31503778125" lon="114.27585279638672" /><trkpt lat="22.31512478125" lon="114.27583079638671" /><trkpt lat="22.31522578125" lon="114.27586179638672" /><trkpt lat="22.31536078125" lon="114.27587879638672" /><trkpt lat="22.31541078125" lon="114.27592679638671" /><trkpt lat="22.31547678125" lon="114.27603979638671" /><trkpt lat="22.31533478125" lon="114.27618079638673" /><trkpt lat="22.31523078125" lon="114.27634979638673" /><trkpt lat="22.31514678125" lon="114.27662879638672" /><trkpt lat="22.31512778125" lon="114.27701379638673" /><trkpt lat="22.31514178125" lon="114.27708979638672" /><trkpt lat="22.31514278125" lon="114.27709979638672" /><trkpt lat="22.31516678125" lon="114.27715679638672" /><trkpt lat="22.31529578125" lon="114.27746579638672" /><trkpt lat="22.31525378125" lon="114.27748479638672" /><trkpt lat="22.31525278125" lon="114.27759879638671" /><trkpt lat="22.31528078125" lon="114.27771479638672" /><trkpt lat="22.31528478125" lon="114.27778979638671" /><trkpt lat="22.31518178125" lon="114.27788879638672" /><trkpt lat="22.31516178125" lon="114.27790879638673" /><trkpt lat="22.31507878125" lon="114.27797479638672" /><trkpt lat="22.314801231249717" lon="114.27803471566023" /><trkpt lat="22.314746167707682" lon="114.27802768410209" /><trkpt lat="22.314747575376387" lon="114.27799249987731" /><trkpt lat="22.31477818968615" lon="114.2779796309751" /><trkpt lat="22.31480908647812" lon="114.27798297051282" /><trkpt lat="22.314847533149802" lon="114.27801689256538" /><trkpt lat="22.31508878125" lon="114.27796679638672" /><trkpt lat="22.31518178125" lon="114.27788879638672" /><trkpt lat="22.31528478125" lon="114.27778979638671" /><trkpt lat="22.31528078125" lon="114.27771479638672" /><trkpt lat="22.31525278125" lon="114.27759879638671" /><trkpt lat="22.31525378125" lon="114.27748479638672" /><trkpt lat="22.31529578125" lon="114.27746579638672" /><trkpt lat="22.31516678125" lon="114.27715679638672" /><trkpt lat="22.31514178125" lon="114.27708979638672" /><trkpt lat="22.31513978125" lon="114.27705979638672" /><trkpt lat="22.31512778125" lon="114.27701379638673" /><trkpt lat="22.31514678125" lon="114.27662879638672" /><trkpt lat="22.31523078125" lon="114.27634979638673" /><trkpt lat="22.31533478125" lon="114.27618079638673" /><trkpt lat="22.31547678125" lon="114.27603979638671" /><trkpt lat="22.31549078125" lon="114.27602979638672" /><trkpt lat="22.31608478125" lon="114.27554279638672" /><trkpt lat="22.31649078125" lon="114.27518479638672" /><trkpt lat="22.31685178125" lon="114.27489979638672" /><trkpt lat="22.31708878125" lon="114.27471179638673" /><trkpt lat="22.31708378125" lon="114.27465679638672" /><trkpt lat="22.317121781250002" lon="114.27462579638672" /><trkpt lat="22.31707078125" lon="114.27457779638672" /><trkpt lat="22.31700478125" lon="114.27454979638672" /><trkpt lat="22.31693578125" lon="114.27454979638672" /><trkpt lat="22.31687078125" lon="114.27456279638672" /><trkpt lat="22.31672678125" lon="114.27463879638672" /><trkpt lat="22.31670678125" lon="114.27457279638672" /><trkpt lat="22.31686678125" lon="114.27448579638671" /><trkpt lat="22.31697378125" lon="114.27442779638672" /><trkpt lat="22.31727678125" lon="114.27426179638672" /><trkpt lat="22.31731678125" lon="114.27416279638672" /><trkpt lat="22.31734378125" lon="114.27397179638672" /><trkpt lat="22.31741278125" lon="114.27349179638672" /><trkpt lat="22.31744678125" lon="114.27308379638671" /><trkpt lat="22.31752378125" lon="114.27272979638671" /><trkpt lat="22.31747178125" lon="114.27269479638672" /><trkpt lat="22.31750978125" lon="114.27260879638672" /><trkpt lat="22.31744278125" lon="114.27255279638672" /><trkpt lat="22.31752278125" lon="114.27242879638672" /><trkpt lat="22.31757078125" lon="114.27220679638671" /><trkpt lat="22.31758978125" lon="114.27213379638673" /><trkpt lat="22.31771378125" lon="114.27196079638672" /><trkpt lat="22.31765178125" lon="114.27154479638672" /><trkpt lat="22.31783678125" lon="114.27131979638672" /><trkpt lat="22.31798678125" lon="114.27126479638672" /><trkpt lat="22.31793878125" lon="114.27125379638672" /><trkpt lat="22.31778078125" lon="114.27112179638672" /><trkpt lat="22.31746478125" lon="114.27100879638672" /><trkpt lat="22.31719378125" lon="114.27089179638672" /><trkpt lat="22.317045571978866" lon="114.27081549030088" /></trkseg></trk></gpx>