<?xml version='1.0' encoding='UTF-8' ?><gpx version="1.1" creator="HikingTrailHK" xsi:schemaLocation="http://www.topografix.com/GPX/1/1 http://www.topografix.com/GPX/1/1/gpx.xsd" xmlns="http://www.topografix.com/GPX/1/1" xmlns:xsi="http://www.w3.org/2001/XMLSchema-instance"><metadata><name>寶福山萬佛寺 @ 2020-03-28</name><desc></desc></metadata><trk><trkseg><trkpt lat="22.383896351883756" lon="114.1878323358623" /><trkpt lat="22.38392278125" lon="114.18781379638672" /><trkpt lat="22.38398378125" lon="114.18777379638672" /><trkpt lat="22.38436978125" lon="114.18764079638672" /><trkpt lat="22.38452078125" lon="114.18761879638672" /><trkpt lat="22.38461578125" lon="114.18763279638672" /><trkpt lat="22.38472178125" lon="114.18766179638672" /><trkpt lat="22.38481278125" lon="114.18771279638672" /><trkpt lat="22.38483878125" lon="114.18773679638672" /><trkpt lat="22.38487878125" lon="114.18773079638672" /><trkpt lat="22.384923917718535" lon="114.1876742767502" /><trkpt lat="22.38492578125" lon="114.18767479638672" /><trkpt lat="22.38496178125" lon="114.18766679638672" /><trkpt lat="22.38498978125" lon="114.18763779638672" /><trkpt lat="22.38502978125" lon="114.18755579638672" /><trkpt lat="22.38506778125" lon="114.18740179638672" /><trkpt lat="22.38511078125" lon="114.18714379638672" /><trkpt lat="22.38513578125" lon="114.18701279638672" /><trkpt lat="22.38516878125" lon="114.18681479638671" /><trkpt lat="22.38520978125" lon="114.18658279638672" /><trkpt lat="22.38527078125" lon="114.18659579638671" /><trkpt lat="22.38527678125" lon="114.18657679638672" /><trkpt lat="22.38544178125" lon="114.18640679638672" /><trkpt lat="22.38568978125" lon="114.18629379638672" /><trkpt lat="22.38609678125" lon="114.18651379638672" /><trkpt lat="22.38624978125" lon="114.18575179638673" /><trkpt lat="22.38623478125" lon="114.18523179638672" /><trkpt lat="22.38662678125" lon="114.18479179638672" /><trkpt lat="22.38699878125" lon="114.18540379638672" /><trkpt lat="22.38676578125" lon="114.18563379638672" /><trkpt lat="22.386694983116197" lon="114.18564998680364" /><trkpt lat="22.386634057615424" lon="114.18567920787899" /><trkpt lat="22.386558015687783" lon="114.18566814726063" /><trkpt lat="22.38649141880522" lon="114.18567700430941" /><trkpt lat="22.386262406824756" lon="114.18576430002918" /><trkpt lat="22.38625585153288" lon="114.18583540145664" /><trkpt lat="22.38625718264531" lon="114.1858401446732" /><trkpt lat="22.386256868610346" lon="114.18584551369867" /><trkpt lat="22.38626255597464" lon="114.1858634352451" /><trkpt lat="22.386259720693644" lon="114.18586592304683" /><trkpt lat="22.386228345753548" lon="114.18585855466074" /><trkpt lat="22.38609678125" lon="114.18651379638672" /><trkpt lat="22.38568978125" lon="114.18629379638672" /><trkpt lat="22.38544178125" lon="114.18640679638672" /><trkpt lat="22.38526978125" lon="114.18660079638671" /><trkpt lat="22.38527878125" lon="114.18660079638671" /><trkpt lat="22.38580878125" lon="114.18670779638671" /><trkpt lat="22.38623578125" lon="114.18699279638672" /><trkpt lat="22.38637078125" lon="114.18666379638672" /><trkpt lat="22.38640878125" lon="114.18656679638671" /><trkpt lat="22.38640078125" lon="114.18647279638672" /><trkpt lat="22.38648778125" lon="114.18635879638671" /><trkpt lat="22.38650378125" lon="114.18616479638672" /><trkpt lat="22.38653278125" lon="114.18598379638672" /><trkpt lat="22.38672678125" lon="114.18580079638672" /><trkpt lat="22.38687878125" lon="114.18583979638672" /><trkpt lat="22.38708778125" lon="114.18583679638672" /><trkpt lat="22.38726578125" lon="114.18570579638671" /><trkpt lat="22.38750778125" lon="114.18545879638671" /><trkpt lat="22.38755778125" lon="114.18532579638672" /><trkpt lat="22.38768478125" lon="114.18527179638671" /><trkpt lat="22.38762178125" lon="114.18509779638671" /><trkpt lat="22.38785278125" lon="114.18511479638671" /><trkpt lat="22.38783278125" lon="114.18501179638672" /><trkpt lat="22.38781278125" lon="114.18490879638672" /><trkpt lat="22.38769478125" lon="114.18484679638672" /><trkpt lat="22.38758078125" lon="114.18488279638672" /><trkpt lat="22.38755678125" lon="114.18483079638672" /><trkpt lat="22.38707578125" lon="114.18500679638672" /><trkpt lat="22.38703778125" lon="114.18491079638672" /><trkpt lat="22.38701878125" lon="114.18486179638671" /><trkpt lat="22.38686478125" lon="114.18480779638672" /><trkpt lat="22.38682078125" lon="114.18466079638672" /><trkpt lat="22.38676178125" lon="114.18458979638672" /><trkpt lat="22.38670578125" lon="114.18456879638671" /><trkpt lat="22.38668178125" lon="114.18450179638671" /><trkpt lat="22.38658678125" lon="114.18442579638672" /><trkpt lat="22.38652378125" lon="114.18441179638671" /><trkpt lat="22.38649478125" lon="114.18435479638671" /><trkpt lat="22.38644478125" lon="114.18436679638671" /><trkpt lat="22.38638978125" lon="114.18426579638673" /><trkpt lat="22.38633878125" lon="114.18420079638672" /><trkpt lat="22.38632878125" lon="114.18415479638672" /><trkpt lat="22.38630378125" lon="114.18412179638672" /><trkpt lat="22.38595978125" lon="114.18426079638672" /><trkpt lat="22.38589078125" lon="114.18451279638671" /><trkpt lat="22.38570678125" lon="114.18440879638672" /><trkpt lat="22.38572778125" lon="114.18467979638672" /><trkpt lat="22.38572778125" lon="114.18469479638672" /><trkpt lat="22.38572578125" lon="114.18471079638672" /><trkpt lat="22.38572178125" lon="114.18472479638672" /><trkpt lat="22.38571778125" lon="114.18473879638672" /><trkpt lat="22.38571178125" lon="114.18475179638672" /><trkpt lat="22.38570378125" lon="114.18476679638673" /><trkpt lat="22.38569678125" lon="114.18477979638672" /><trkpt lat="22.38569078125" lon="114.18478779638671" /><trkpt lat="22.38568578125" lon="114.18479279638672" /><trkpt lat="22.38567778125" lon="114.18479879638672" /><trkpt lat="22.38566578125" lon="114.18480479638671" /><trkpt lat="22.38563678125" lon="114.18481479638672" /><trkpt lat="22.38562078125" lon="114.18482179638671" /><trkpt lat="22.38560578125" lon="114.18482879638673" /><trkpt lat="22.38559278125" lon="114.18483879638671" /><trkpt lat="22.38558178125" lon="114.18485279638672" /><trkpt lat="22.38557178125" lon="114.18486779638671" /><trkpt lat="22.38556378125" lon="114.18488579638672" /><trkpt lat="22.38555578125" lon="114.18490679638671" /><trkpt lat="22.38555178125" lon="114.18492779638672" /><trkpt lat="22.38554978125" lon="114.18494879638672" /><trkpt lat="22.38554878125" lon="114.18496779638672" /><trkpt lat="22.38554878125" lon="114.18499979638672" /><trkpt lat="22.38555178125" lon="114.18503179638672" /><trkpt lat="22.38556878125" lon="114.18521279638672" /><trkpt lat="22.38557078125" lon="114.18524879638672" /><trkpt lat="22.38556878125" lon="114.18527179638671" /><trkpt lat="22.38555378125" lon="114.18539879638672" /><trkpt lat="22.38553578125" lon="114.18549179638671" /><trkpt lat="22.38553478125" lon="114.18550179638672" /><trkpt lat="22.38553478125" lon="114.18551179638672" /><trkpt lat="22.38553878125" lon="114.18553579638672" /><trkpt lat="22.38553878125" lon="114.18554379638672" /><trkpt lat="22.38553578125" lon="114.18555079638672" /><trkpt lat="22.38543078125" lon="114.18562779638673" /><trkpt lat="22.38540778125" lon="114.18565079638672" /><trkpt lat="22.38537478125" lon="114.18570279638672" /><trkpt lat="22.38535278125" lon="114.18574079638672" /><trkpt lat="22.38525478125" lon="114.18592979638672" /><trkpt lat="22.38506678125" lon="114.18607479638672" /><trkpt lat="22.38490878125" lon="114.18624379638672" /><trkpt lat="22.38487178125" lon="114.18656379638672" /><trkpt lat="22.38478378125" lon="114.18682579638671" /><trkpt lat="22.38473078125" lon="114.18692979638672" /><trkpt lat="22.38467578125" lon="114.18722379638672" /><trkpt lat="22.38463778125" lon="114.18747779638672" /><trkpt lat="22.38462178125" lon="114.18754379638672" /><trkpt lat="22.38448978125" lon="114.18754279638672" /><trkpt lat="22.38434578125" lon="114.18756679638672" /><trkpt lat="22.38404399935902" lon="114.18765891938183" /></trkseg></trk></gpx>