<?xml version='1.0' encoding='UTF-8' ?><gpx version="1.1" creator="HikingTrailHK" xsi:schemaLocation="http://www.topografix.com/GPX/1/1 http://www.topografix.com/GPX/1/1/gpx.xsd" xmlns="http://www.topografix.com/GPX/1/1" xmlns:xsi="http://www.w3.org/2001/XMLSchema-instance"><metadata><name>小夏威夷</name><desc></desc></metadata><trk><trkseg><trkpt lat="22.32445319818211" lon="114.25666896106345" /><trkpt lat="22.32426178125" lon="114.25641179638671" /><trkpt lat="22.32418078125" lon="114.25630379638672" /><trkpt lat="22.32411978125" lon="114.25621879638672" /><trkpt lat="22.32400178125" lon="114.25605579638672" /><trkpt lat="22.32363578125" lon="114.25554679638672" /><trkpt lat="22.32360978125" lon="114.25550279638672" /><trkpt lat="22.32358578125" lon="114.25545379638672" /><trkpt lat="22.32356378125" lon="114.25539779638672" /><trkpt lat="22.32349778125" lon="114.25538879638673" /><trkpt lat="22.32340378125" lon="114.25535679638672" /><trkpt lat="22.32337478125" lon="114.25527479638671" /><trkpt lat="22.32337078125" lon="114.25525979638672" /><trkpt lat="22.32335178125" lon="114.25523479638672" /><trkpt lat="22.32332078125" lon="114.25521079638672" /><trkpt lat="22.32328378125" lon="114.25517879638672" /><trkpt lat="22.32301778125" lon="114.25485779638672" /><trkpt lat="22.32282578125" lon="114.25462579638672" /><trkpt lat="22.32282878125" lon="114.25460979638672" /><trkpt lat="22.32282778125" lon="114.25459179638672" /><trkpt lat="22.32280978125" lon="114.25455779638672" /><trkpt lat="22.32304578125" lon="114.25401779638672" /><trkpt lat="22.32311978125" lon="114.25384879638672" /><trkpt lat="22.32332978125" lon="114.25336979638672" /><trkpt lat="22.32346378125" lon="114.25311579638672" /><trkpt lat="22.32349478125" lon="114.25304579638671" /><trkpt lat="22.32376778125" lon="114.25257479638672" /><trkpt lat="22.32407278125" lon="114.25220679638672" /><trkpt lat="22.32431078125" lon="114.25203979638673" /><trkpt lat="22.32480978125" lon="114.25178779638672" /><trkpt lat="22.32546578125" lon="114.25159879638672" /><trkpt lat="22.32563878125" lon="114.25158279638671" /><trkpt lat="22.32574978125" lon="114.25157179638671" /><trkpt lat="22.32584678125" lon="114.25157579638672" /><trkpt lat="22.32596478125" lon="114.25159879638672" /><trkpt lat="22.32598678125" lon="114.25156579638671" /><trkpt lat="22.32603478125" lon="114.25152579638672" /><trkpt lat="22.32606978125" lon="114.25150779638672" /><trkpt lat="22.32608478125" lon="114.25150279638672" /><trkpt lat="22.32637078125" lon="114.25139979638672" /><trkpt lat="22.32638478125" lon="114.25139479638672" /><trkpt lat="22.32640378125" lon="114.25135079638672" /><trkpt lat="22.32670578125" lon="114.25117379638672" /><trkpt lat="22.32685878125" lon="114.25111079638671" /><trkpt lat="22.32703478125" lon="114.25097179638672" /><trkpt lat="22.32709078125" lon="114.25093479638672" /><trkpt lat="22.32730478125" lon="114.25075379638672" /><trkpt lat="22.32762673366698" lon="114.25045451688251" /><trkpt lat="22.327642693176585" lon="114.25037112031447" /><trkpt lat="22.32764165232038" lon="114.25035513018616" /><trkpt lat="22.327640785028123" lon="114.25035269224986" /><trkpt lat="22.32764078125" lon="114.25031979638672" /><trkpt lat="22.32761778125" lon="114.25029779638672" /><trkpt lat="22.32760378125" lon="114.25026979638672" /><trkpt lat="22.32759878125" lon="114.25023779638671" /><trkpt lat="22.32762078125" lon="114.25017779638672" /><trkpt lat="22.32765578125" lon="114.25015179638672" /><trkpt lat="22.32765678125" lon="114.25010079638672" /><trkpt lat="22.32765778125" lon="114.25003279638672" /><trkpt lat="22.32765778125" lon="114.25002479638673" /><trkpt lat="22.32765978125" lon="114.25001679638672" /><trkpt lat="22.32766378125" lon="114.25000679638671" /><trkpt lat="22.32766878125" lon="114.24999879638672" /><trkpt lat="22.32769678125" lon="114.24997279638671" /><trkpt lat="22.32778578125" lon="114.24989279638672" /><trkpt lat="22.32840878125" lon="114.25003279638672" /><trkpt lat="22.32899278125" lon="114.24998779638672" /><trkpt lat="22.32917578125" lon="114.25007179638672" /><trkpt lat="22.32936278125" lon="114.25007179638672" /><trkpt lat="22.32948778125" lon="114.24984779638672" /><trkpt lat="22.32950778125" lon="114.24981279638672" /><trkpt lat="22.33036478125" lon="114.25024879638671" /><trkpt lat="22.33064478125" lon="114.25020479638673" /><trkpt lat="22.33069478125" lon="114.25011679638672" /><trkpt lat="22.33102878125" lon="114.24997079638672" /><trkpt lat="22.33102378125" lon="114.24941679638673" /><trkpt lat="22.33115178125" lon="114.24877279638672" /><trkpt lat="22.33114578125" lon="114.24814279638672" /><trkpt lat="22.33114278125" lon="114.24786379638672" /><trkpt lat="22.33109078125" lon="114.24780479638672" /><trkpt lat="22.33105478125" lon="114.24776479638672" /><trkpt lat="22.33099478125" lon="114.24777079638672" /><trkpt lat="22.33090978125" lon="114.24778579638672" /><trkpt lat="22.33080778125" lon="114.24778879638671" /><trkpt lat="22.330788149208715" lon="114.24764736380712" /><trkpt lat="22.330848032476297" lon="114.24750678586338" /><trkpt lat="22.33088994841721" lon="114.24730649544665" /><trkpt lat="22.330996712897814" lon="114.24713035217331" /><trkpt lat="22.330998558514565" lon="114.24727110792873" /><trkpt lat="22.330782330966954" lon="114.24761725055663" /><trkpt lat="22.330771072156868" lon="114.24776194951797" /><trkpt lat="22.33080778125" lon="114.24778879638671" /><trkpt lat="22.33090978125" lon="114.24778579638672" /><trkpt lat="22.33099478125" lon="114.24777079638672" /><trkpt lat="22.33105478125" lon="114.24776479638672" /><trkpt lat="22.33109078125" lon="114.24780479638672" /><trkpt lat="22.33114278125" lon="114.24786379638672" /><trkpt lat="22.33114578125" lon="114.24814279638672" /><trkpt lat="22.33115178125" lon="114.24877279638672" /><trkpt lat="22.33102378125" lon="114.24941679638673" /><trkpt lat="22.33102878125" lon="114.24997079638672" /><trkpt lat="22.33125678125" lon="114.24976079638672" /><trkpt lat="22.33166978125" lon="114.24909579638671" /><trkpt lat="22.33182578125" lon="114.24899379638671" /><trkpt lat="22.33208278125" lon="114.24823679638672" /><trkpt lat="22.33207778125" lon="114.24802279638672" /><trkpt lat="22.33193978125" lon="114.24745379638672" /><trkpt lat="22.33184878125" lon="114.24717779638672" /><trkpt lat="22.33169678125" lon="114.24690079638673" /><trkpt lat="22.33165878125" lon="114.24668179638672" /><trkpt lat="22.33174778125" lon="114.24635379638671" /><trkpt lat="22.33158178125" lon="114.24620979638672" /><trkpt lat="22.33173378125" lon="114.24595479638671" /><trkpt lat="22.33202378125" lon="114.24549579638672" /><trkpt lat="22.33222778125" lon="114.24447079638672" /><trkpt lat="22.33213078125" lon="114.24430479638671" /><trkpt lat="22.33177678125" lon="114.24419179638672" /><trkpt lat="22.33170178125" lon="114.24401479638672" /><trkpt lat="22.33184178125" lon="114.24323779638672" /><trkpt lat="22.33223878125" lon="114.24282479638671" /><trkpt lat="22.33235578125" lon="114.24249379638673" /><trkpt lat="22.33237178125" lon="114.24244779638671" /><trkpt lat="22.33247378125" lon="114.24237879638672" /><trkpt lat="22.33264778125" lon="114.24208479638672" /><trkpt lat="22.33269278125" lon="114.24194979638672" /><trkpt lat="22.33271878125" lon="114.24187179638672" /><trkpt lat="22.33274778125" lon="114.24171079638671" /><trkpt lat="22.33279178125" lon="114.24159579638672" /><trkpt lat="22.33279178125" lon="114.24149079638671" /><trkpt lat="22.33284078125" lon="114.24140879638672" /><trkpt lat="22.33287678125" lon="114.24129579638672" /><trkpt lat="22.33291278125" lon="114.24120179638672" /><trkpt lat="22.33289978125" lon="114.24110179638672" /><trkpt lat="22.33289978125" lon="114.24104679638671" /><trkpt lat="22.33293078125" lon="114.24097379638673" /><trkpt lat="22.33299278125" lon="114.24083679638672" /><trkpt lat="22.33306278125" lon="114.24066879638671" /><trkpt lat="22.33307178125" lon="114.24062979638671" /><trkpt lat="22.33309378125" lon="114.24050179638672" /><trkpt lat="22.33305878125" lon="114.24046679638671" /><trkpt lat="22.33304578125" lon="114.24041379638672" /><trkpt lat="22.33307178125" lon="114.24034779638671" /><trkpt lat="22.33311878125" lon="114.24029579638672" /><trkpt lat="22.33315478125" lon="114.24023879638672" /><trkpt lat="22.33320478125" lon="114.24018879638672" /><trkpt lat="22.33326178125" lon="114.24015279638672" /><trkpt lat="22.33332978125" lon="114.24012279638671" /><trkpt lat="22.33336378125" lon="114.24009279638672" /><trkpt lat="22.33338678125" lon="114.24005079638673" /><trkpt lat="22.33341178125" lon="114.23991579638673" /><trkpt lat="22.33342378125" lon="114.23977979638671" /><trkpt lat="22.33341878125" lon="114.23968779638672" /><trkpt lat="22.33349078125" lon="114.23953779638671" /><trkpt lat="22.333903972046414" lon="114.23967847129319" /><trkpt lat="22.33407166378157" lon="114.23980094537797" /><trkpt lat="22.33426941972887" lon="114.23987611707935" /><trkpt lat="22.33438456831236" lon="114.2398793582525" /><trkpt lat="22.334428685859095" lon="114.23986055945596" /><trkpt lat="22.334466030533562" lon="114.23978514145654" /><trkpt lat="22.334465615721697" lon="114.23972030521338" /><trkpt lat="22.334431021048815" lon="114.23968029470143" /><trkpt lat="22.334341912817948" lon="114.23961719375887" /><trkpt lat="22.334244474917284" lon="114.23941600206325" /><trkpt lat="22.33423503195648" lon="114.23936392748561" /><trkpt lat="22.33423675360629" lon="114.239302014195" /><trkpt lat="22.33425415039656" lon="114.2392543983662" /><trkpt lat="22.33442313481309" lon="114.2390004001163" /><trkpt lat="22.33440778125" lon="114.23891979638672" /><trkpt lat="22.33436378125" lon="114.23885279638672" /><trkpt lat="22.33430578125" lon="114.23876479638672" /><trkpt lat="22.33424378125" lon="114.23871879638672" /><trkpt lat="22.33426178125" lon="114.23867579638672" /><trkpt lat="22.33423978125" lon="114.23865579638672" /><trkpt lat="22.33418078125" lon="114.23863579638672" /><trkpt lat="22.33423778125" lon="114.23857079638672" /><trkpt lat="22.33420378125" lon="114.23854779638671" /><trkpt lat="22.33421378125" lon="114.23853379638672" /><trkpt lat="22.33421978125" lon="114.23850479638672" /><trkpt lat="22.33421578125" lon="114.23844579638671" /><trkpt lat="22.33418678125" lon="114.23830479638671" /><trkpt lat="22.33410378125" lon="114.23812479638671" /><trkpt lat="22.33409778125" lon="114.23808679638672" /><trkpt lat="22.33404978125" lon="114.23801079638672" /><trkpt lat="22.33402578125" lon="114.23794979638672" /><trkpt lat="22.33400978125" lon="114.23790779638672" /><trkpt lat="22.33397878125" lon="114.23774579638672" /><trkpt lat="22.33380778125" lon="114.23728379638672" /><trkpt lat="22.33378812864374" lon="114.23722680222727" /></trkseg></trk></gpx>