<?xml version='1.0' encoding='UTF-8' ?><gpx version="1.1" creator="HikingTrailHK" xsi:schemaLocation="http://www.topografix.com/GPX/1/1 http://www.topografix.com/GPX/1/1/gpx.xsd" xmlns="http://www.topografix.com/GPX/1/1" xmlns:xsi="http://www.w3.org/2001/XMLSchema-instance"><metadata><name>尖風山 @ 2017-3-25</name><desc></desc></metadata><trk><trkseg><trkpt lat="22.32383678125" lon="114.25716779638672" /><trkpt lat="22.32416578125" lon="114.25691279638671" /><trkpt lat="22.32422878125" lon="114.25699079638672" /><trkpt lat="22.32438378125" lon="114.25719179638672" /><trkpt lat="22.32453178125" lon="114.25738279638672" /><trkpt lat="22.32457678125" lon="114.25745379638671" /><trkpt lat="22.32461678125" lon="114.25750779638672" /><trkpt lat="22.32468778125" lon="114.25759679638672" /><trkpt lat="22.32472878125" lon="114.25765079638671" /><trkpt lat="22.32476478125" lon="114.25772379638671" /><trkpt lat="22.32521978125" lon="114.25820179638671" /><trkpt lat="22.32525978125" lon="114.25836979638672" /><trkpt lat="22.32525978125" lon="114.25848279638672" /><trkpt lat="22.32526278125" lon="114.25853379638671" /><trkpt lat="22.32533778125" lon="114.25854179638672" /><trkpt lat="22.32542678125" lon="114.25853979638671" /><trkpt lat="22.32548278125" lon="114.25852879638671" /><trkpt lat="22.32554878125" lon="114.25862479638671" /><trkpt lat="22.32569278125" lon="114.25883379638672" /><trkpt lat="22.32623478125" lon="114.25955079638672" /><trkpt lat="22.32630278125" lon="114.25963779638671" /><trkpt lat="22.32640978125" lon="114.25955579638672" /><trkpt lat="22.32646778125" lon="114.25948079638673" /><trkpt lat="22.32651378125" lon="114.25934479638671" /><trkpt lat="22.32657478125" lon="114.25936179638671" /><trkpt lat="22.32669278125" lon="114.25937379638673" /><trkpt lat="22.32678378125" lon="114.25936179638671" /><trkpt lat="22.32681978125" lon="114.25934379638672" /><trkpt lat="22.32685678125" lon="114.25932279638671" /><trkpt lat="22.32692678125" lon="114.25926579638671" /><trkpt lat="22.32710278125" lon="114.25912779638672" /><trkpt lat="22.32721878125" lon="114.25903379638672" /><trkpt lat="22.32732078125" lon="114.25896979638672" /><trkpt lat="22.32744578125" lon="114.25891279638672" /><trkpt lat="22.32751178125" lon="114.25892079638672" /><trkpt lat="22.32760278125" lon="114.25893179638672" /><trkpt lat="22.32768478125" lon="114.25897579638672" /><trkpt lat="22.32777078125" lon="114.25903179638672" /><trkpt lat="22.32783478125" lon="114.25909779638671" /><trkpt lat="22.32788078125" lon="114.25917679638673" /><trkpt lat="22.32791378125" lon="114.25926779638672" /><trkpt lat="22.32794578125" lon="114.25938579638672" /><trkpt lat="22.32792978125" lon="114.25950779638671" /><trkpt lat="22.32789478125" lon="114.25962979638672" /><trkpt lat="22.32785678125" lon="114.25973979638673" /><trkpt lat="22.32793178125" lon="114.25984479638672" /><trkpt lat="22.32801078125" lon="114.26011479638672" /><trkpt lat="22.32798878125" lon="114.26026279638671" /><trkpt lat="22.32803978125" lon="114.26038479638672" /><trkpt lat="22.32811178125" lon="114.26043179638671" /><trkpt lat="22.32829878125" lon="114.26047979638672" /><trkpt lat="22.32842678125" lon="114.26056679638671" /><trkpt lat="22.32879878125" lon="114.26066979638672" /><trkpt lat="22.32908278125" lon="114.26097079638672" /><trkpt lat="22.32922378125" lon="114.26106479638672" /><trkpt lat="22.32948378125" lon="114.26092279638672" /><trkpt lat="22.32961978125" lon="114.26087679638673" /><trkpt lat="22.32970978125" lon="114.26082879638672" /><trkpt lat="22.32982878125" lon="114.26076179638672" /><trkpt lat="22.32984678125" lon="114.26094179638672" /><trkpt lat="22.32987478125" lon="114.26103379638671" /><trkpt lat="22.32988278125" lon="114.26112579638672" /><trkpt lat="22.32992378125" lon="114.26119979638672" /><trkpt lat="22.32996478125" lon="114.26133479638672" /><trkpt lat="22.33001478125" lon="114.26136879638672" /><trkpt lat="22.33010478125" lon="114.26139579638672" /><trkpt lat="22.33021778125" lon="114.26147079638672" /><trkpt lat="22.33027878125" lon="114.26154079638673" /><trkpt lat="22.33031378125" lon="114.26159779638672" /><trkpt lat="22.33035778125" lon="114.26180479638671" /><trkpt lat="22.33038478125" lon="114.26190679638673" /><trkpt lat="22.33040978125" lon="114.26203879638672" /><trkpt lat="22.33043478125" lon="114.26213179638673" /><trkpt lat="22.33043778125" lon="114.26216679638672" /><trkpt lat="22.33034378125" lon="114.26236179638671" /><trkpt lat="22.33033578125" lon="114.26252179638672" /><trkpt lat="22.33030978125" lon="114.26267679638671" /><trkpt lat="22.33032778125" lon="114.26272179638671" /><trkpt lat="22.33071078125" lon="114.26235279638672" /><trkpt lat="22.33072778125" lon="114.26237079638672" /><trkpt lat="22.33094378125" lon="114.26264679638672" /><trkpt lat="22.33105978125" lon="114.26276379638672" /><trkpt lat="22.33109278125" lon="114.26267679638671" /><trkpt lat="22.33122178125" lon="114.26257179638672" /><trkpt lat="22.33133178125" lon="114.26253379638672" /><trkpt lat="22.33140478125" lon="114.26251279638672" /><trkpt lat="22.33148878125" lon="114.26249879638672" /><trkpt lat="22.33155078125" lon="114.26249479638672" /><trkpt lat="22.33165378125" lon="114.26249879638672" /><trkpt lat="22.33175578125" lon="114.26251879638671" /><trkpt lat="22.33185178125" lon="114.26255279638671" /><trkpt lat="22.33229478125" lon="114.26276679638671" /><trkpt lat="22.33244978125" lon="114.26282879638671" /><trkpt lat="22.33260078125" lon="114.26288979638672" /><trkpt lat="22.33268278125" lon="114.26292779638672" /><trkpt lat="22.33277178125" lon="114.26297579638671" /><trkpt lat="22.33286278125" lon="114.26304779638672" /><trkpt lat="22.33291978125" lon="114.26309879638671" /><trkpt lat="22.33294478125" lon="114.26316279638672" /><trkpt lat="22.33297778125" lon="114.26324279638672" /><trkpt lat="22.33304778125" lon="114.26321979638672" /><trkpt lat="22.33313478125" lon="114.26317779638671" /><trkpt lat="22.33316778125" lon="114.26314879638672" /><trkpt lat="22.33318878125" lon="114.26313979638672" /><trkpt lat="22.33325578125" lon="114.26313679638672" /><trkpt lat="22.33331178125" lon="114.26316979638672" /><trkpt lat="22.33342278125" lon="114.26321979638672" /><trkpt lat="22.33378078125" lon="114.26297379638672" /><trkpt lat="22.33396578125" lon="114.26284979638672" /><trkpt lat="22.33414878125" lon="114.26275379638672" /><trkpt lat="22.33421378125" lon="114.26274379638672" /><trkpt lat="22.33433778125" lon="114.26270679638672" /><trkpt lat="22.33448178125" lon="114.26267579638672" /><trkpt lat="22.33451678125" lon="114.26266779638672" /><trkpt lat="22.33492078125" lon="114.26266779638672" /><trkpt lat="22.33511378125" lon="114.26268779638671" /><trkpt lat="22.33550778125" lon="114.26268179638672" /><trkpt lat="22.33553978125" lon="114.26268179638672" /><trkpt lat="22.33612678125" lon="114.26267479638672" /><trkpt lat="22.33619478125" lon="114.26267479638672" /><trkpt lat="22.33675178125" lon="114.26267979638672" /><trkpt lat="22.33701178125" lon="114.26273079638672" /><trkpt lat="22.33727978125" lon="114.26284879638672" /><trkpt lat="22.33731478125" lon="114.26287579638672" /><trkpt lat="22.33734378125" lon="114.26290079638672" /><trkpt lat="22.33735878125" lon="114.26292179638672" /><trkpt lat="22.33738378125" lon="114.26296679638672" /><trkpt lat="22.33739378125" lon="114.26292779638672" /><trkpt lat="22.33741278125" lon="114.26289279638672" /><trkpt lat="22.33743578125" lon="114.26286979638672" /><trkpt lat="22.33746278125" lon="114.26285279638672" /><trkpt lat="22.33749378125" lon="114.26284379638672" /><trkpt lat="22.33753978125" lon="114.26284479638672" /><trkpt lat="22.33758278125" lon="114.26286279638671" /><trkpt lat="22.33760378125" lon="114.26280779638672" /><trkpt lat="22.33762178125" lon="114.26277079638672" /><trkpt lat="22.33765478125" lon="114.26272579638672" /><trkpt lat="22.33770678125" lon="114.26268479638672" /><trkpt lat="22.33817878125" lon="114.26248579638671" /><trkpt lat="22.33837378125" lon="114.26240879638672" /><trkpt lat="22.33843878125" lon="114.26238279638672" /><trkpt lat="22.33849478125" lon="114.26236279638672" /><trkpt lat="22.33853578125" lon="114.26234879638672" /><trkpt lat="22.33865078125" lon="114.26230979638672" /><trkpt lat="22.33868978125" lon="114.26231979638672" /><trkpt lat="22.33872878125" lon="114.26231379638672" /><trkpt lat="22.33876378125" lon="114.26229379638671" /><trkpt lat="22.33879078125" lon="114.26226279638672" /><trkpt lat="22.33880578125" lon="114.26222279638672" /><trkpt lat="22.33880778125" lon="114.26217979638672" /><trkpt lat="22.33879578125" lon="114.26213679638671" /><trkpt lat="22.33876878125" lon="114.26210179638672" /><trkpt lat="22.33873278125" lon="114.26207879638672" /><trkpt lat="22.338680012518665" lon="114.26205612990981" /><trkpt lat="22.33869178125" lon="114.26204579638672" /><trkpt lat="22.33875878125" lon="114.26199079638671" /><trkpt lat="22.33878178125" lon="114.26197179638672" /><trkpt lat="22.33883378125" lon="114.26192379638672" /><trkpt lat="22.33890478125" lon="114.26185979638672" /><trkpt lat="22.33893078125" lon="114.26183279638671" /><trkpt lat="22.33902078125" lon="114.26173779638673" /><trkpt lat="22.33907678125" lon="114.26166879638672" /><trkpt lat="22.33919378125" lon="114.26149579638673" /><trkpt lat="22.33928978125" lon="114.26131879638672" /><trkpt lat="22.33938478125" lon="114.26110279638672" /><trkpt lat="22.33945378125" lon="114.26090279638672" /><trkpt lat="22.33956878125" lon="114.26090479638673" /><trkpt lat="22.33971078125" lon="114.26083979638672" /><trkpt lat="22.33980178125" lon="114.26079479638672" /><trkpt lat="22.33983878125" lon="114.26078579638671" /><trkpt lat="22.33989178125" lon="114.26079879638672" /><trkpt lat="22.34007578125" lon="114.26093779638671" /><trkpt lat="22.34025678125" lon="114.26098579638672" /><trkpt lat="22.34034578125" lon="114.26103379638671" /><trkpt lat="22.34042278125" lon="114.26106379638672" /><trkpt lat="22.34052478125" lon="114.26106579638672" /><trkpt lat="22.34063478125" lon="114.26104479638671" /><trkpt lat="22.34082978125" lon="114.26093879638672" /><trkpt lat="22.34090078125" lon="114.26087879638672" /><trkpt lat="22.34093178125" lon="114.26081079638672" /><trkpt lat="22.34095378125" lon="114.26076279638671" /><trkpt lat="22.34105678125" lon="114.26066279638673" /><trkpt lat="22.34124078125" lon="114.26057279638673" /><trkpt lat="22.34136778125" lon="114.26039279638672" /><trkpt lat="22.34139978125" lon="114.26023179638672" /><trkpt lat="22.34138278125" lon="114.26003879638672" /><trkpt lat="22.34134778125" lon="114.25975179638672" /><trkpt lat="22.34140478125" lon="114.25952879638672" /><trkpt lat="22.34150178125" lon="114.25934079638672" /><trkpt lat="22.34151178125" lon="114.25924779638672" /><trkpt lat="22.34147878125" lon="114.25913079638671" /><trkpt lat="22.34147678125" lon="114.25904479638672" /><trkpt lat="22.34152578125" lon="114.25894179638672" /><trkpt lat="22.34157378125" lon="114.25884879638672" /><trkpt lat="22.34164478125" lon="114.25876179638672" /><trkpt lat="22.34173778125" lon="114.25868479638672" /><trkpt lat="22.34180678125" lon="114.25860579638672" /><trkpt lat="22.34191478125" lon="114.25852179638672" /><trkpt lat="22.34195978125" lon="114.25841379638672" /><trkpt lat="22.34203378125" lon="114.25830479638672" /><trkpt lat="22.34209178125" lon="114.25823679638673" /><trkpt lat="22.34212678125" lon="114.25817879638672" /><trkpt lat="22.34212678125" lon="114.25814079638671" /><trkpt lat="22.34209978125" lon="114.25805279638672" /><trkpt lat="22.34218078125" lon="114.25800779638672" /><trkpt lat="22.34231778125" lon="114.25787279638672" /><trkpt lat="22.34248878125" lon="114.25756279638672" /><trkpt lat="22.34258478125" lon="114.25733379638672" /><trkpt lat="22.34261678125" lon="114.25726379638672" /><trkpt lat="22.34265278125" lon="114.25721679638671" /><trkpt lat="22.34271678125" lon="114.25718379638671" /><trkpt lat="22.34303678125" lon="114.25706179638672" /><trkpt lat="22.34340878125" lon="114.25704479638672" /><trkpt lat="22.34359278125" lon="114.25704979638672" /><trkpt lat="22.34365878125" lon="114.25707379638672" /><trkpt lat="22.34369378125" lon="114.25713679638672" /><trkpt lat="22.34376178125" lon="114.25751979638672" /><trkpt lat="22.34381478125" lon="114.25757179638671" /><trkpt lat="22.34428578125" lon="114.25761679638671" /><trkpt lat="22.34447378125" lon="114.25765979638672" /><trkpt lat="22.34461878125" lon="114.25765479638672" /><trkpt lat="22.34490978125" lon="114.25766679638672" /><trkpt lat="22.34506578125" lon="114.25768679638672" /><trkpt lat="22.34524378125" lon="114.25775979638672" /><trkpt lat="22.34530078125" lon="114.25776779638672" /><trkpt lat="22.34553678125" lon="114.25778879638672" /><trkpt lat="22.34557878125" lon="114.25780679638672" /><trkpt lat="22.34561178125" lon="114.25782779638672" /><trkpt lat="22.34580478125" lon="114.25809179638672" /><trkpt lat="22.34607878125" lon="114.25862879638672" /><trkpt lat="22.34611678125" lon="114.25882979638672" /><trkpt lat="22.34611678125" lon="114.25925879638672" /><trkpt lat="22.34611778125" lon="114.25940679638671" /><trkpt lat="22.34610378125" lon="114.25991579638672" /><trkpt lat="22.34614878125" lon="114.26011879638672" /><trkpt lat="22.34626178125" lon="114.26028479638671" /><trkpt lat="22.34627778125" lon="114.26040079638672" /><trkpt lat="22.34669978125" lon="114.26076579638672" /><trkpt lat="22.34670978125" lon="114.26080879638671" /><trkpt lat="22.34682878125" lon="114.26093779638671" /><trkpt lat="22.34692778125" lon="114.26101279638672" /><trkpt lat="22.34710078125" lon="114.26108979638671" /><trkpt lat="22.34715078125" lon="114.26111879638673" /><trkpt lat="22.34715678125" lon="114.26122179638672" /><trkpt lat="22.34715678125" lon="114.26161879638671" /><trkpt lat="22.34732978125" lon="114.26189279638672" /><trkpt lat="22.34750878125" lon="114.26191879638672" /><trkpt lat="22.34759278125" lon="114.26197779638672" /><trkpt lat="22.34753878125" lon="114.26214979638672" /><trkpt lat="22.34758278125" lon="114.26229979638671" /><trkpt lat="22.34766778125" lon="114.26234879638672" /><trkpt lat="22.34789578125" lon="114.26232679638672" /><trkpt lat="22.34795078125" lon="114.26241279638671" /><trkpt lat="22.34770678125" lon="114.26260579638672" /><trkpt lat="22.34767278125" lon="114.26275579638671" /><trkpt lat="22.34770178125" lon="114.26286379638672" /><trkpt lat="22.34772678125" lon="114.26315879638672" /><trkpt lat="22.34761278125" lon="114.26324379638672" /><trkpt lat="22.34763278125" lon="114.26344279638671" /><trkpt lat="22.34751378125" lon="114.26376479638672" /><trkpt lat="22.34754878125" lon="114.26400579638671" /><trkpt lat="22.34770678125" lon="114.26411879638673" /><trkpt lat="22.34764278125" lon="114.26430679638672" /><trkpt lat="22.34778178125" lon="114.26465479638672" /><trkpt lat="22.34743878125" lon="114.26512679638672" /><trkpt lat="22.34740578125" lon="114.26562279638672" /><trkpt lat="22.34739978125" lon="114.26570779638672" /><trkpt lat="22.34743578125" lon="114.26575679638673" /><trkpt lat="22.34748178125" lon="114.26577079638672" /><trkpt lat="22.34765478125" lon="114.26578879638672" /><trkpt lat="22.34772678125" lon="114.26585579638672" /><trkpt lat="22.34783478125" lon="114.26589479638672" /><trkpt lat="22.34784178125" lon="114.26601579638672" /><trkpt lat="22.34791978125" lon="114.26611779638672" /><trkpt lat="22.34806678125" lon="114.26606279638672" /><trkpt lat="22.34819878125" lon="114.26586979638672" /><trkpt lat="22.34829278125" lon="114.26580579638672" /><trkpt lat="22.34836678125" lon="114.26586079638672" /><trkpt lat="22.34839478125" lon="114.26581479638672" /><trkpt lat="22.34844478125" lon="114.26580179638673" /><trkpt lat="22.34848778125" lon="114.26572679638672" /><trkpt lat="22.34858278125" lon="114.26570279638672" /><trkpt lat="22.34867778125" lon="114.26560379638671" /><trkpt lat="22.34864778125" lon="114.26552179638672" /><trkpt lat="22.34874278125" lon="114.26531279638672" /><trkpt lat="22.34881478125" lon="114.26506879638671" /><trkpt lat="22.34880478125" lon="114.26497379638671" /><trkpt lat="22.34882178125" lon="114.26491279638672" /><trkpt lat="22.34912178125" lon="114.26482579638672" /><trkpt lat="22.34924178125" lon="114.26463879638672" /><trkpt lat="22.34955978125" lon="114.26448979638671" /><trkpt lat="22.34973378125" lon="114.26449979638672" /><trkpt lat="22.35001378125" lon="114.26439079638672" /><trkpt lat="22.35026678125" lon="114.26437579638672" /><trkpt lat="22.35031478125" lon="114.26437279638672" /><trkpt lat="22.35036078125" lon="114.26441479638672" /><trkpt lat="22.35054078125" lon="114.26433079638672" /><trkpt lat="22.35081278125" lon="114.26433379638672" /><trkpt lat="22.35115378125" lon="114.26420379638672" /><trkpt lat="22.35130578125" lon="114.26419579638672" /><trkpt lat="22.35146478125" lon="114.26411879638673" /><trkpt lat="22.35168878125" lon="114.26426379638671" /><trkpt lat="22.35189978125" lon="114.26425379638673" /><trkpt lat="22.35225378125" lon="114.26402479638672" /><trkpt lat="22.35232878125" lon="114.26382179638672" /><trkpt lat="22.35262178125" lon="114.26370979638672" /><trkpt lat="22.35314278125" lon="114.26334679638671" /><trkpt lat="22.35336178125" lon="114.26323779638672" /><trkpt lat="22.35342078125" lon="114.26310679638672" /><trkpt lat="22.35349978125" lon="114.26296479638673" /><trkpt lat="22.35346978125" lon="114.26284479638672" /><trkpt lat="22.35363678125" lon="114.26285479638672" /><trkpt lat="22.35382978125" lon="114.26281279638673" /><trkpt lat="22.35404278125" lon="114.26256179638672" /><trkpt lat="22.35410178125" lon="114.26254779638671" /><trkpt lat="22.35414378125" lon="114.26247679638672" /><trkpt lat="22.35423878125" lon="114.26238779638672" /><trkpt lat="22.35420978125" lon="114.26225679638672" /><trkpt lat="22.35414378125" lon="114.26202679638672" /><trkpt lat="22.35405278125" lon="114.26181779638672" /><trkpt lat="22.35393178125" lon="114.26168679638671" /><trkpt lat="22.35389178125" lon="114.26154179638672" /><trkpt lat="22.35383378125" lon="114.26151079638672" /><trkpt lat="22.35367378125" lon="114.26151879638672" /><trkpt lat="22.35359678125" lon="114.26139379638671" /><trkpt lat="22.35378178125" lon="114.26118379638672" /><trkpt lat="22.35378178125" lon="114.26096379638672" /><trkpt lat="22.35378678125" lon="114.26078379638672" /><trkpt lat="22.35376878125" lon="114.26071279638671" /><trkpt lat="22.35373378125" lon="114.26064979638672" /><trkpt lat="22.35368778125" lon="114.26060079638673" /><trkpt lat="22.35365478125" lon="114.26054779638672" /><trkpt lat="22.35363578125" lon="114.26048079638672" /><trkpt lat="22.35361078125" lon="114.26039179638671" /><trkpt lat="22.35355378125" lon="114.26018979638671" /><trkpt lat="22.35354278125" lon="114.26014779638672" /><trkpt lat="22.35353578125" lon="114.25994979638672" /><trkpt lat="22.35356678125" lon="114.25979279638672" /><trkpt lat="22.35357178125" lon="114.25970479638671" /><trkpt lat="22.35356278125" lon="114.25958479638672" /><trkpt lat="22.35353378125" lon="114.25938779638672" /><trkpt lat="22.35350678125" lon="114.25919079638672" /><trkpt lat="22.35350178125" lon="114.25914379638672" /><trkpt lat="22.35348578125" lon="114.25899279638672" /><trkpt lat="22.35345978125" lon="114.25831279638672" /><trkpt lat="22.35342978125" lon="114.25763679638672" /><trkpt lat="22.35341078125" lon="114.25738479638672" /><trkpt lat="22.35334678125" lon="114.25713479638672" /><trkpt lat="22.35311878125" lon="114.25658079638671" /><trkpt lat="22.35300178125" lon="114.25627579638672" /><trkpt lat="22.35294178125" lon="114.25611979638671" /><trkpt lat="22.35292378125" lon="114.25608479638672" /><trkpt lat="22.35273378125" lon="114.25571079638672" /><trkpt lat="22.35268078125" lon="114.25559679638671" /><trkpt lat="22.35267178125" lon="114.25554579638671" /><trkpt lat="22.35267378125" lon="114.25548679638672" /><trkpt lat="22.35270878125" lon="114.25538679638672" /><trkpt lat="22.35271678125" lon="114.25532379638672" /><trkpt lat="22.35273378125" lon="114.25505379638672" /><trkpt lat="22.35274478125" lon="114.25470879638672" /><trkpt lat="22.35275678125" lon="114.25440579638672" /><trkpt lat="22.35275178125" lon="114.25433179638672" /><trkpt lat="22.35268978125" lon="114.25411579638671" /><trkpt lat="22.35255178125" lon="114.25388879638672" /><trkpt lat="22.35248778125" lon="114.25381479638672" /><trkpt lat="22.35236678125" lon="114.25375879638672" /><trkpt lat="22.35220078125" lon="114.25370279638672" /><trkpt lat="22.35213278125" lon="114.25367279638672" /><trkpt lat="22.35210878125" lon="114.25363979638672" /><trkpt lat="22.35201478125" lon="114.25331779638672" /><trkpt lat="22.35184078125" lon="114.25339079638673" /><trkpt lat="22.35176378125" lon="114.25331279638672" /><trkpt lat="22.35154878125" lon="114.25321779638672" /><trkpt lat="22.35138678125" lon="114.25313179638673" /><trkpt lat="22.35124878125" lon="114.25301079638672" /><trkpt lat="22.35120578125" lon="114.25293679638672" /><trkpt lat="22.35113978125" lon="114.25282679638671" /><trkpt lat="22.35112178125" lon="114.25266079638672" /><trkpt lat="22.35116578125" lon="114.25237479638672" /><trkpt lat="22.35121878125" lon="114.25212479638672" /><trkpt lat="22.35124878125" lon="114.25203179638672" /><trkpt lat="22.35132578125" lon="114.25190979638671" /><trkpt lat="22.35134878125" lon="114.25188379638672" /><trkpt lat="22.35145978125" lon="114.25176479638672" /><trkpt lat="22.35178878125" lon="114.25153879638673" /><trkpt lat="22.35170678125" lon="114.25135679638672" /><trkpt lat="22.35135978125" lon="114.25057779638672" /><trkpt lat="22.35128478125" lon="114.25040379638672" /><trkpt lat="22.35119678125" lon="114.25022179638673" /><trkpt lat="22.35110378125" lon="114.25006679638672" /><trkpt lat="22.35096278125" lon="114.24988579638672" /><trkpt lat="22.35094578125" lon="114.24986179638672" /><trkpt lat="22.35093578125" lon="114.24981479638672" /><trkpt lat="22.35095578125" lon="114.24977479638672" /><trkpt lat="22.35120678125" lon="114.24953879638672" /><trkpt lat="22.35121678125" lon="114.24948179638672" /><trkpt lat="22.35112678125" lon="114.24931679638672" /><trkpt lat="22.35111178125" lon="114.24930579638672" /><trkpt lat="22.35109078125" lon="114.24930679638672" /><trkpt lat="22.35095978125" lon="114.24942179638671" /><trkpt lat="22.35082478125" lon="114.24954079638673" /><trkpt lat="22.35071878125" lon="114.24963579638671" /><trkpt lat="22.35062678125" lon="114.24970579638672" /><trkpt lat="22.35048278125" lon="114.24979579638672" /><trkpt lat="22.35021778125" lon="114.24994279638672" /><trkpt lat="22.35019278125" lon="114.24994479638671" /><trkpt lat="22.35017378125" lon="114.24993279638672" /><trkpt lat="22.35006578125" lon="114.24969579638672" /><trkpt lat="22.34997378125" lon="114.24947379638672" /><trkpt lat="22.34980378125" lon="114.24921379638671" /><trkpt lat="22.34945278125" lon="114.24944379638671" /><trkpt lat="22.34866349353088" lon="114.24909053014098" /><trkpt lat="22.342016282579138" lon="114.24791864479893" /><trkpt lat="22.341928429501806" lon="114.2477905951845" /><trkpt lat="22.341575442476227" lon="114.24766695982079" /><trkpt lat="22.341379289732444" lon="114.24755664186058" /><trkpt lat="22.34130589690062" lon="114.24738696234535" /><trkpt lat="22.341197367211535" lon="114.24721593877884" /><trkpt lat="22.34111124163006" lon="114.24700253683376" /><trkpt lat="22.34095674166676" lon="114.2467680724102" /><trkpt lat="22.34095674166676" lon="114.24674125032006" /><trkpt lat="22.340971626932003" lon="114.24671679742723" /><trkpt lat="22.340971626932003" lon="114.24667151288567" /><trkpt lat="22.340992295268745" lon="114.24669547948085" /><trkpt lat="22.34126578125" lon="114.24641979638672" /><trkpt lat="22.34132578125" lon="114.24552579638672" /><trkpt lat="22.34149178125" lon="114.24502179638672" /><trkpt lat="22.34129578125" lon="114.24458279638672" /><trkpt lat="22.34137078125" lon="114.24409479638672" /><trkpt lat="22.34116078125" lon="114.24391579638672" /><trkpt lat="22.34122078125" lon="114.24347679638672" /><trkpt lat="22.34101778125" lon="114.24323079638671" /><trkpt lat="22.34154178125" lon="114.24178879638671" /><trkpt lat="22.34176178125" lon="114.24173679638672" /><trkpt lat="22.34134878125" lon="114.24121979638672" /><trkpt lat="22.34179178125" lon="114.24128179638672" /><trkpt lat="22.34240878125" lon="114.24119979638672" /><trkpt lat="22.34278478125" lon="114.24105379638672" /><trkpt lat="22.34279978125" lon="114.24089079638672" /><trkpt lat="22.34296578125" lon="114.24087479638672" /><trkpt lat="22.34347678125" lon="114.24051679638671" /><trkpt lat="22.34350678125" lon="114.24035479638673" /><trkpt lat="22.34326578125" lon="114.23986679638672" /><trkpt lat="22.34325078125" lon="114.23950879638672" /><trkpt lat="22.34341678125" lon="114.23926479638672" /><trkpt lat="22.34346178125" lon="114.23900479638672" /><trkpt lat="22.34326578125" lon="114.23874479638671" /><trkpt lat="22.34373278125" lon="114.23843579638672" /><trkpt lat="22.34380778125" lon="114.23824079638672" /><trkpt lat="22.34391278125" lon="114.23811079638672" /><trkpt lat="22.34358178125" lon="114.23786679638673" /><trkpt lat="22.34373278125" lon="114.23752479638672" /><trkpt lat="22.34359678125" lon="114.23719979638672" /><trkpt lat="22.34347678125" lon="114.23690679638672" /><trkpt lat="22.34325078125" lon="114.23679279638672" /><trkpt lat="22.34317578125" lon="114.23671179638671" /><trkpt lat="22.34335678125" lon="114.23632179638672" /><trkpt lat="22.34376278125" lon="114.23609379638673" /><trkpt lat="22.34383778125" lon="114.23554079638672" /><trkpt lat="22.34374778125" lon="114.23549179638673" /><trkpt lat="22.34362678125" lon="114.23510179638672" /><trkpt lat="22.34331178125" lon="114.23502079638672" /><trkpt lat="22.34337178125" lon="114.23472779638672" /><trkpt lat="22.34356678125" lon="114.23458179638672" /><trkpt lat="22.34353678125" lon="114.23427279638672" /><trkpt lat="22.34371778125" lon="114.23422379638671" /><trkpt lat="22.34380778125" lon="114.23406079638671" /><trkpt lat="22.34357378125" lon="114.23380079638672" /><trkpt lat="22.34327578125" lon="114.23374179638672" /><trkpt lat="22.34314678125" lon="114.23355979638671" /><trkpt lat="22.34299778125" lon="114.23347379638672" /><trkpt lat="22.34277978125" lon="114.23331279638671" /><trkpt lat="22.34266578125" lon="114.23345179638672" /><trkpt lat="22.34260878125" lon="114.23355279638672" /><trkpt lat="22.34252878125" lon="114.23374279638672" /><trkpt lat="22.34245478125" lon="114.23401079638671" /><trkpt lat="22.34232878125" lon="114.23434279638671" /><trkpt lat="22.34221878125" lon="114.23443879638671" /><trkpt lat="22.34208978125" lon="114.23454079638672" /><trkpt lat="22.34202078125" lon="114.23470179638672" /><trkpt lat="22.34198078125" lon="114.23486279638672" /><trkpt lat="22.34185678125" lon="114.23503479638671" /><trkpt lat="22.34169278125" lon="114.23514779638671" /><trkpt lat="22.34152978125" lon="114.23520679638672" /><trkpt lat="22.34146978125" lon="114.23517379638672" /><trkpt lat="22.34123678125" lon="114.23535679638672" /><trkpt lat="22.34104278125" lon="114.23534079638672" /><trkpt lat="22.34087478125" lon="114.23525979638671" /><trkpt lat="22.34072578125" lon="114.23523879638672" /><trkpt lat="22.34054178125" lon="114.23520679638672" /><trkpt lat="22.34038078125" lon="114.23519679638672" /><trkpt lat="22.34009778125" lon="114.23526079638673" /><trkpt lat="22.33981078125" lon="114.23527079638671" /><trkpt lat="22.33955778125" lon="114.23538379638671" /><trkpt lat="22.33934178125" lon="114.23541579638672" /><trkpt lat="22.33912078125" lon="114.23549179638673" /><trkpt lat="22.33895178125" lon="114.23550179638671" /><trkpt lat="22.33884978125" lon="114.23545879638672" /><trkpt lat="22.33874578125" lon="114.23547479638673" /><trkpt lat="22.33861178125" lon="114.23527579638672" /><trkpt lat="22.33847278125" lon="114.23524879638671" /><trkpt lat="22.33834878125" lon="114.23517979638672" /><trkpt lat="22.33825178125" lon="114.23519679638672" /><trkpt lat="22.33806978125" lon="114.23521179638672" /><trkpt lat="22.33785078125" lon="114.23523379638672" /><trkpt lat="22.33766278125" lon="114.23531879638672" /><trkpt lat="22.33765378125" lon="114.23520379638671" /><trkpt lat="22.33768578125" lon="114.23506579638672" /><trkpt lat="22.33768878125" lon="114.23494579638673" /><trkpt lat="22.33761678125" lon="114.23477379638672" /><trkpt lat="22.33753278125" lon="114.23461179638672" /><trkpt lat="22.33745078125" lon="114.23459279638672" /><trkpt lat="22.33738778125" lon="114.23455879638672" /><trkpt lat="22.33728878125" lon="114.23436579638673" /><trkpt lat="22.33748878125" lon="114.23360179638672" /><trkpt lat="22.33730778125" lon="114.23302379638672" /><trkpt lat="22.33732978125" lon="114.23281979638672" /><trkpt lat="22.33722178125" lon="114.23243879638672" /><trkpt lat="22.33718278125" lon="114.23202179638672" /><trkpt lat="22.33723178125" lon="114.23143879638671" /><trkpt lat="22.33715378125" lon="114.23106579638672" /><trkpt lat="22.33713378125" lon="114.23081179638672" /><trkpt lat="22.33713478125" lon="114.23042479638671" /><trkpt lat="22.33714278125" lon="114.23021079638671" /><trkpt lat="22.33717178125" lon="114.22994679638671" /><trkpt lat="22.33718778125" lon="114.22949779638672" /><trkpt lat="22.33694678125" lon="114.22935379638672" /><trkpt lat="22.33677778125" lon="114.22921379638672" /><trkpt lat="22.33657178125" lon="114.22893979638671" /><trkpt lat="22.33642078125" lon="114.22871279638672" /><trkpt lat="22.33613278125" lon="114.22827179638672" /><trkpt lat="22.33574778125" lon="114.22748779638673" /><trkpt lat="22.33566978125" lon="114.22729779638672" /><trkpt lat="22.33559078125" lon="114.22710479638671" /><trkpt lat="22.33544878125" lon="114.22687779638672" /><trkpt lat="22.33509078125" lon="114.22650779638671" /><trkpt lat="22.33486678125" lon="114.22632879638672" /><trkpt lat="22.33471378125" lon="114.22615179638672" /><trkpt lat="22.33469378125" lon="114.22612679638672" /><trkpt lat="22.33443678125" lon="114.22571779638672" /><trkpt lat="22.33434578125" lon="114.22553179638672" /><trkpt lat="22.33433578125" lon="114.22550879638672" /><trkpt lat="22.33428478125" lon="114.22521879638671" /><trkpt lat="22.33427178125" lon="114.22519179638672" /><trkpt lat="22.33417978125" lon="114.22501679638673" /><trkpt lat="22.33419478125" lon="114.22527479638671" /><trkpt lat="22.33421078125" lon="114.22546279638672" /><trkpt lat="22.33425978125" lon="114.22604079638671" /><trkpt lat="22.33428278125" lon="114.22625079638672" /><trkpt lat="22.33431978125" lon="114.22640479638672" /><trkpt lat="22.33437078125" lon="114.22654679638671" /><trkpt lat="22.33450478125" lon="114.22683379638671" /><trkpt lat="22.33453378125" lon="114.22693779638672" /><trkpt lat="22.33453178125" lon="114.22699579638672" /><trkpt lat="22.33451378125" lon="114.22704279638671" /><trkpt lat="22.33445578125" lon="114.22711879638672" /><trkpt lat="22.33441778125" lon="114.22715279638672" /><trkpt lat="22.33436178125" lon="114.22719379638671" /><trkpt lat="22.33407278125" lon="114.22618779638672" /><trkpt lat="22.33399478125" lon="114.22583079638672" /><trkpt lat="22.33395978125" lon="114.22551879638672" /><trkpt lat="22.33395378125" lon="114.22519879638672" /><trkpt lat="22.33398278125" lon="114.22487579638671" /><trkpt lat="22.33404578125" lon="114.22442779638672" /><trkpt lat="22.33410778125" lon="114.22392279638672" /><trkpt lat="22.33411978125" lon="114.22373179638672" /><trkpt lat="22.33411178125" lon="114.22357179638672" /><trkpt lat="22.33408578125" lon="114.22326479638672" /><trkpt lat="22.33404778125" lon="114.22300679638671" /><trkpt lat="22.33393778125" lon="114.22259479638672" /><trkpt lat="22.33391478125" lon="114.22250579638671" /><trkpt lat="22.33388478125" lon="114.22241779638672" /><trkpt lat="22.33378578125" lon="114.22214979638672" /><trkpt lat="22.33362678125" lon="114.22188879638672" /><trkpt lat="22.33344778125" lon="114.22170379638672" /><trkpt lat="22.33322478125" lon="114.22150279638672" /><trkpt lat="22.33272478125" lon="114.22109179638672" /><trkpt lat="22.33262078125" lon="114.22100879638671" /><trkpt lat="22.33251578125" lon="114.22093579638671" /><trkpt lat="22.33230278125" lon="114.22083779638672" /><trkpt lat="22.33210678125" lon="114.22079179638672" /><trkpt lat="22.33197578125" lon="114.22078779638672" /><trkpt lat="22.33181978125" lon="114.22079579638672" /><trkpt lat="22.33170678125" lon="114.22081379638672" /><trkpt lat="22.33157178125" lon="114.22086179638671" /><trkpt lat="22.33139678125" lon="114.22095979638672" /><trkpt lat="22.33123978125" lon="114.22108179638671" /><trkpt lat="22.33108778125" lon="114.22121179638673" /><trkpt lat="22.33074978125" lon="114.22155979638671" /><trkpt lat="22.33065278125" lon="114.22166379638672" /><trkpt lat="22.33048478125" lon="114.22184179638671" /><trkpt lat="22.33016278125" lon="114.22224479638672" /><trkpt lat="22.33008536627959" lon="114.22236962803137" /></trkseg></trk></gpx>