<?xml version='1.0' encoding='UTF-8' ?><gpx version="1.1" creator="HikingTrailHK" xsi:schemaLocation="http://www.topografix.com/GPX/1/1 http://www.topografix.com/GPX/1/1/gpx.xsd" xmlns="http://www.topografix.com/GPX/1/1" xmlns:xsi="http://www.w3.org/2001/XMLSchema-instance"><metadata><name>屯門徑九逕山 @ 2022-04-05</name><desc></desc></metadata><trk><trkseg><trkpt lat="22.39512578125" lon="113.97789179638671" /><trkpt lat="22.39512978125" lon="113.97805579638671" /><trkpt lat="22.39513678125" lon="113.97817079638672" /><trkpt lat="22.39519078125" lon="113.97832679638672" /><trkpt lat="22.39529978125" lon="113.97846079638671" /><trkpt lat="22.39532678125" lon="113.97873679638671" /><trkpt lat="22.39536278125" lon="113.97898179638672" /><trkpt lat="22.39539878125" lon="113.97922879638672" /><trkpt lat="22.39515778125" lon="113.97946279638671" /><trkpt lat="22.39510778125" lon="113.97967079638671" /><trkpt lat="22.39503578125" lon="113.97986879638673" /><trkpt lat="22.39492978125" lon="113.98006379638672" /><trkpt lat="22.39473178125" lon="113.98020779638672" /><trkpt lat="22.39474078125" lon="113.98039179638671" /><trkpt lat="22.39461378125" lon="113.98059779638672" /><trkpt lat="22.39441878125" lon="113.98060079638672" /><trkpt lat="22.39440578125" lon="113.98069679638672" /><trkpt lat="22.39422278125" lon="113.98095679638672" /><trkpt lat="22.39419378125" lon="113.98102079638672" /><trkpt lat="22.39418078125" lon="113.98112179638672" /><trkpt lat="22.39420178125" lon="113.98117279638672" /><trkpt lat="22.39420978125" lon="113.98129879638672" /><trkpt lat="22.39419678125" lon="113.98140679638672" /><trkpt lat="22.39415678125" lon="113.98150379638672" /><trkpt lat="22.39412878125" lon="113.98151079638671" /><trkpt lat="22.39407078125" lon="113.98152779638671" /><trkpt lat="22.39401178125" lon="113.98157179638672" /><trkpt lat="22.39398878125" lon="113.98158879638672" /><trkpt lat="22.39402478125" lon="113.98164679638671" /><trkpt lat="22.39402878125" lon="113.98167779638672" /><trkpt lat="22.39403878125" lon="113.98169479638672" /><trkpt lat="22.39407278125" lon="113.98170179638672" /><trkpt lat="22.39409078125" lon="113.98173679638671" /><trkpt lat="22.39415378125" lon="113.98177979638672" /><trkpt lat="22.39417578125" lon="113.98184079638672" /><trkpt lat="22.39419678125" lon="113.98191379638672" /><trkpt lat="22.39420078125" lon="113.98196179638671" /><trkpt lat="22.39426178125" lon="113.98209079638671" /><trkpt lat="22.39434578125" lon="113.98211579638672" /><trkpt lat="22.39436978125" lon="113.98215579638672" /><trkpt lat="22.39437078125" lon="113.98225279638672" /><trkpt lat="22.39435878125" lon="113.98229579638672" /><trkpt lat="22.39436678125" lon="113.98231779638672" /><trkpt lat="22.39438978125" lon="113.98233779638672" /><trkpt lat="22.39444278125" lon="113.98243479638671" /><trkpt lat="22.39446878125" lon="113.98252079638672" /><trkpt lat="22.39449878125" lon="113.98247179638672" /><trkpt lat="22.39455678125" lon="113.98243479638671" /><trkpt lat="22.39461178125" lon="113.98242379638671" /><trkpt lat="22.39470078125" lon="113.98242179638672" /><trkpt lat="22.39485578125" lon="113.98240279638672" /><trkpt lat="22.39490578125" lon="113.98240579638671" /><trkpt lat="22.39493178125" lon="113.98242679638672" /><trkpt lat="22.39495278125" lon="113.98246579638672" /><trkpt lat="22.39502478125" lon="113.98252179638672" /><trkpt lat="22.39504678125" lon="113.98255279638671" /><trkpt lat="22.39505078125" lon="113.98255979638672" /><trkpt lat="22.39505478125" lon="113.98259379638672" /><trkpt lat="22.39504178125" lon="113.98268379638672" /><trkpt lat="22.39506478125" lon="113.98274479638673" /><trkpt lat="22.39506478125" lon="113.98278379638671" /><trkpt lat="22.39504678125" lon="113.98281079638672" /><trkpt lat="22.39503678125" lon="113.98284279638672" /><trkpt lat="22.39503878125" lon="113.98294179638673" /><trkpt lat="22.395049781250002" lon="113.98296579638672" /><trkpt lat="22.39516378125" lon="113.98314179638672" /><trkpt lat="22.39519678125" lon="113.98315679638672" /><trkpt lat="22.39523478125" lon="113.98315679638672" /><trkpt lat="22.39539978125" lon="113.98310979638671" /><trkpt lat="22.39556478125" lon="113.98300779638672" /><trkpt lat="22.39567578125" lon="113.98302979638672" /><trkpt lat="22.39593678125" lon="113.98292679638672" /><trkpt lat="22.39607378125" lon="113.98295579638672" /><trkpt lat="22.39628678125" lon="113.98315279638672" /><trkpt lat="22.39669378125" lon="113.98326279638673" /><trkpt lat="22.39691378125" lon="113.98359079638672" /><trkpt lat="22.39721978125" lon="113.98363579638672" /><trkpt lat="22.39730178125" lon="113.98354879638671" /><trkpt lat="22.39734478125" lon="113.98350279638672" /><trkpt lat="22.39767078125" lon="113.98348079638671" /><trkpt lat="22.39784178125" lon="113.98357179638671" /><trkpt lat="22.39817178125" lon="113.98363779638672" /><trkpt lat="22.39838678125" lon="113.98355779638672" /><trkpt lat="22.39864478125" lon="113.98356879638672" /><trkpt lat="22.39884878125" lon="113.98352379638672" /><trkpt lat="22.39906478125" lon="113.98354179638672" /><trkpt lat="22.39922978125" lon="113.98364279638672" /><trkpt lat="22.39941478125" lon="113.98367879638671" /><trkpt lat="22.39963278125" lon="113.98380079638672" /><trkpt lat="22.39987478125" lon="113.98401879638672" /><trkpt lat="22.40004978125" lon="113.98377279638672" /><trkpt lat="22.40005778125" lon="113.98384879638672" /><trkpt lat="22.40001278125" lon="113.98399979638671" /><trkpt lat="22.40003678125" lon="113.98412379638673" /><trkpt lat="22.40001678125" lon="113.98440079638672" /><trkpt lat="22.40007478125" lon="113.98456479638672" /><trkpt lat="22.40004178125" lon="113.98469479638672" /><trkpt lat="22.39986678125" lon="113.98479879638671" /><trkpt lat="22.39982978125" lon="113.98492979638672" /><trkpt lat="22.39979078125" lon="113.98504179638672" /><trkpt lat="22.39976678125" lon="113.98532179638671" /><trkpt lat="22.39986978125" lon="113.98540279638672" /><trkpt lat="22.39995178125" lon="113.98551079638672" /><trkpt lat="22.39989578125" lon="113.98566979638672" /><trkpt lat="22.40001678125" lon="113.98623079638672" /><trkpt lat="22.39997978125" lon="113.98631579638672" /><trkpt lat="22.39987678125" lon="113.98624079638672" /><trkpt lat="22.39972878125" lon="113.98625179638672" /><trkpt lat="22.39950178125" lon="113.98613779638671" /><trkpt lat="22.39936678125" lon="113.98616079638671" /><trkpt lat="22.39895878125" lon="113.98598679638671" /><trkpt lat="22.39887478125" lon="113.98591279638671" /><trkpt lat="22.39852378125" lon="113.98586679638672" /><trkpt lat="22.39844078125" lon="113.98578279638672" /><trkpt lat="22.39826878125" lon="113.98574879638672" /><trkpt lat="22.39820178125" lon="113.98564979638672" /><trkpt lat="22.39807478125" lon="113.98553479638672" /><trkpt lat="22.39794778125" lon="113.98553679638673" /><trkpt lat="22.39774878125" lon="113.98559479638672" /><trkpt lat="22.39755478125" lon="113.98563279638672" /><trkpt lat="22.39710578125" lon="113.98572579638672" /><trkpt lat="22.39702178125" lon="113.98589979638672" /><trkpt lat="22.396936781249998" lon="113.98607679638671" /><trkpt lat="22.39693978125" lon="113.98649579638672" /><trkpt lat="22.39675378125" lon="113.98671679638672" /><trkpt lat="22.39671378125" lon="113.98670179638673" /><trkpt lat="22.39657978125" lon="113.98712879638671" /><trkpt lat="22.39628778125" lon="113.98741179638672" /><trkpt lat="22.39619078125" lon="113.98767079638672" /><trkpt lat="22.39619578125" lon="113.98776379638672" /><trkpt lat="22.39619678125" lon="113.98778679638671" /><trkpt lat="22.39610678125" lon="113.98802179638672" /><trkpt lat="22.39606278125" lon="113.98829179638672" /><trkpt lat="22.39616378125" lon="113.98841979638672" /><trkpt lat="22.39616178125" lon="113.98854579638672" /><trkpt lat="22.39612478125" lon="113.98864579638672" /><trkpt lat="22.39581378125" lon="113.98878979638671" /><trkpt lat="22.39576578125" lon="113.98881579638672" /><trkpt lat="22.39571478125" lon="113.98884379638672" /><trkpt lat="22.39553378125" lon="113.98907679638671" /><trkpt lat="22.39552878125" lon="113.98922179638672" /><trkpt lat="22.39551978125" lon="113.98934579638671" /><trkpt lat="22.39541078125" lon="113.98945379638671" /><trkpt lat="22.39526878125" lon="113.98964179638672" /><trkpt lat="22.39518378125" lon="113.98975379638672" /><trkpt lat="22.39504378125" lon="113.98994779638672" /><trkpt lat="22.394852781250002" lon="113.99002179638671" /><trkpt lat="22.39472978125" lon="113.99008879638671" /><trkpt lat="22.39462778125" lon="113.99003179638672" /><trkpt lat="22.39456178125" lon="113.99006079638671" /><trkpt lat="22.39453278125" lon="113.99009179638672" /><trkpt lat="22.39447778125" lon="113.99013879638672" /><trkpt lat="22.39408678125" lon="113.99016579638672" /><trkpt lat="22.39382378125" lon="113.99006279638672" /><trkpt lat="22.39372078125" lon="113.99004779638672" /><trkpt lat="22.39357178125" lon="113.99014179638672" /><trkpt lat="22.39345878125" lon="113.99015879638672" /><trkpt lat="22.39333478125" lon="113.99024379638672" /><trkpt lat="22.39305978125" lon="113.99047979638672" /><trkpt lat="22.39297678125" lon="113.99049879638672" /><trkpt lat="22.39289578125" lon="113.99047879638672" /><trkpt lat="22.39278478125" lon="113.99061979638672" /><trkpt lat="22.39269378125" lon="113.99066579638672" /><trkpt lat="22.392647781249998" lon="113.99088879638671" /><trkpt lat="22.39253078125" lon="113.99105179638671" /><trkpt lat="22.39242378125" lon="113.99105979638672" /><trkpt lat="22.39230778125" lon="113.99122079638671" /><trkpt lat="22.39221378125" lon="113.99130679638672" /><trkpt lat="22.39224778125" lon="113.99175679638672" /><trkpt lat="22.39231478125" lon="113.99185479638672" /><trkpt lat="22.39221278125" lon="113.99188679638672" /><trkpt lat="22.39221078125" lon="113.99197879638672" /><trkpt lat="22.39212478125" lon="113.99203279638672" /><trkpt lat="22.39207478125" lon="113.99216279638672" /><trkpt lat="22.39172278125" lon="113.99234079638671" /><trkpt lat="22.39162678125" lon="113.99240679638672" /><trkpt lat="22.39158278125" lon="113.99260679638672" /><trkpt lat="22.39149678125" lon="113.99279879638672" /><trkpt lat="22.39157678125" lon="113.99296479638672" /><trkpt lat="22.39157478125" lon="113.99312379638671" /><trkpt lat="22.39159078125" lon="113.99320279638673" /><trkpt lat="22.39160578125" lon="113.99343279638671" /><trkpt lat="22.39157478125" lon="113.99349079638672" /><trkpt lat="22.39153378125" lon="113.99357179638672" /><trkpt lat="22.39125778125" lon="113.99367879638672" /><trkpt lat="22.39110778125" lon="113.99376979638672" /><trkpt lat="22.39097578125" lon="113.99398379638671" /><trkpt lat="22.39077478125" lon="113.99408779638672" /><trkpt lat="22.39071278125" lon="113.99419479638672" /><trkpt lat="22.39060078125" lon="113.99429279638672" /><trkpt lat="22.39038478125" lon="113.99436279638672" /><trkpt lat="22.39026378125" lon="113.99444879638672" /><trkpt lat="22.39019578125" lon="113.99444879638672" /><trkpt lat="22.38993278125" lon="113.99472379638672" /><trkpt lat="22.38983378125" lon="113.99486579638672" /><trkpt lat="22.38958578125" lon="113.99497979638672" /><trkpt lat="22.38934978125" lon="113.99498679638671" /><trkpt lat="22.38909478125" lon="113.99509679638672" /><trkpt lat="22.38903778125" lon="113.99509879638671" /><trkpt lat="22.38893078125" lon="113.99513179638672" /><trkpt lat="22.38881878125" lon="113.99525179638673" /><trkpt lat="22.38877378125" lon="113.99524279638672" /><trkpt lat="22.38877678125" lon="113.99513679638672" /><trkpt lat="22.38872678125" lon="113.99505279638672" /><trkpt lat="22.38870578125" lon="113.99499679638672" /><trkpt lat="22.38862678125" lon="113.99498979638672" /><trkpt lat="22.38848578125" lon="113.99500179638672" /><trkpt lat="22.38844378125" lon="113.99502279638672" /><trkpt lat="22.38837878125" lon="113.99511179638672" /><trkpt lat="22.38829478125" lon="113.99519779638672" /><trkpt lat="22.38834178125" lon="113.99523079638672" /><trkpt lat="22.38861378125" lon="113.99525779638672" /><trkpt lat="22.38874378125" lon="113.99524079638672" /><trkpt lat="22.38877378125" lon="113.99524279638672" /><trkpt lat="22.38881878125" lon="113.99525179638673" /><trkpt lat="22.38893078125" lon="113.99513179638672" /><trkpt lat="22.38903778125" lon="113.99509879638671" /><trkpt lat="22.38909478125" lon="113.99509679638672" /><trkpt lat="22.38934978125" lon="113.99498679638671" /><trkpt lat="22.38958578125" lon="113.99497979638672" /><trkpt lat="22.38983378125" lon="113.99486579638672" /><trkpt lat="22.38993278125" lon="113.99472379638672" /><trkpt lat="22.39019578125" lon="113.99444879638672" /><trkpt lat="22.39026378125" lon="113.99444879638672" /><trkpt lat="22.39038478125" lon="113.99436279638672" /><trkpt lat="22.39060078125" lon="113.99429279638672" /><trkpt lat="22.39071278125" lon="113.99419479638672" /><trkpt lat="22.39077478125" lon="113.99408779638672" /><trkpt lat="22.39097578125" lon="113.99398379638671" /><trkpt lat="22.39110778125" lon="113.99376979638672" /><trkpt lat="22.39125778125" lon="113.99367879638672" /><trkpt lat="22.39153378125" lon="113.99357179638672" /><trkpt lat="22.39157478125" lon="113.99349079638672" /><trkpt lat="22.39160578125" lon="113.99343279638671" /><trkpt lat="22.39159078125" lon="113.99320279638673" /><trkpt lat="22.39157478125" lon="113.99312379638671" /><trkpt lat="22.39157678125" lon="113.99296479638672" /><trkpt lat="22.39149678125" lon="113.99279879638672" /><trkpt lat="22.39158278125" lon="113.99260679638672" /><trkpt lat="22.39162678125" lon="113.99240679638672" /><trkpt lat="22.39172278125" lon="113.99234079638671" /><trkpt lat="22.39207478125" lon="113.99216279638672" /><trkpt lat="22.39212478125" lon="113.99203279638672" /><trkpt lat="22.39221078125" lon="113.99197879638672" /><trkpt lat="22.39221278125" lon="113.99188679638672" /><trkpt lat="22.39231478125" lon="113.99185479638672" /><trkpt lat="22.39224778125" lon="113.99175679638672" /><trkpt lat="22.39221378125" lon="113.99130679638672" /><trkpt lat="22.39230778125" lon="113.99122079638671" /><trkpt lat="22.39242378125" lon="113.99105979638672" /><trkpt lat="22.39253078125" lon="113.99105179638671" /><trkpt lat="22.392647781249998" lon="113.99088879638671" /><trkpt lat="22.39269378125" lon="113.99066579638672" /><trkpt lat="22.39278478125" lon="113.99061979638672" /><trkpt lat="22.39289578125" lon="113.99047879638672" /><trkpt lat="22.39297678125" lon="113.99049879638672" /><trkpt lat="22.39305978125" lon="113.99047979638672" /><trkpt lat="22.39333478125" lon="113.99024379638672" /><trkpt lat="22.39345878125" lon="113.99015879638672" /><trkpt lat="22.39357178125" lon="113.99014179638672" /><trkpt lat="22.39372078125" lon="113.99004779638672" /><trkpt lat="22.39382378125" lon="113.99006279638672" /><trkpt lat="22.39408678125" lon="113.99016579638672" /><trkpt lat="22.39447778125" lon="113.99013879638672" /><trkpt lat="22.39453278125" lon="113.99009179638672" /><trkpt lat="22.39456178125" lon="113.99006079638671" /><trkpt lat="22.39437178125" lon="113.98973879638672" /><trkpt lat="22.39435778125" lon="113.98959379638671" /><trkpt lat="22.39432478125" lon="113.98949979638672" /><trkpt lat="22.39426778125" lon="113.98945579638672" /><trkpt lat="22.39423278125" lon="113.98939479638672" /><trkpt lat="22.39424778125" lon="113.98917279638673" /><trkpt lat="22.39422378125" lon="113.98898279638672" /><trkpt lat="22.39416378125" lon="113.98895079638672" /><trkpt lat="22.39415378125" lon="113.98868179638671" /><trkpt lat="22.39408278125" lon="113.98853679638673" /><trkpt lat="22.39399778125" lon="113.98842679638672" /><trkpt lat="22.39405978125" lon="113.98806779638672" /><trkpt lat="22.39397378125" lon="113.98781079638673" /><trkpt lat="22.39388978125" lon="113.98766979638673" /><trkpt lat="22.39389578125" lon="113.98757979638673" /><trkpt lat="22.39391578125" lon="113.98752779638671" /><trkpt lat="22.39393078125" lon="113.98748879638671" /><trkpt lat="22.39394278125" lon="113.98733879638672" /><trkpt lat="22.39404978125" lon="113.98705879638672" /><trkpt lat="22.39405478125" lon="113.98694679638672" /><trkpt lat="22.39405178125" lon="113.98685079638672" /><trkpt lat="22.39413378125" lon="113.98678579638671" /><trkpt lat="22.39417378125" lon="113.98654379638671" /><trkpt lat="22.39419078125" lon="113.98631379638672" /><trkpt lat="22.39422778125" lon="113.98626579638672" /><trkpt lat="22.39423278125" lon="113.98612579638672" /><trkpt lat="22.39418378125" lon="113.98603479638672" /><trkpt lat="22.39414678125" lon="113.98584879638672" /><trkpt lat="22.39412078125" lon="113.98561979638671" /><trkpt lat="22.39423278125" lon="113.98532079638672" /><trkpt lat="22.39421078125" lon="113.98522279638672" /><trkpt lat="22.39434078125" lon="113.98484879638671" /><trkpt lat="22.39440978125" lon="113.98466679638672" /><trkpt lat="22.39456578125" lon="113.98446579638671" /><trkpt lat="22.39448278125" lon="113.98419079638671" /><trkpt lat="22.39451778125" lon="113.98393379638672" /><trkpt lat="22.39462178125" lon="113.98354979638673" /><trkpt lat="22.39462978125" lon="113.98339579638672" /><trkpt lat="22.39475978125" lon="113.98314879638671" /><trkpt lat="22.39495878125" lon="113.98301279638672" /><trkpt lat="22.39503878125" lon="113.98294179638673" /><trkpt lat="22.39503678125" lon="113.98284279638672" /><trkpt lat="22.39504678125" lon="113.98281079638672" /><trkpt lat="22.39506478125" lon="113.98278379638671" /><trkpt lat="22.39506478125" lon="113.98274479638673" /><trkpt lat="22.39504178125" lon="113.98268379638672" /><trkpt lat="22.39505478125" lon="113.98259379638672" /><trkpt lat="22.39505078125" lon="113.98255979638672" /><trkpt lat="22.39504678125" lon="113.98255279638671" /><trkpt lat="22.39502478125" lon="113.98252179638672" /><trkpt lat="22.39495278125" lon="113.98246579638672" /><trkpt lat="22.39493178125" lon="113.98242679638672" /><trkpt lat="22.39490578125" lon="113.98240579638671" /><trkpt lat="22.39485578125" lon="113.98240279638672" /><trkpt lat="22.39470078125" lon="113.98242179638672" /><trkpt lat="22.39461178125" lon="113.98242379638671" /><trkpt lat="22.39455678125" lon="113.98243479638671" /><trkpt lat="22.39449878125" lon="113.98247179638672" /><trkpt lat="22.39446878125" lon="113.98252079638672" /><trkpt lat="22.39444278125" lon="113.98243479638671" /><trkpt lat="22.39438978125" lon="113.98233779638672" /><trkpt lat="22.39436678125" lon="113.98231779638672" /><trkpt lat="22.39435878125" lon="113.98229579638672" /><trkpt lat="22.39437078125" lon="113.98225279638672" /><trkpt lat="22.39436978125" lon="113.98215579638672" /><trkpt lat="22.39434578125" lon="113.98211579638672" /><trkpt lat="22.39426178125" lon="113.98209079638671" /><trkpt lat="22.39420078125" lon="113.98196179638671" /><trkpt lat="22.39419678125" lon="113.98191379638672" /><trkpt lat="22.39417578125" lon="113.98184079638672" /><trkpt lat="22.39415378125" lon="113.98177979638672" /><trkpt lat="22.39409078125" lon="113.98173679638671" /><trkpt lat="22.39407278125" lon="113.98170179638672" /><trkpt lat="22.39403878125" lon="113.98169479638672" /><trkpt lat="22.39402878125" lon="113.98167779638672" /><trkpt lat="22.39402478125" lon="113.98164679638671" /><trkpt lat="22.39398878125" lon="113.98158879638672" /><trkpt lat="22.39401178125" lon="113.98157179638672" /><trkpt lat="22.39407078125" lon="113.98152779638671" /><trkpt lat="22.39412878125" lon="113.98151079638671" /><trkpt lat="22.39415678125" lon="113.98150379638672" /><trkpt lat="22.39419678125" lon="113.98140679638672" /><trkpt lat="22.39420978125" lon="113.98129879638672" /><trkpt lat="22.39420178125" lon="113.98117279638672" /><trkpt lat="22.39418078125" lon="113.98112179638672" /><trkpt lat="22.39419378125" lon="113.98102079638672" /><trkpt lat="22.39422278125" lon="113.98095679638672" /><trkpt lat="22.39440578125" lon="113.98069679638672" /><trkpt lat="22.39441878125" lon="113.98060079638672" /><trkpt lat="22.39461378125" lon="113.98059779638672" /><trkpt lat="22.39474078125" lon="113.98039179638671" /><trkpt lat="22.39473178125" lon="113.98020779638672" /><trkpt lat="22.39492978125" lon="113.98006379638672" /><trkpt lat="22.39503578125" lon="113.97986879638673" /><trkpt lat="22.39510778125" lon="113.97967079638671" /><trkpt lat="22.39515778125" lon="113.97946279638671" /><trkpt lat="22.39539878125" lon="113.97922879638672" /><trkpt lat="22.39536278125" lon="113.97898179638672" /><trkpt lat="22.39532678125" lon="113.97873679638671" /><trkpt lat="22.39529978125" lon="113.97846079638671" /><trkpt lat="22.39519078125" lon="113.97832679638672" /><trkpt lat="22.39513678125" lon="113.97817079638672" /><trkpt lat="22.39512978125" lon="113.97805579638671" /><trkpt lat="22.39512578125" lon="113.97789179638671" /></trkseg></trk></gpx>