<?xml version='1.0' encoding='UTF-8' ?><gpx version="1.1" creator="HikingTrailHK" xsi:schemaLocation="http://www.topografix.com/GPX/1/1 http://www.topografix.com/GPX/1/1/gpx.xsd" xmlns="http://www.topografix.com/GPX/1/1" xmlns:xsi="http://www.w3.org/2001/XMLSchema-instance"><metadata><name>屯門至黃金海岸 @ 2016-7-30</name><desc></desc></metadata><trk><trkseg><trkpt lat="22.394109807599005" lon="113.97365861242201" /><trkpt lat="22.39410078125" lon="113.97372179638671" /><trkpt lat="22.39409578125" lon="113.97379679638672" /><trkpt lat="22.39409678125" lon="113.97389279638672" /><trkpt lat="22.39410678125" lon="113.97403279638672" /><trkpt lat="22.39416078125" lon="113.97425179638672" /><trkpt lat="22.39425378125" lon="113.97457779638673" /><trkpt lat="22.39428778125" lon="113.97470779638672" /><trkpt lat="22.39431578125" lon="113.97480979638672" /><trkpt lat="22.39436078125" lon="113.97497579638672" /><trkpt lat="22.39449478125" lon="113.97542279638672" /><trkpt lat="22.39469578125" lon="113.97605179638671" /><trkpt lat="22.39477578125" lon="113.97632579638672" /><trkpt lat="22.39470678125" lon="113.97641279638673" /><trkpt lat="22.39483878125" lon="113.97679679638672" /><trkpt lat="22.39506578125" lon="113.97753479638672" /><trkpt lat="22.39509278125" lon="113.97765279638672" /><trkpt lat="22.39511078125" lon="113.97774079638671" /><trkpt lat="22.39512578125" lon="113.97789179638671" /><trkpt lat="22.39512978125" lon="113.97805579638671" /><trkpt lat="22.39513678125" lon="113.97817079638672" /><trkpt lat="22.39519078125" lon="113.97832679638672" /><trkpt lat="22.39529978125" lon="113.97846079638671" /><trkpt lat="22.39532678125" lon="113.97873679638671" /><trkpt lat="22.39536278125" lon="113.97898179638672" /><trkpt lat="22.39539878125" lon="113.97922879638672" /><trkpt lat="22.39515778125" lon="113.97946279638671" /><trkpt lat="22.39510778125" lon="113.97967079638671" /><trkpt lat="22.39503578125" lon="113.97986879638673" /><trkpt lat="22.39492978125" lon="113.98006379638672" /><trkpt lat="22.39473178125" lon="113.98020779638672" /><trkpt lat="22.39474078125" lon="113.98039179638671" /><trkpt lat="22.39463978125" lon="113.98057279638672" /><trkpt lat="22.39445178125" lon="113.98060879638672" /><trkpt lat="22.39422078125" lon="113.98093279638672" /><trkpt lat="22.39419178125" lon="113.98112079638672" /><trkpt lat="22.39420878125" lon="113.98121579638672" /><trkpt lat="22.39420378125" lon="113.98132679638672" /><trkpt lat="22.39416978125" lon="113.98144779638672" /><trkpt lat="22.39409878125" lon="113.98151179638671" /><trkpt lat="22.39402478125" lon="113.98160179638671" /><trkpt lat="22.39405478125" lon="113.98169279638672" /><trkpt lat="22.39417178125" lon="113.98178779638671" /><trkpt lat="22.39422378125" lon="113.98189779638672" /><trkpt lat="22.39420178125" lon="113.98197379638673" /><trkpt lat="22.39425178125" lon="113.98207579638672" /><trkpt lat="22.39435578125" lon="113.98213179638672" /><trkpt lat="22.39438678125" lon="113.98219279638671" /><trkpt lat="22.39438178125" lon="113.98231979638672" /><trkpt lat="22.39446678125" lon="113.98245879638672" /><trkpt lat="22.39448978125" lon="113.98254379638672" /><trkpt lat="22.39462578125" lon="113.98243779638672" /><trkpt lat="22.39496478125" lon="113.98244679638672" /><trkpt lat="22.39507178125" lon="113.98260679638672" /><trkpt lat="22.39506778125" lon="113.98282479638672" /><trkpt lat="22.39484778125" lon="113.98279479638671" /><trkpt lat="22.39472378125" lon="113.98275179638672" /><trkpt lat="22.39438478125" lon="113.98275479638671" /><trkpt lat="22.39422678125" lon="113.98275279638672" /><trkpt lat="22.39412278125" lon="113.98267579638672" /><trkpt lat="22.39401878125" lon="113.98261379638672" /><trkpt lat="22.39390978125" lon="113.98260979638673" /><trkpt lat="22.39384478125" lon="113.98260679638672" /><trkpt lat="22.39374578125" lon="113.98246479638672" /><trkpt lat="22.39364478125" lon="113.98242579638672" /><trkpt lat="22.39356778125" lon="113.98239479638671" /><trkpt lat="22.39350678125" lon="113.98236379638672" /><trkpt lat="22.39342678125" lon="113.98233679638672" /><trkpt lat="22.39331378125" lon="113.98231779638672" /><trkpt lat="22.39324478125" lon="113.98235579638671" /><trkpt lat="22.39315178125" lon="113.98242279638671" /><trkpt lat="22.39309578125" lon="113.98248379638672" /><trkpt lat="22.39302978125" lon="113.98256279638672" /><trkpt lat="22.39297678125" lon="113.98264479638672" /><trkpt lat="22.39291478125" lon="113.98264779638671" /><trkpt lat="22.39282178125" lon="113.98263479638672" /><trkpt lat="22.39268078125" lon="113.98261879638672" /><trkpt lat="22.39261278125" lon="113.98266079638672" /><trkpt lat="22.39250878125" lon="113.98272979638672" /><trkpt lat="22.39243278125" lon="113.98278079638672" /><trkpt lat="22.39236278125" lon="113.98282679638672" /><trkpt lat="22.39226178125" lon="113.98287279638672" /><trkpt lat="22.39216378125" lon="113.98290679638671" /><trkpt lat="22.39209078125" lon="113.98292879638672" /><trkpt lat="22.39203278125" lon="113.98299279638672" /><trkpt lat="22.39191978125" lon="113.98307679638671" /><trkpt lat="22.39183478125" lon="113.98305879638671" /><trkpt lat="22.39173678125" lon="113.98302979638672" /><trkpt lat="22.39164978125" lon="113.98301779638672" /><trkpt lat="22.39152978125" lon="113.98314379638671" /><trkpt lat="22.39144878125" lon="113.98320679638672" /><trkpt lat="22.39132978125" lon="113.98323679638672" /><trkpt lat="22.39120078125" lon="113.98319079638672" /><trkpt lat="22.39109278125" lon="113.98315279638672" /><trkpt lat="22.39097178125" lon="113.98311179638672" /><trkpt lat="22.39075378125" lon="113.98310979638671" /><trkpt lat="22.39058378125" lon="113.98310879638672" /><trkpt lat="22.39044078125" lon="113.98309679638672" /><trkpt lat="22.39031478125" lon="113.98305279638672" /><trkpt lat="22.39023078125" lon="113.98304279638671" /><trkpt lat="22.39014778125" lon="113.98308879638672" /><trkpt lat="22.39007478125" lon="113.98314479638672" /><trkpt lat="22.39002378125" lon="113.98318379638673" /><trkpt lat="22.38995178125" lon="113.98326079638672" /><trkpt lat="22.38986978125" lon="113.98333379638672" /><trkpt lat="22.38979278125" lon="113.98338879638672" /><trkpt lat="22.38972078125" lon="113.98339979638672" /><trkpt lat="22.38964578125" lon="113.98337779638672" /><trkpt lat="22.38949778125" lon="113.98321679638671" /><trkpt lat="22.38942778125" lon="113.98318179638672" /><trkpt lat="22.38933378125" lon="113.98318279638671" /><trkpt lat="22.38927578125" lon="113.98318579638672" /><trkpt lat="22.38918378125" lon="113.98318279638671" /><trkpt lat="22.38905978125" lon="113.98319979638671" /><trkpt lat="22.38897778125" lon="113.98320979638672" /><trkpt lat="22.38888778125" lon="113.98323279638672" /><trkpt lat="22.38878178125" lon="113.98326979638672" /><trkpt lat="22.38869478125" lon="113.98331479638672" /><trkpt lat="22.38857978125" lon="113.98333679638672" /><trkpt lat="22.38846978125" lon="113.98336079638672" /><trkpt lat="22.38836678125" lon="113.98339379638672" /><trkpt lat="22.38826178125" lon="113.98346379638672" /><trkpt lat="22.38818778125" lon="113.98356579638671" /><trkpt lat="22.38814778125" lon="113.98365079638671" /><trkpt lat="22.38809778125" lon="113.98374879638672" /><trkpt lat="22.38806278125" lon="113.98378079638672" /><trkpt lat="22.38798978125" lon="113.98380179638671" /><trkpt lat="22.38786378125" lon="113.98379079638671" /><trkpt lat="22.38775978125" lon="113.98380379638672" /><trkpt lat="22.38762778125" lon="113.98381079638672" /><trkpt lat="22.38745378125" lon="113.98381679638672" /><trkpt lat="22.38735178125" lon="113.98377879638672" /><trkpt lat="22.38729678125" lon="113.98374379638672" /><trkpt lat="22.38723978125" lon="113.98371779638671" /><trkpt lat="22.38714778125" lon="113.98373379638672" /><trkpt lat="22.38697678125" lon="113.98379479638672" /><trkpt lat="22.38685378125" lon="113.98375179638671" /><trkpt lat="22.38674078125" lon="113.98372379638671" /><trkpt lat="22.38662678125" lon="113.98374479638672" /><trkpt lat="22.38639678125" lon="113.98382379638672" /><trkpt lat="22.38623178125" lon="113.98387379638672" /><trkpt lat="22.38600578125" lon="113.98383679638673" /><trkpt lat="22.38585778125" lon="113.98382479638671" /><trkpt lat="22.38569178125" lon="113.98385679638672" /><trkpt lat="22.38558578125" lon="113.98389479638672" /><trkpt lat="22.38548578125" lon="113.98392779638672" /><trkpt lat="22.38536378125" lon="113.98398079638672" /><trkpt lat="22.38519078125" lon="113.98404379638671" /><trkpt lat="22.38495678125" lon="113.98412879638671" /><trkpt lat="22.38484978125" lon="113.98415179638671" /><trkpt lat="22.38478478125" lon="113.98414379638672" /><trkpt lat="22.38467178125" lon="113.98410279638672" /><trkpt lat="22.38459078125" lon="113.98403579638672" /><trkpt lat="22.38443478125" lon="113.98398679638672" /><trkpt lat="22.38412778125" lon="113.98396279638672" /><trkpt lat="22.38392278125" lon="113.98393579638672" /><trkpt lat="22.38383778125" lon="113.98399279638672" /><trkpt lat="22.38370778125" lon="113.98410979638672" /><trkpt lat="22.38348678125" lon="113.98409779638672" /><trkpt lat="22.38331578125" lon="113.98408179638672" /><trkpt lat="22.38325978125" lon="113.98403879638671" /><trkpt lat="22.38317278125" lon="113.98397579638672" /><trkpt lat="22.38300778125" lon="113.98396979638672" /><trkpt lat="22.38280578125" lon="113.98398179638671" /><trkpt lat="22.38272178125" lon="113.98397579638672" /><trkpt lat="22.38251578125" lon="113.98388879638672" /><trkpt lat="22.38247578125" lon="113.98387079638673" /><trkpt lat="22.38238478125" lon="113.98382879638672" /><trkpt lat="22.38232378125" lon="113.98376279638671" /><trkpt lat="22.38226578125" lon="113.98365579638671" /><trkpt lat="22.38224478125" lon="113.98357579638672" /><trkpt lat="22.38219178125" lon="113.98334479638672" /><trkpt lat="22.38205978125" lon="113.98326679638672" /><trkpt lat="22.38192078125" lon="113.98322679638672" /><trkpt lat="22.38180078125" lon="113.98328579638672" /><trkpt lat="22.38171978125" lon="113.98333779638672" /><trkpt lat="22.38157478125" lon="113.98345079638672" /><trkpt lat="22.38145878125" lon="113.98352979638672" /><trkpt lat="22.38139978125" lon="113.98361779638672" /><trkpt lat="22.38139778125" lon="113.98409179638672" /><trkpt lat="22.38131478125" lon="113.98423879638672" /><trkpt lat="22.38121378125" lon="113.98434079638672" /><trkpt lat="22.38107378125" lon="113.98444079638672" /><trkpt lat="22.38094178125" lon="113.98468579638671" /><trkpt lat="22.38079278125" lon="113.98477479638672" /><trkpt lat="22.38073078125" lon="113.98478079638672" /><trkpt lat="22.38048178125" lon="113.98457679638672" /><trkpt lat="22.38027478125" lon="113.98455979638672" /><trkpt lat="22.38013978125" lon="113.98470079638672" /><trkpt lat="22.38001278125" lon="113.98492479638672" /><trkpt lat="22.37995478125" lon="113.98506679638672" /><trkpt lat="22.37990478125" lon="113.98526979638672" /><trkpt lat="22.37980578125" lon="113.98546079638672" /><trkpt lat="22.37967178125" lon="113.98560279638671" /><trkpt lat="22.37963378125" lon="113.98567279638672" /><trkpt lat="22.37961078125" lon="113.98574379638671" /><trkpt lat="22.37963978125" lon="113.98592579638672" /><trkpt lat="22.37961478125" lon="113.98603279638672" /><trkpt lat="22.37955978125" lon="113.98615379638672" /><trkpt lat="22.37947278125" lon="113.98634779638672" /><trkpt lat="22.37940378125" lon="113.98654379638671" /><trkpt lat="22.37933578125" lon="113.98663579638672" /><trkpt lat="22.37927678125" lon="113.98676879638671" /><trkpt lat="22.37920078125" lon="113.98691279638672" /><trkpt lat="22.37924078125" lon="113.98715079638671" /><trkpt lat="22.37929078125" lon="113.98735279638672" /><trkpt lat="22.37931778125" lon="113.98745179638672" /><trkpt lat="22.37927678125" lon="113.98764879638672" /><trkpt lat="22.37912578125" lon="113.98783279638671" /><trkpt lat="22.37898878125" lon="113.98794779638672" /><trkpt lat="22.37889478125" lon="113.98802679638672" /><trkpt lat="22.37887978125" lon="113.98812479638671" /><trkpt lat="22.37899078125" lon="113.98834479638671" /><trkpt lat="22.37909078125" lon="113.98851079638672" /><trkpt lat="22.37911978125" lon="113.98858179638673" /><trkpt lat="22.37912178125" lon="113.98862579638671" /><trkpt lat="22.37910178125" lon="113.98877679638672" /><trkpt lat="22.37908778125" lon="113.98887479638672" /><trkpt lat="22.37906478125" lon="113.98895879638673" /><trkpt lat="22.37900978125" lon="113.98907079638671" /><trkpt lat="22.37892478125" lon="113.98909279638671" /><trkpt lat="22.37869578125" lon="113.98912879638672" /><trkpt lat="22.37847878125" lon="113.98923479638673" /><trkpt lat="22.37842978125" lon="113.98929279638672" /><trkpt lat="22.37841778125" lon="113.98935879638672" /><trkpt lat="22.37843678125" lon="113.98961779638672" /><trkpt lat="22.37842778125" lon="113.98970679638671" /><trkpt lat="22.37840778125" lon="113.98978679638672" /><trkpt lat="22.37828578125" lon="113.99000479638671" /><trkpt lat="22.37828778125" lon="113.99006879638672" /><trkpt lat="22.37830778125" lon="113.99010779638672" /><trkpt lat="22.37835378125" lon="113.99019379638672" /><trkpt lat="22.37843878125" lon="113.99036279638672" /><trkpt lat="22.37848678125" lon="113.99047179638671" /><trkpt lat="22.37851878125" lon="113.99056579638672" /><trkpt lat="22.37864778125" lon="113.99090479638672" /><trkpt lat="22.37870078125" lon="113.99095079638671" /><trkpt lat="22.37880778125" lon="113.99099479638672" /><trkpt lat="22.37888478125" lon="113.99107479638671" /><trkpt lat="22.37892478125" lon="113.99112779638672" /><trkpt lat="22.37892478125" lon="113.99119079638672" /><trkpt lat="22.37890778125" lon="113.99125179638672" /><trkpt lat="22.37885078125" lon="113.99131879638672" /><trkpt lat="22.37879878125" lon="113.99138479638673" /><trkpt lat="22.37879578125" lon="113.99144179638672" /><trkpt lat="22.37886378125" lon="113.99170779638672" /><trkpt lat="22.37884378125" lon="113.99184579638671" /><trkpt lat="22.37879578125" lon="113.99209279638671" /><trkpt lat="22.37870578125" lon="113.99219879638672" /><trkpt lat="22.37862678125" lon="113.99226279638673" /><trkpt lat="22.37845378125" lon="113.99241479638673" /><trkpt lat="22.37838178125" lon="113.99244979638672" /><trkpt lat="22.37832578125" lon="113.99247979638672" /><trkpt lat="22.37828778125" lon="113.99249379638673" /><trkpt lat="22.37825478125" lon="113.99252179638673" /><trkpt lat="22.37821778125" lon="113.99259079638672" /><trkpt lat="22.37820278125" lon="113.99266979638672" /><trkpt lat="22.37822378125" lon="113.99274479638672" /><trkpt lat="22.37833378125" lon="113.99297179638671" /><trkpt lat="22.37837478125" lon="113.99315779638673" /><trkpt lat="22.37841178125" lon="113.99334079638672" /><trkpt lat="22.37843078125" lon="113.99346679638671" /><trkpt lat="22.37843278125" lon="113.99353279638672" /><trkpt lat="22.37838178125" lon="113.99361979638672" /><trkpt lat="22.37832778125" lon="113.99369779638671" /><trkpt lat="22.37827678125" lon="113.99374679638672" /><trkpt lat="22.37824878125" lon="113.99378279638672" /><trkpt lat="22.37822878125" lon="113.99383679638672" /><trkpt lat="22.37821978125" lon="113.99404379638672" /><trkpt lat="22.37822078125" lon="113.99418679638671" /><trkpt lat="22.37822078125" lon="113.99432479638672" /><trkpt lat="22.37823578125" lon="113.99445679638671" /><trkpt lat="22.37822978125" lon="113.99456979638671" /><trkpt lat="22.37817878125" lon="113.99484679638672" /><trkpt lat="22.37817378125" lon="113.99502279638672" /><trkpt lat="22.37818378125" lon="113.99541779638672" /><trkpt lat="22.37818578125" lon="113.99552279638672" /><trkpt lat="22.37820978125" lon="113.99558979638672" /><trkpt lat="22.37824778125" lon="113.99564979638672" /><trkpt lat="22.37831878125" lon="113.99574379638672" /><trkpt lat="22.37833878125" lon="113.99584579638672" /><trkpt lat="22.37830978125" lon="113.99597179638671" /><trkpt lat="22.37832878125" lon="113.99605779638672" /><trkpt lat="22.37839678125" lon="113.99621379638671" /><trkpt lat="22.37845878125" lon="113.99632379638672" /><trkpt lat="22.37857678125" lon="113.99645879638672" /><trkpt lat="22.37859878125" lon="113.99650879638672" /><trkpt lat="22.37860478125" lon="113.99655779638672" /><trkpt lat="22.37858978125" lon="113.99657479638672" /><trkpt lat="22.37856578125" lon="113.99658179638672" /><trkpt lat="22.37849278125" lon="113.99651779638671" /><trkpt lat="22.37832178125" lon="113.99641979638672" /><trkpt lat="22.37797078125" lon="113.99625379638672" /><trkpt lat="22.37793578125" lon="113.99624079638672" /><trkpt lat="22.37791478125" lon="113.99624279638672" /><trkpt lat="22.37790278125" lon="113.99625579638672" /><trkpt lat="22.37789878125" lon="113.99628979638672" /><trkpt lat="22.37789978125" lon="113.99649579638672" /><trkpt lat="22.37789078125" lon="113.99652179638672" /><trkpt lat="22.37784878125" lon="113.99654979638672" /><trkpt lat="22.37780978125" lon="113.99654879638672" /><trkpt lat="22.37751378125" lon="113.99651679638671" /><trkpt lat="22.37740278125" lon="113.99648079638672" /><trkpt lat="22.37727578125" lon="113.99647279638671" /><trkpt lat="22.37714978125" lon="113.99647879638673" /><trkpt lat="22.37707478125" lon="113.99648479638672" /><trkpt lat="22.37698678125" lon="113.99650979638672" /><trkpt lat="22.37694678125" lon="113.99651479638672" /><trkpt lat="22.37690978125" lon="113.99651679638671" /><trkpt lat="22.37661478125" lon="113.99646079638671" /><trkpt lat="22.37634878125" lon="113.99643879638671" /><trkpt lat="22.37624778125" lon="113.99641379638672" /><trkpt lat="22.37610978125" lon="113.99634779638671" /><trkpt lat="22.37591378125" lon="113.99623679638673" /><trkpt lat="22.37580678125" lon="113.99618579638671" /><trkpt lat="22.37571078125" lon="113.99618379638672" /><trkpt lat="22.37563078125" lon="113.99620079638672" /><trkpt lat="22.37542778125" lon="113.99638579638672" /><trkpt lat="22.37530078125" lon="113.99655479638672" /><trkpt lat="22.37516078125" lon="113.99675779638672" /><trkpt lat="22.37512778125" lon="113.99684779638672" /><trkpt lat="22.37512978125" lon="113.99693779638672" /><trkpt lat="22.37516378125" lon="113.99704179638672" /><trkpt lat="22.37520478125" lon="113.99717079638671" /><trkpt lat="22.37524878125" lon="113.99726879638672" /><trkpt lat="22.37525078125" lon="113.99730879638672" /><trkpt lat="22.37523078125" lon="113.99735379638672" /><trkpt lat="22.37516478125" lon="113.99738579638672" /><trkpt lat="22.37502578125" lon="113.99713379638672" /><trkpt lat="22.37494178125" lon="113.99699979638672" /><trkpt lat="22.37466778125" lon="113.99665179638671" /><trkpt lat="22.37442678125" lon="113.99636879638672" /><trkpt lat="22.37429978125" lon="113.99627979638672" /><trkpt lat="22.37413678125" lon="113.99621779638672" /><trkpt lat="22.37402878125" lon="113.99618979638672" /><trkpt lat="22.37390478125" lon="113.99617879638672" /><trkpt lat="22.37379178125" lon="113.99617979638671" /><trkpt lat="22.37360578125" lon="113.99620079638672" /><trkpt lat="22.37343178125" lon="113.99627079638672" /><trkpt lat="22.37319178125" lon="113.99633279638672" /><trkpt lat="22.37288978125" lon="113.99638079638672" /><trkpt lat="22.37278278125" lon="113.99637979638672" /><trkpt lat="22.37262478125" lon="113.99635779638672" /><trkpt lat="22.37237978125" lon="113.99625679638672" /><trkpt lat="22.37209978125" lon="113.99601879638672" /><trkpt lat="22.37163478125" lon="113.99559479638671" /><trkpt lat="22.37152378125" lon="113.99542479638671" /><trkpt lat="22.37145778125" lon="113.99532479638673" /><trkpt lat="22.37140778125" lon="113.99521979638672" /><trkpt lat="22.37129778125" lon="113.99490079638672" /><trkpt lat="22.37125178125" lon="113.99476379638672" /><trkpt lat="22.37119278125" lon="113.99465979638671" /><trkpt lat="22.37107178125" lon="113.99443979638671" /><trkpt lat="22.37097178125" lon="113.99426679638673" /><trkpt lat="22.37092278125" lon="113.99419179638672" /><trkpt lat="22.37107178125" lon="113.99408179638672" /><trkpt lat="22.37134178125" lon="113.99389279638672" /><trkpt lat="22.37175078125" lon="113.99360579638672" /><trkpt lat="22.37165178125" lon="113.99345279638672" /><trkpt lat="22.37166078125" lon="113.99344379638671" /><trkpt lat="22.37167778125" lon="113.99340979638671" /><trkpt lat="22.37168078125" lon="113.99337179638673" /><trkpt lat="22.37167078125" lon="113.99333479638672" /><trkpt lat="22.37164878125" lon="113.99330479638672" /><trkpt lat="22.37161778125" lon="113.99328579638671" /><trkpt lat="22.37163078125" lon="113.99323879638672" /><trkpt lat="22.37166178125" lon="113.99320879638672" /><trkpt lat="22.37187578125" lon="113.99304279638672" /><trkpt lat="22.37210078125" lon="113.99288179638671" /><trkpt lat="22.37258678125" lon="113.99253379638672" /><trkpt lat="22.37258478125" lon="113.99247179638672" /><trkpt lat="22.37253978125" lon="113.99241079638672" /><trkpt lat="22.37266678125" lon="113.99230179638671" /><trkpt lat="22.37249678125" lon="113.99199779638671" /><trkpt lat="22.37274978125" lon="113.99180979638672" /><trkpt lat="22.37234878125" lon="113.99121179638672" /><trkpt lat="22.37245478125" lon="113.99112579638673" /><trkpt lat="22.37239678125" lon="113.99100279638672" /><trkpt lat="22.37246678125" lon="113.99094979638672" /><trkpt lat="22.37241078125" lon="113.99085979638672" /><trkpt lat="22.37240078125" lon="113.99065479638672" /><trkpt lat="22.37244478125" lon="113.99031879638672" /><trkpt lat="22.37249378125" lon="113.99017579638672" /><trkpt lat="22.37248178125" lon="113.99007579638672" /><trkpt lat="22.37244978125" lon="113.98965979638672" /><trkpt lat="22.37242378125" lon="113.98952579638672" /><trkpt lat="22.37236878125" lon="113.98924479638671" /><trkpt lat="22.37229678125" lon="113.98897779638672" /><trkpt lat="22.37225878125" lon="113.98874679638672" /><trkpt lat="22.37227078125" lon="113.98866379638672" /><trkpt lat="22.37232078125" lon="113.98859179638671" /><trkpt lat="22.37237078125" lon="113.98855079638672" /><trkpt lat="22.37242478125" lon="113.98852179638672" /><trkpt lat="22.37255678125" lon="113.98852179638672" /><trkpt lat="22.37263178125" lon="113.98852479638671" /><trkpt lat="22.37341278125" lon="113.98855179638672" /><trkpt lat="22.37353978125" lon="113.98855879638671" /><trkpt lat="22.37390978125" lon="113.98858079638671" /><trkpt lat="22.37386678125" lon="113.98943179638673" /><trkpt lat="22.37383878125" lon="113.98978379638672" /><trkpt lat="22.37379278125" lon="113.99018279638672" /><trkpt lat="22.37380778125" lon="113.99027779638672" /><trkpt lat="22.37375948773139" lon="113.99074299119263" /></trkseg></trk></gpx>