<?xml version='1.0' encoding='UTF-8' ?><gpx version="1.1" creator="HikingTrailHK" xsi:schemaLocation="http://www.topografix.com/GPX/1/1 http://www.topografix.com/GPX/1/1/gpx.xsd" xmlns="http://www.topografix.com/GPX/1/1" xmlns:xsi="http://www.w3.org/2001/XMLSchema-instance"><metadata><name>山頂 @ 2016-7-1</name><desc></desc></metadata><trk><trkseg><trkpt lat="22.262763733777525" lon="114.1353225989743" /><trkpt lat="22.26273078125" lon="114.13538379638672" /><trkpt lat="22.26294978125" lon="114.13546179638672" /><trkpt lat="22.26327478125" lon="114.13557779638671" /><trkpt lat="22.26358178125" lon="114.13574879638672" /><trkpt lat="22.26378778125" lon="114.13593779638671" /><trkpt lat="22.26429578125" lon="114.13626079638672" /><trkpt lat="22.26444178125" lon="114.13632179638672" /><trkpt lat="22.26467378125" lon="114.13641879638672" /><trkpt lat="22.26492678125" lon="114.13635179638672" /><trkpt lat="22.26498978125" lon="114.13636079638673" /><trkpt lat="22.26522878125" lon="114.13637479638672" /><trkpt lat="22.26533078125" lon="114.13641179638672" /><trkpt lat="22.26535478125" lon="114.13642079638672" /><trkpt lat="22.26539078125" lon="114.13647079638672" /><trkpt lat="22.26541078125" lon="114.13649779638672" /><trkpt lat="22.26544078125" lon="114.13677079638671" /><trkpt lat="22.26583678125" lon="114.13737779638672" /><trkpt lat="22.26600478125" lon="114.13776879638672" /><trkpt lat="22.26647178125" lon="114.13862279638671" /><trkpt lat="22.26649678125" lon="114.13868079638672" /><trkpt lat="22.26650978125" lon="114.13874079638671" /><trkpt lat="22.26659678125" lon="114.13930579638672" /><trkpt lat="22.26660278125" lon="114.13934479638672" /><trkpt lat="22.26660378125" lon="114.13935579638672" /><trkpt lat="22.26656978125" lon="114.13944879638672" /><trkpt lat="22.26659178125" lon="114.13955879638672" /><trkpt lat="22.26652278125" lon="114.13984779638672" /><trkpt lat="22.26647178125" lon="114.13986479638672" /><trkpt lat="22.26637578125" lon="114.13989579638672" /><trkpt lat="22.26634078125" lon="114.13990779638672" /><trkpt lat="22.26642678125" lon="114.14012579638671" /><trkpt lat="22.26649978125" lon="114.14040979638672" /><trkpt lat="22.26641178125" lon="114.14065079638672" /><trkpt lat="22.26616278125" lon="114.14095879638671" /><trkpt lat="22.26616878125" lon="114.14114379638671" /><trkpt lat="22.26616378125" lon="114.14127779638672" /><trkpt lat="22.26606478125" lon="114.14151479638672" /><trkpt lat="22.26606178125" lon="114.14195079638672" /><trkpt lat="22.26610778125" lon="114.14211279638671" /><trkpt lat="22.26631878125" lon="114.14246079638671" /><trkpt lat="22.26633078125" lon="114.14258279638672" /><trkpt lat="22.26651678125" lon="114.14268479638672" /><trkpt lat="22.26657878125" lon="114.14267179638672" /><trkpt lat="22.26660378125" lon="114.14266779638672" /><trkpt lat="22.26661878125" lon="114.14266879638672" /><trkpt lat="22.26663478125" lon="114.14267479638671" /><trkpt lat="22.26665678125" lon="114.14269679638672" /><trkpt lat="22.26666378125" lon="114.14270879638671" /><trkpt lat="22.26667178125" lon="114.14272879638672" /><trkpt lat="22.26668278125" lon="114.14277779638672" /><trkpt lat="22.26669078125" lon="114.14281879638672" /><trkpt lat="22.26673178125" lon="114.14306379638671" /><trkpt lat="22.26673778125" lon="114.14308479638672" /><trkpt lat="22.26674578125" lon="114.14310679638672" /><trkpt lat="22.26675478125" lon="114.14312779638672" /><trkpt lat="22.26677478125" lon="114.14316579638673" /><trkpt lat="22.26678278125" lon="114.14318479638672" /><trkpt lat="22.26679078125" lon="114.14320679638672" /><trkpt lat="22.26679778125" lon="114.14323579638672" /><trkpt lat="22.26680478125" lon="114.14327879638672" /><trkpt lat="22.26680978125" lon="114.14333679638672" /><trkpt lat="22.26681678125" lon="114.14355079638672" /><trkpt lat="22.26681678125" lon="114.14358179638671" /><trkpt lat="22.26681478125" lon="114.14360879638672" /><trkpt lat="22.26681078125" lon="114.14363579638672" /><trkpt lat="22.26678778125" lon="114.14375779638672" /><trkpt lat="22.26678578125" lon="114.14378179638672" /><trkpt lat="22.26678778125" lon="114.14380679638671" /><trkpt lat="22.26679278125" lon="114.14383279638672" /><trkpt lat="22.26680178125" lon="114.14385179638671" /><trkpt lat="22.26681778125" lon="114.14386479638672" /><trkpt lat="22.26683578125" lon="114.14387179638672" /><trkpt lat="22.26685478125" lon="114.14387379638671" /><trkpt lat="22.26688078125" lon="114.14387079638672" /><trkpt lat="22.26692978125" lon="114.14385779638671" /><trkpt lat="22.26696078125" lon="114.14385279638672" /><trkpt lat="22.26698478125" lon="114.14385279638672" /><trkpt lat="22.26700278125" lon="114.14385779638671" /><trkpt lat="22.26702178125" lon="114.14386679638672" /><trkpt lat="22.26704378125" lon="114.14388279638672" /><trkpt lat="22.26706078125" lon="114.14389979638672" /><trkpt lat="22.26708378125" lon="114.14393279638672" /><trkpt lat="22.26709678125" lon="114.14395779638672" /><trkpt lat="22.26710378125" lon="114.14398079638671" /><trkpt lat="22.26710678125" lon="114.14399879638673" /><trkpt lat="22.26710778125" lon="114.14401779638672" /><trkpt lat="22.26710078125" lon="114.14412079638672" /><trkpt lat="22.26710178125" lon="114.14417179638671" /><trkpt lat="22.26710378125" lon="114.14419279638672" /><trkpt lat="22.26710678125" lon="114.14421179638671" /><trkpt lat="22.26711278125" lon="114.14423279638672" /><trkpt lat="22.26712078125" lon="114.14425079638671" /><trkpt lat="22.26713278125" lon="114.14426679638672" /><trkpt lat="22.26714678125" lon="114.14427879638671" /><trkpt lat="22.26716178125" lon="114.14428579638673" /><trkpt lat="22.26717678125" lon="114.14428979638672" /><trkpt lat="22.26719278125" lon="114.14429079638671" /><trkpt lat="22.26725778125" lon="114.14428479638671" /><trkpt lat="22.26728478125" lon="114.14428479638671" /><trkpt lat="22.26730978125" lon="114.14429079638671" /><trkpt lat="22.26733178125" lon="114.14430179638671" /><trkpt lat="22.26735278125" lon="114.14432179638672" /><trkpt lat="22.26737378125" lon="114.14435079638672" /><trkpt lat="22.26739178125" lon="114.14438479638672" /><trkpt lat="22.26742078125" lon="114.14445079638672" /><trkpt lat="22.26744078125" lon="114.14448979638672" /><trkpt lat="22.26747678125" lon="114.14454779638672" /><trkpt lat="22.26755778125" lon="114.14465879638672" /><trkpt lat="22.26756878125" lon="114.14468179638672" /><trkpt lat="22.26757478125" lon="114.14470779638673" /><trkpt lat="22.26757678125" lon="114.14475879638672" /><trkpt lat="22.26756978125" lon="114.14480779638671" /><trkpt lat="22.26755878125" lon="114.14486579638672" /><trkpt lat="22.26754078125" lon="114.14492579638672" /><trkpt lat="22.26751878125" lon="114.14497879638672" /><trkpt lat="22.26749878125" lon="114.14501379638672" /><trkpt lat="22.26748078125" lon="114.14504479638671" /><trkpt lat="22.26746878125" lon="114.14505879638672" /><trkpt lat="22.26745278125" lon="114.14507479638672" /><trkpt lat="22.26744078125" lon="114.14508379638671" /><trkpt lat="22.26742678125" lon="114.14509279638672" /><trkpt lat="22.26739778125" lon="114.14510579638672" /><trkpt lat="22.26726878125" lon="114.14514979638672" /><trkpt lat="22.26725178125" lon="114.14515879638672" /><trkpt lat="22.26723378125" lon="114.14516979638672" /><trkpt lat="22.26721878125" lon="114.14518579638671" /><trkpt lat="22.26721078125" lon="114.14520279638671" /><trkpt lat="22.26720578125" lon="114.14522279638672" /><trkpt lat="22.26720378125" lon="114.14524079638672" /><trkpt lat="22.26721478125" lon="114.14532879638672" /><trkpt lat="22.26721878125" lon="114.14537479638672" /><trkpt lat="22.26721978125" lon="114.14547379638672" /><trkpt lat="22.26722178125" lon="114.14549579638671" /><trkpt lat="22.26722478125" lon="114.14551479638672" /><trkpt lat="22.26723078125" lon="114.14553079638672" /><trkpt lat="22.26723878125" lon="114.14554479638672" /><trkpt lat="22.26724778125" lon="114.14555479638672" /><trkpt lat="22.26726078125" lon="114.14556279638671" /><trkpt lat="22.26727678125" lon="114.14556879638671" /><trkpt lat="22.26729178125" lon="114.14557179638672" /><trkpt lat="22.26736978125" lon="114.14556679638672" /><trkpt lat="22.26738578125" lon="114.14556979638672" /><trkpt lat="22.26740378125" lon="114.14557779638672" /><trkpt lat="22.26741478125" lon="114.14558679638672" /><trkpt lat="22.26742478125" lon="114.14559879638672" /><trkpt lat="22.26743278125" lon="114.14561179638672" /><trkpt lat="22.26751478125" lon="114.14577579638672" /><trkpt lat="22.26752678125" lon="114.14579379638671" /><trkpt lat="22.26753778125" lon="114.14580779638672" /><trkpt lat="22.26755278125" lon="114.14581879638672" /><trkpt lat="22.26756878125" lon="114.14582579638672" /><trkpt lat="22.26758878125" lon="114.14583079638672" /><trkpt lat="22.267647781249998" lon="114.14584279638672" /><trkpt lat="22.26766778125" lon="114.14585179638672" /><trkpt lat="22.26768378125" lon="114.14586479638672" /><trkpt lat="22.26769578125" lon="114.14588179638672" /><trkpt lat="22.26770178125" lon="114.14590779638672" /><trkpt lat="22.26770378125" lon="114.14593779638672" /><trkpt lat="22.26769878125" lon="114.14600079638672" /><trkpt lat="22.26769978125" lon="114.14602379638671" /><trkpt lat="22.26770678125" lon="114.14604079638671" /><trkpt lat="22.26771578125" lon="114.14605779638671" /><trkpt lat="22.26772678125" lon="114.14607179638672" /><trkpt lat="22.26785378125" lon="114.14618779638671" /><trkpt lat="22.26786978125" lon="114.14620779638672" /><trkpt lat="22.26788278125" lon="114.14622779638673" /><trkpt lat="22.26788978125" lon="114.14624879638671" /><trkpt lat="22.26789178125" lon="114.14626879638672" /><trkpt lat="22.26788878125" lon="114.14629579638672" /><trkpt lat="22.26788078125" lon="114.14631979638672" /><trkpt lat="22.26785978125" lon="114.14636979638672" /><trkpt lat="22.26783278125" lon="114.14641979638672" /><trkpt lat="22.26780278125" lon="114.14646679638672" /><trkpt lat="22.26776978125" lon="114.14650579638672" /><trkpt lat="22.26770378125" lon="114.14655179638672" /><trkpt lat="22.26768878125" lon="114.14656379638672" /><trkpt lat="22.26767278125" lon="114.14657979638672" /><trkpt lat="22.26765578125" lon="114.14660179638672" /><trkpt lat="22.26763278125" lon="114.14664279638671" /><trkpt lat="22.26761478125" lon="114.14666579638671" /><trkpt lat="22.26758278125" lon="114.14669379638671" /><trkpt lat="22.26745478125" lon="114.14673879638671" /><trkpt lat="22.26742978125" lon="114.14674979638671" /><trkpt lat="22.26741578125" lon="114.14675879638672" /><trkpt lat="22.26740078125" lon="114.14676979638672" /><trkpt lat="22.26739278125" lon="114.14677879638671" /><trkpt lat="22.26738578125" lon="114.14678979638671" /><trkpt lat="22.26738278125" lon="114.14680479638672" /><trkpt lat="22.26738478125" lon="114.14682179638672" /><trkpt lat="22.26738878125" lon="114.14683779638672" /><trkpt lat="22.26739678125" lon="114.14685379638672" /><trkpt lat="22.26742478125" lon="114.14689079638671" /><trkpt lat="22.26745678125" lon="114.14693879638672" /><trkpt lat="22.26747178125" lon="114.14696779638672" /><trkpt lat="22.26755478125" lon="114.14714579638672" /><trkpt lat="22.26756378125" lon="114.14716979638672" /><trkpt lat="22.26758178125" lon="114.14723179638672" /><trkpt lat="22.26759078125" lon="114.14725279638672" /><trkpt lat="22.26760078125" lon="114.14726979638672" /><trkpt lat="22.26761078125" lon="114.14728579638673" /><trkpt lat="22.26762078125" lon="114.14729879638672" /><trkpt lat="22.26770678125" lon="114.14739179638671" /><trkpt lat="22.26772178125" lon="114.14741279638672" /><trkpt lat="22.26777678125" lon="114.14751979638672" /><trkpt lat="22.26782078125" lon="114.14761579638672" /><trkpt lat="22.26782578125" lon="114.14763079638672" /><trkpt lat="22.26782978125" lon="114.14764379638672" /><trkpt lat="22.26783278125" lon="114.14766579638672" /><trkpt lat="22.26783478125" lon="114.14768779638672" /><trkpt lat="22.26783978125" lon="114.14782679638672" /><trkpt lat="22.26784578125" lon="114.14792879638672" /><trkpt lat="22.267844781249998" lon="114.14795279638672" /><trkpt lat="22.26784278125" lon="114.14796979638672" /><trkpt lat="22.26783978125" lon="114.14798579638672" /><trkpt lat="22.26783378125" lon="114.14800279638672" /><trkpt lat="22.26782578125" lon="114.14801979638672" /><trkpt lat="22.26781478125" lon="114.14803779638672" /><trkpt lat="22.26780378125" lon="114.14805379638672" /><trkpt lat="22.26779178125" lon="114.14806779638671" /><trkpt lat="22.26774178125" lon="114.14811679638672" /><trkpt lat="22.26772578125" lon="114.14812879638671" /><trkpt lat="22.26767578125" lon="114.14816479638672" /><trkpt lat="22.26762778125" lon="114.14820479638672" /><trkpt lat="22.26759978125" lon="114.14823179638672" /><trkpt lat="22.26757878125" lon="114.14825679638672" /><trkpt lat="22.26752878125" lon="114.14832579638671" /><trkpt lat="22.26751078125" lon="114.14835879638672" /><trkpt lat="22.26750278125" lon="114.14837779638673" /><trkpt lat="22.26749778125" lon="114.14839679638672" /><trkpt lat="22.26749578125" lon="114.14841479638672" /><trkpt lat="22.26749578125" lon="114.14848779638672" /><trkpt lat="22.26749378125" lon="114.14850779638672" /><trkpt lat="22.26749078125" lon="114.14852279638671" /><trkpt lat="22.26748578125" lon="114.14853779638672" /><trkpt lat="22.26738778125" lon="114.14873379638672" /><trkpt lat="22.26737178125" lon="114.14876179638672" /><trkpt lat="22.26735478125" lon="114.14878079638672" /><trkpt lat="22.26731878125" lon="114.14881479638672" /><trkpt lat="22.26730478125" lon="114.14882979638672" /><trkpt lat="22.26729478125" lon="114.14884579638672" /><trkpt lat="22.26728378125" lon="114.14886379638672" /><trkpt lat="22.26727678125" lon="114.14888179638672" /><trkpt lat="22.26727178125" lon="114.14889679638672" /><trkpt lat="22.26726878125" lon="114.14891279638672" /><trkpt lat="22.26726778125" lon="114.14892679638672" /><trkpt lat="22.26726678125" lon="114.14894179638672" /><trkpt lat="22.26726778125" lon="114.14895879638672" /><trkpt lat="22.26726978125" lon="114.14897679638672" /><trkpt lat="22.26727678125" lon="114.14900579638672" /><trkpt lat="22.26732678125" lon="114.14917079638671" /><trkpt lat="22.26735978125" lon="114.14930379638672" /><trkpt lat="22.26737478125" lon="114.14934879638672" /><trkpt lat="22.26738678125" lon="114.14937779638672" /><trkpt lat="22.26739478125" lon="114.14939379638672" /><trkpt lat="22.26740278125" lon="114.14940679638671" /><trkpt lat="22.26741478125" lon="114.14942279638672" /><trkpt lat="22.26742278125" lon="114.14944079638671" /><trkpt lat="22.26742778125" lon="114.14945879638672" /><trkpt lat="22.26743078125" lon="114.14948179638672" /><trkpt lat="22.26743278125" lon="114.14950579638672" /><trkpt lat="22.26743478125" lon="114.14964079638672" /><trkpt lat="22.26743578125" lon="114.14965879638672" /><trkpt lat="22.26743778125" lon="114.14967579638672" /><trkpt lat="22.26744178125" lon="114.14969079638672" /><trkpt lat="22.26744678125" lon="114.14970279638672" /><trkpt lat="22.26745478125" lon="114.14971779638672" /><trkpt lat="22.26746478125" lon="114.14973279638671" /><trkpt lat="22.26747478125" lon="114.14974579638672" /><trkpt lat="22.26748278125" lon="114.14975479638672" /><trkpt lat="22.26750578125" lon="114.14977479638672" /><trkpt lat="22.26752078125" lon="114.14978479638673" /><trkpt lat="22.26753578125" lon="114.14979079638672" /><trkpt lat="22.26755078125" lon="114.14979479638671" /><trkpt lat="22.26756678125" lon="114.14979579638671" /><trkpt lat="22.26758178125" lon="114.14979479638671" /><trkpt lat="22.26762878125" lon="114.14978679638672" /><trkpt lat="22.26764478125" lon="114.14978479638673" /><trkpt lat="22.26765878125" lon="114.14978579638672" /><trkpt lat="22.26767678125" lon="114.14979079638672" /><trkpt lat="22.26769578125" lon="114.14980079638671" /><trkpt lat="22.26771178125" lon="114.14981679638672" /><trkpt lat="22.26772878125" lon="114.14983879638672" /><trkpt lat="22.26774278125" lon="114.14986279638671" /><trkpt lat="22.26775578125" lon="114.14989279638672" /><trkpt lat="22.26776078125" lon="114.14990879638673" /><trkpt lat="22.26776478125" lon="114.14992479638671" /><trkpt lat="22.26777878125" lon="114.14999579638672" /><trkpt lat="22.26778478125" lon="114.15005079638672" /><trkpt lat="22.26779678125" lon="114.15010479638671" /><trkpt lat="22.26780778125" lon="114.15013479638672" /><trkpt lat="22.26781778125" lon="114.15015479638672" /><trkpt lat="22.26782878125" lon="114.15017079638672" /><trkpt lat="22.26784078125" lon="114.15018279638672" /><trkpt lat="22.26785378125" lon="114.15019279638672" /><trkpt lat="22.26786578125" lon="114.15019979638672" /><trkpt lat="22.26787878125" lon="114.15020379638672" /><trkpt lat="22.26789078125" lon="114.15020679638671" /><trkpt lat="22.26791478125" lon="114.15020879638672" /><trkpt lat="22.26793578125" lon="114.15020879638672" /><trkpt lat="22.26795878125" lon="114.15020479638672" /><trkpt lat="22.26801678125" lon="114.15019179638672" /><trkpt lat="22.26803278125" lon="114.15018979638671" /><trkpt lat="22.26804878125" lon="114.15018979638671" /><trkpt lat="22.26806278125" lon="114.15019179638672" /><trkpt lat="22.26807578125" lon="114.15019679638672" /><trkpt lat="22.26809378125" lon="114.15020679638671" /><trkpt lat="22.26811078125" lon="114.15022079638672" /><trkpt lat="22.26812678125" lon="114.15023679638672" /><trkpt lat="22.26814178125" lon="114.15025579638672" /><trkpt lat="22.26815578125" lon="114.15027679638672" /><trkpt lat="22.26816878125" lon="114.15029679638671" /><trkpt lat="22.26819878125" lon="114.15035279638671" /><trkpt lat="22.26821078125" lon="114.15037179638672" /><trkpt lat="22.26822378125" lon="114.15039079638672" /><trkpt lat="22.26823678125" lon="114.15040579638672" /><trkpt lat="22.26825578125" lon="114.15042279638672" /><trkpt lat="22.26834178125" lon="114.15048379638672" /><trkpt lat="22.26836578125" lon="114.15049879638671" /><trkpt lat="22.26840878125" lon="114.15052079638672" /><trkpt lat="22.26843478125" lon="114.15053179638672" /><trkpt lat="22.26845978125" lon="114.15054079638672" /><trkpt lat="22.26848978125" lon="114.15054879638672" /><trkpt lat="22.26867378125" lon="114.15056879638672" /><trkpt lat="22.26871978125" lon="114.15056879638672" /><trkpt lat="22.26874478125" lon="114.15056679638671" /><trkpt lat="22.26876778125" lon="114.15056379638672" /><trkpt lat="22.26878778125" lon="114.15055879638672" /><trkpt lat="22.26881178125" lon="114.15054879638672" /><trkpt lat="22.26883178125" lon="114.15053879638671" /><trkpt lat="22.26885078125" lon="114.15052479638672" /><trkpt lat="22.26887978125" lon="114.15050079638672" /><trkpt lat="22.26892378125" lon="114.15045679638672" /><trkpt lat="22.26894778125" lon="114.15042979638672" /><trkpt lat="22.26897078125" lon="114.15039779638671" /><trkpt lat="22.26898478125" lon="114.15037579638673" /><trkpt lat="22.26899878125" lon="114.15034979638672" /><trkpt lat="22.26901778125" lon="114.15031179638672" /><trkpt lat="22.26902478125" lon="114.15029079638671" /><trkpt lat="22.26903078125" lon="114.15026979638672" /><trkpt lat="22.26904278125" lon="114.15020579638671" /><trkpt lat="22.26904878125" lon="114.15018579638672" /><trkpt lat="22.26905678125" lon="114.15016479638672" /><trkpt lat="22.26906378125" lon="114.15014779638672" /><trkpt lat="22.26907478125" lon="114.15013179638672" /><trkpt lat="22.26908778125" lon="114.15011479638672" /><trkpt lat="22.26910478125" lon="114.15009779638672" /><trkpt lat="22.26912578125" lon="114.15007979638672" /><trkpt lat="22.26914578125" lon="114.15006579638671" /><trkpt lat="22.26917078125" lon="114.15005179638672" /><trkpt lat="22.26922578125" lon="114.15002579638671" /><trkpt lat="22.26924878125" lon="114.15001279638672" /><trkpt lat="22.26926678125" lon="114.14999779638671" /><trkpt lat="22.26928078125" lon="114.14998479638672" /><trkpt lat="22.26929378125" lon="114.14997079638673" /><trkpt lat="22.26930778125" lon="114.14995279638671" /><trkpt lat="22.26934278125" lon="114.14990079638672" /><trkpt lat="22.26935078125" lon="114.14988379638672" /><trkpt lat="22.26935878125" lon="114.14986379638673" /><trkpt lat="22.26936278125" lon="114.14984779638672" /><trkpt lat="22.26936478125" lon="114.14983179638672" /><trkpt lat="22.26937078125" lon="114.14975679638673" /><trkpt lat="22.26937378125" lon="114.14973979638673" /><trkpt lat="22.26938778125" lon="114.14969379638671" /><trkpt lat="22.26939478125" lon="114.14967779638671" /><trkpt lat="22.26940778125" lon="114.14965979638671" /><trkpt lat="22.26942578125" lon="114.14964379638671" /><trkpt lat="22.26944778125" lon="114.14962979638672" /><trkpt lat="22.26947078125" lon="114.14961679638672" /><trkpt lat="22.26949178125" lon="114.14960679638672" /><trkpt lat="22.26951378125" lon="114.14959879638671" /><trkpt lat="22.26953578125" lon="114.14959379638672" /><trkpt lat="22.26962878125" lon="114.14957579638671" /><trkpt lat="22.26964478125" lon="114.14957079638671" /><trkpt lat="22.26966278125" lon="114.14956179638672" /><trkpt lat="22.26968378125" lon="114.14954879638672" /><trkpt lat="22.26970178125" lon="114.14953579638671" /><trkpt lat="22.26971778125" lon="114.14952079638672" /><trkpt lat="22.26976578125" lon="114.14947079638672" /><trkpt lat="22.26979178125" lon="114.14945179638671" /><trkpt lat="22.26982178125" lon="114.14943279638672" /><trkpt lat="22.26984278125" lon="114.14942379638671" /><trkpt lat="22.26986378125" lon="114.14941779638671" /><trkpt lat="22.26988778125" lon="114.14941379638672" /><trkpt lat="22.26991278125" lon="114.14941179638672" /><trkpt lat="22.26992584589078" lon="114.14941256489489" /><trkpt lat="22.26992363121039" lon="114.14945652833013" /><trkpt lat="22.27007878125" lon="114.14940979638672" /><trkpt lat="22.27044578125" lon="114.14938479638671" /><trkpt lat="22.27051578125" lon="114.14937879638671" /><trkpt lat="22.27057678125" lon="114.14941479638672" /><trkpt lat="22.27062478125" lon="114.14946179638672" /><trkpt lat="22.27095978125" lon="114.14953479638672" /><trkpt lat="22.27108478125" lon="114.14956179638672" /><trkpt lat="22.27124978125" lon="114.14956779638672" /><trkpt lat="22.27146778125" lon="114.14946879638671" /><trkpt lat="22.27178478125" lon="114.14940179638671" /><trkpt lat="22.27213778125" lon="114.14955779638672" /><trkpt lat="22.27251478125" lon="114.14942379638671" /><trkpt lat="22.27283078125" lon="114.14904779638672" /><trkpt lat="22.27305378125" lon="114.14895379638672" /><trkpt lat="22.27386378125" lon="114.14885879638672" /><trkpt lat="22.27429978125" lon="114.14902179638672" /><trkpt lat="22.27452478125" lon="114.14902479638671" /><trkpt lat="22.27474778125" lon="114.14913479638672" /><trkpt lat="22.27493178125" lon="114.14927879638672" /><trkpt lat="22.27517278125" lon="114.14935179638672" /><trkpt lat="22.27542178125" lon="114.14939979638672" /><trkpt lat="22.27561678125" lon="114.14927579638672" /><trkpt lat="22.27584878125" lon="114.14890879638672" /><trkpt lat="22.27569078125" lon="114.14860679638672" /><trkpt lat="22.27634978125" lon="114.14808679638672" /><trkpt lat="22.27664578125" lon="114.14797579638672" /><trkpt lat="22.27691678125" lon="114.14798979638672" /><trkpt lat="22.27730078125" lon="114.14809679638672" /><trkpt lat="22.27754978125" lon="114.14785879638671" /><trkpt lat="22.27779078125" lon="114.14740579638672" /><trkpt lat="22.27779778125" lon="114.14725579638672" /><trkpt lat="22.27781078125" lon="114.14699179638671" /><trkpt lat="22.27785078125" lon="114.14691579638672" /><trkpt lat="22.27809278125" lon="114.14686979638672" /><trkpt lat="22.27818778125" lon="114.14678779638672" /><trkpt lat="22.27821178125" lon="114.14667579638672" /><trkpt lat="22.27826378125" lon="114.14662279638672" /><trkpt lat="22.27844978125" lon="114.14653579638671" /><trkpt lat="22.27850178125" lon="114.14644779638672" /><trkpt lat="22.27845278125" lon="114.14609279638672" /><trkpt lat="22.27844378125" lon="114.14567479638671" /><trkpt lat="22.278392781249998" lon="114.14544679638672" /><trkpt lat="22.27835878125" lon="114.14502579638672" /><trkpt lat="22.27818578125" lon="114.14486879638672" /><trkpt lat="22.27787278125" lon="114.14477879638672" /><trkpt lat="22.27765878125" lon="114.14452879638672" /><trkpt lat="22.27755978125" lon="114.14419679638672" /><trkpt lat="22.27751778125" lon="114.14392579638672" /><trkpt lat="22.27767578125" lon="114.14342279638672" /><trkpt lat="22.27763578125" lon="114.14311779638672" /><trkpt lat="22.27758078125" lon="114.14269679638672" /><trkpt lat="22.27694578125" lon="114.14218979638672" /><trkpt lat="22.27647878125" lon="114.14190679638672" /><trkpt lat="22.27620678125" lon="114.14194879638671" /><trkpt lat="22.27580578125" lon="114.14176679638672" /><trkpt lat="22.27538878125" lon="114.14108279638671" /><trkpt lat="22.27503878125" lon="114.13993879638672" /><trkpt lat="22.27501578125" lon="114.13986379638672" /><trkpt lat="22.27494378125" lon="114.13928879638672" /><trkpt lat="22.27488578125" lon="114.13914279638672" /><trkpt lat="22.27473778125" lon="114.13877379638672" /><trkpt lat="22.27446878125" lon="114.13860579638671" /><trkpt lat="22.27414178125" lon="114.13857679638672" /><trkpt lat="22.27364178125" lon="114.13879979638672" /><trkpt lat="22.27308278125" lon="114.13921579638672" /><trkpt lat="22.27301578125" lon="114.13926579638672" /><trkpt lat="22.27297078125" lon="114.13937379638672" /><trkpt lat="22.27288478125" lon="114.13944579638672" /><trkpt lat="22.27278878125" lon="114.13953279638672" /><trkpt lat="22.27265978125" lon="114.13968379638672" /><trkpt lat="22.27274978125" lon="114.13996579638672" /><trkpt lat="22.27281878125" lon="114.14018979638672" /><trkpt lat="22.27282478125" lon="114.14024179638672" /><trkpt lat="22.27284178125" lon="114.14039779638672" /><trkpt lat="22.27280378125" lon="114.14047579638672" /><trkpt lat="22.27272378125" lon="114.14063979638672" /><trkpt lat="22.27259378125" lon="114.14082679638672" /><trkpt lat="22.27246078125" lon="114.14100979638673" /><trkpt lat="22.27242578125" lon="114.14105779638672" /><trkpt lat="22.27235378125" lon="114.14122679638672" /><trkpt lat="22.27229378125" lon="114.14139879638672" /><trkpt lat="22.27222478125" lon="114.14157079638672" /><trkpt lat="22.27219478125" lon="114.14177479638671" /><trkpt lat="22.27213578125" lon="114.14200579638671" /><trkpt lat="22.27210178125" lon="114.14213679638672" /><trkpt lat="22.27212078125" lon="114.14233879638672" /><trkpt lat="22.27215778125" lon="114.14256279638671" /><trkpt lat="22.27206578125" lon="114.14290779638672" /><trkpt lat="22.27198978125" lon="114.14309779638671" /><trkpt lat="22.27190478125" lon="114.14333679638672" /><trkpt lat="22.27188778125" lon="114.14338479638671" /><trkpt lat="22.27178778125" lon="114.14361079638672" /><trkpt lat="22.27167378125" lon="114.14381879638673" /><trkpt lat="22.27157378125" lon="114.14405679638672" /><trkpt lat="22.27150478125" lon="114.14440379638671" /><trkpt lat="22.27151578125" lon="114.14444779638671" /><trkpt lat="22.27160678125" lon="114.14482179638672" /><trkpt lat="22.27168878125" lon="114.14503879638671" /><trkpt lat="22.27174678125" lon="114.14523979638672" /><trkpt lat="22.27175878125" lon="114.14527979638672" /><trkpt lat="22.27180878125" lon="114.14557579638672" /><trkpt lat="22.27174278125" lon="114.14583179638672" /><trkpt lat="22.27173378125" lon="114.14586779638672" /><trkpt lat="22.27159078125" lon="114.14612279638672" /><trkpt lat="22.27145678125" lon="114.14657079638671" /><trkpt lat="22.27146178125" lon="114.14660579638672" /><trkpt lat="22.27147978125" lon="114.14672079638672" /><trkpt lat="22.27169578125" lon="114.14699579638672" /><trkpt lat="22.27169378125" lon="114.14713879638671" /><trkpt lat="22.27149378125" lon="114.14730079638672" /><trkpt lat="22.27142978125" lon="114.14743879638672" /><trkpt lat="22.27127178125" lon="114.14776979638673" /><trkpt lat="22.27129678125" lon="114.14829479638672" /><trkpt lat="22.27130478125" lon="114.14846179638671" /><trkpt lat="22.27127178125" lon="114.14868879638672" /><trkpt lat="22.27126078125" lon="114.14880379638672" /><trkpt lat="22.27123578125" lon="114.14905079638672" /><trkpt lat="22.27124978125" lon="114.14956779638672" /><trkpt lat="22.27108478125" lon="114.14956179638672" /><trkpt lat="22.27095978125" lon="114.14953479638672" /><trkpt lat="22.27062478125" lon="114.14946179638672" /><trkpt lat="22.27046278125" lon="114.14945979638672" /><trkpt lat="22.27043478125" lon="114.14969079638672" /><trkpt lat="22.27007798501672" lon="114.14975254960743" /></trkseg></trk></gpx>