<?xml version='1.0' encoding='UTF-8' ?><gpx version="1.1" creator="HikingTrailHK" xsi:schemaLocation="http://www.topografix.com/GPX/1/1 http://www.topografix.com/GPX/1/1/gpx.xsd https://hikingtrailhk.appspot.com/xml/gpxextensions/v1 https://hikingtrailhk.appspot.com/xml/gpxextensions/v1/gpxextensions.xsd" xmlns="http://www.topografix.com/GPX/1/1" xmlns:h="https://hikingtrailhk.appspot.com/xml/gpxextensions/v1" xmlns:xsi="http://www.w3.org/2001/XMLSchema-instance"><metadata><name>嶼東行 @ 2017-3-20 10:15</name><desc></desc><extensions><h:categoryid>scenery_route</h:categoryid></extensions></metadata><trk><trkseg><trkpt lat="22.296958488417896" lon="114.01357751396388" /><trkpt lat="22.29691878125" lon="114.01359579638672" /><trkpt lat="22.29674678125" lon="114.01350279638672" /><trkpt lat="22.29667978125" lon="114.01335779638671" /><trkpt lat="22.29668478125" lon="114.01322679638672" /><trkpt lat="22.29669178125" lon="114.01306279638672" /><trkpt lat="22.29672678125" lon="114.01287579638672" /><trkpt lat="22.29679378125" lon="114.01263679638672" /><trkpt lat="22.29671878125" lon="114.01254779638671" /><trkpt lat="22.29662478125" lon="114.01233379638671" /><trkpt lat="22.29664678125" lon="114.01219179638672" /><trkpt lat="22.29643478125" lon="114.01218679638671" /><trkpt lat="22.29635078125" lon="114.01218579638672" /><trkpt lat="22.29616478125" lon="114.01220479638671" /><trkpt lat="22.29626978125" lon="114.01209079638672" /><trkpt lat="22.29637878125" lon="114.01201379638673" /><trkpt lat="22.29641778125" lon="114.01198379638672" /><trkpt lat="22.29654278125" lon="114.01186679638671" /><trkpt lat="22.29658278125" lon="114.01184579638672" /><trkpt lat="22.29659978125" lon="114.01172979638672" /><trkpt lat="22.29656578125" lon="114.01164579638672" /><trkpt lat="22.29652078125" lon="114.01157179638672" /><trkpt lat="22.29647278125" lon="114.01151379638672" /><trkpt lat="22.29587878125" lon="114.01167679638672" /><trkpt lat="22.29572978125" lon="114.01171479638671" /><trkpt lat="22.29568578125" lon="114.01175779638672" /><trkpt lat="22.29564078125" lon="114.01189779638672" /><trkpt lat="22.29559078125" lon="114.01201379638673" /><trkpt lat="22.29550778125" lon="114.01206379638671" /><trkpt lat="22.29523278125" lon="114.01217779638672" /><trkpt lat="22.29520478125" lon="114.01218979638672" /><trkpt lat="22.29515078125" lon="114.01211879638672" /><trkpt lat="22.29501078125" lon="114.01207979638671" /><trkpt lat="22.29496478125" lon="114.01198479638671" /><trkpt lat="22.29488778125" lon="114.01188279638671" /><trkpt lat="22.29468178125" lon="114.01177779638672" /><trkpt lat="22.29452878125" lon="114.01174979638672" /><trkpt lat="22.29441678125" lon="114.01175779638672" /><trkpt lat="22.29435678125" lon="114.01182979638672" /><trkpt lat="22.29423078125" lon="114.01184979638671" /><trkpt lat="22.29425678125" lon="114.01171179638672" /><trkpt lat="22.29420578125" lon="114.01148679638672" /><trkpt lat="22.29423078125" lon="114.01125179638672" /><trkpt lat="22.29420978125" lon="114.01107879638671" /><trkpt lat="22.29410078125" lon="114.01107479638672" /><trkpt lat="22.29411678125" lon="114.01095479638671" /><trkpt lat="22.29423778125" lon="114.01089079638672" /><trkpt lat="22.29434878125" lon="114.01087879638672" /><trkpt lat="22.29458278125" lon="114.01079879638672" /><trkpt lat="22.29466878125" lon="114.01085279638671" /><trkpt lat="22.29488278125" lon="114.01084779638671" /><trkpt lat="22.29519578125" lon="114.01105679638673" /><trkpt lat="22.29523378125" lon="114.01090479638673" /><trkpt lat="22.29528978125" lon="114.01083879638672" /><trkpt lat="22.29536778125" lon="114.01076379638671" /><trkpt lat="22.29541478125" lon="114.01062479638672" /><trkpt lat="22.29543378125" lon="114.01046379638672" /><trkpt lat="22.29544578125" lon="114.01031079638672" /><trkpt lat="22.29550578125" lon="114.01002979638672" /><trkpt lat="22.29545178125" lon="114.00966479638672" /><trkpt lat="22.29546578125" lon="114.00938279638672" /><trkpt lat="22.29558978125" lon="114.00942079638672" /><trkpt lat="22.29579678125" lon="114.00949779638673" /><trkpt lat="22.29583178125" lon="114.00937879638671" /><trkpt lat="22.29587778125" lon="114.00935179638672" /><trkpt lat="22.29600878125" lon="114.00921679638672" /><trkpt lat="22.29611778125" lon="114.00916479638671" /><trkpt lat="22.29616578125" lon="114.00915379638671" /><trkpt lat="22.29622978125" lon="114.00912379638672" /><trkpt lat="22.29628978125" lon="114.00900679638671" /><trkpt lat="22.29639978125" lon="114.00894979638672" /><trkpt lat="22.29653078125" lon="114.00884079638672" /><trkpt lat="22.29652878125" lon="114.00878279638673" /><trkpt lat="22.29651978125" lon="114.00859579638671" /><trkpt lat="22.29651578125" lon="114.00852779638672" /><trkpt lat="22.29652378125" lon="114.00842979638672" /><trkpt lat="22.29655578125" lon="114.00829979638672" /><trkpt lat="22.29657578125" lon="114.00821779638672" /><trkpt lat="22.29659978125" lon="114.00803079638672" /><trkpt lat="22.296654781249998" lon="114.00778679638672" /><trkpt lat="22.29670478125" lon="114.00764879638672" /><trkpt lat="22.29675878125" lon="114.00753879638673" /><trkpt lat="22.29680978125" lon="114.00731779638672" /><trkpt lat="22.29677278125" lon="114.00713779638671" /><trkpt lat="22.29665378125" lon="114.00687479638673" /><trkpt lat="22.29656178125" lon="114.00662679638671" /><trkpt lat="22.29663478125" lon="114.00663679638672" /><trkpt lat="22.29704878125" lon="114.00677179638672" /><trkpt lat="22.29754878125" lon="114.00663079638672" /><trkpt lat="22.29758778125" lon="114.00657379638672" /><trkpt lat="22.29777478125" lon="114.00630079638672" /><trkpt lat="22.29798578125" lon="114.00625179638672" /><trkpt lat="22.29817378125" lon="114.00614779638671" /><trkpt lat="22.29826278125" lon="114.00607879638672" /><trkpt lat="22.29853578125" lon="114.00578879638672" /><trkpt lat="22.29864978125" lon="114.00558979638672" /><trkpt lat="22.29881178125" lon="114.00542779638671" /><trkpt lat="22.29890778125" lon="114.00539179638672" /><trkpt lat="22.29914778125" lon="114.00519879638672" /><trkpt lat="22.29931178125" lon="114.00504679638672" /><trkpt lat="22.29946678125" lon="114.00491879638672" /><trkpt lat="22.29965078125" lon="114.00478979638672" /><trkpt lat="22.29985878125" lon="114.00457379638672" /><trkpt lat="22.30027178125" lon="114.00423879638672" /><trkpt lat="22.30038678125" lon="114.00405379638671" /><trkpt lat="22.30052378125" lon="114.00386479638672" /><trkpt lat="22.30068278125" lon="114.00372679638672" /><trkpt lat="22.30078078125" lon="114.00346479638672" /><trkpt lat="22.30074378125" lon="114.00331979638672" /><trkpt lat="22.30063778125" lon="114.00311279638672" /><trkpt lat="22.30053778125" lon="114.00296979638672" /><trkpt lat="22.30050878125" lon="114.00280179638672" /><trkpt lat="22.30065378125" lon="114.00235879638672" /><trkpt lat="22.30064378125" lon="114.00220779638671" /><trkpt lat="22.30059478125" lon="114.00201379638672" /><trkpt lat="22.30052178125" lon="114.00183279638672" /><trkpt lat="22.30024578125" lon="114.00186979638671" /><trkpt lat="22.30018978125" lon="114.00181379638671" /><trkpt lat="22.30002378125" lon="114.00181379638671" /><trkpt lat="22.30002978125" lon="114.00209479638671" /><trkpt lat="22.30006478125" lon="114.00221879638671" /><trkpt lat="22.30016178125" lon="114.00247079638672" /><trkpt lat="22.30018085842879" lon="114.00232748317279" /><trkpt lat="22.30008326057171" lon="114.00226680441655" /><trkpt lat="22.30006478125" lon="114.00221879638671" /><trkpt lat="22.30002978125" lon="114.00209479638671" /><trkpt lat="22.30002378125" lon="114.00181379638671" /><trkpt lat="22.29999178125" lon="114.00161679638671" /><trkpt lat="22.30001878125" lon="114.00136679638672" /><trkpt lat="22.29995878125" lon="114.00103679638671" /><trkpt lat="22.29999378125" lon="114.00085779638673" /><trkpt lat="22.29988978125" lon="114.00070879638672" /><trkpt lat="22.29971378125" lon="114.00042779638672" /><trkpt lat="22.29966478125" lon="114.00016779638672" /><trkpt lat="22.29958178125" lon="114.00002879638672" /><trkpt lat="22.29957378125" lon="113.99980579638672" /><trkpt lat="22.29949878125" lon="113.99963279638672" /><trkpt lat="22.29940178125" lon="113.99954579638671" /><trkpt lat="22.29935678125" lon="113.99946779638672" /><trkpt lat="22.29921278125" lon="113.99928979638672" /><trkpt lat="22.29910778125" lon="113.99896979638672" /><trkpt lat="22.298959907400047" lon="113.99847215193604" /><trkpt lat="22.298707088284715" lon="113.99845097925748" /><trkpt lat="22.29852416528152" lon="113.99840282898907" /><trkpt lat="22.298431067696114" lon="113.99831561790592" /><trkpt lat="22.298432437865685" lon="113.99823240410655" /><trkpt lat="22.298491768346693" lon="113.99817505208006" /><trkpt lat="22.298617231602748" lon="113.99808637367272" /><trkpt lat="22.29870062187237" lon="113.99811234071052" /><trkpt lat="22.298752635496342" lon="113.99817501459069" /><trkpt lat="22.298892807381975" lon="113.99824634019717" /><trkpt lat="22.29910778125" lon="113.99896979638672" /><trkpt lat="22.29921278125" lon="113.99928979638672" /><trkpt lat="22.29935678125" lon="113.99946779638672" /><trkpt lat="22.29960578125" lon="113.99955479638672" /><trkpt lat="22.29975778125" lon="113.99948179638672" /><trkpt lat="22.29982478125" lon="113.99948379638671" /><trkpt lat="22.30005278125" lon="113.99950679638673" /><trkpt lat="22.30017678125" lon="113.99953379638671" /><trkpt lat="22.30031578125" lon="113.99956779638671" /><trkpt lat="22.30038278125" lon="113.99958179638672" /><trkpt lat="22.30043378125" lon="113.99955679638671" /><trkpt lat="22.30063878125" lon="113.99958179638672" /><trkpt lat="22.30086178125" lon="113.99971079638672" /><trkpt lat="22.30095078125" lon="113.99983379638672" /><trkpt lat="22.30109278125" lon="113.99990679638672" /><trkpt lat="22.30125378125" lon="113.99991379638672" /><trkpt lat="22.30155178125" lon="113.99985479638671" /><trkpt lat="22.30164578125" lon="113.99987679638672" /><trkpt lat="22.30174878125" lon="114.00002879638672" /><trkpt lat="22.30177478125" lon="114.00014279638673" /><trkpt lat="22.30187078125" lon="114.00019479638672" /><trkpt lat="22.30224678125" lon="114.00042379638671" /><trkpt lat="22.30252478125" lon="114.00079379638672" /><trkpt lat="22.30267878125" lon="114.00104579638672" /><trkpt lat="22.30290678125" lon="114.00109979638673" /><trkpt lat="22.30306078125" lon="114.00121279638672" /><trkpt lat="22.30317478125" lon="114.00122279638671" /><trkpt lat="22.30328878125" lon="114.00115879638672" /><trkpt lat="22.30337778125" lon="114.00102979638672" /><trkpt lat="22.30352678125" lon="114.00085879638672" /><trkpt lat="22.30362678125" lon="114.00080979638672" /><trkpt lat="22.30374078125" lon="114.00085879638672" /><trkpt lat="22.30385978125" lon="114.00095479638672" /><trkpt lat="22.30401478125" lon="114.00104479638672" /><trkpt lat="22.30410578125" lon="114.00117379638672" /><trkpt lat="22.30426678125" lon="114.00128779638672" /><trkpt lat="22.30434578125" lon="114.00127679638672" /><trkpt lat="22.30443478125" lon="114.00131379638673" /><trkpt lat="22.30445478125" lon="114.00143279638672" /><trkpt lat="22.30441478125" lon="114.00162479638672" /><trkpt lat="22.30454578125" lon="114.00190279638672" /><trkpt lat="22.30459978125" lon="114.00207879638671" /><trkpt lat="22.30460878125" lon="114.00224779638671" /><trkpt lat="22.30458178125" lon="114.00239979638671" /><trkpt lat="22.30464078125" lon="114.00252979638672" /><trkpt lat="22.30465278125" lon="114.00264479638672" /><trkpt lat="22.30470178125" lon="114.00272579638671" /><trkpt lat="22.30482378125" lon="114.00290779638672" /><trkpt lat="22.30494878125" lon="114.00295779638672" /><trkpt lat="22.30504178125" lon="114.00305579638672" /><trkpt lat="22.30517478125" lon="114.00307879638672" /><trkpt lat="22.30528878125" lon="114.00311179638672" /><trkpt lat="22.30535378125" lon="114.00332079638672" /><trkpt lat="22.30541278125" lon="114.00339079638673" /><trkpt lat="22.30545778125" lon="114.00352479638671" /><trkpt lat="22.30547378125" lon="114.00356579638672" /><trkpt lat="22.30551478125" lon="114.00361979638672" /><trkpt lat="22.30557178125" lon="114.00369579638672" /><trkpt lat="22.30571078125" lon="114.00379279638672" /><trkpt lat="22.30574578125" lon="114.00399079638672" /><trkpt lat="22.30577978125" lon="114.00425979638672" /><trkpt lat="22.30582978125" lon="114.00437179638672" /><trkpt lat="22.30591878125" lon="114.00444179638671" /><trkpt lat="22.30615278125" lon="114.00452779638672" /><trkpt lat="22.30625678125" lon="114.00451679638672" /><trkpt lat="22.30648478125" lon="114.00475779638671" /><trkpt lat="22.30649978125" lon="114.00485979638673" /><trkpt lat="22.30659378125" lon="114.00495179638672" /><trkpt lat="22.30681278125" lon="114.00494579638672" /><trkpt lat="22.307005781249998" lon="114.00509079638672" /><trkpt lat="22.30722978125" lon="114.00519279638672" /><trkpt lat="22.30741778125" lon="114.00520879638673" /><trkpt lat="22.30757178125" lon="114.00541279638672" /><trkpt lat="22.30760178125" lon="114.00555779638673" /><trkpt lat="22.30775078125" lon="114.00588479638672" /><trkpt lat="22.30791978125" lon="114.00597079638672" /><trkpt lat="22.30799878125" lon="114.00610679638672" /><trkpt lat="22.30805078125" lon="114.00616379638672" /><trkpt lat="22.30813778125" lon="114.00619679638672" /><trkpt lat="22.30819378125" lon="114.00621679638672" /><trkpt lat="22.30835578125" lon="114.00628679638672" /><trkpt lat="22.30845478125" lon="114.00641079638672" /><trkpt lat="22.30857978125" lon="114.00651279638672" /><trkpt lat="22.30881278125" lon="114.00666279638672" /><trkpt lat="22.30896678125" lon="114.00683379638672" /><trkpt lat="22.30922978125" lon="114.00698479638672" /><trkpt lat="22.30941278125" lon="114.00697879638672" /><trkpt lat="22.30999378125" lon="114.00697379638672" /><trkpt lat="22.31013278125" lon="114.00700579638672" /><trkpt lat="22.31028178125" lon="114.00701179638672" /><trkpt lat="22.31044578125" lon="114.00710279638672" /><trkpt lat="22.31059378125" lon="114.00698979638672" /><trkpt lat="22.31064878125" lon="114.00701679638672" /><trkpt lat="22.31085278125" lon="114.00692579638672" /><trkpt lat="22.31126378125" lon="114.00678579638672" /><trkpt lat="22.31137878125" lon="114.00679679638672" /><trkpt lat="22.31147278125" lon="114.00675379638672" /><trkpt lat="22.31175578125" lon="114.00657179638672" /><trkpt lat="22.31198878125" lon="114.00656579638672" /><trkpt lat="22.31209278125" lon="114.00650179638671" /><trkpt lat="22.31222178125" lon="114.00652279638672" /><trkpt lat="22.31237578125" lon="114.00652879638672" /><trkpt lat="22.31261378125" lon="114.00644779638672" /><trkpt lat="22.31277778125" lon="114.00634579638673" /><trkpt lat="22.31290178125" lon="114.00629779638672" /><trkpt lat="22.31305078125" lon="114.00638379638671" /><trkpt lat="22.31326378125" lon="114.00649079638671" /><trkpt lat="22.31342778125" lon="114.00645379638672" /><trkpt lat="22.31363678125" lon="114.00648579638671" /><trkpt lat="22.31373078125" lon="114.00654479638672" /><trkpt lat="22.31384978125" lon="114.00664079638672" /><trkpt lat="22.31394878125" lon="114.00673779638672" /><trkpt lat="22.31412278125" lon="114.00680779638672" /><trkpt lat="22.31416278125" lon="114.00688779638672" /><trkpt lat="22.31430678125" lon="114.00700079638672" /><trkpt lat="22.31442078125" lon="114.00710279638672" /><trkpt lat="22.31452478125" lon="114.00761779638673" /><trkpt lat="22.31454478125" lon="114.00792879638672" /><trkpt lat="22.31449978125" lon="114.00812679638672" /><trkpt lat="22.31454478125" lon="114.00831479638671" /><trkpt lat="22.31457478125" lon="114.00852979638672" /><trkpt lat="22.31454478125" lon="114.00870079638672" /><trkpt lat="22.31458978125" lon="114.00886779638672" /><trkpt lat="22.31467378125" lon="114.00893679638672" /><trkpt lat="22.31478778125" lon="114.00897979638673" /><trkpt lat="22.31494678125" lon="114.00915179638672" /><trkpt lat="22.31504578125" lon="114.00935579638671" /><trkpt lat="22.31512078125" lon="114.00957579638671" /><trkpt lat="22.31519478125" lon="114.00982179638672" /><trkpt lat="22.31522978125" lon="114.01003179638671" /><trkpt lat="22.31535378125" lon="114.01033179638672" /><trkpt lat="22.31545778125" lon="114.01041279638672" /><trkpt lat="22.31552278125" lon="114.01051979638672" /><trkpt lat="22.31563678125" lon="114.01062679638672" /><trkpt lat="22.31576578125" lon="114.01077679638672" /><trkpt lat="22.31584478125" lon="114.01091079638672" /><trkpt lat="22.31597878125" lon="114.01105079638671" /><trkpt lat="22.31613778125" lon="114.01114179638672" /><trkpt lat="22.31633578125" lon="114.01118979638672" /><trkpt lat="22.31649978125" lon="114.01122279638672" /><trkpt lat="22.31658878125" lon="114.01127079638673" /><trkpt lat="22.31669378125" lon="114.01121679638672" /><trkpt lat="22.31682778125" lon="114.01120079638672" /><trkpt lat="22.31696178125" lon="114.01129779638671" /><trkpt lat="22.31708078125" lon="114.01149079638672" /><trkpt lat="22.31714478125" lon="114.01160279638673" /><trkpt lat="22.31744778125" lon="114.01188179638672" /><trkpt lat="22.31749278125" lon="114.01201079638672" /><trkpt lat="22.31754678125" lon="114.01213979638672" /><trkpt lat="22.31767078125" lon="114.01233779638672" /><trkpt lat="22.31773078125" lon="114.01252579638673" /><trkpt lat="22.31774578125" lon="114.01263879638672" /><trkpt lat="22.31773578125" lon="114.01293379638672" /><trkpt lat="22.31780478125" lon="114.01301979638671" /><trkpt lat="22.31780478125" lon="114.01312679638671" /><trkpt lat="22.31772078125" lon="114.01323979638671" /><trkpt lat="22.31768578125" lon="114.01348579638672" /><trkpt lat="22.31785978125" lon="114.01371679638672" /><trkpt lat="22.31782978125" lon="114.01384579638672" /><trkpt lat="22.31780178125" lon="114.01395879638672" /><trkpt lat="22.31778378125" lon="114.01411879638673" /><trkpt lat="22.31771878125" lon="114.01426979638671" /><trkpt lat="22.31755678125" lon="114.01437079638671" /><trkpt lat="22.31744278125" lon="114.01449979638672" /><trkpt lat="22.31731378125" lon="114.01469279638673" /><trkpt lat="22.31724478125" lon="114.01489679638672" /><trkpt lat="22.31727378125" lon="114.01506279638672" /><trkpt lat="22.31725878125" lon="114.01515479638672" /><trkpt lat="22.31731878125" lon="114.01533179638672" /><trkpt lat="22.31725378125" lon="114.01567479638672" /><trkpt lat="22.31728378125" lon="114.01579279638672" /><trkpt lat="22.31721978125" lon="114.01602379638672" /><trkpt lat="22.31719978125" lon="114.01622179638672" /><trkpt lat="22.31710078125" lon="114.01642079638673" /><trkpt lat="22.31695178125" lon="114.01672079638672" /><trkpt lat="22.31691678125" lon="114.01688179638671" /><trkpt lat="22.31701078125" lon="114.01710179638673" /><trkpt lat="22.31709578125" lon="114.01722479638671" /><trkpt lat="22.31712478125" lon="114.01742379638672" /><trkpt lat="22.31708578125" lon="114.01760579638672" /><trkpt lat="22.31697678125" lon="114.01777279638672" /><trkpt lat="22.31680278125" lon="114.01789079638672" /><trkpt lat="22.31677278125" lon="114.01799179638672" /><trkpt lat="22.31658478125" lon="114.01817479638672" /><trkpt lat="22.31658478125" lon="114.01836779638671" /><trkpt lat="22.31652978125" lon="114.01863079638672" /><trkpt lat="22.31658878125" lon="114.01879679638672" /><trkpt lat="22.31659878125" lon="114.01895279638671" /><trkpt lat="22.31659378125" lon="114.01917779638671" /><trkpt lat="22.31671378125" lon="114.01939279638673" /><trkpt lat="22.31666878125" lon="114.01973079638672" /><trkpt lat="22.31660378125" lon="114.01986979638671" /><trkpt lat="22.31662378125" lon="114.02006779638671" /><trkpt lat="22.31674278125" lon="114.02035279638672" /><trkpt lat="22.31687178125" lon="114.02040079638672" /><trkpt lat="22.31711824958931" lon="114.02048766851442" /><trkpt lat="22.317334538089625" lon="114.02038226099279" /><trkpt lat="22.317742947843968" lon="114.02037457616274" /><trkpt lat="22.31785708716255" lon="114.02068281443093" /><trkpt lat="22.317876937469308" lon="114.02098699991797" /><trkpt lat="22.317827311697144" lon="114.02113632352297" /><trkpt lat="22.31785557876142" lon="114.02111700855274" /><trkpt lat="22.31798878125" lon="114.02134479638671" /><trkpt lat="22.31817278125" lon="114.02155979638673" /><trkpt lat="22.31833578125" lon="114.02161279638672" /><trkpt lat="22.31847978125" lon="114.02169879638672" /><trkpt lat="22.31857878125" lon="114.02177979638672" /><trkpt lat="22.31867878125" lon="114.02198379638672" /><trkpt lat="22.31889678125" lon="114.02212779638671" /><trkpt lat="22.31912978125" lon="114.02218679638672" /><trkpt lat="22.31936878125" lon="114.02227879638671" /><trkpt lat="22.31957678125" lon="114.02231079638672" /><trkpt lat="22.31971078125" lon="114.02241279638672" /><trkpt lat="22.31973078125" lon="114.02252479638672" /><trkpt lat="22.31995378125" lon="114.02291179638672" /><trkpt lat="22.31995378125" lon="114.02302379638672" /><trkpt lat="22.31990878125" lon="114.02318479638672" /><trkpt lat="22.31996878125" lon="114.02327079638673" /><trkpt lat="22.31997878125" lon="114.02347979638672" /><trkpt lat="22.31993878125" lon="114.02360379638672" /><trkpt lat="22.32003778125" lon="114.02373779638671" /><trkpt lat="22.32004278125" lon="114.02393579638672" /><trkpt lat="22.32007778125" lon="114.02415079638672" /><trkpt lat="22.32011278125" lon="114.02430579638671" /><trkpt lat="22.32024678125" lon="114.02449379638672" /><trkpt lat="22.32027678125" lon="114.02476779638671" /><trkpt lat="22.32028678125" lon="114.02490679638672" /><trkpt lat="22.32035078125" lon="114.02513779638672" /><trkpt lat="22.32054378125" lon="114.02525579638672" /><trkpt lat="22.32068878125" lon="114.02542179638672" /><trkpt lat="22.32077278125" lon="114.02550279638672" /><trkpt lat="22.32090678125" lon="114.02578679638673" /><trkpt lat="22.32091178125" lon="114.02595279638672" /><trkpt lat="22.32100578125" lon="114.02604379638672" /><trkpt lat="22.32106078125" lon="114.02631279638672" /><trkpt lat="22.32114978125" lon="114.02641979638672" /><trkpt lat="22.32135378125" lon="114.02682179638671" /><trkpt lat="22.32143278125" lon="114.02704179638671" /><trkpt lat="22.32141278125" lon="114.02726779638672" /><trkpt lat="22.32146778125" lon="114.02733179638672" /><trkpt lat="22.32146778125" lon="114.02742279638672" /><trkpt lat="22.32148678125" lon="114.02753579638672" /><trkpt lat="22.32144278125" lon="114.02762679638671" /><trkpt lat="22.32144778125" lon="114.02779279638672" /><trkpt lat="22.32149678125" lon="114.02791679638672" /><trkpt lat="22.32151578125" lon="114.02805679638672" /><trkpt lat="22.32158578125" lon="114.02818579638672" /><trkpt lat="22.32161678125" lon="114.02846379638672" /><trkpt lat="22.32162578125" lon="114.02874279638672" /><trkpt lat="22.32166078125" lon="114.02891979638672" /><trkpt lat="22.32178378125" lon="114.02901179638671" /><trkpt lat="22.32190878125" lon="114.02896279638672" /><trkpt lat="22.32213278125" lon="114.02891379638672" /><trkpt lat="22.32232078125" lon="114.02894079638672" /><trkpt lat="22.32241978125" lon="114.02897879638672" /><trkpt lat="22.32262878125" lon="114.02898379638673" /><trkpt lat="22.32291678125" lon="114.02897279638673" /><trkpt lat="22.32301078125" lon="114.02901579638672" /><trkpt lat="22.32314478125" lon="114.02902179638671" /><trkpt lat="22.32333778125" lon="114.02905879638672" /><trkpt lat="22.32355178125" lon="114.02907479638672" /><trkpt lat="22.32368578125" lon="114.02903179638672" /><trkpt lat="22.32381478125" lon="114.02910779638673" /><trkpt lat="22.32398378125" lon="114.02913979638672" /><trkpt lat="22.32400778125" lon="114.02909679638672" /><trkpt lat="22.32411778125" lon="114.02912879638671" /><trkpt lat="22.32438078125" lon="114.02906979638672" /><trkpt lat="22.32452378125" lon="114.02911279638671" /><trkpt lat="22.32457878125" lon="114.02916679638672" /><trkpt lat="22.32466778125" lon="114.02913979638672" /><trkpt lat="22.32478278125" lon="114.02913979638672" /><trkpt lat="22.32488178125" lon="114.02911279638671" /><trkpt lat="22.32502578125" lon="114.02915579638672" /><trkpt lat="22.32516978125" lon="114.02921479638673" /><trkpt lat="22.32525378125" lon="114.02928979638672" /><trkpt lat="22.32532778125" lon="114.02928479638672" /><trkpt lat="22.32556678125" lon="114.02935379638672" /><trkpt lat="22.32568578125" lon="114.02940279638672" /><trkpt lat="22.32583878125" lon="114.02941279638672" /><trkpt lat="22.32596378125" lon="114.02943479638672" /><trkpt lat="22.32605278125" lon="114.02942879638672" /><trkpt lat="22.32610678125" lon="114.02947779638671" /><trkpt lat="22.32610178125" lon="114.02955279638672" /><trkpt lat="22.32616678125" lon="114.02963879638672" /><trkpt lat="22.32620178125" lon="114.02972979638672" /><trkpt lat="22.32618178125" lon="114.02982079638672" /><trkpt lat="22.32632578125" lon="114.02992279638671" /><trkpt lat="22.32644478125" lon="114.03008379638672" /><trkpt lat="22.32660878125" lon="114.03019079638672" /><trkpt lat="22.32672978125" lon="114.03033179638672" /><trkpt lat="22.32677678125" lon="114.03047779638672" /><trkpt lat="22.32687278125" lon="114.03057479638672" /><trkpt lat="22.32686878125" lon="114.03064679638672" /><trkpt lat="22.32692978125" lon="114.03083979638672" /><trkpt lat="22.32698078125" lon="114.03092579638673" /><trkpt lat="22.32708578125" lon="114.03103979638672" /><trkpt lat="22.32717278125" lon="114.03134079638671" /><trkpt lat="22.32727378125" lon="114.03144479638672" /><trkpt lat="22.32737178125" lon="114.03153379638673" /><trkpt lat="22.32748578125" lon="114.03164879638672" /><trkpt lat="22.32770478125" lon="114.03183079638671" /><trkpt lat="22.32785478125" lon="114.03188079638672" /><trkpt lat="22.32806978125" lon="114.03197179638671" /><trkpt lat="22.32825578125" lon="114.03215879638672" /><trkpt lat="22.32839978125" lon="114.03233379638672" /><trkpt lat="22.32843178125" lon="114.03238379638672" /><trkpt lat="22.32854878125" lon="114.03237979638672" /><trkpt lat="22.32861778125" lon="114.03237379638672" /><trkpt lat="22.32867178125" lon="114.03240079638672" /><trkpt lat="22.32871378125" lon="114.03242879638672" /><trkpt lat="22.32897578125" lon="114.03231479638671" /><trkpt lat="22.32909478125" lon="114.03221079638672" /><trkpt lat="22.32921878125" lon="114.03213079638672" /><trkpt lat="22.32927278125" lon="114.03202579638672" /><trkpt lat="22.32944178125" lon="114.03197179638671" /><trkpt lat="22.32965378125" lon="114.03205879638672" /><trkpt lat="22.32980178125" lon="114.03192179638671" /><trkpt lat="22.33008778125" lon="114.03165479638672" /><trkpt lat="22.33038278125" lon="114.03121279638673" /><trkpt lat="22.33061978125" lon="114.03060579638672" /><trkpt lat="22.33069478125" lon="114.02989679638672" /><trkpt lat="22.33057478125" lon="114.02930579638672" /><trkpt lat="22.33043178125" lon="114.02897179638671" /><trkpt lat="22.33025778125" lon="114.02874079638671" /><trkpt lat="22.33045978125" lon="114.02895179638672" /><trkpt lat="22.33135978125" lon="114.03005579638672" /><trkpt lat="22.33171778125" lon="114.03058679638671" /><trkpt lat="22.33192778125" lon="114.03082779638672" /><trkpt lat="22.33214678125" lon="114.03106079638673" /><trkpt lat="22.33238978125" lon="114.03127579638672" /><trkpt lat="22.33280678125" lon="114.03160579638671" /><trkpt lat="22.33298578125" lon="114.03146679638672" /><trkpt lat="22.33303678125" lon="114.03148679638672" /><trkpt lat="22.33330378125" lon="114.03159579638672" /><trkpt lat="22.33345778125" lon="114.03157079638672" /><trkpt lat="22.33368178125" lon="114.03133079638671" /><trkpt lat="22.33370178125" lon="114.03117579638672" /><trkpt lat="22.33361278125" lon="114.03097279638672" /><trkpt lat="22.33335178125" lon="114.03066479638672" /><trkpt lat="22.33329678125" lon="114.03059979638672" /></trkseg></trk></gpx>