<?xml version='1.0' encoding='UTF-8' ?><gpx version="1.1" creator="HikingTrailHK" xsi:schemaLocation="http://www.topografix.com/GPX/1/1 http://www.topografix.com/GPX/1/1/gpx.xsd" xmlns="http://www.topografix.com/GPX/1/1" xmlns:xsi="http://www.w3.org/2001/XMLSchema-instance"><metadata><name>平山 沈雲山 @ 2016-9-30</name><desc></desc></metadata><trk><trkseg><trkpt lat="22.31612915345872" lon="114.21891567491107" /><trkpt lat="22.31609178125" lon="114.21896279638672" /><trkpt lat="22.31603178125" lon="114.21902879638672" /><trkpt lat="22.31590278125" lon="114.21918779638672" /><trkpt lat="22.31579478125" lon="114.21933079638671" /><trkpt lat="22.31586778125" lon="114.21939579638672" /><trkpt lat="22.31604178125" lon="114.21954579638673" /><trkpt lat="22.31613978125" lon="114.21958479638671" /><trkpt lat="22.31627778125" lon="114.21962379638671" /><trkpt lat="22.31652978125" lon="114.21951779638673" /><trkpt lat="22.31682078125" lon="114.21937579638671" /><trkpt lat="22.31747578125" lon="114.21859079638672" /><trkpt lat="22.31777578125" lon="114.21843579638671" /><trkpt lat="22.31787078125" lon="114.21839379638672" /><trkpt lat="22.31793778125" lon="114.21836279638671" /><trkpt lat="22.31802878125" lon="114.21831579638672" /><trkpt lat="22.31810178125" lon="114.21828879638672" /><trkpt lat="22.31818878125" lon="114.21828079638672" /><trkpt lat="22.31827578125" lon="114.21826779638671" /><trkpt lat="22.31835578125" lon="114.21823379638671" /><trkpt lat="22.31846678125" lon="114.21817579638672" /><trkpt lat="22.31859978125" lon="114.21806479638671" /><trkpt lat="22.31865378125" lon="114.21808279638672" /><trkpt lat="22.31871578125" lon="114.21809179638672" /><trkpt lat="22.31878778125" lon="114.21808179638671" /><trkpt lat="22.31917378125" lon="114.21796679638672" /><trkpt lat="22.31963478125" lon="114.21805379638671" /><trkpt lat="22.31984078125" lon="114.21807079638671" /><trkpt lat="22.31983778125" lon="114.21814679638672" /><trkpt lat="22.32004978125" lon="114.21816479638672" /><trkpt lat="22.32007278125" lon="114.21823879638671" /><trkpt lat="22.32035478125" lon="114.21828079638672" /><trkpt lat="22.32037178125" lon="114.21841279638672" /><trkpt lat="22.32045478125" lon="114.21848979638672" /><trkpt lat="22.32042878125" lon="114.21856179638672" /><trkpt lat="22.32044278125" lon="114.21891979638671" /><trkpt lat="22.32065378125" lon="114.21892579638671" /><trkpt lat="22.32065378125" lon="114.21955879638672" /><trkpt lat="22.32065378125" lon="114.21985579638672" /><trkpt lat="22.32065378125" lon="114.21994979638671" /><trkpt lat="22.32065378125" lon="114.22023379638672" /><trkpt lat="22.32075778125" lon="114.22022979638672" /><trkpt lat="22.32088178125" lon="114.22033879638671" /><trkpt lat="22.32091778125" lon="114.22039879638672" /><trkpt lat="22.32091178125" lon="114.22069779638672" /><trkpt lat="22.32084778125" lon="114.22076579638671" /><trkpt lat="22.32081878125" lon="114.22079679638672" /><trkpt lat="22.32079578125" lon="114.22082279638671" /><trkpt lat="22.32075078125" lon="114.22087079638672" /><trkpt lat="22.32064978125" lon="114.22097679638672" /><trkpt lat="22.32064978125" lon="114.22101879638672" /><trkpt lat="22.32064978125" lon="114.22113179638671" /><trkpt lat="22.32066178125" lon="114.22118979638672" /><trkpt lat="22.32076578125" lon="114.22135279638673" /><trkpt lat="22.32103878125" lon="114.22151779638672" /><trkpt lat="22.32117978125" lon="114.22160279638672" /><trkpt lat="22.32106978125" lon="114.22200679638672" /><trkpt lat="22.32097878125" lon="114.22229879638672" /><trkpt lat="22.320945115878608" lon="114.22239649203016" /><trkpt lat="22.320997358451237" lon="114.22241277205694" /><trkpt lat="22.32104802170594" lon="114.22244026032399" /><trkpt lat="22.32103478125" lon="114.22248479638672" /><trkpt lat="22.32102078125" lon="114.22253179638672" /><trkpt lat="22.32108778125" lon="114.22253079638672" /><trkpt lat="22.32107578125" lon="114.22282779638672" /><trkpt lat="22.32120778125" lon="114.22316379638671" /><trkpt lat="22.32141878125" lon="114.22340779638672" /><trkpt lat="22.32157778125" lon="114.22345079638671" /><trkpt lat="22.32189478125" lon="114.22340179638672" /><trkpt lat="22.32231178125" lon="114.22336479638672" /><trkpt lat="22.32241478125" lon="114.22323079638672" /><trkpt lat="22.32250378125" lon="114.22324279638671" /><trkpt lat="22.32254678125" lon="114.22325679638672" /><trkpt lat="22.32262278125" lon="114.22321979638672" /><trkpt lat="22.32269378125" lon="114.22325379638671" /><trkpt lat="22.32276778125" lon="114.22331079638671" /><trkpt lat="22.32286478125" lon="114.22339879638672" /><trkpt lat="22.32298078125" lon="114.22348579638673" /><trkpt lat="22.32311078125" lon="114.22349979638672" /><trkpt lat="22.32325278125" lon="114.22346379638672" /><trkpt lat="22.32343278125" lon="114.22334479638671" /><trkpt lat="22.32356878125" lon="114.22335279638672" /><trkpt lat="22.32349278125" lon="114.22342379638673" /><trkpt lat="22.32356078125" lon="114.22347879638671" /><trkpt lat="22.32362778125" lon="114.22352479638671" /><trkpt lat="22.32364678125" lon="114.22346479638672" /><trkpt lat="22.32430178125" lon="114.22302579638672" /><trkpt lat="22.32428178125" lon="114.22297879638671" /><trkpt lat="22.32428278125" lon="114.22291479638672" /><trkpt lat="22.32431878125" lon="114.22288179638672" /><trkpt lat="22.32435878125" lon="114.22288379638672" /><trkpt lat="22.32441678125" lon="114.22291379638672" /><trkpt lat="22.32447178125" lon="114.22302279638672" /><trkpt lat="22.32395478125" lon="114.22336379638672" /><trkpt lat="22.32393278125" lon="114.22338779638672" /><trkpt lat="22.32390278125" lon="114.22342579638672" /><trkpt lat="22.32389078125" lon="114.22349279638672" /><trkpt lat="22.32389778125" lon="114.22354579638672" /><trkpt lat="22.32392778125" lon="114.22359679638672" /><trkpt lat="22.32397278125" lon="114.22363179638671" /><trkpt lat="22.32403478125" lon="114.22365579638672" /><trkpt lat="22.32409678125" lon="114.22364779638671" /><trkpt lat="22.32418378125" lon="114.22359479638672" /><trkpt lat="22.32462278125" lon="114.22332579638672" /><trkpt lat="22.32466278125" lon="114.22327279638672" /><trkpt lat="22.32468478125" lon="114.22322379638672" /><trkpt lat="22.32468478125" lon="114.22314379638672" /><trkpt lat="22.32465278125" lon="114.22308179638672" /><trkpt lat="22.32460778125" lon="114.22304179638672" /><trkpt lat="22.32455078125" lon="114.22301179638671" /><trkpt lat="22.32447178125" lon="114.22302279638672" /><trkpt lat="22.32441678125" lon="114.22291379638672" /><trkpt lat="22.32448778125" lon="114.22287279638672" /><trkpt lat="22.32450278125" lon="114.22284879638671" /><trkpt lat="22.32448878125" lon="114.22277479638672" /><trkpt lat="22.32500878125" lon="114.22282279638672" /><trkpt lat="22.32529078125" lon="114.22275479638672" /><trkpt lat="22.32533778125" lon="114.22267379638672" /><trkpt lat="22.32531578125" lon="114.22259079638673" /><trkpt lat="22.32527078125" lon="114.22251779638673" /><trkpt lat="22.32537578125" lon="114.22247279638673" /><trkpt lat="22.32568778125" lon="114.22243779638671" /><trkpt lat="22.32568778125" lon="114.22234079638672" /><trkpt lat="22.32576978125" lon="114.22235479638672" /><trkpt lat="22.32579978125" lon="114.22241379638672" /><trkpt lat="22.32585878125" lon="114.22236279638672" /><trkpt lat="22.32584978125" lon="114.22226079638672" /><trkpt lat="22.32588178125" lon="114.22217179638672" /><trkpt lat="22.32596378125" lon="114.22202179638671" /><trkpt lat="22.32602578125" lon="114.22205979638672" /><trkpt lat="22.32605778125" lon="114.22196879638672" /><trkpt lat="22.32613978125" lon="114.22198479638672" /><trkpt lat="22.32613478125" lon="114.22189079638672" /><trkpt lat="22.32618678125" lon="114.22181779638672" /><trkpt lat="22.32639478125" lon="114.22196579638671" /><trkpt lat="22.32647678125" lon="114.22193579638672" /><trkpt lat="22.32654678125" lon="114.22207279638671" /><trkpt lat="22.32660378125" lon="114.22199779638672" /><trkpt lat="22.32660778125" lon="114.22196679638672" /><trkpt lat="22.32659978125" lon="114.22188279638672" /><trkpt lat="22.32677278125" lon="114.22175579638672" /><trkpt lat="22.32686178125" lon="114.22169079638672" /><trkpt lat="22.32710378125" lon="114.22142279638672" /><trkpt lat="22.32718178125" lon="114.22139979638672" /><trkpt lat="22.32738978125" lon="114.22179379638672" /><trkpt lat="22.32746678125" lon="114.22180779638671" /><trkpt lat="22.32752378125" lon="114.22174879638672" /><trkpt lat="22.32762078125" lon="114.22172979638673" /><trkpt lat="22.32771978125" lon="114.22173279638672" /><trkpt lat="22.32792578125" lon="114.22166779638673" /><trkpt lat="22.327959782119024" lon="114.2216850582829" /><trkpt lat="22.328002444758848" lon="114.22169615541193" /><trkpt lat="22.32806478125" lon="114.22163979638673" /><trkpt lat="22.32815478125" lon="114.22163579638672" /><trkpt lat="22.32821978125" lon="114.22166279638672" /><trkpt lat="22.32829978125" lon="114.22171279638673" /><trkpt lat="22.328390735169805" lon="114.22181193614962" /><trkpt lat="22.32842919543786" lon="114.2217780610313" /><trkpt lat="22.32861578125" lon="114.22147179638672" /><trkpt lat="22.32862278125" lon="114.22125779638672" /><trkpt lat="22.32857378125" lon="114.22113379638672" /><trkpt lat="22.32840978125" lon="114.22098179638672" /><trkpt lat="22.32823578125" lon="114.22094679638671" /><trkpt lat="22.32804478125" lon="114.22095979638672" /><trkpt lat="22.32777978125" lon="114.22077779638671" /><trkpt lat="22.32756278125" lon="114.22071279638672" /><trkpt lat="22.32774778125" lon="114.22039179638672" /><trkpt lat="22.32769378125" lon="114.22014179638671" /><trkpt lat="22.32778378125" lon="114.22007779638672" /><trkpt lat="22.32767678125" lon="114.21997879638671" /><trkpt lat="22.32755878125" lon="114.21996679638671" /><trkpt lat="22.32757378125" lon="114.21989179638672" /><trkpt lat="22.32768078125" lon="114.21972479638671" /><trkpt lat="22.32775178125" lon="114.21964679638671" /><trkpt lat="22.32785578125" lon="114.21957179638672" /><trkpt lat="22.32812978125" lon="114.21922079638672" /><trkpt lat="22.32820678125" lon="114.21913279638672" /><trkpt lat="22.32869278125" lon="114.21895279638672" /><trkpt lat="22.32940478125" lon="114.21882979638671" /><trkpt lat="22.32980478125" lon="114.21872979638673" /><trkpt lat="22.33016778125" lon="114.21866279638672" /><trkpt lat="22.33048578125" lon="114.21867379638672" /><trkpt lat="22.33061478125" lon="114.21869479638671" /><trkpt lat="22.33069878125" lon="114.21877179638672" /><trkpt lat="22.33074778125" lon="114.21881579638672" /><trkpt lat="22.33079278125" lon="114.21885579638672" /><trkpt lat="22.330840246922715" lon="114.21891280814131" /><trkpt lat="22.330764049435103" lon="114.21891562320548" /><trkpt lat="22.33071424637643" lon="114.2188483714474" /><trkpt lat="22.33070606330034" lon="114.21881124559172" /><trkpt lat="22.330699581561134" lon="114.2188046561389" /><trkpt lat="22.330696139059825" lon="114.21881002055693" /><trkpt lat="22.33069878125" lon="114.21877179638672" /><trkpt lat="22.33061478125" lon="114.21869479638671" /><trkpt lat="22.33048578125" lon="114.21867379638672" /><trkpt lat="22.33016778125" lon="114.21866279638672" /><trkpt lat="22.32980478125" lon="114.21872979638673" /><trkpt lat="22.32940478125" lon="114.21882979638671" /><trkpt lat="22.32869278125" lon="114.21895279638672" /><trkpt lat="22.32820678125" lon="114.21913279638672" /><trkpt lat="22.32812978125" lon="114.21922079638672" /><trkpt lat="22.32785578125" lon="114.21957179638672" /><trkpt lat="22.32775178125" lon="114.21964679638671" /><trkpt lat="22.32768078125" lon="114.21972479638671" /><trkpt lat="22.32757378125" lon="114.21989179638672" /><trkpt lat="22.32755878125" lon="114.21996679638671" /><trkpt lat="22.32751978125" lon="114.21996879638672" /><trkpt lat="22.32740978125" lon="114.21991279638672" /><trkpt lat="22.32697078125" lon="114.21988579638672" /><trkpt lat="22.32681378125" lon="114.21953179638672" /><trkpt lat="22.32677478125" lon="114.21946979638672" /><trkpt lat="22.32711978125" lon="114.21929879638672" /><trkpt lat="22.32736378125" lon="114.21915779638672" /><trkpt lat="22.32730578125" lon="114.21914479638671" /><trkpt lat="22.32728178125" lon="114.21909779638672" /><trkpt lat="22.32724078125" lon="114.21902379638672" /><trkpt lat="22.32720678125" lon="114.21894879638671" /><trkpt lat="22.32717278125" lon="114.21885879638671" /><trkpt lat="22.32710178125" lon="114.21884479638672" /><trkpt lat="22.32698578125" lon="114.21891179638672" /><trkpt lat="22.32694778125" lon="114.21881679638672" /><trkpt lat="22.32692778125" lon="114.21876679638672" /><trkpt lat="22.32672778125" lon="114.21845679638672" /><trkpt lat="22.32679478125" lon="114.21833279638672" /><trkpt lat="22.32669178125" lon="114.21812979638672" /><trkpt lat="22.32676878125" lon="114.21786679638672" /><trkpt lat="22.32702078125" lon="114.21754979638672" /><trkpt lat="22.32709378125" lon="114.21723379638672" /><trkpt lat="22.32692178125" lon="114.21662679638672" /><trkpt lat="22.32679778125" lon="114.21659879638672" /><trkpt lat="22.32677278125" lon="114.21663579638673" /><trkpt lat="22.32667078125" lon="114.21655079638671" /><trkpt lat="22.32657278125" lon="114.21649279638672" /><trkpt lat="22.32629278125" lon="114.21641579638671" /><trkpt lat="22.32597578125" lon="114.21632979638672" /><trkpt lat="22.32590178125" lon="114.21653379638671" /><trkpt lat="22.32580178125" lon="114.21669979638672" /><trkpt lat="22.32569278125" lon="114.21680279638672" /><trkpt lat="22.32553278125" lon="114.21689879638672" /><trkpt lat="22.32550378125" lon="114.21691079638671" /><trkpt lat="22.32534178125" lon="114.21698279638672" /><trkpt lat="22.32514878125" lon="114.21707579638672" /><trkpt lat="22.32488378125" lon="114.21723179638671" /><trkpt lat="22.32446478125" lon="114.21750679638671" /><trkpt lat="22.32439078125" lon="114.21755279638671" /><trkpt lat="22.32434078125" lon="114.21758179638672" /><trkpt lat="22.32429278125" lon="114.21760879638671" /><trkpt lat="22.32417078125" lon="114.21765179638672" /><trkpt lat="22.32392978125" lon="114.21771679638672" /><trkpt lat="22.32390278125" lon="114.21772279638672" /><trkpt lat="22.32385578125" lon="114.21773179638672" /><trkpt lat="22.32379578125" lon="114.21774279638672" /><trkpt lat="22.32348878125" lon="114.21777479638672" /><trkpt lat="22.32338478125" lon="114.21776779638672" /><trkpt lat="22.32321278125" lon="114.21774179638672" /><trkpt lat="22.32303878125" lon="114.21768879638672" /><trkpt lat="22.32292778125" lon="114.21765479638673" /><trkpt lat="22.32290878125" lon="114.21756679638672" /><trkpt lat="22.32282478125" lon="114.21723079638672" /><trkpt lat="22.32281478125" lon="114.21719479638672" /><trkpt lat="22.32275278125" lon="114.21694679638672" /><trkpt lat="22.32273478125" lon="114.21686679638673" /><trkpt lat="22.32268378125" lon="114.21667379638671" /><trkpt lat="22.32263678125" lon="114.21646879638672" /><trkpt lat="22.32241078125" lon="114.21652479638672" /><trkpt lat="22.32227778125" lon="114.21651079638671" /><trkpt lat="22.32219378125" lon="114.21646979638672" /><trkpt lat="22.32206278125" lon="114.21640079638672" /><trkpt lat="22.32094478125" lon="114.21584379638672" /><trkpt lat="22.32036278125" lon="114.21556679638672" /><trkpt lat="22.31981378125" lon="114.21527179638672" /><trkpt lat="22.31966178125" lon="114.21523379638671" /><trkpt lat="22.31932678125" lon="114.21523479638672" /><trkpt lat="22.31932378125" lon="114.21502879638672" /><trkpt lat="22.31948278125" lon="114.21501179638672" /><trkpt lat="22.31945678125" lon="114.21457479638671" /><trkpt lat="22.31955278125" lon="114.21456979638671" /><trkpt lat="22.31955778125" lon="114.21465979638671" /><trkpt lat="22.32163878125" lon="114.21445479638672" /><trkpt lat="22.32233778125" lon="114.21438579638672" /><trkpt lat="22.32351951007077" lon="114.2142644664104" /></trkseg></trk></gpx>