<?xml version='1.0' encoding='UTF-8' ?><gpx version="1.1" creator="HikingTrailHK" xsi:schemaLocation="http://www.topografix.com/GPX/1/1 http://www.topografix.com/GPX/1/1/gpx.xsd" xmlns="http://www.topografix.com/GPX/1/1" xmlns:xsi="http://www.w3.org/2001/XMLSchema-instance"><metadata><name>平山</name><desc></desc></metadata><trk><trkseg><trkpt lat="22.322431255258962" lon="114.21424164876179" /><trkpt lat="22.32245478125" lon="114.21459279638673" /><trkpt lat="22.32249478125" lon="114.21458979638672" /><trkpt lat="22.32249778125" lon="114.21468279638673" /><trkpt lat="22.32265978125" lon="114.21467279638672" /><trkpt lat="22.32269978125" lon="114.21467079638671" /><trkpt lat="22.32270978125" lon="114.21471379638672" /><trkpt lat="22.32293678125" lon="114.21464779638671" /><trkpt lat="22.32294978125" lon="114.21469679638672" /><trkpt lat="22.32304978125" lon="114.21466879638672" /><trkpt lat="22.32325078125" lon="114.21467879638672" /><trkpt lat="22.32325878125" lon="114.21477279638673" /><trkpt lat="22.32323578125" lon="114.21482279638671" /><trkpt lat="22.32320178125" lon="114.21486779638671" /><trkpt lat="22.32319378125" lon="114.21492379638671" /><trkpt lat="22.32320978125" lon="114.21498679638673" /><trkpt lat="22.32325278125" lon="114.21505179638672" /><trkpt lat="22.32324778125" lon="114.21508079638672" /><trkpt lat="22.32322278125" lon="114.21515579638672" /><trkpt lat="22.32322278125" lon="114.21527979638672" /><trkpt lat="22.32333378125" lon="114.21559579638672" /><trkpt lat="22.32341678125" lon="114.21570579638671" /><trkpt lat="22.32347578125" lon="114.21575079638671" /><trkpt lat="22.32355778125" lon="114.21577979638671" /><trkpt lat="22.32359078125" lon="114.21580479638672" /><trkpt lat="22.32361678125" lon="114.21586279638672" /><trkpt lat="22.32362478125" lon="114.21592779638672" /><trkpt lat="22.32361478125" lon="114.21599579638672" /><trkpt lat="22.32359478125" lon="114.21602879638672" /><trkpt lat="22.32354778125" lon="114.21606479638672" /><trkpt lat="22.32350878125" lon="114.21608479638672" /><trkpt lat="22.32352678125" lon="114.21611679638671" /><trkpt lat="22.32356778125" lon="114.21619579638671" /><trkpt lat="22.32359778125" lon="114.21625079638672" /><trkpt lat="22.32352978125" lon="114.21629179638671" /><trkpt lat="22.32344178125" lon="114.21632679638672" /><trkpt lat="22.32334578125" lon="114.21636379638672" /><trkpt lat="22.32325878125" lon="114.21639379638673" /><trkpt lat="22.32333278125" lon="114.21652479638672" /><trkpt lat="22.32339378125" lon="114.21663379638672" /><trkpt lat="22.32348778125" lon="114.21679379638672" /><trkpt lat="22.32354978125" lon="114.21690179638672" /><trkpt lat="22.32361678125" lon="114.21701479638672" /><trkpt lat="22.32377778125" lon="114.21729179638672" /><trkpt lat="22.32379778125" lon="114.21732679638671" /><trkpt lat="22.32385978125" lon="114.21741179638671" /><trkpt lat="22.32389778125" lon="114.21746379638672" /><trkpt lat="22.32393178125" lon="114.21749579638671" /><trkpt lat="22.32395578125" lon="114.21754979638672" /><trkpt lat="22.32396478125" lon="114.21760879638671" /><trkpt lat="22.32395178125" lon="114.21764579638672" /><trkpt lat="22.32394578125" lon="114.21769279638671" /><trkpt lat="22.32447878125" lon="114.21847979638672" /><trkpt lat="22.32490678125" lon="114.21914279638672" /><trkpt lat="22.32511378125" lon="114.21898779638671" /><trkpt lat="22.32521378125" lon="114.21890979638673" /><trkpt lat="22.32541378125" lon="114.21912479638672" /><trkpt lat="22.32558278125" lon="114.21898879638672" /><trkpt lat="22.32563078125" lon="114.21898779638671" /><trkpt lat="22.32565278125" lon="114.21898379638672" /><trkpt lat="22.32567078125" lon="114.21897279638672" /><trkpt lat="22.32568778125" lon="114.21896979638672" /><trkpt lat="22.32571078125" lon="114.21893079638672" /><trkpt lat="22.32572278125" lon="114.21888679638671" /><trkpt lat="22.32573278125" lon="114.21880179638671" /><trkpt lat="22.32570478125" lon="114.21869179638672" /><trkpt lat="22.32572878125" lon="114.21865379638672" /><trkpt lat="22.32573678125" lon="114.21862179638671" /><trkpt lat="22.32590978125" lon="114.21868879638672" /><trkpt lat="22.32593778125" lon="114.21868479638673" /><trkpt lat="22.32597378125" lon="114.21876679638672" /><trkpt lat="22.32601378125" lon="114.21882779638672" /><trkpt lat="22.32606978125" lon="114.21889379638672" /><trkpt lat="22.32627378125" lon="114.21899979638673" /><trkpt lat="22.32636578125" lon="114.21907379638672" /><trkpt lat="22.32648178125" lon="114.21913079638672" /><trkpt lat="22.32655578125" lon="114.21921179638672" /><trkpt lat="22.32667978125" lon="114.21927279638672" /><trkpt lat="22.32669078125" lon="114.21930479638672" /><trkpt lat="22.32667678125" lon="114.21938079638672" /><trkpt lat="22.32669578125" lon="114.21943179638671" /><trkpt lat="22.32672478125" lon="114.21948779638672" /><trkpt lat="22.32674578125" lon="114.21952179638672" /><trkpt lat="22.32677878125" lon="114.21960579638672" /><trkpt lat="22.32681478125" lon="114.21967579638672" /><trkpt lat="22.32684878125" lon="114.21971579638672" /><trkpt lat="22.32689378125" lon="114.21980379638671" /><trkpt lat="22.32690978125" lon="114.21987879638672" /><trkpt lat="22.32692978125" lon="114.21990279638672" /><trkpt lat="22.32707678125" lon="114.21993179638672" /><trkpt lat="22.32713878125" lon="114.21995179638672" /><trkpt lat="22.32718578125" lon="114.21995179638672" /><trkpt lat="22.32740978125" lon="114.21991279638672" /><trkpt lat="22.32751978125" lon="114.21996879638672" /><trkpt lat="22.32755878125" lon="114.21996679638671" /><trkpt lat="22.32757378125" lon="114.21989179638672" /><trkpt lat="22.32768078125" lon="114.21972479638671" /><trkpt lat="22.32775178125" lon="114.21964679638671" /><trkpt lat="22.32785578125" lon="114.21957179638672" /><trkpt lat="22.32812978125" lon="114.21922079638672" /><trkpt lat="22.32820678125" lon="114.21913279638672" /><trkpt lat="22.32869278125" lon="114.21895279638672" /><trkpt lat="22.32940478125" lon="114.21882979638671" /><trkpt lat="22.32980478125" lon="114.21872979638673" /><trkpt lat="22.33016778125" lon="114.21866279638672" /><trkpt lat="22.33048578125" lon="114.21867379638672" /><trkpt lat="22.33061478125" lon="114.21869479638671" /><trkpt lat="22.33069878125" lon="114.21877179638672" /><trkpt lat="22.330731034046543" lon="114.21880075963414" /></trkseg></trk></gpx>