<?xml version='1.0' encoding='UTF-8' ?><gpx version="1.1" creator="HikingTrailHK" xsi:schemaLocation="http://www.topografix.com/GPX/1/1 http://www.topografix.com/GPX/1/1/gpx.xsd" xmlns="http://www.topografix.com/GPX/1/1" xmlns:xsi="http://www.w3.org/2001/XMLSchema-instance"><metadata><name>愉景灣水塘 @ 2023-01-24</name><desc></desc></metadata><trk><trkseg><trkpt lat="22.297000088790178" lon="114.01791988665539" /><trkpt lat="22.29683978125" lon="114.01750779638672" /><trkpt lat="22.29682578125" lon="114.01745679638672" /><trkpt lat="22.29686878125" lon="114.01744179638672" /><trkpt lat="22.29686178125" lon="114.01732379638672" /><trkpt lat="22.29688678125" lon="114.01725579638672" /><trkpt lat="22.29682178125" lon="114.01696079638671" /><trkpt lat="22.29688578125" lon="114.01682779638672" /><trkpt lat="22.29666478125" lon="114.01615179638672" /><trkpt lat="22.29672278125" lon="114.01609579638672" /><trkpt lat="22.29674678125" lon="114.01606779638672" /><trkpt lat="22.29661278125" lon="114.01600479638672" /><trkpt lat="22.29667078125" lon="114.01589479638672" /><trkpt lat="22.29669778125" lon="114.01574479638671" /><trkpt lat="22.29667678125" lon="114.01567479638672" /><trkpt lat="22.29666278125" lon="114.01558679638671" /><trkpt lat="22.29671178125" lon="114.01546579638672" /><trkpt lat="22.29691878125" lon="114.01518279638672" /><trkpt lat="22.29734178125" lon="114.01494379638672" /><trkpt lat="22.29711978125" lon="114.01455379638672" /><trkpt lat="22.29699678125" lon="114.01424179638671" /><trkpt lat="22.29692578125" lon="114.01410279638672" /><trkpt lat="22.29682378125" lon="114.01386379638672" /><trkpt lat="22.29677578125" lon="114.01375579638672" /><trkpt lat="22.29674678125" lon="114.01367879638671" /><trkpt lat="22.29673431158564" lon="114.01361935790972" /><trkpt lat="22.29672278125" lon="114.01362379638672" /><trkpt lat="22.29663978125" lon="114.01336779638672" /><trkpt lat="22.29663878125" lon="114.01323379638671" /><trkpt lat="22.29666978125" lon="114.01314879638672" /><trkpt lat="22.29665578125" lon="114.01306079638672" /><trkpt lat="22.29669978125" lon="114.01296279638672" /><trkpt lat="22.29669078125" lon="114.01286479638672" /><trkpt lat="22.29679378125" lon="114.01263679638672" /><trkpt lat="22.29671878125" lon="114.01254779638671" /><trkpt lat="22.29662478125" lon="114.01233379638671" /><trkpt lat="22.29664078125" lon="114.01218379638672" /><trkpt lat="22.29668978125" lon="114.01218079638672" /><trkpt lat="22.29654678125" lon="114.01187979638672" /><trkpt lat="22.29657678125" lon="114.01184579638672" /><trkpt lat="22.29659778125" lon="114.01179379638671" /><trkpt lat="22.29660778125" lon="114.01173679638671" /><trkpt lat="22.29659578125" lon="114.01168279638672" /><trkpt lat="22.29657378125" lon="114.01163779638672" /><trkpt lat="22.29652078125" lon="114.01157179638672" /><trkpt lat="22.29644778125" lon="114.01148079638672" /><trkpt lat="22.29572978125" lon="114.01171479638671" /><trkpt lat="22.29568578125" lon="114.01175779638672" /><trkpt lat="22.29564078125" lon="114.01189779638672" /><trkpt lat="22.29559078125" lon="114.01201379638673" /><trkpt lat="22.29550778125" lon="114.01206379638671" /><trkpt lat="22.29523278125" lon="114.01217779638672" /><trkpt lat="22.29517178125" lon="114.01214679638672" /><trkpt lat="22.29515078125" lon="114.01211879638672" /><trkpt lat="22.29501078125" lon="114.01207979638671" /><trkpt lat="22.29496478125" lon="114.01198479638671" /><trkpt lat="22.29488778125" lon="114.01188279638671" /><trkpt lat="22.29468178125" lon="114.01177779638672" /><trkpt lat="22.29452878125" lon="114.01174979638672" /><trkpt lat="22.29441678125" lon="114.01175779638672" /><trkpt lat="22.29435678125" lon="114.01182979638672" /><trkpt lat="22.29423078125" lon="114.01184979638671" /><trkpt lat="22.29425678125" lon="114.01171179638672" /><trkpt lat="22.29420578125" lon="114.01148679638672" /><trkpt lat="22.29423078125" lon="114.01125179638672" /><trkpt lat="22.29420978125" lon="114.01107879638671" /><trkpt lat="22.29410078125" lon="114.01107479638672" /><trkpt lat="22.29411678125" lon="114.01095479638671" /><trkpt lat="22.29423778125" lon="114.01089079638672" /><trkpt lat="22.29434878125" lon="114.01087879638672" /><trkpt lat="22.29458278125" lon="114.01079879638672" /><trkpt lat="22.29466878125" lon="114.01085279638671" /><trkpt lat="22.29488278125" lon="114.01084779638671" /><trkpt lat="22.29519578125" lon="114.01105679638673" /><trkpt lat="22.29523378125" lon="114.01090479638673" /><trkpt lat="22.29528978125" lon="114.01083879638672" /><trkpt lat="22.29536778125" lon="114.01076379638671" /><trkpt lat="22.29541478125" lon="114.01062479638672" /><trkpt lat="22.29543378125" lon="114.01046379638672" /><trkpt lat="22.29544578125" lon="114.01031079638672" /><trkpt lat="22.29550578125" lon="114.01002979638672" /><trkpt lat="22.29545178125" lon="114.00966479638672" /><trkpt lat="22.29546578125" lon="114.00938279638672" /><trkpt lat="22.29550278125" lon="114.00922879638672" /><trkpt lat="22.29557178125" lon="114.00912079638672" /><trkpt lat="22.29565278125" lon="114.00902979638671" /><trkpt lat="22.29568578125" lon="114.00893679638672" /><trkpt lat="22.29561178125" lon="114.00866279638672" /><trkpt lat="22.29562678125" lon="114.00842379638672" /><trkpt lat="22.29556178125" lon="114.00826379638671" /><trkpt lat="22.29547278125" lon="114.00812379638671" /><trkpt lat="22.29539378125" lon="114.00784079638672" /><trkpt lat="22.29535878125" lon="114.00774179638672" /><trkpt lat="22.29508378125" lon="114.00737479638671" /><trkpt lat="22.29492478125" lon="114.00731779638672" /><trkpt lat="22.29490278125" lon="114.00725979638672" /><trkpt lat="22.29490478125" lon="114.00717579638672" /><trkpt lat="22.29485678125" lon="114.00708679638672" /><trkpt lat="22.29471578125" lon="114.00710679638672" /><trkpt lat="22.29469378125" lon="114.00711179638672" /><trkpt lat="22.29467278125" lon="114.00711379638672" /><trkpt lat="22.29465078125" lon="114.00711279638672" /><trkpt lat="22.29462778125" lon="114.00710879638672" /><trkpt lat="22.29457878125" lon="114.00709579638672" /><trkpt lat="22.29440778125" lon="114.00703879638672" /><trkpt lat="22.29438478125" lon="114.00703279638672" /><trkpt lat="22.29436178125" lon="114.00702979638672" /><trkpt lat="22.29432878125" lon="114.00702879638672" /><trkpt lat="22.29430078125" lon="114.00702979638672" /><trkpt lat="22.29427478125" lon="114.00703379638672" /><trkpt lat="22.29424678125" lon="114.00704179638672" /><trkpt lat="22.29422878125" lon="114.00705079638672" /><trkpt lat="22.29419178125" lon="114.00708079638672" /><trkpt lat="22.29414078125" lon="114.00701779638672" /><trkpt lat="22.29409478125" lon="114.00696579638672" /><trkpt lat="22.29399078125" lon="114.00686679638672" /><trkpt lat="22.29390278125" lon="114.00680579638671" /><trkpt lat="22.29383178125" lon="114.00675979638672" /><trkpt lat="22.29367978125" lon="114.00669079638672" /><trkpt lat="22.29355778125" lon="114.00665079638672" /><trkpt lat="22.29325578125" lon="114.00655779638672" /><trkpt lat="22.29300978125" lon="114.00648279638672" /><trkpt lat="22.29280978125" lon="114.00639079638673" /><trkpt lat="22.29269578125" lon="114.00632479638672" /><trkpt lat="22.29233178125" lon="114.00596179638671" /><trkpt lat="22.29220878125" lon="114.00579179638672" /><trkpt lat="22.29213778125" lon="114.00568379638672" /><trkpt lat="22.29197078125" lon="114.00527679638672" /><trkpt lat="22.29189578125" lon="114.00506179638671" /><trkpt lat="22.29183378125" lon="114.00494779638672" /><trkpt lat="22.29172678125" lon="114.00490079638672" /><trkpt lat="22.29169278125" lon="114.00489579638672" /><trkpt lat="22.29164978125" lon="114.00479179638671" /><trkpt lat="22.29167778125" lon="114.00469379638672" /><trkpt lat="22.29172278125" lon="114.00465479638672" /><trkpt lat="22.29201178125" lon="114.00471779638671" /><trkpt lat="22.29207878125" lon="114.00471279638671" /><trkpt lat="22.29218678125" lon="114.00475679638672" /><trkpt lat="22.29229978125" lon="114.00476279638671" /><trkpt lat="22.29239878125" lon="114.00469579638671" /><trkpt lat="22.29243378125" lon="114.00467579638672" /><trkpt lat="22.29245578125" lon="114.00462879638673" /><trkpt lat="22.29249778125" lon="114.00454279638672" /><trkpt lat="22.29257878125" lon="114.00440979638672" /><trkpt lat="22.29256878125" lon="114.00419879638672" /><trkpt lat="22.29246978125" lon="114.00390479638672" /><trkpt lat="22.29245978125" lon="114.00376879638672" /><trkpt lat="22.29241678125" lon="114.00357379638672" /><trkpt lat="22.29237778125" lon="114.00318779638671" /><trkpt lat="22.29236878125" lon="114.00305579638672" /><trkpt lat="22.29225178125" lon="114.00279879638671" /><trkpt lat="22.29215778125" lon="114.00262079638672" /><trkpt lat="22.29210478125" lon="114.00238179638671" /><trkpt lat="22.29216878125" lon="114.00224579638672" /><trkpt lat="22.29230878125" lon="114.00215779638671" /><trkpt lat="22.29240678125" lon="114.00188379638672" /><trkpt lat="22.29243178125" lon="114.00170979638672" /><trkpt lat="22.29243278125" lon="114.00164179638672" /><trkpt lat="22.29242278125" lon="114.00145679638672" /><trkpt lat="22.29252978125" lon="114.00124479638671" /><trkpt lat="22.29266378125" lon="114.00098979638672" /><trkpt lat="22.29274278125" lon="114.00092079638672" /><trkpt lat="22.29288978125" lon="114.00080679638671" /><trkpt lat="22.29318778125" lon="114.00066879638672" /><trkpt lat="22.29322378125" lon="114.00066679638672" /><trkpt lat="22.29343878125" lon="114.00052879638672" /><trkpt lat="22.29369678125" lon="114.00039479638671" /><trkpt lat="22.29380478125" lon="114.00036179638671" /><trkpt lat="22.29392278125" lon="114.00032679638672" /><trkpt lat="22.29409078125" lon="114.00034379638672" /><trkpt lat="22.29412478125" lon="114.00029179638672" /><trkpt lat="22.29424478125" lon="114.00029479638673" /><trkpt lat="22.29433678125" lon="114.00021679638672" /><trkpt lat="22.29436178125" lon="114.00016779638672" /><trkpt lat="22.29430278125" lon="114.00010379638672" /><trkpt lat="22.29429878125" lon="114.00005179638671" /><trkpt lat="22.29438378125" lon="113.99999879638672" /><trkpt lat="22.29450278125" lon="114.00004379638672" /><trkpt lat="22.29460078125" lon="114.00015479638672" /><trkpt lat="22.29474978125" lon="114.00010479638672" /><trkpt lat="22.29493678125" lon="113.99995779638672" /><trkpt lat="22.29509278125" lon="113.99979579638672" /><trkpt lat="22.29516578125" lon="113.99974679638672" /><trkpt lat="22.29524278125" lon="113.99965279638671" /><trkpt lat="22.29537478125" lon="113.99971379638671" /><trkpt lat="22.29543878125" lon="113.99977979638672" /><trkpt lat="22.29549078125" lon="113.99979579638672" /><trkpt lat="22.29555478125" lon="113.99974079638672" /><trkpt lat="22.29572478125" lon="113.99972779638672" /><trkpt lat="22.29609778125" lon="113.99987779638671" /><trkpt lat="22.29646278125" lon="113.99971379638671" /><trkpt lat="22.29682678125" lon="113.99961379638673" /><trkpt lat="22.29695778125" lon="113.99953579638672" /><trkpt lat="22.29718278125" lon="113.99949579638673" /><trkpt lat="22.29732878125" lon="113.99950379638672" /><trkpt lat="22.29744278125" lon="113.99958479638671" /><trkpt lat="22.29757478125" lon="113.99976379638672" /><trkpt lat="22.29772078125" lon="113.99975679638672" /><trkpt lat="22.29797478125" lon="113.99958579638673" /><trkpt lat="22.29801878125" lon="113.99948079638672" /><trkpt lat="22.29821478125" lon="113.99953679638672" /><trkpt lat="22.29856078125" lon="113.99929179638671" /><trkpt lat="22.29867478125" lon="113.99913379638672" /><trkpt lat="22.29901778125" lon="113.99896079638673" /><trkpt lat="22.29910778125" lon="113.99896979638672" /><trkpt lat="22.299262798974894" lon="113.99937512083818" /><trkpt lat="22.299372332944742" lon="113.99896478169205" /><trkpt lat="22.299354239729766" lon="113.99894274541509" /><trkpt lat="22.299354813488193" lon="113.99893234751909" /><trkpt lat="22.299345193011774" lon="113.99893172735955" /><trkpt lat="22.29924875705929" lon="113.99894638097004" /><trkpt lat="22.29923799272909" lon="113.99896561629458" /><trkpt lat="22.299196297094156" lon="113.9990056092463" /><trkpt lat="22.299186676606837" lon="113.99900498911035" /><trkpt lat="22.299186102836757" lon="113.99901538721963" /><trkpt lat="22.299176482556916" lon="113.99901476708362" /><trkpt lat="22.299128564113104" lon="113.99903313489351" /><trkpt lat="22.29910778125" lon="113.99896979638672" /><trkpt lat="22.29901778125" lon="113.99896079638673" /><trkpt lat="22.29867478125" lon="113.99913379638672" /><trkpt lat="22.29856078125" lon="113.99929179638671" /><trkpt lat="22.29821478125" lon="113.99953679638672" /><trkpt lat="22.29801878125" lon="113.99948079638672" /><trkpt lat="22.29797478125" lon="113.99958579638673" /><trkpt lat="22.29772078125" lon="113.99975679638672" /><trkpt lat="22.29757478125" lon="113.99976379638672" /><trkpt lat="22.29744278125" lon="113.99958479638671" /><trkpt lat="22.29732878125" lon="113.99950379638672" /><trkpt lat="22.29718278125" lon="113.99949579638673" /><trkpt lat="22.29695778125" lon="113.99953579638672" /><trkpt lat="22.29682678125" lon="113.99961379638673" /><trkpt lat="22.29646278125" lon="113.99971379638671" /><trkpt lat="22.29609778125" lon="113.99987779638671" /><trkpt lat="22.29572478125" lon="113.99972779638672" /><trkpt lat="22.29555478125" lon="113.99974079638672" /><trkpt lat="22.29549078125" lon="113.99979579638672" /><trkpt lat="22.29543878125" lon="113.99977979638672" /><trkpt lat="22.29537478125" lon="113.99971379638671" /><trkpt lat="22.29524278125" lon="113.99965279638671" /><trkpt lat="22.29516578125" lon="113.99974679638672" /><trkpt lat="22.29509278125" lon="113.99979579638672" /><trkpt lat="22.29493678125" lon="113.99995779638672" /><trkpt lat="22.29474978125" lon="114.00010479638672" /><trkpt lat="22.29460078125" lon="114.00015479638672" /><trkpt lat="22.29450278125" lon="114.00004379638672" /><trkpt lat="22.29438378125" lon="113.99999879638672" /><trkpt lat="22.29429878125" lon="114.00005179638671" /><trkpt lat="22.29430278125" lon="114.00010379638672" /><trkpt lat="22.29436178125" lon="114.00016779638672" /><trkpt lat="22.29433678125" lon="114.00021679638672" /><trkpt lat="22.29424478125" lon="114.00029479638673" /><trkpt lat="22.29412478125" lon="114.00029179638672" /><trkpt lat="22.29409078125" lon="114.00034379638672" /><trkpt lat="22.29392278125" lon="114.00032679638672" /><trkpt lat="22.29380478125" lon="114.00036179638671" /><trkpt lat="22.29369678125" lon="114.00039479638671" /><trkpt lat="22.29343878125" lon="114.00052879638672" /><trkpt lat="22.29322378125" lon="114.00066679638672" /><trkpt lat="22.29318778125" lon="114.00066879638672" /><trkpt lat="22.29288978125" lon="114.00080679638671" /><trkpt lat="22.29274278125" lon="114.00092079638672" /><trkpt lat="22.29266378125" lon="114.00098979638672" /><trkpt lat="22.29252978125" lon="114.00124479638671" /><trkpt lat="22.29242278125" lon="114.00145679638672" /><trkpt lat="22.29243278125" lon="114.00164179638672" /><trkpt lat="22.29243178125" lon="114.00170979638672" /><trkpt lat="22.29240678125" lon="114.00188379638672" /><trkpt lat="22.29230878125" lon="114.00215779638671" /><trkpt lat="22.29216878125" lon="114.00224579638672" /><trkpt lat="22.29210478125" lon="114.00238179638671" /><trkpt lat="22.29215778125" lon="114.00262079638672" /><trkpt lat="22.29225178125" lon="114.00279879638671" /><trkpt lat="22.29236878125" lon="114.00305579638672" /><trkpt lat="22.29237778125" lon="114.00318779638671" /><trkpt lat="22.29241678125" lon="114.00357379638672" /><trkpt lat="22.29245978125" lon="114.00376879638672" /><trkpt lat="22.29246978125" lon="114.00390479638672" /><trkpt lat="22.29256878125" lon="114.00419879638672" /><trkpt lat="22.29257878125" lon="114.00440979638672" /><trkpt lat="22.29249778125" lon="114.00454279638672" /><trkpt lat="22.29245578125" lon="114.00462879638673" /><trkpt lat="22.29243378125" lon="114.00467579638672" /><trkpt lat="22.29239878125" lon="114.00469579638671" /><trkpt lat="22.29229978125" lon="114.00476279638671" /><trkpt lat="22.29218678125" lon="114.00475679638672" /><trkpt lat="22.29207878125" lon="114.00471279638671" /><trkpt lat="22.29201178125" lon="114.00471779638671" /><trkpt lat="22.29172278125" lon="114.00465479638672" /><trkpt lat="22.29167778125" lon="114.00469379638672" /><trkpt lat="22.29164978125" lon="114.00479179638671" /><trkpt lat="22.29169278125" lon="114.00489579638672" /><trkpt lat="22.29172678125" lon="114.00490079638672" /><trkpt lat="22.29183378125" lon="114.00494779638672" /><trkpt lat="22.29189578125" lon="114.00506179638671" /><trkpt lat="22.29197078125" lon="114.00527679638672" /><trkpt lat="22.29213778125" lon="114.00568379638672" /><trkpt lat="22.29220878125" lon="114.00579179638672" /><trkpt lat="22.29233178125" lon="114.00596179638671" /><trkpt lat="22.29269578125" lon="114.00632479638672" /><trkpt lat="22.29280978125" lon="114.00639079638673" /><trkpt lat="22.29282278125" lon="114.00639779638672" /><trkpt lat="22.29300978125" lon="114.00648279638672" /><trkpt lat="22.29325578125" lon="114.00655779638672" /><trkpt lat="22.29355778125" lon="114.00665079638672" /><trkpt lat="22.29367978125" lon="114.00669079638672" /><trkpt lat="22.29383178125" lon="114.00675979638672" /><trkpt lat="22.29390278125" lon="114.00680579638671" /><trkpt lat="22.29399078125" lon="114.00686679638672" /><trkpt lat="22.29409478125" lon="114.00696579638672" /><trkpt lat="22.29414078125" lon="114.00701779638672" /><trkpt lat="22.29419178125" lon="114.00708079638672" /><trkpt lat="22.29425578125" lon="114.00717779638671" /><trkpt lat="22.29429678125" lon="114.00724779638672" /><trkpt lat="22.29432478125" lon="114.00730379638672" /><trkpt lat="22.29435278125" lon="114.00737079638672" /><trkpt lat="22.29437478125" lon="114.00743379638672" /><trkpt lat="22.29439878125" lon="114.00751279638672" /><trkpt lat="22.29442178125" lon="114.00760079638673" /><trkpt lat="22.29443578125" lon="114.00768079638672" /><trkpt lat="22.29444478125" lon="114.00774979638672" /><trkpt lat="22.29444978125" lon="114.00781779638672" /><trkpt lat="22.29445178125" lon="114.00791879638672" /><trkpt lat="22.29444878125" lon="114.00798179638672" /><trkpt lat="22.29443578125" lon="114.00810279638672" /><trkpt lat="22.29442178125" lon="114.00816979638672" /><trkpt lat="22.29440778125" lon="114.00821879638671" /><trkpt lat="22.29438778125" lon="114.00827079638673" /><trkpt lat="22.29436378125" lon="114.00831979638671" /><trkpt lat="22.29432978125" lon="114.00836979638672" /><trkpt lat="22.29429178125" lon="114.00840879638672" /><trkpt lat="22.29424778125" lon="114.00844679638672" /><trkpt lat="22.29420778125" lon="114.00847079638672" /><trkpt lat="22.29416278125" lon="114.00849379638672" /><trkpt lat="22.29411678125" lon="114.00850679638671" /><trkpt lat="22.29406878125" lon="114.00851579638672" /><trkpt lat="22.294017781249998" lon="114.00851679638671" /><trkpt lat="22.29395978125" lon="114.00851279638673" /><trkpt lat="22.29387378125" lon="114.00849479638671" /><trkpt lat="22.29379178125" lon="114.00846779638673" /><trkpt lat="22.29370278125" lon="114.00843279638671" /><trkpt lat="22.29361278125" lon="114.00839379638671" /><trkpt lat="22.29355078125" lon="114.00836179638672" /><trkpt lat="22.29342378125" lon="114.00827579638671" /><trkpt lat="22.29336078125" lon="114.00822279638672" /><trkpt lat="22.29314278125" lon="114.00799279638672" /><trkpt lat="22.29304178125" lon="114.00792279638672" /><trkpt lat="22.29215878125" lon="114.00747579638671" /><trkpt lat="22.29181078125" lon="114.00729379638672" /><trkpt lat="22.29169078125" lon="114.00719979638671" /><trkpt lat="22.29156278125" lon="114.00707879638672" /><trkpt lat="22.29149478125" lon="114.00700879638671" /><trkpt lat="22.29141478125" lon="114.00698179638673" /><trkpt lat="22.29132678125" lon="114.00697879638672" /><trkpt lat="22.29125578125" lon="114.00698779638672" /><trkpt lat="22.29093778125" lon="114.00713779638671" /><trkpt lat="22.29087078125" lon="114.00717479638672" /><trkpt lat="22.29077778125" lon="114.00724079638672" /><trkpt lat="22.29072678125" lon="114.00733979638672" /><trkpt lat="22.29072178125" lon="114.00742979638672" /><trkpt lat="22.29073578125" lon="114.00752879638672" /><trkpt lat="22.29078578125" lon="114.00765079638671" /><trkpt lat="22.29111578125" lon="114.00809379638672" /><trkpt lat="22.29140278125" lon="114.00839679638672" /><trkpt lat="22.29186078125" lon="114.00888179638672" /><trkpt lat="22.29222878125" lon="114.00925479638671" /><trkpt lat="22.29238478125" lon="114.00949879638672" /><trkpt lat="22.29263978125" lon="114.00997479638671" /><trkpt lat="22.29265678125" lon="114.01009079638672" /><trkpt lat="22.29265578125" lon="114.01020479638672" /><trkpt lat="22.29257378125" lon="114.01049879638671" /><trkpt lat="22.29253278125" lon="114.01063879638671" /><trkpt lat="22.29249778125" lon="114.01078079638671" /><trkpt lat="22.29251278125" lon="114.01086979638671" /><trkpt lat="22.29255978125" lon="114.01098679638672" /><trkpt lat="22.29266278125" lon="114.01109079638672" /><trkpt lat="22.29276378125" lon="114.01112679638672" /><trkpt lat="22.29300778125" lon="114.01114379638672" /><trkpt lat="22.29311978125" lon="114.01116179638672" /><trkpt lat="22.29321578125" lon="114.01122079638672" /><trkpt lat="22.29327378125" lon="114.01130679638672" /><trkpt lat="22.29331378125" lon="114.01142479638672" /><trkpt lat="22.29354578125" lon="114.01236579638672" /><trkpt lat="22.29359478125" lon="114.01257979638672" /><trkpt lat="22.29364278125" lon="114.01270179638672" /><trkpt lat="22.29368478125" lon="114.01277779638671" /><trkpt lat="22.29372978125" lon="114.01286879638671" /><trkpt lat="22.293820781249998" lon="114.01295279638671" /><trkpt lat="22.29391378125" lon="114.01302179638672" /><trkpt lat="22.29417278125" lon="114.01324179638672" /><trkpt lat="22.29435878125" lon="114.01342379638672" /><trkpt lat="22.29448878125" lon="114.01369079638671" /><trkpt lat="22.29457578125" lon="114.01402079638672" /><trkpt lat="22.29463278125" lon="114.01415079638672" /><trkpt lat="22.29470178125" lon="114.01430879638671" /><trkpt lat="22.29480578125" lon="114.01441179638672" /><trkpt lat="22.29484278125" lon="114.01444579638672" /><trkpt lat="22.29500278125" lon="114.01457979638671" /><trkpt lat="22.29541078125" lon="114.01429179638671" /><trkpt lat="22.29544878125" lon="114.01438479638672" /><trkpt lat="22.29556078125" lon="114.01465979638672" /><trkpt lat="22.29564078125" lon="114.01487479638672" /><trkpt lat="22.29570778125" lon="114.01498479638671" /><trkpt lat="22.29579278125" lon="114.01506679638672" /><trkpt lat="22.29606078125" lon="114.01524379638671" /><trkpt lat="22.29622478125" lon="114.01533579638672" /><trkpt lat="22.29642778125" lon="114.01541679638672" /><trkpt lat="22.29650678125" lon="114.01553379638672" /><trkpt lat="22.29655278125" lon="114.01573979638673" /><trkpt lat="22.29650278125" lon="114.01593479638672" /><trkpt lat="22.29647978125" lon="114.01606679638672" /><trkpt lat="22.29661278125" lon="114.01600479638672" /><trkpt lat="22.29674678125" lon="114.01606779638672" /><trkpt lat="22.29672278125" lon="114.01609579638672" /><trkpt lat="22.29666478125" lon="114.01615179638672" /><trkpt lat="22.29688578125" lon="114.01682779638672" /><trkpt lat="22.29682178125" lon="114.01696079638671" /><trkpt lat="22.29688678125" lon="114.01725579638672" /><trkpt lat="22.29686178125" lon="114.01732379638672" /><trkpt lat="22.29686878125" lon="114.01744179638672" /><trkpt lat="22.29682578125" lon="114.01745679638672" /><trkpt lat="22.29683978125" lon="114.01750779638672" /><trkpt lat="22.29695620824253" lon="114.01780708606927" /></trkseg></trk></gpx>