<?xml version='1.0' encoding='UTF-8' ?><gpx version="1.1" creator="HikingTrailHK" xsi:schemaLocation="http://www.topografix.com/GPX/1/1 http://www.topografix.com/GPX/1/1/gpx.xsd" xmlns="http://www.topografix.com/GPX/1/1" xmlns:xsi="http://www.w3.org/2001/XMLSchema-instance"><metadata><name>慈愛博康</name><desc></desc></metadata><trk><trkseg><trkpt lat="22.35175378125" lon="114.19992179638672" /><trkpt lat="22.35221778125" lon="114.19992579638672" /><trkpt lat="22.35247378125" lon="114.19983979638671" /><trkpt lat="22.35260778125" lon="114.19976679638673" /><trkpt lat="22.35273378125" lon="114.19979279638672" /><trkpt lat="22.35281678125" lon="114.19968279638672" /><trkpt lat="22.35304278125" lon="114.19970479638671" /><trkpt lat="22.35313278125" lon="114.19958579638671" /><trkpt lat="22.35324078125" lon="114.19942379638672" /><trkpt lat="22.35336578125" lon="114.19929579638672" /><trkpt lat="22.35349078125" lon="114.19960079638672" /><trkpt lat="22.35344278125" lon="114.19965579638672" /><trkpt lat="22.35339178125" lon="114.19981879638672" /><trkpt lat="22.35347778125" lon="114.19994679638671" /><trkpt lat="22.35366878125" lon="114.19973279638671" /><trkpt lat="22.35367878125" lon="114.19966879638672" /><trkpt lat="22.35386778125" lon="114.19922279638672" /><trkpt lat="22.35393278125" lon="114.19913279638672" /><trkpt lat="22.35396978125" lon="114.19912479638671" /><trkpt lat="22.35416878125" lon="114.19918979638672" /><trkpt lat="22.35444678125" lon="114.19907179638672" /><trkpt lat="22.35471178125" lon="114.19915479638672" /><trkpt lat="22.35483578125" lon="114.19907579638672" /><trkpt lat="22.35496978125" lon="114.19909679638671" /><trkpt lat="22.35521678125" lon="114.19902279638671" /><trkpt lat="22.35522978125" lon="114.19905879638672" /><trkpt lat="22.35519078125" lon="114.19916979638671" /><trkpt lat="22.35497878125" lon="114.19946079638672" /><trkpt lat="22.35503978125" lon="114.19947879638671" /><trkpt lat="22.35508978125" lon="114.19945879638672" /><trkpt lat="22.35511978125" lon="114.19939979638671" /><trkpt lat="22.35519278125" lon="114.19931879638672" /><trkpt lat="22.35538078125" lon="114.19914979638672" /><trkpt lat="22.35542978125" lon="114.19895179638672" /><trkpt lat="22.35547878125" lon="114.19883079638672" /><trkpt lat="22.35550878125" lon="114.19880979638671" /><trkpt lat="22.35553878125" lon="114.19880979638671" /><trkpt lat="22.35556878125" lon="114.19882979638672" /><trkpt lat="22.35557978125" lon="114.19884779638672" /><trkpt lat="22.35557878125" lon="114.19890879638672" /><trkpt lat="22.35553078125" lon="114.19897779638671" /><trkpt lat="22.35550078125" lon="114.19903679638672" /><trkpt lat="22.35547978125" lon="114.19910079638672" /><trkpt lat="22.35546078125" lon="114.19932879638672" /><trkpt lat="22.35540078125" lon="114.19946879638672" /><trkpt lat="22.35541078125" lon="114.19953879638672" /><trkpt lat="22.35548078125" lon="114.19947979638673" /><trkpt lat="22.35553078125" lon="114.19945779638672" /><trkpt lat="22.35566978125" lon="114.19942779638671" /><trkpt lat="22.35584978125" lon="114.19939279638672" /><trkpt lat="22.35588778125" lon="114.19939579638672" /><trkpt lat="22.35590378125" lon="114.19938179638672" /><trkpt lat="22.35597978125" lon="114.19936679638671" /><trkpt lat="22.35608678125" lon="114.19934179638672" /><trkpt lat="22.35616678125" lon="114.19932479638672" /><trkpt lat="22.35622378125" lon="114.19932279638672" /><trkpt lat="22.35641978125" lon="114.19945179638673" /><trkpt lat="22.35649978125" lon="114.19950779638671" /><trkpt lat="22.35652578125" lon="114.19951179638672" /><trkpt lat="22.35663578125" lon="114.19952379638671" /><trkpt lat="22.35676178125" lon="114.19944179638672" /><trkpt lat="22.35686678125" lon="114.19943079638672" /><trkpt lat="22.35696478125" lon="114.19945479638672" /><trkpt lat="22.35717278125" lon="114.19948379638672" /><trkpt lat="22.35745778125" lon="114.19943179638672" /><trkpt lat="22.35766778125" lon="114.19953979638672" /><trkpt lat="22.35784578125" lon="114.19957779638672" /><trkpt lat="22.35812878125" lon="114.19966479638671" /><trkpt lat="22.35826978125" lon="114.19959679638671" /><trkpt lat="22.35844978125" lon="114.19958479638672" /><trkpt lat="22.35860978125" lon="114.19955379638672" /><trkpt lat="22.35914478125" lon="114.19963879638672" /><trkpt lat="22.35928578125" lon="114.19971679638672" /><trkpt lat="22.35968578125" lon="114.19999979638672" /><trkpt lat="22.35982978125" lon="114.20001179638672" /><trkpt lat="22.35986678125" lon="114.20004179638671" /><trkpt lat="22.35998278125" lon="114.20008979638672" /><trkpt lat="22.36018878125" lon="114.20017579638672" /><trkpt lat="22.36044378125" lon="114.19993979638672" /><trkpt lat="22.36103678125" lon="114.19978079638672" /><trkpt lat="22.36132578125" lon="114.19972979638672" /><trkpt lat="22.36135478125" lon="114.19973079638672" /><trkpt lat="22.36150678125" lon="114.19967379638672" /><trkpt lat="22.36184878125" lon="114.19955979638672" /><trkpt lat="22.36201678125" lon="114.19952779638672" /><trkpt lat="22.36203778125" lon="114.19951179638672" /><trkpt lat="22.36256378125" lon="114.19950879638672" /><trkpt lat="22.36257978125" lon="114.19951279638671" /><trkpt lat="22.36304078125" lon="114.19931679638673" /><trkpt lat="22.36319678125" lon="114.19936679638671" /><trkpt lat="22.36336578125" lon="114.19927179638672" /><trkpt lat="22.36358478125" lon="114.19916779638672" /><trkpt lat="22.36385078125" lon="114.19878679638671" /><trkpt lat="22.36405078125" lon="114.19869579638672" /><trkpt lat="22.36414278125" lon="114.19872879638672" /><trkpt lat="22.36444678125" lon="114.19901279638673" /><trkpt lat="22.36457978125" lon="114.19894679638672" /><trkpt lat="22.36475978125" lon="114.19882579638671" /><trkpt lat="22.36478878125" lon="114.19882679638673" /><trkpt lat="22.36493278125" lon="114.19876979638671" /><trkpt lat="22.36513878125" lon="114.19868479638671" /><trkpt lat="22.36520678125" lon="114.19861579638672" /><trkpt lat="22.36529978125" lon="114.19848879638671" /><trkpt lat="22.36534578125" lon="114.19834779638671" /><trkpt lat="22.36534978125" lon="114.19832179638672" /><trkpt lat="22.36543078125" lon="114.19821779638671" /><trkpt lat="22.36553378125" lon="114.19819579638671" /><trkpt lat="22.36558478125" lon="114.19822879638672" /><trkpt lat="22.36565778125" lon="114.19825079638672" /><trkpt lat="22.36575978125" lon="114.19814879638672" /><trkpt lat="22.36606278125" lon="114.19795479638672" /><trkpt lat="22.36609778125" lon="114.19796879638672" /><trkpt lat="22.36618478125" lon="114.19795379638671" /><trkpt lat="22.36626378125" lon="114.19786379638671" /><trkpt lat="22.36626778125" lon="114.19784879638672" /><trkpt lat="22.36645178125" lon="114.19775279638672" /><trkpt lat="22.36687978125" lon="114.19771579638672" /><trkpt lat="22.36701978125" lon="114.19778979638672" /><trkpt lat="22.36720978125" lon="114.19779479638672" /><trkpt lat="22.36732178125" lon="114.19780479638672" /><trkpt lat="22.36734978125" lon="114.19779479638672" /><trkpt lat="22.36754178125" lon="114.19773279638672" /><trkpt lat="22.36766678125" lon="114.19756179638672" /><trkpt lat="22.36783078125" lon="114.19744579638672" /><trkpt lat="22.36814178125" lon="114.19730879638672" /><trkpt lat="22.36844678125" lon="114.19720979638672" /><trkpt lat="22.36865178125" lon="114.19701379638671" /><trkpt lat="22.36881878125" lon="114.19698179638672" /><trkpt lat="22.36892178125" lon="114.19698679638672" /><trkpt lat="22.36902078125" lon="114.19699079638671" /><trkpt lat="22.36920078125" lon="114.19707679638672" /><trkpt lat="22.36941478125" lon="114.19705079638672" /><trkpt lat="22.37001978125" lon="114.19680779638672" /><trkpt lat="22.37067478125" lon="114.19654579638672" /><trkpt lat="22.37143078125" lon="114.19630779638672" /><trkpt lat="22.37159978125" lon="114.19627179638672" /><trkpt lat="22.37172578125" lon="114.19626179638672" /><trkpt lat="22.37244878125" lon="114.19628179638671" /><trkpt lat="22.37244478125" lon="114.19614379638672" /><trkpt lat="22.37246878125" lon="114.19598879638671" /><trkpt lat="22.37250678125" lon="114.19586179638672" /><trkpt lat="22.37251578125" lon="114.19583079638672" /><trkpt lat="22.37258678125" lon="114.19573079638671" /><trkpt lat="22.37264778125" lon="114.19566879638671" /><trkpt lat="22.37271678125" lon="114.19563679638672" /><trkpt lat="22.37287178125" lon="114.19559479638671" /><trkpt lat="22.37321078125" lon="114.19558079638672" /><trkpt lat="22.37335878125" lon="114.19559579638671" /><trkpt lat="22.37350478125" lon="114.19562679638672" /><trkpt lat="22.37366278125" lon="114.19566779638672" /><trkpt lat="22.37382478125" lon="114.19572379638672" /><trkpt lat="22.37399678125" lon="114.19574679638671" /><trkpt lat="22.37468278125" lon="114.19577679638672" /><trkpt lat="22.37473178125" lon="114.19578779638672" /><trkpt lat="22.37486478125" lon="114.19581579638673" /><trkpt lat="22.37503678125" lon="114.19589979638671" /><trkpt lat="22.37505878125" lon="114.19580579638672" /><trkpt lat="22.37509378125" lon="114.19563079638672" /><trkpt lat="22.37533378125" lon="114.19531579638672" /><trkpt lat="22.37566678125" lon="114.19508079638672" /><trkpt lat="22.37556578125" lon="114.19496879638672" /><trkpt lat="22.37575678125" lon="114.19487279638672" /><trkpt lat="22.375757710700768" lon="114.19482757056144" /></trkseg></trk></gpx>