<?xml version='1.0' encoding='UTF-8' ?><gpx version="1.1" creator="HikingTrailHK" xsi:schemaLocation="http://www.topografix.com/GPX/1/1 http://www.topografix.com/GPX/1/1/gpx.xsd" xmlns="http://www.topografix.com/GPX/1/1" xmlns:xsi="http://www.w3.org/2001/XMLSchema-instance"><metadata><name>我的路徑 @ 2019-07-21 21:26:39</name><desc></desc></metadata><trk><trkseg><trkpt lat="22.40626078125" lon="114.32580279638672" /><trkpt lat="22.40621378125" lon="114.32588179638672" /><trkpt lat="22.40591178125" lon="114.32579779638672" /><trkpt lat="22.405894637886746" lon="114.32588213336048" /><trkpt lat="22.405915217392828" lon="114.3259543109763" /><trkpt lat="22.40594978125" lon="114.32605579638673" /><trkpt lat="22.40600778125" lon="114.32625379638672" /><trkpt lat="22.40611078125" lon="114.32673279638672" /><trkpt lat="22.40622778125" lon="114.32731079638671" /><trkpt lat="22.40647778125" lon="114.32792779638672" /><trkpt lat="22.40672878125" lon="114.32841979638673" /><trkpt lat="22.40704778125" lon="114.32845679638672" /><trkpt lat="22.40735578125" lon="114.32848179638673" /><trkpt lat="22.40768578125" lon="114.32854379638673" /><trkpt lat="22.40786778125" lon="114.32870379638672" /><trkpt lat="22.40805078125" lon="114.32875279638672" /><trkpt lat="22.40822078125" lon="114.32893779638673" /><trkpt lat="22.40869978125" lon="114.32913479638673" /><trkpt lat="22.40882478125" lon="114.32957879638671" /><trkpt lat="22.40875678125" lon="114.32968979638672" /><trkpt lat="22.40885878125" lon="114.32992379638672" /><trkpt lat="22.40930378125" lon="114.33035479638671" /><trkpt lat="22.40930378125" lon="114.33051579638672" /><trkpt lat="22.40913278125" lon="114.33099579638672" /><trkpt lat="22.40916678125" lon="114.33113179638671" /><trkpt lat="22.40907578125" lon="114.33129179638672" /><trkpt lat="22.40922378125" lon="114.33148879638672" /><trkpt lat="22.40925778125" lon="114.33182179638672" /><trkpt lat="22.40941778125" lon="114.33206779638672" /><trkpt lat="22.40951078125" lon="114.33214679638672" /><trkpt lat="22.40955678125" lon="114.33220179638671" /><trkpt lat="22.40965378125" lon="114.33222679638672" /><trkpt lat="22.40964178125" lon="114.33236879638672" /><trkpt lat="22.40944878125" lon="114.33252279638671" /><trkpt lat="22.40933978125" lon="114.33281279638672" /><trkpt lat="22.40921478125" lon="114.33300979638672" /><trkpt lat="22.40924278125" lon="114.33314479638672" /><trkpt lat="22.40916378125" lon="114.33324379638672" /><trkpt lat="22.40914678125" lon="114.33340379638672" /><trkpt lat="22.40903278125" lon="114.33381079638671" /><trkpt lat="22.40903278125" lon="114.33406279638672" /><trkpt lat="22.40892978125" lon="114.33413079638672" /><trkpt lat="22.40899278125" lon="114.33426079638672" /><trkpt lat="22.40884978125" lon="114.33490079638672" /><trkpt lat="22.40831478125" lon="114.33559179638672" /><trkpt lat="22.40816678125" lon="114.33575179638672" /><trkpt lat="22.40808678125" lon="114.33597379638672" /><trkpt lat="22.40813778125" lon="114.33632479638672" /><trkpt lat="22.40824078125" lon="114.33647879638671" /><trkpt lat="22.40822878125" lon="114.33690379638672" /><trkpt lat="22.40817778125" lon="114.33706379638672" /><trkpt lat="22.40812078125" lon="114.33710679638672" /><trkpt lat="22.40814978125" lon="114.33742179638672" /><trkpt lat="22.40806978125" lon="114.33759379638671" /><trkpt lat="22.40806378125" lon="114.33813679638672" /><trkpt lat="22.40815578125" lon="114.33820379638672" /><trkpt lat="22.40813178125" lon="114.33833879638672" /><trkpt lat="22.40809278125" lon="114.33844379638671" /><trkpt lat="22.40805678125" lon="114.33855279638672" /><trkpt lat="22.40803178125" lon="114.33867279638672" /><trkpt lat="22.40802178125" lon="114.33878479638672" /><trkpt lat="22.40803678125" lon="114.33890479638671" /><trkpt lat="22.40804678125" lon="114.33900579638672" /><trkpt lat="22.40806578125" lon="114.33911279638671" /><trkpt lat="22.40807778125" lon="114.33924479638672" /><trkpt lat="22.40808978125" lon="114.33938179638672" /><trkpt lat="22.40810178125" lon="114.33950979638672" /><trkpt lat="22.40813978125" lon="114.33959879638672" /><trkpt lat="22.40816978125" lon="114.33969479638672" /><trkpt lat="22.40820978125" lon="114.33979879638672" /><trkpt lat="22.40821578125" lon="114.33988179638672" /><trkpt lat="22.40824378125" lon="114.34001779638672" /><trkpt lat="22.40827778125" lon="114.34009479638672" /><trkpt lat="22.40830478125" lon="114.34019579638672" /><trkpt lat="22.40827678125" lon="114.34029779638672" /><trkpt lat="22.40822878125" lon="114.34038279638672" /><trkpt lat="22.40818078125" lon="114.34046679638672" /><trkpt lat="22.40815578125" lon="114.34055079638672" /><trkpt lat="22.40817078125" lon="114.34064779638672" /><trkpt lat="22.40818678125" lon="114.34075779638673" /><trkpt lat="22.40821778125" lon="114.34086379638671" /><trkpt lat="22.40819678125" lon="114.34097779638672" /><trkpt lat="22.40818778125" lon="114.34108979638673" /><trkpt lat="22.40815378125" lon="114.34117679638672" /><trkpt lat="22.40823878125" lon="114.34134579638672" /><trkpt lat="22.40829378125" lon="114.34137879638672" /><trkpt lat="22.40833278125" lon="114.34162079638672" /><trkpt lat="22.40837878125" lon="114.34178279638672" /><trkpt lat="22.40834678125" lon="114.34191379638672" /><trkpt lat="22.40833578125" lon="114.34200979638672" /><trkpt lat="22.40828278125" lon="114.34216779638672" /><trkpt lat="22.40827678125" lon="114.34234079638672" /><trkpt lat="22.40829178125" lon="114.34243579638672" /><trkpt lat="22.40830378125" lon="114.34264879638671" /><trkpt lat="22.40835878125" lon="114.34274479638673" /><trkpt lat="22.40839178125" lon="114.34282679638672" /><trkpt lat="22.40841878125" lon="114.34303279638672" /><trkpt lat="22.40847978125" lon="114.34310879638672" /><trkpt lat="22.40862278125" lon="114.34325279638672" /><trkpt lat="22.40862678125" lon="114.34335479638672" /><trkpt lat="22.40863678125" lon="114.34342979638672" /><trkpt lat="22.40867778125" lon="114.34361179638672" /><trkpt lat="22.40871078125" lon="114.34370979638672" /><trkpt lat="22.40870878125" lon="114.34388679638671" /><trkpt lat="22.40865778125" lon="114.34404079638672" /><trkpt lat="22.40865278125" lon="114.34412979638672" /><trkpt lat="22.40866178125" lon="114.34427179638672" /><trkpt lat="22.40862678125" lon="114.34444679638672" /><trkpt lat="22.40859478125" lon="114.34468179638672" /><trkpt lat="22.40855778125" lon="114.34487079638672" /><trkpt lat="22.40853778125" lon="114.34499379638672" /><trkpt lat="22.40853878125" lon="114.34518879638672" /><trkpt lat="22.40847278125" lon="114.34543179638672" /><trkpt lat="22.40843578125" lon="114.34559479638672" /><trkpt lat="22.40829078125" lon="114.34581879638672" /><trkpt lat="22.40823578125" lon="114.34591079638672" /><trkpt lat="22.40820678125" lon="114.34601279638672" /><trkpt lat="22.40813778125" lon="114.34609679638672" /><trkpt lat="22.40808578125" lon="114.34618479638672" /><trkpt lat="22.40806978125" lon="114.34627879638671" /><trkpt lat="22.40805278125" lon="114.34638079638673" /><trkpt lat="22.40802478125" lon="114.34648579638672" /><trkpt lat="22.40799778125" lon="114.34658679638672" /><trkpt lat="22.40800778125" lon="114.34668979638671" /><trkpt lat="22.40801378125" lon="114.34679079638671" /><trkpt lat="22.40802778125" lon="114.34692279638672" /><trkpt lat="22.40802178125" lon="114.34697779638672" /><trkpt lat="22.40801878125" lon="114.34708879638671" /><trkpt lat="22.40798778125" lon="114.34716779638671" /><trkpt lat="22.40799078125" lon="114.34722279638672" /><trkpt lat="22.40800178125" lon="114.34733279638672" /><trkpt lat="22.40794678125" lon="114.34742579638672" /><trkpt lat="22.40797078125" lon="114.34758179638672" /><trkpt lat="22.40796278125" lon="114.34765479638672" /><trkpt lat="22.40787178125" lon="114.34776279638672" /><trkpt lat="22.40786378125" lon="114.34782679638671" /><trkpt lat="22.40782178125" lon="114.34792779638671" /><trkpt lat="22.40780478125" lon="114.34805879638672" /><trkpt lat="22.40777578125" lon="114.34820679638672" /><trkpt lat="22.40778478125" lon="114.34828479638672" /><trkpt lat="22.40778678125" lon="114.34835879638672" /><trkpt lat="22.40776078125" lon="114.34848779638672" /><trkpt lat="22.40774378125" lon="114.34858479638672" /><trkpt lat="22.40771278125" lon="114.34866879638672" /><trkpt lat="22.40769278125" lon="114.34877779638671" /><trkpt lat="22.40764878125" lon="114.34890379638672" /><trkpt lat="22.40757778125" lon="114.34902679638672" /><trkpt lat="22.40753678125" lon="114.34912479638672" /><trkpt lat="22.40753778125" lon="114.34923279638672" /><trkpt lat="22.40752078125" lon="114.34935779638671" /><trkpt lat="22.40750878125" lon="114.34948379638672" /><trkpt lat="22.40748578125" lon="114.34955979638671" /><trkpt lat="22.40744978125" lon="114.34966579638672" /><trkpt lat="22.40740278125" lon="114.34984779638671" /><trkpt lat="22.40736678125" lon="114.34990879638671" /><trkpt lat="22.40731878125" lon="114.35001679638673" /><trkpt lat="22.40726878125" lon="114.35006679638671" /><trkpt lat="22.40720278125" lon="114.35022079638672" /><trkpt lat="22.40711078125" lon="114.35031179638672" /><trkpt lat="22.40708178125" lon="114.35041079638673" /><trkpt lat="22.40711978125" lon="114.35047179638671" /><trkpt lat="22.40712178125" lon="114.35058779638672" /><trkpt lat="22.40709678125" lon="114.35064279638672" /><trkpt lat="22.40697878125" lon="114.35068679638673" /><trkpt lat="22.40690078125" lon="114.35065179638671" /><trkpt lat="22.40679778125" lon="114.35066579638672" /><trkpt lat="22.40670178125" lon="114.35061579638672" /><trkpt lat="22.40659678125" lon="114.35062079638672" /><trkpt lat="22.40651978125" lon="114.35070579638672" /><trkpt lat="22.40645478125" lon="114.35071279638672" /><trkpt lat="22.40631278125" lon="114.35079479638672" /><trkpt lat="22.40622278125" lon="114.35093579638672" /><trkpt lat="22.40614078125" lon="114.35110779638671" /><trkpt lat="22.40611578125" lon="114.35113879638672" /><trkpt lat="22.40611678125" lon="114.35127279638672" /><trkpt lat="22.40610878125" lon="114.35138079638672" /><trkpt lat="22.40607578125" lon="114.35149279638672" /><trkpt lat="22.40606278125" lon="114.35161979638671" /><trkpt lat="22.40608478125" lon="114.35172379638672" /><trkpt lat="22.40608578125" lon="114.35177679638672" /><trkpt lat="22.40605978125" lon="114.35187779638672" /><trkpt lat="22.40606278125" lon="114.35201679638672" /><trkpt lat="22.40603978125" lon="114.35211579638671" /><trkpt lat="22.40593178125" lon="114.35223079638672" /><trkpt lat="22.40590478125" lon="114.35232379638671" /><trkpt lat="22.40586078125" lon="114.35240879638671" /><trkpt lat="22.40588078125" lon="114.35252379638672" /><trkpt lat="22.40585278125" lon="114.35262679638672" /><trkpt lat="22.40584078125" lon="114.35275679638671" /><trkpt lat="22.40584178125" lon="114.35282679638672" /><trkpt lat="22.40591378125" lon="114.35296079638672" /><trkpt lat="22.40592178125" lon="114.35316179638671" /><trkpt lat="22.40589678125" lon="114.35326879638671" /><trkpt lat="22.40595278125" lon="114.35338979638672" /><trkpt lat="22.40597678125" lon="114.35358179638672" /><trkpt lat="22.40596778125" lon="114.35375279638671" /><trkpt lat="22.40600378125" lon="114.35389779638672" /><trkpt lat="22.40603678125" lon="114.35406879638671" /><trkpt lat="22.40602278125" lon="114.35422279638672" /><trkpt lat="22.40596378125" lon="114.35433579638672" /><trkpt lat="22.40596578125" lon="114.35440879638672" /><trkpt lat="22.40583578125" lon="114.35462079638671" /><trkpt lat="22.40585478125" lon="114.35470379638672" /><trkpt lat="22.40583878125" lon="114.35479179638672" /><trkpt lat="22.40588778125" lon="114.35493779638672" /><trkpt lat="22.40588178125" lon="114.35499579638672" /><trkpt lat="22.40590678125" lon="114.35510179638672" /><trkpt lat="22.40589278125" lon="114.35515079638672" /><trkpt lat="22.40596278125" lon="114.35520579638671" /><trkpt lat="22.40599878125" lon="114.35532379638671" /><trkpt lat="22.40596878125" lon="114.35542679638672" /><trkpt lat="22.40589378125" lon="114.35552579638671" /><trkpt lat="22.40610978125" lon="114.35548779638673" /><trkpt lat="22.40621478125" lon="114.35550079638672" /><trkpt lat="22.40646578125" lon="114.35547079638673" /><trkpt lat="22.40722178125" lon="114.35572179638672" /><trkpt lat="22.40741878125" lon="114.35593579638672" /><trkpt lat="22.40747878125" lon="114.35616479638672" /><trkpt lat="22.40751878125" lon="114.35636579638673" /><trkpt lat="22.40755078125" lon="114.35648279638671" /><trkpt lat="22.40750778125" lon="114.35672179638672" /><trkpt lat="22.40750978125" lon="114.35677179638672" /><trkpt lat="22.40752378125" lon="114.35716979638671" /><trkpt lat="22.40767778125" lon="114.35760179638672" /><trkpt lat="22.40769578125" lon="114.35785379638672" /><trkpt lat="22.40785678125" lon="114.35802079638673" /><trkpt lat="22.40791778125" lon="114.35828479638671" /><trkpt lat="22.40799578125" lon="114.35839879638672" /><trkpt lat="22.40810678125" lon="114.35831679638672" /><trkpt lat="22.40827078125" lon="114.35814379638671" /><trkpt lat="22.40835978125" lon="114.35802879638672" /><trkpt lat="22.40863878125" lon="114.35744479638672" /><trkpt lat="22.40885578125" lon="114.35744279638672" /><trkpt lat="22.40888478125" lon="114.35715279638671" /><trkpt lat="22.40893578125" lon="114.35682179638673" /><trkpt lat="22.41022878125" lon="114.35650479638672" /><trkpt lat="22.41067678125" lon="114.35655579638671" /><trkpt lat="22.41112778125" lon="114.35641279638672" /><trkpt lat="22.41155578125" lon="114.35639479638672" /><trkpt lat="22.41161078125" lon="114.35627279638672" /><trkpt lat="22.41201078125" lon="114.35607079638672" /><trkpt lat="22.41249278125" lon="114.35570679638671" /><trkpt lat="22.41262378125" lon="114.35542979638672" /><trkpt lat="22.41299878125" lon="114.35530379638672" /><trkpt lat="22.41308278125" lon="114.35520279638672" /><trkpt lat="22.41351978125" lon="114.35491879638671" /><trkpt lat="22.41387078125" lon="114.35535579638672" /><trkpt lat="22.41390178125" lon="114.35569579638671" /><trkpt lat="22.41397978125" lon="114.35569979638672" /><trkpt lat="22.41552478125" lon="114.35463779638673" /><trkpt lat="22.41628378125" lon="114.35452679638672" /><trkpt lat="22.41665578125" lon="114.35435379638672" /><trkpt lat="22.41686978125" lon="114.35409979638672" /><trkpt lat="22.41719378125" lon="114.35406379638673" /><trkpt lat="22.41722578125" lon="114.35416879638672" /><trkpt lat="22.41771978125" lon="114.35438279638672" /><trkpt lat="22.41794078125" lon="114.35451779638672" /><trkpt lat="22.41826778125" lon="114.35450179638671" /><trkpt lat="22.41857578125" lon="114.35429779638672" /><trkpt lat="22.41877878125" lon="114.35422179638672" /><trkpt lat="22.41888678125" lon="114.35400079638671" /><trkpt lat="22.41911578125" lon="114.35388479638672" /><trkpt lat="22.41927578125" lon="114.35371679638672" /><trkpt lat="22.41926478125" lon="114.35339579638672" /><trkpt lat="22.41957678125" lon="114.35335879638671" /><trkpt lat="22.42010678125" lon="114.35242579638673" /><trkpt lat="22.42067378125" lon="114.35231879638673" /><trkpt lat="22.42092278125" lon="114.35190379638672" /><trkpt lat="22.42106478125" lon="114.35169079638672" /><trkpt lat="22.42111278125" lon="114.35142679638672" /><trkpt lat="22.42133878125" lon="114.35119879638673" /><trkpt lat="22.42134578125" lon="114.35106079638672" /><trkpt lat="22.42143278125" lon="114.35097079638672" /><trkpt lat="22.42159378125" lon="114.35065979638672" /><trkpt lat="22.42154578125" lon="114.35052479638672" /><trkpt lat="22.42148378125" lon="114.35021479638672" /><trkpt lat="22.421419781250002" lon="114.34989079638672" /><trkpt lat="22.42150478125" lon="114.34948679638671" /><trkpt lat="22.42153778125" lon="114.34932779638672" /><trkpt lat="22.42156778125" lon="114.34904379638672" /><trkpt lat="22.42160978125" lon="114.34890179638671" /><trkpt lat="22.42156678125" lon="114.34872379638672" /><trkpt lat="22.42155378125" lon="114.34857379638672" /><trkpt lat="22.42164978125" lon="114.34839879638672" /><trkpt lat="22.42180278125" lon="114.34816679638672" /><trkpt lat="22.42189378125" lon="114.34786879638672" /><trkpt lat="22.42197478125" lon="114.34781879638672" /><trkpt lat="22.42202778125" lon="114.34772179638672" /><trkpt lat="22.42209878125" lon="114.34762779638672" /><trkpt lat="22.42214878125" lon="114.34745979638672" /><trkpt lat="22.42217778125" lon="114.34735879638671" /><trkpt lat="22.42232578125" lon="114.34711479638672" /><trkpt lat="22.42224478125" lon="114.34704579638672" /><trkpt lat="22.42217178125" lon="114.34698079638672" /><trkpt lat="22.42235078125" lon="114.34689279638673" /><trkpt lat="22.42253078125" lon="114.34682479638671" /><trkpt lat="22.42273478125" lon="114.34665079638671" /><trkpt lat="22.42288278125" lon="114.34652379638672" /><trkpt lat="22.42298478125" lon="114.34635879638672" /><trkpt lat="22.42305478125" lon="114.34613879638673" /><trkpt lat="22.42309478125" lon="114.34601279638672" /><trkpt lat="22.42313278125" lon="114.34571779638672" /><trkpt lat="22.42317178125" lon="114.34546279638671" /><trkpt lat="22.42319578125" lon="114.34536679638671" /><trkpt lat="22.42320478125" lon="114.34533179638672" /><trkpt lat="22.42315478125" lon="114.34489579638672" /><trkpt lat="22.42324178125" lon="114.34481479638671" /><trkpt lat="22.42336378125" lon="114.34474079638672" /><trkpt lat="22.42346378125" lon="114.34456079638672" /><trkpt lat="22.42344878125" lon="114.34438479638672" /><trkpt lat="22.42342178125" lon="114.34423479638671" /><trkpt lat="22.42349078125" lon="114.34411079638672" /><trkpt lat="22.42355278125" lon="114.34390879638671" /><trkpt lat="22.42367178125" lon="114.34380879638672" /><trkpt lat="22.42371378125" lon="114.34377279638672" /><trkpt lat="22.42381078125" lon="114.34350279638672" /><trkpt lat="22.42384278125" lon="114.34334679638673" /><trkpt lat="22.42399778125" lon="114.34331179638671" /><trkpt lat="22.42409778125" lon="114.34325879638672" /><trkpt lat="22.42420978125" lon="114.34311579638671" /><trkpt lat="22.42460178125" lon="114.34284779638672" /><trkpt lat="22.42472378125" lon="114.34268879638672" /><trkpt lat="22.42499078125" lon="114.34266779638672" /><trkpt lat="22.42500178125" lon="114.34264379638672" /><trkpt lat="22.42496878125" lon="114.34250279638673" /><trkpt lat="22.42489378125" lon="114.34204079638671" /><trkpt lat="22.42489978125" lon="114.34179279638671" /><trkpt lat="22.42489578125" lon="114.34159979638672" /><trkpt lat="22.42479278125" lon="114.34123979638672" /><trkpt lat="22.42481878125" lon="114.34102779638673" /><trkpt lat="22.42478778125" lon="114.34088679638671" /><trkpt lat="22.42471878125" lon="114.34078679638672" /><trkpt lat="22.42469978125" lon="114.34069479638671" /><trkpt lat="22.42474778125" lon="114.34056079638673" /><trkpt lat="22.42467978125" lon="114.34035079638672" /><trkpt lat="22.42462978125" lon="114.34011779638672" /><trkpt lat="22.42467178125" lon="114.33989979638672" /><trkpt lat="22.42467478125" lon="114.33935179638672" /><trkpt lat="22.42463378125" lon="114.33921079638672" /><trkpt lat="22.42489578125" lon="114.33905379638672" /><trkpt lat="22.42492878125" lon="114.33897779638671" /><trkpt lat="22.42483478125" lon="114.33878079638671" /><trkpt lat="22.42486178125" lon="114.33851279638672" /><trkpt lat="22.42490478125" lon="114.33832479638671" /><trkpt lat="22.42499378125" lon="114.33816179638671" /><trkpt lat="22.42501678125" lon="114.33805779638672" /><trkpt lat="22.42503278125" lon="114.33792479638672" /><trkpt lat="22.42508778125" lon="114.33782279638672" /><trkpt lat="22.42511178125" lon="114.33772679638672" /><trkpt lat="22.42509278125" lon="114.33762179638671" /><trkpt lat="22.42503178125" lon="114.33753879638672" /><trkpt lat="22.42496278125" lon="114.33745079638672" /><trkpt lat="22.42499278125" lon="114.33739279638672" /><trkpt lat="22.42503278125" lon="114.33731079638672" /><trkpt lat="22.42503878125" lon="114.33724479638671" /><trkpt lat="22.42495378125" lon="114.33710179638672" /><trkpt lat="22.42489078125" lon="114.33701579638672" /><trkpt lat="22.42484278125" lon="114.33694279638672" /><trkpt lat="22.42478878125" lon="114.33680379638672" /><trkpt lat="22.42473178125" lon="114.33668679638672" /><trkpt lat="22.424647781250002" lon="114.33660379638673" /><trkpt lat="22.42454978125" lon="114.33653179638672" /><trkpt lat="22.42443378125" lon="114.33650079638672" /><trkpt lat="22.42428278125" lon="114.33646179638671" /><trkpt lat="22.42423078125" lon="114.33624879638671" /><trkpt lat="22.42418478125" lon="114.33611379638671" /><trkpt lat="22.42417378125" lon="114.33607479638673" /><trkpt lat="22.42413578125" lon="114.33594079638672" /><trkpt lat="22.42408978125" lon="114.33583979638672" /><trkpt lat="22.42402678125" lon="114.33572079638672" /><trkpt lat="22.42396978125" lon="114.33562579638672" /><trkpt lat="22.42392978125" lon="114.33554579638673" /><trkpt lat="22.42386878125" lon="114.33543279638671" /><trkpt lat="22.42380978125" lon="114.33532179638672" /><trkpt lat="22.42376678125" lon="114.33523979638672" /><trkpt lat="22.42371078125" lon="114.33513379638671" /><trkpt lat="22.42365278125" lon="114.33503679638672" /><trkpt lat="22.42354478125" lon="114.33495479638673" /><trkpt lat="22.42343378125" lon="114.33488079638671" /><trkpt lat="22.42335178125" lon="114.33474479638672" /><trkpt lat="22.42325978125" lon="114.33459479638672" /><trkpt lat="22.42304678125" lon="114.33443479638672" /><trkpt lat="22.42288778125" lon="114.33424379638672" /><trkpt lat="22.42280178125" lon="114.33415979638671" /><trkpt lat="22.42269078125" lon="114.33405779638672" /><trkpt lat="22.42265878125" lon="114.33399179638671" /><trkpt lat="22.42252578125" lon="114.33378479638672" /><trkpt lat="22.42238278125" lon="114.33362379638672" /><trkpt lat="22.42233378125" lon="114.33357279638672" /><trkpt lat="22.42227078125" lon="114.33351579638672" /><trkpt lat="22.42218778125" lon="114.33342279638671" /><trkpt lat="22.42204178125" lon="114.33325479638673" /><trkpt lat="22.42187778125" lon="114.33308279638672" /><trkpt lat="22.42174078125" lon="114.33288879638671" /><trkpt lat="22.42168278125" lon="114.33276779638672" /><trkpt lat="22.42162978125" lon="114.33244979638673" /><trkpt lat="22.42160378125" lon="114.33235179638672" /><trkpt lat="22.421716384811294" lon="114.33236743575439" /></trkseg></trk></gpx>