<?xml version='1.0' encoding='UTF-8' ?><gpx version="1.1" creator="HikingTrailHK" xsi:schemaLocation="http://www.topografix.com/GPX/1/1 http://www.topografix.com/GPX/1/1/gpx.xsd" xmlns="http://www.topografix.com/GPX/1/1" xmlns:xsi="http://www.w3.org/2001/XMLSchema-instance"><metadata><name>我的路徑 @ 2022-08-22 10:52:34</name><desc></desc></metadata><trk><trkseg><trkpt lat="22.23905229045789" lon="113.96675162388362" /><trkpt lat="22.23905478125" lon="113.96673879638672" /><trkpt lat="22.23913378125" lon="113.96651379638672" /><trkpt lat="22.23919878125" lon="113.96646579638671" /><trkpt lat="22.23930478125" lon="113.96645179638672" /><trkpt lat="22.23952178125" lon="113.96640879638672" /><trkpt lat="22.23969978125" lon="113.96623479638671" /><trkpt lat="22.23993078125" lon="113.96581679638672" /><trkpt lat="22.24016478125" lon="113.96556179638672" /><trkpt lat="22.24026878125" lon="113.96558079638672" /><trkpt lat="22.24036578125" lon="113.96565479638672" /><trkpt lat="22.24060378125" lon="113.96565479638672" /><trkpt lat="22.24098078125" lon="113.96577279638672" /><trkpt lat="22.24142778125" lon="113.96552679638671" /><trkpt lat="22.24194478125" lon="113.96476479638672" /><trkpt lat="22.24215678125" lon="113.96467179638672" /><trkpt lat="22.24228778125" lon="113.96461479638671" /><trkpt lat="22.24304678125" lon="113.96428179638671" /><trkpt lat="22.24320578125" lon="113.96390679638672" /><trkpt lat="22.24343378125" lon="113.96380979638671" /><trkpt lat="22.24355778125" lon="113.96364679638671" /><trkpt lat="22.24380178125" lon="113.96350979638672" /><trkpt lat="22.24400278125" lon="113.96351679638671" /><trkpt lat="22.24424478125" lon="113.96344679638672" /><trkpt lat="22.24448678125" lon="113.96345579638673" /><trkpt lat="22.24462178125" lon="113.96337779638672" /><trkpt lat="22.24476878125" lon="113.96334779638671" /><trkpt lat="22.24490778125" lon="113.96326479638672" /><trkpt lat="22.24539978125" lon="113.96313179638672" /><trkpt lat="22.24573778125" lon="113.96346179638672" /><trkpt lat="22.24606278125" lon="113.96334379638672" /><trkpt lat="22.24624478125" lon="113.96308479638672" /><trkpt lat="22.24653178125" lon="113.96293479638672" /><trkpt lat="22.24672778125" lon="113.96286979638671" /><trkpt lat="22.24693978125" lon="113.96280279638673" /><trkpt lat="22.24727378125" lon="113.96277379638671" /><trkpt lat="22.24745778125" lon="113.96254579638672" /><trkpt lat="22.24769378125" lon="113.96256579638671" /><trkpt lat="22.24816078125" lon="113.96243679638673" /><trkpt lat="22.24868178125" lon="113.96234179638672" /><trkpt lat="22.24894478125" lon="113.96202779638672" /><trkpt lat="22.24963678125" lon="113.96213079638672" /><trkpt lat="22.25000878125" lon="113.96185179638672" /><trkpt lat="22.25042578125" lon="113.96194479638672" /><trkpt lat="22.25078578125" lon="113.96195879638672" /><trkpt lat="22.25106578125" lon="113.96208879638672" /><trkpt lat="22.25120378125" lon="113.96212579638672" /><trkpt lat="22.25130578125" lon="113.96202279638672" /><trkpt lat="22.25136578125" lon="113.96199379638672" /><trkpt lat="22.25146778125" lon="113.96194479638672" /><trkpt lat="22.25161578125" lon="113.96191879638671" /><trkpt lat="22.25161678125" lon="113.96191079638672" /><trkpt lat="22.25150578125" lon="113.96187179638672" /><trkpt lat="22.25133778125" lon="113.96173279638671" /><trkpt lat="22.25119478125" lon="113.96166979638672" /><trkpt lat="22.25109478125" lon="113.96158979638672" /><trkpt lat="22.25099578125" lon="113.96153579638671" /><trkpt lat="22.25075378125" lon="113.96148079638672" /><trkpt lat="22.25070878125" lon="113.96135679638672" /><trkpt lat="22.25071778125" lon="113.96116579638672" /><trkpt lat="22.25073778125" lon="113.96102079638672" /><trkpt lat="22.25067378125" lon="113.96093879638671" /><trkpt lat="22.25057378125" lon="113.96087579638672" /><trkpt lat="22.25050978125" lon="113.96081479638671" /><trkpt lat="22.25057878125" lon="113.96066679638672" /><trkpt lat="22.25057378125" lon="113.96055979638672" /><trkpt lat="22.25068678125" lon="113.96037279638672" /><trkpt lat="22.25067178125" lon="113.96031779638672" /><trkpt lat="22.25059478125" lon="113.96018179638672" /><trkpt lat="22.25054378125" lon="113.96009779638672" /><trkpt lat="22.25039978125" lon="113.96001179638672" /><trkpt lat="22.25021578125" lon="113.95990479638672" /><trkpt lat="22.25008178125" lon="113.95978179638672" /><trkpt lat="22.25001878125" lon="113.95965879638672" /><trkpt lat="22.25006278125" lon="113.95941479638672" /><trkpt lat="22.25001378125" lon="113.95929679638672" /><trkpt lat="22.24996178125" lon="113.95918179638672" /><trkpt lat="22.24975278125" lon="113.95897279638672" /><trkpt lat="22.24949978125" lon="113.95897779638672" /><trkpt lat="22.24926278125" lon="113.95903579638671" /><trkpt lat="22.24910978125" lon="113.95900979638672" /><trkpt lat="22.24903578125" lon="113.95899979638672" /><trkpt lat="22.24899078125" lon="113.95867479638672" /><trkpt lat="22.24878678125" lon="113.95819879638672" /><trkpt lat="22.24881078125" lon="113.95799479638671" /><trkpt lat="22.24866578125" lon="113.95781379638672" /><trkpt lat="22.24869778125" lon="113.95751579638672" /><trkpt lat="22.24875178125" lon="113.95721779638671" /><trkpt lat="22.24877178125" lon="113.95710279638672" /><trkpt lat="22.24878678125" lon="113.95702379638672" /><trkpt lat="22.24889578125" lon="113.95684679638671" /><trkpt lat="22.24890578125" lon="113.95672379638673" /><trkpt lat="22.24882478125" lon="113.95653979638672" /><trkpt lat="22.24876678125" lon="113.95644979638672" /><trkpt lat="22.24865678125" lon="113.95639079638671" /><trkpt lat="22.24861878125" lon="113.95613779638671" /><trkpt lat="22.24852778125" lon="113.95602979638672" /><trkpt lat="22.24849378125" lon="113.95571379638672" /><trkpt lat="22.24855878125" lon="113.95560879638671" /><trkpt lat="22.24836278125" lon="113.95562279638672" /><trkpt lat="22.24824578125" lon="113.95561679638672" /><trkpt lat="22.24810678125" lon="113.95564179638671" /><trkpt lat="22.24795678125" lon="113.95559179638671" /><trkpt lat="22.24785778125" lon="113.95557579638673" /><trkpt lat="22.24782878125" lon="113.95550979638672" /><trkpt lat="22.24752978125" lon="113.95538279638671" /><trkpt lat="22.24747078125" lon="113.95524879638671" /><trkpt lat="22.24722778125" lon="113.95510179638671" /><trkpt lat="22.24708678125" lon="113.95485579638672" /><trkpt lat="22.24700378125" lon="113.95484679638672" /><trkpt lat="22.24692278125" lon="113.95483079638672" /><trkpt lat="22.24668678125" lon="113.95438279638672" /><trkpt lat="22.24659778125" lon="113.95408279638671" /><trkpt lat="22.24658278125" lon="113.95377179638672" /><trkpt lat="22.24629978125" lon="113.95330979638672" /><trkpt lat="22.24611578125" lon="113.95304779638671" /><trkpt lat="22.24600578125" lon="113.95296879638671" /><trkpt lat="22.24588778125" lon="113.95277879638672" /><trkpt lat="22.24563178125" lon="113.95265879638671" /><trkpt lat="22.24547278125" lon="113.95269879638671" /><trkpt lat="22.24524678125" lon="113.95277879638672" /><trkpt lat="22.24516178125" lon="113.95271079638673" /><trkpt lat="22.24496778125" lon="113.95256679638672" /><trkpt lat="22.24490978125" lon="113.95259679638671" /><trkpt lat="22.24500378125" lon="113.95282179638671" /><trkpt lat="22.24502778125" lon="113.95300679638672" /><trkpt lat="22.24497378125" lon="113.95311179638672" /><trkpt lat="22.24488878125" lon="113.95314579638672" /><trkpt lat="22.24476478125" lon="113.95320479638671" /><trkpt lat="22.24463078125" lon="113.95320479638671" /><trkpt lat="22.24452078125" lon="113.95317779638673" /><trkpt lat="22.24435778125" lon="113.95311379638672" /><trkpt lat="22.24425378125" lon="113.95299879638672" /><trkpt lat="22.24410978125" lon="113.95293479638671" /><trkpt lat="22.24404978125" lon="113.95273779638671" /><trkpt lat="22.24396978125" lon="113.95251779638672" /><trkpt lat="22.24394978125" lon="113.95235179638672" /><trkpt lat="22.24409478125" lon="113.95196879638672" /><trkpt lat="22.24416478125" lon="113.95178679638671" /><trkpt lat="22.24412478125" lon="113.95147579638672" /><trkpt lat="22.24405978125" lon="113.95122579638672" /><trkpt lat="22.24400578125" lon="113.95117479638672" /><trkpt lat="22.24397478125" lon="113.95101579638671" /><trkpt lat="22.24401978125" lon="113.95076979638672" /><trkpt lat="22.24402978125" lon="113.95060279638672" /><trkpt lat="22.24396478125" lon="113.95040979638672" /><trkpt lat="22.24408978125" lon="113.95031879638672" /><trkpt lat="22.24420878125" lon="113.95024879638672" /><trkpt lat="22.24429778125" lon="113.95024879638672" /><trkpt lat="22.24465078125" lon="113.95013979638672" /><trkpt lat="22.24476578125" lon="113.95004279638673" /><trkpt lat="22.24487378125" lon="113.94996479638672" /><trkpt lat="22.24493878125" lon="113.94976079638671" /><trkpt lat="22.24513278125" lon="113.94968379638672" /><trkpt lat="22.24528178125" lon="113.94960879638671" /><trkpt lat="22.24574378125" lon="113.94952779638672" /><trkpt lat="22.24603078125" lon="113.94938379638671" /><trkpt lat="22.24619078125" lon="113.94935079638672" /><trkpt lat="22.24630478125" lon="113.94908379638672" /><trkpt lat="22.24629478125" lon="113.94897079638672" /><trkpt lat="22.24638378125" lon="113.94867579638672" /><trkpt lat="22.24644378125" lon="113.94847679638671" /><trkpt lat="22.24652678125" lon="113.94834279638673" /><trkpt lat="22.24655178125" lon="113.94811279638672" /><trkpt lat="22.24669078125" lon="113.94804379638671" /><trkpt lat="22.24695978125" lon="113.94812879638671" /><trkpt lat="22.24714378125" lon="113.94826279638671" /><trkpt lat="22.24740678125" lon="113.94829979638672" /><trkpt lat="22.24752578125" lon="113.94827279638672" /><trkpt lat="22.24763478125" lon="113.94825379638672" /><trkpt lat="22.24778978125" lon="113.94824679638671" /><trkpt lat="22.24791778125" lon="113.94809679638672" /><trkpt lat="22.24785378125" lon="113.94797279638672" /><trkpt lat="22.24778978125" lon="113.94776079638672" /><trkpt lat="22.24778378125" lon="113.94774179638672" /><trkpt lat="22.24773778125" lon="113.94731279638673" /><trkpt lat="22.24771378125" lon="113.94699079638671" /><trkpt lat="22.24759078125" lon="113.94674979638671" /><trkpt lat="22.24752078125" lon="113.94649179638672" /><trkpt lat="22.24745678125" lon="113.94620779638672" /><trkpt lat="22.24755478125" lon="113.94599479638671" /><trkpt lat="22.24764478125" lon="113.94581579638673" /><trkpt lat="22.24780878125" lon="113.94567679638672" /><trkpt lat="22.24784878125" lon="113.94542979638672" /><trkpt lat="22.24787778125" lon="113.94526879638671" /><trkpt lat="22.24794678125" lon="113.94516179638671" /><trkpt lat="22.24794178125" lon="113.94498679638671" /><trkpt lat="22.24794778125" lon="113.94474279638672" /><trkpt lat="22.24799778125" lon="113.94451279638672" /><trkpt lat="22.24814678125" lon="113.94427679638672" /><trkpt lat="22.24825578125" lon="113.94405079638672" /><trkpt lat="22.24832078125" lon="113.94393379638672" /><trkpt lat="22.24832978125" lon="113.94381179638673" /><trkpt lat="22.24841978125" lon="113.94366479638671" /><trkpt lat="22.24845478125" lon="113.94348279638672" /><trkpt lat="22.24846978125" lon="113.94331679638672" /><trkpt lat="22.24846878125" lon="113.94325379638671" /><trkpt lat="22.24844878125" lon="113.94324079638672" /><trkpt lat="22.24838378125" lon="113.94319879638672" /><trkpt lat="22.24826178125" lon="113.94323579638672" /><trkpt lat="22.24820878125" lon="113.94325679638672" /><trkpt lat="22.24815678125" lon="113.94332179638671" /><trkpt lat="22.24812678125" lon="113.94330379638672" /><trkpt lat="22.24813578125" lon="113.94328279638673" /><trkpt lat="22.24815833517612" lon="113.94325101446663" /></trkseg></trk></gpx>