<?xml version='1.0' encoding='UTF-8' ?><gpx version="1.1" creator="HikingTrailHK" xsi:schemaLocation="http://www.topografix.com/GPX/1/1 http://www.topografix.com/GPX/1/1/gpx.xsd" xmlns="http://www.topografix.com/GPX/1/1" xmlns:xsi="http://www.w3.org/2001/XMLSchema-instance"><metadata><name>我的路徑 @ 2022-05-06 19:17:50</name><desc></desc></metadata><trk><trkseg><trkpt lat="22.37546178125" lon="114.26226779638672" /><trkpt lat="22.37536378125" lon="114.26235479638672" /><trkpt lat="22.37532878125" lon="114.26235779638672" /><trkpt lat="22.37511978125" lon="114.26237079638672" /><trkpt lat="22.37502678125" lon="114.26240279638672" /><trkpt lat="22.37446978125" lon="114.26282279638671" /><trkpt lat="22.37441978125" lon="114.26289779638672" /><trkpt lat="22.37425678125" lon="114.26325379638672" /><trkpt lat="22.37421078125" lon="114.26358779638672" /><trkpt lat="22.37431878125" lon="114.26388679638671" /><trkpt lat="22.37411178125" lon="114.26405679638673" /><trkpt lat="22.37369578125" lon="114.26431379638672" /><trkpt lat="22.37363078125" lon="114.26460279638673" /><trkpt lat="22.37355478125" lon="114.26473479638672" /><trkpt lat="22.37353578125" lon="114.26481579638671" /><trkpt lat="22.37351478125" lon="114.26490579638671" /><trkpt lat="22.37342578125" lon="114.26499179638672" /><trkpt lat="22.37334578125" lon="114.26519479638672" /><trkpt lat="22.37331778125" lon="114.26526979638672" /><trkpt lat="22.37325678125" lon="114.26541879638671" /><trkpt lat="22.37316278125" lon="114.26547279638672" /><trkpt lat="22.37302378125" lon="114.26560079638672" /><trkpt lat="22.37299378125" lon="114.26564379638671" /><trkpt lat="22.37295778125" lon="114.26571879638672" /><trkpt lat="22.37293378125" lon="114.26586679638672" /><trkpt lat="22.37280278125" lon="114.26606879638672" /><trkpt lat="22.37248578125" lon="114.26646079638672" /><trkpt lat="22.37249578125" lon="114.26656579638671" /><trkpt lat="22.37251378125" lon="114.26662279638671" /><trkpt lat="22.37257078125" lon="114.26668079638672" /><trkpt lat="22.37273378125" lon="114.26678779638672" /><trkpt lat="22.37281178125" lon="114.26684479638672" /><trkpt lat="22.37307578125" lon="114.26699379638671" /><trkpt lat="22.37318078125" lon="114.26705179638672" /><trkpt lat="22.37372778125" lon="114.26717579638672" /><trkpt lat="22.37405278125" lon="114.26750879638672" /><trkpt lat="22.37416678125" lon="114.26787879638673" /><trkpt lat="22.37415178125" lon="114.26799979638672" /><trkpt lat="22.37443678125" lon="114.26852379638672" /><trkpt lat="22.37444678125" lon="114.26874079638672" /><trkpt lat="22.37426778125" lon="114.26886079638672" /><trkpt lat="22.37384478125" lon="114.26881879638673" /><trkpt lat="22.37359878125" lon="114.26894979638672" /><trkpt lat="22.37327578125" lon="114.26952279638672" /><trkpt lat="22.37317978125" lon="114.26976079638672" /><trkpt lat="22.37294578125" lon="114.27025279638671" /><trkpt lat="22.37292578125" lon="114.27027979638672" /><trkpt lat="22.37269678125" lon="114.27050279638672" /><trkpt lat="22.37231378125" lon="114.27094079638672" /><trkpt lat="22.37209678125" lon="114.27122279638672" /><trkpt lat="22.37185178125" lon="114.27139179638672" /><trkpt lat="22.37167978125" lon="114.27142179638672" /><trkpt lat="22.37151278125" lon="114.27140279638672" /><trkpt lat="22.37136078125" lon="114.27133779638672" /><trkpt lat="22.37061978125" lon="114.27077479638672" /><trkpt lat="22.37031578125" lon="114.27047579638672" /><trkpt lat="22.37024078125" lon="114.27046379638672" /><trkpt lat="22.36984478125" lon="114.27039879638671" /><trkpt lat="22.36959578125" lon="114.27041579638671" /><trkpt lat="22.36926378125" lon="114.27054079638671" /><trkpt lat="22.36880178125" lon="114.27056879638671" /><trkpt lat="22.36821578125" lon="114.27073979638672" /><trkpt lat="22.36788978125" lon="114.27070979638673" /><trkpt lat="22.36761478125" lon="114.27099579638671" /><trkpt lat="22.36736078125" lon="114.27100179638671" /><trkpt lat="22.36704978125" lon="114.27109479638672" /><trkpt lat="22.36689278125" lon="114.27119979638672" /><trkpt lat="22.36668478125" lon="114.27101979638672" /><trkpt lat="22.36661178125" lon="114.27102179638672" /><trkpt lat="22.36620678125" lon="114.27114479638672" /><trkpt lat="22.36606078125" lon="114.27105279638671" /><trkpt lat="22.36595078125" lon="114.27114379638672" /><trkpt lat="22.36572278125" lon="114.27112579638671" /><trkpt lat="22.36542578125" lon="114.27113379638672" /><trkpt lat="22.36511878125" lon="114.27133979638671" /><trkpt lat="22.36500878125" lon="114.27139279638672" /><trkpt lat="22.36482678125" lon="114.27138579638672" /><trkpt lat="22.36467678125" lon="114.27133179638672" /><trkpt lat="22.36436378125" lon="114.27120279638672" /><trkpt lat="22.36375978125" lon="114.27123979638672" /><trkpt lat="22.36343278125" lon="114.27147879638672" /><trkpt lat="22.36306778125" lon="114.27171279638672" /><trkpt lat="22.36300078125" lon="114.27181379638672" /><trkpt lat="22.36276178125" lon="114.27235479638672" /><trkpt lat="22.36270178125" lon="114.27265579638672" /><trkpt lat="22.36260278125" lon="114.27297779638671" /><trkpt lat="22.36239578125" lon="114.27295779638672" /><trkpt lat="22.36187078125" lon="114.27301879638672" /><trkpt lat="22.36168078125" lon="114.27319179638671" /><trkpt lat="22.36148678125" lon="114.27324379638672" /><trkpt lat="22.36112278125" lon="114.27361179638672" /><trkpt lat="22.36129178125" lon="114.27417679638671" /><trkpt lat="22.36131878125" lon="114.27454479638672" /><trkpt lat="22.36183099333263" lon="114.27490525563752" /><trkpt lat="22.36190019402811" lon="114.27513226395138" /><trkpt lat="22.36170967047383" lon="114.27502931609848" /><trkpt lat="22.361607446209533" lon="114.27481846069895" /><trkpt lat="22.36161305726749" lon="114.27480192716416" /><trkpt lat="22.36160540779379" lon="114.2747932324533" /><trkpt lat="22.361584151426392" lon="114.27473368397622" /><trkpt lat="22.36131878125" lon="114.27454479638672" /><trkpt lat="22.36129178125" lon="114.27417679638671" /><trkpt lat="22.36112278125" lon="114.27361179638672" /><trkpt lat="22.36101278125" lon="114.27372379638672" /><trkpt lat="22.36072278125" lon="114.27421479638672" /><trkpt lat="22.35995878125" lon="114.27452779638672" /><trkpt lat="22.35917978125" lon="114.27464379638671" /><trkpt lat="22.35911878125" lon="114.27470279638672" /><trkpt lat="22.35912578125" lon="114.27482079638672" /><trkpt lat="22.35921378125" lon="114.27511079638671" /><trkpt lat="22.35919178125" lon="114.27520979638672" /><trkpt lat="22.35904878125" lon="114.27536979638671" /><trkpt lat="22.35878378125" lon="114.27555079638672" /><trkpt lat="22.35811778125" lon="114.27580479638672" /><trkpt lat="22.35745178125" lon="114.27563579638672" /><trkpt lat="22.35662278125" lon="114.27590779638672" /><trkpt lat="22.35609478125" lon="114.27592479638672" /><trkpt lat="22.35607078125" lon="114.27576479638672" /><trkpt lat="22.35598078125" lon="114.27563179638672" /><trkpt lat="22.35597578125" lon="114.27551379638672" /><trkpt lat="22.35604078125" lon="114.27543179638671" /><trkpt lat="22.35596478125" lon="114.27528679638672" /><trkpt lat="22.35610678125" lon="114.27511579638671" /><trkpt lat="22.35610553531484" lon="114.2749815551154" /><trkpt lat="22.356002689087305" lon="114.27500771297412" /><trkpt lat="22.35604634841515" lon="114.27513194107405" /><trkpt lat="22.356049201942966" lon="114.27513105923367" /><trkpt lat="22.35605057626492" lon="114.27513388023112" /><trkpt lat="22.35607619752149" lon="114.27515262663887" /><trkpt lat="22.35596478125" lon="114.27528679638672" /><trkpt lat="22.35604078125" lon="114.27543179638671" /><trkpt lat="22.35597578125" lon="114.27551379638672" /><trkpt lat="22.35598078125" lon="114.27563179638672" /><trkpt lat="22.35607078125" lon="114.27576479638672" /><trkpt lat="22.35609478125" lon="114.27592479638672" /><trkpt lat="22.35594078125" lon="114.27592979638672" /><trkpt lat="22.35571778125" lon="114.27598679638672" /><trkpt lat="22.35511878125" lon="114.27593879638673" /><trkpt lat="22.35424578125" lon="114.27525979638672" /><trkpt lat="22.35350978125" lon="114.27484779638672" /><trkpt lat="22.35293478125" lon="114.27462279638672" /><trkpt lat="22.35275378125" lon="114.27457879638672" /><trkpt lat="22.35256478125" lon="114.27456679638672" /><trkpt lat="22.35244878125" lon="114.27463179638671" /><trkpt lat="22.35233478125" lon="114.27463679638672" /><trkpt lat="22.35231078125" lon="114.27466279638672" /><trkpt lat="22.35229678125" lon="114.27473979638673" /><trkpt lat="22.35219778125" lon="114.27476779638671" /><trkpt lat="22.35214178125" lon="114.27479579638671" /><trkpt lat="22.35203178125" lon="114.27476379638672" /><trkpt lat="22.35193878125" lon="114.27480479638672" /><trkpt lat="22.35181578125" lon="114.27474679638672" /><trkpt lat="22.35172078125" lon="114.27457779638672" /><trkpt lat="22.35157878125" lon="114.27454179638671" /><trkpt lat="22.35150078125" lon="114.27453979638672" /><trkpt lat="22.35141778125" lon="114.27455879638671" /><trkpt lat="22.35129678125" lon="114.27471679638671" /><trkpt lat="22.35123578125" lon="114.27471479638672" /><trkpt lat="22.35110978125" lon="114.27480679638671" /><trkpt lat="22.35103578125" lon="114.27482579638672" /><trkpt lat="22.35094278125" lon="114.27474079638672" /><trkpt lat="22.35085078125" lon="114.27479079638672" /><trkpt lat="22.35063678125" lon="114.27484179638672" /><trkpt lat="22.350760905567796" lon="114.27495421795311" /><trkpt lat="22.350788200433087" lon="114.27486248901977" /><trkpt lat="22.350786206635618" lon="114.27485187407069" /><trkpt lat="22.350782933667702" lon="114.27484566641863" /><trkpt lat="22.35077650903842" lon="114.2748084970342" /><trkpt lat="22.35085078125" lon="114.27479079638672" /><trkpt lat="22.35094278125" lon="114.27474079638672" /><trkpt lat="22.35103578125" lon="114.27482579638672" /><trkpt lat="22.35110978125" lon="114.27480679638671" /><trkpt lat="22.35123578125" lon="114.27471479638672" /><trkpt lat="22.35129678125" lon="114.27471679638671" /><trkpt lat="22.35141778125" lon="114.27455879638671" /><trkpt lat="22.35150078125" lon="114.27453979638672" /><trkpt lat="22.35155978125" lon="114.27434179638672" /><trkpt lat="22.35182778125" lon="114.27416979638672" /><trkpt lat="22.35231478125" lon="114.27380479638671" /><trkpt lat="22.35289678125" lon="114.27331679638672" /><trkpt lat="22.35348978125" lon="114.27323179638672" /><trkpt lat="22.35373278125" lon="114.27336979638672" /><trkpt lat="22.35378678125" lon="114.27303979638671" /><trkpt lat="22.35402978125" lon="114.27287779638672" /><trkpt lat="22.35437878125" lon="114.27300079638673" /><trkpt lat="22.35463478125" lon="114.27290179638672" /><trkpt lat="22.35470478125" lon="114.27237379638672" /><trkpt lat="22.35481778125" lon="114.27219979638672" /><trkpt lat="22.35543378125" lon="114.27184679638673" /><trkpt lat="22.35604478125" lon="114.27176679638671" /><trkpt lat="22.35630078125" lon="114.27166579638671" /><trkpt lat="22.35657078125" lon="114.27157079638671" /><trkpt lat="22.35703178125" lon="114.27160679638672" /><trkpt lat="22.35699278125" lon="114.27169879638672" /><trkpt lat="22.35710378125" lon="114.27188579638671" /><trkpt lat="22.35708778125" lon="114.27200479638672" /><trkpt lat="22.35734278125" lon="114.27209279638672" /><trkpt lat="22.35759878125" lon="114.27215879638672" /><trkpt lat="22.35823878125" lon="114.27223879638672" /><trkpt lat="22.35836078125" lon="114.27227779638672" /><trkpt lat="22.35851978125" lon="114.27232479638671" /><trkpt lat="22.35886178125" lon="114.27250579638672" /><trkpt lat="22.35905878125" lon="114.27250279638672" /><trkpt lat="22.35934478125" lon="114.27235779638671" /><trkpt lat="22.35951378125" lon="114.27237279638672" /><trkpt lat="22.35989478125" lon="114.27255379638672" /><trkpt lat="22.36022378125" lon="114.27253879638671" /><trkpt lat="22.36062678125" lon="114.27268379638672" /><trkpt lat="22.36083078125" lon="114.27262579638672" /><trkpt lat="22.36177278125" lon="114.27264079638672" /><trkpt lat="22.36231778125" lon="114.27236879638671" /><trkpt lat="22.36253478125" lon="114.27219679638672" /><trkpt lat="22.36283278125" lon="114.27183879638672" /><trkpt lat="22.36300078125" lon="114.27181379638672" /><trkpt lat="22.36306778125" lon="114.27171279638672" /><trkpt lat="22.36343278125" lon="114.27147879638672" /><trkpt lat="22.36375978125" lon="114.27123979638672" /><trkpt lat="22.36436378125" lon="114.27120279638672" /><trkpt lat="22.36467678125" lon="114.27133179638672" /><trkpt lat="22.36482678125" lon="114.27138579638672" /><trkpt lat="22.36500878125" lon="114.27139279638672" /><trkpt lat="22.36511878125" lon="114.27133979638671" /><trkpt lat="22.36542578125" lon="114.27113379638672" /><trkpt lat="22.36572278125" lon="114.27112579638671" /><trkpt lat="22.36595078125" lon="114.27114379638672" /><trkpt lat="22.36606078125" lon="114.27105279638671" /><trkpt lat="22.36625278125" lon="114.27090479638672" /><trkpt lat="22.36648778125" lon="114.27061479638672" /><trkpt lat="22.36712978125" lon="114.27027079638673" /><trkpt lat="22.36746578125" lon="114.27001179638673" /><trkpt lat="22.36757978125" lon="114.26973079638672" /><trkpt lat="22.36781878125" lon="114.26953779638671" /><trkpt lat="22.36832978125" lon="114.26930179638671" /><trkpt lat="22.36852278125" lon="114.26922579638672" /><trkpt lat="22.36863478125" lon="114.26908879638673" /><trkpt lat="22.36892678125" lon="114.26895079638672" /><trkpt lat="22.36928678125" lon="114.26888279638672" /><trkpt lat="22.36988478125" lon="114.26859179638672" /><trkpt lat="22.37002078125" lon="114.26870679638672" /><trkpt lat="22.37012378125" lon="114.26885179638671" /><trkpt lat="22.37014778125" lon="114.26889079638671" /><trkpt lat="22.37029878125" lon="114.26914079638672" /><trkpt lat="22.37059678125" lon="114.26933379638672" /><trkpt lat="22.37090378125" lon="114.26914079638672" /><trkpt lat="22.37117178125" lon="114.26904379638673" /><trkpt lat="22.37149078125" lon="114.26896179638672" /><trkpt lat="22.37175678125" lon="114.26889379638672" /><trkpt lat="22.37178678125" lon="114.26872179638671" /><trkpt lat="22.371945781249998" lon="114.26855079638672" /><trkpt lat="22.37221378125" lon="114.26850779638671" /><trkpt lat="22.37231278125" lon="114.26827179638671" /><trkpt lat="22.37232978125" lon="114.26802979638671" /><trkpt lat="22.37239778125" lon="114.26793979638671" /><trkpt lat="22.37246178125" lon="114.26794579638671" /><trkpt lat="22.37231878125" lon="114.26767679638672" /><trkpt lat="22.37228378125" lon="114.26749379638672" /><trkpt lat="22.37225678125" lon="114.26731679638672" /><trkpt lat="22.37226378125" lon="114.26688079638672" /><trkpt lat="22.37236578125" lon="114.26665779638672" /><trkpt lat="22.37239678125" lon="114.26650879638672" /><trkpt lat="22.37260078125" lon="114.26627179638672" /><trkpt lat="22.37283878125" lon="114.26596879638672" /><trkpt lat="22.37286978125" lon="114.26580279638672" /><trkpt lat="22.37286478125" lon="114.26574579638672" /><trkpt lat="22.37283878125" lon="114.26550379638672" /><trkpt lat="22.37286678125" lon="114.26516879638672" /><trkpt lat="22.37280878125" lon="114.26504779638672" /><trkpt lat="22.37268478125" lon="114.26495679638671" /><trkpt lat="22.37262578125" lon="114.26469779638671" /><trkpt lat="22.37267478125" lon="114.26463979638672" /><trkpt lat="22.37276378125" lon="114.26453279638672" /><trkpt lat="22.37291078125" lon="114.26433379638672" /><trkpt lat="22.37309478125" lon="114.26415679638671" /><trkpt lat="22.37328778125" lon="114.26397079638672" /><trkpt lat="22.37333578125" lon="114.26371579638672" /><trkpt lat="22.37333278125" lon="114.26353079638672" /><trkpt lat="22.37332778125" lon="114.26305679638672" /><trkpt lat="22.37336778125" lon="114.26286979638672" /><trkpt lat="22.37338178125" lon="114.26264879638671" /><trkpt lat="22.37381178125" lon="114.26275879638672" /><trkpt lat="22.37437278125" lon="114.26288679638672" /><trkpt lat="22.37441978125" lon="114.26289779638672" /><trkpt lat="22.37446978125" lon="114.26282279638671" /><trkpt lat="22.37502678125" lon="114.26240279638672" /><trkpt lat="22.37511978125" lon="114.26237079638672" /><trkpt lat="22.37532878125" lon="114.26235779638672" /><trkpt lat="22.37536378125" lon="114.26235479638672" /><trkpt lat="22.37546178125" lon="114.26226779638672" /></trkseg></trk></gpx>