<?xml version='1.0' encoding='UTF-8' ?><gpx version="1.1" creator="HikingTrailHK" xsi:schemaLocation="http://www.topografix.com/GPX/1/1 http://www.topografix.com/GPX/1/1/gpx.xsd" xmlns="http://www.topografix.com/GPX/1/1" xmlns:xsi="http://www.w3.org/2001/XMLSchema-instance"><metadata><name>手屻北龍 @ 2017-8-5 10:20</name><desc></desc></metadata><trk><trkseg><trkpt lat="22.28923378125" lon="113.94207879638672" /><trkpt lat="22.28916178125" lon="113.94207879638672" /><trkpt lat="22.28901778125" lon="113.94205779638672" /><trkpt lat="22.28897778125" lon="113.94203979638672" /><trkpt lat="22.28879978125" lon="113.94195979638671" /><trkpt lat="22.28861678125" lon="113.94183679638672" /><trkpt lat="22.28833478125" lon="113.94164779638672" /><trkpt lat="22.28828378125" lon="113.94161379638672" /><trkpt lat="22.28826878125" lon="113.94160379638672" /><trkpt lat="22.28815478125" lon="113.94151079638672" /><trkpt lat="22.28807478125" lon="113.94145079638672" /><trkpt lat="22.28799678125" lon="113.94139579638671" /><trkpt lat="22.28791478125" lon="113.94133279638672" /><trkpt lat="22.28786978125" lon="113.94130779638672" /><trkpt lat="22.28717778125" lon="113.94084079638672" /><trkpt lat="22.28689378125" lon="113.94066679638672" /><trkpt lat="22.28684678125" lon="113.94063779638672" /><trkpt lat="22.28676578125" lon="113.94058979638672" /><trkpt lat="22.28661878125" lon="113.94048779638672" /><trkpt lat="22.28654578125" lon="113.94059679638671" /><trkpt lat="22.28649378125" lon="113.94066679638672" /><trkpt lat="22.28628278125" lon="113.94096679638672" /><trkpt lat="22.28602278125" lon="113.94126379638672" /><trkpt lat="22.28598278125" lon="113.94131079638672" /><trkpt lat="22.28542978125" lon="113.94193279638672" /><trkpt lat="22.28525478125" lon="113.94212379638672" /><trkpt lat="22.285090223429204" lon="113.94231367130374" /><trkpt lat="22.28498078125" lon="113.94216479638672" /><trkpt lat="22.28502178125" lon="113.94211579638672" /><trkpt lat="22.28510378125" lon="113.94220579638672" /><trkpt lat="22.28488678125" lon="113.94244179638672" /><trkpt lat="22.28476078125" lon="113.94256779638673" /><trkpt lat="22.28469978125" lon="113.94259279638672" /><trkpt lat="22.28463078125" lon="113.94259179638672" /><trkpt lat="22.28427378125" lon="113.94232679638672" /><trkpt lat="22.28413478125" lon="113.94221779638671" /><trkpt lat="22.28401378125" lon="113.94212379638672" /><trkpt lat="22.28329378125" lon="113.94153879638672" /><trkpt lat="22.28222978125" lon="113.94068479638672" /><trkpt lat="22.28190078125" lon="113.94038479638672" /><trkpt lat="22.28158678125" lon="113.94006479638672" /><trkpt lat="22.28147178125" lon="113.93994679638672" /><trkpt lat="22.28116378125" lon="113.93958779638672" /><trkpt lat="22.28004578125" lon="113.94061079638672" /><trkpt lat="22.27990778125" lon="113.94072279638672" /><trkpt lat="22.27984478125" lon="113.94063679638671" /><trkpt lat="22.27981778125" lon="113.94059979638672" /><trkpt lat="22.27972078125" lon="113.94068979638672" /><trkpt lat="22.27960078125" lon="113.94058279638672" /><trkpt lat="22.27952078125" lon="113.94049879638672" /><trkpt lat="22.27928378125" lon="113.94020379638673" /><trkpt lat="22.27913578125" lon="113.94034179638672" /><trkpt lat="22.27906278125" lon="113.94040979638672" /><trkpt lat="22.27897278125" lon="113.94046079638672" /><trkpt lat="22.27887778125" lon="113.94052979638671" /><trkpt lat="22.27868478125" lon="113.94070179638672" /><trkpt lat="22.27857078125" lon="113.94084079638672" /><trkpt lat="22.27846078125" lon="113.94109879638673" /><trkpt lat="22.27835678125" lon="113.94131279638673" /><trkpt lat="22.27818778125" lon="113.94147979638672" /><trkpt lat="22.27799978125" lon="113.94157579638672" /><trkpt lat="22.27740878125" lon="113.94168379638671" /><trkpt lat="22.27715078125" lon="113.94180179638671" /><trkpt lat="22.27697678125" lon="113.94207479638672" /><trkpt lat="22.27677878125" lon="113.94234279638673" /><trkpt lat="22.27653178125" lon="113.94264279638672" /><trkpt lat="22.27636778125" lon="113.94286279638672" /><trkpt lat="22.27626578125" lon="113.94304279638672" /><trkpt lat="22.27613378125" lon="113.94319879638672" /><trkpt lat="22.27595678125" lon="113.94337779638671" /><trkpt lat="22.27577578125" lon="113.94358379638672" /><trkpt lat="22.27565878125" lon="113.94369679638672" /><trkpt lat="22.27562478125" lon="113.94377679638671" /><trkpt lat="22.27557978125" lon="113.94393479638671" /><trkpt lat="22.27553178125" lon="113.94403079638671" /><trkpt lat="22.275361781249998" lon="113.94423279638671" /><trkpt lat="22.27522378125" lon="113.94438379638672" /><trkpt lat="22.27507778125" lon="113.94455079638672" /><trkpt lat="22.27489478125" lon="113.94476679638672" /><trkpt lat="22.27473778125" lon="113.94492479638672" /><trkpt lat="22.27452878125" lon="113.94512679638672" /><trkpt lat="22.27447678125" lon="113.94521079638672" /><trkpt lat="22.27434578125" lon="113.94547279638672" /><trkpt lat="22.27421178125" lon="113.94574979638672" /><trkpt lat="22.27408078125" lon="113.94607279638672" /><trkpt lat="22.27378678125" lon="113.94666379638672" /><trkpt lat="22.27367578125" lon="113.94679879638672" /><trkpt lat="22.27359378125" lon="113.94687779638672" /><trkpt lat="22.27353078125" lon="113.94692179638672" /><trkpt lat="22.27316778125" lon="113.94705279638671" /><trkpt lat="22.27310878125" lon="113.94708579638672" /><trkpt lat="22.27305478125" lon="113.94714279638671" /><trkpt lat="22.27292978125" lon="113.94733879638672" /><trkpt lat="22.27285978125" lon="113.94742279638672" /><trkpt lat="22.27279278125" lon="113.94747279638672" /><trkpt lat="22.27271278125" lon="113.94750279638671" /><trkpt lat="22.27241378125" lon="113.94755779638672" /><trkpt lat="22.27227478125" lon="113.94759979638673" /><trkpt lat="22.27194478125" lon="113.94772979638672" /><trkpt lat="22.27168378125" lon="113.94787279638672" /><trkpt lat="22.27162378125" lon="113.94792179638672" /><trkpt lat="22.27139578125" lon="113.94813079638672" /><trkpt lat="22.27128678125" lon="113.94828279638672" /><trkpt lat="22.27120078125" lon="113.94842879638672" /><trkpt lat="22.27111778125" lon="113.94864379638672" /><trkpt lat="22.27110178125" lon="113.94881579638673" /><trkpt lat="22.27113678125" lon="113.94897779638671" /><trkpt lat="22.27125978125" lon="113.94939979638671" /><trkpt lat="22.27137578125" lon="113.94967579638671" /><trkpt lat="22.27149778125" lon="113.94995979638672" /><trkpt lat="22.27155978125" lon="113.95011079638672" /><trkpt lat="22.27167278125" lon="113.95030079638671" /><trkpt lat="22.27191678125" lon="113.95064779638672" /><trkpt lat="22.27205478125" lon="113.95097879638672" /><trkpt lat="22.27233978125" lon="113.95223379638672" /><trkpt lat="22.27247578125" lon="113.95251779638672" /><trkpt lat="22.27263078125" lon="113.95257079638672" /><trkpt lat="22.27263778125" lon="113.95262179638672" /><trkpt lat="22.27276878125" lon="113.95254179638673" /><trkpt lat="22.27289478125" lon="113.95257779638672" /><trkpt lat="22.27310578125" lon="113.95265079638672" /><trkpt lat="22.27335478125" lon="113.95277879638672" /><trkpt lat="22.27359278125" lon="113.95284679638672" /><trkpt lat="22.27388278125" lon="113.95297879638672" /><trkpt lat="22.27419978125" lon="113.95319879638672" /><trkpt lat="22.27430878125" lon="113.95337579638672" /><trkpt lat="22.27447878125" lon="113.95362379638672" /><trkpt lat="22.27487278125" lon="113.95386079638672" /><trkpt lat="22.27504078125" lon="113.95399379638671" /><trkpt lat="22.27518878125" lon="113.95407779638671" /><trkpt lat="22.275361781249998" lon="113.95418079638672" /><trkpt lat="22.27556278125" lon="113.95429579638672" /><trkpt lat="22.27580678125" lon="113.95446179638672" /><trkpt lat="22.27600078125" lon="113.95460479638672" /><trkpt lat="22.27619678125" lon="113.95474379638672" /><trkpt lat="22.27635778125" lon="113.95486479638672" /><trkpt lat="22.27660778125" lon="113.95501979638672" /><trkpt lat="22.27678278125" lon="113.95511179638672" /><trkpt lat="22.27704478125" lon="113.95525879638672" /><trkpt lat="22.27726978125" lon="113.95548079638672" /><trkpt lat="22.27737278125" lon="113.95561179638672" /><trkpt lat="22.27773978125" lon="113.95583879638671" /><trkpt lat="22.27799978125" lon="113.95602279638672" /><trkpt lat="22.27806778125" lon="113.95607879638672" /><trkpt lat="22.27814178125" lon="113.95613979638672" /><trkpt lat="22.27855978125" lon="113.95648579638672" /><trkpt lat="22.27880778125" lon="113.95669579638673" /><trkpt lat="22.27885078125" lon="113.95684379638672" /><trkpt lat="22.27905278125" lon="113.95720579638672" /><trkpt lat="22.27945378125" lon="113.95748379638673" /><trkpt lat="22.28001878125" lon="113.95820579638672" /><trkpt lat="22.28033378125" lon="113.95861879638672" /><trkpt lat="22.28058478125" lon="113.95877779638671" /><trkpt lat="22.28071978125" lon="113.95893179638672" /><trkpt lat="22.28075978125" lon="113.95923279638671" /><trkpt lat="22.28067578125" lon="113.95950579638672" /><trkpt lat="22.28062578125" lon="113.95971579638672" /><trkpt lat="22.28065578125" lon="113.95983879638672" /><trkpt lat="22.28072478125" lon="113.95991379638672" /><trkpt lat="22.28088378125" lon="113.95987079638672" /><trkpt lat="22.28107278125" lon="113.96002079638671" /><trkpt lat="22.28135278125" lon="113.96009279638672" /><trkpt lat="22.28142678125" lon="113.96009279638672" /><trkpt lat="22.28157878125" lon="113.96009579638672" /><trkpt lat="22.28176778125" lon="113.96003679638672" /><trkpt lat="22.28224378125" lon="113.95975679638671" /><trkpt lat="22.28250678125" lon="113.95953379638672" /><trkpt lat="22.28253578125" lon="113.95939379638672" /><trkpt lat="22.28261178125" lon="113.95918279638671" /><trkpt lat="22.28261878125" lon="113.95894879638672" /><trkpt lat="22.28255978125" lon="113.95863879638672" /><trkpt lat="22.28244378125" lon="113.95856179638672" /><trkpt lat="22.28238778125" lon="113.95846479638672" /><trkpt lat="22.28234578125" lon="113.95841979638672" /><trkpt lat="22.28225178125" lon="113.95817879638672" /><trkpt lat="22.28221378125" lon="113.95793379638671" /><trkpt lat="22.28212578125" lon="113.95780679638672" /><trkpt lat="22.28208578125" lon="113.95757979638672" /><trkpt lat="22.28200678125" lon="113.95745579638672" /><trkpt lat="22.28200978125" lon="113.95730979638672" /><trkpt lat="22.28203478125" lon="113.95724979638672" /><trkpt lat="22.28204478125" lon="113.95713879638672" /><trkpt lat="22.28200878125" lon="113.95706379638672" /><trkpt lat="22.28202778125" lon="113.95699379638671" /><trkpt lat="22.28198978125" lon="113.95691179638672" /><trkpt lat="22.28190478125" lon="113.95675779638673" /><trkpt lat="22.28186678125" lon="113.95671179638671" /><trkpt lat="22.28182878125" lon="113.95651879638672" /><trkpt lat="22.28181778125" lon="113.95639679638671" /><trkpt lat="22.28177278125" lon="113.95621879638672" /><trkpt lat="22.28161378125" lon="113.95598779638672" /><trkpt lat="22.28157678125" lon="113.95573979638672" /><trkpt lat="22.28158178125" lon="113.95537879638673" /><trkpt lat="22.28151878125" lon="113.95517279638672" /><trkpt lat="22.28146478125" lon="113.95511879638671" /><trkpt lat="22.28138578125" lon="113.95497479638672" /><trkpt lat="22.28138578125" lon="113.95471679638672" /><trkpt lat="22.28127178125" lon="113.95436779638672" /><trkpt lat="22.28120678125" lon="113.95420779638673" /><trkpt lat="22.28110878125" lon="113.95417479638672" /><trkpt lat="22.28095978125" lon="113.95417579638672" /><trkpt lat="22.28048378125" lon="113.95409279638672" /><trkpt lat="22.28030278125" lon="113.95411079638671" /><trkpt lat="22.27980578125" lon="113.95403879638671" /><trkpt lat="22.27953078125" lon="113.95390279638671" /><trkpt lat="22.27940278125" lon="113.95390479638672" /><trkpt lat="22.27908378125" lon="113.95379679638671" /><trkpt lat="22.27883578125" lon="113.95361479638672" /><trkpt lat="22.27843678125" lon="113.95346079638672" /><trkpt lat="22.27820178125" lon="113.95314779638672" /><trkpt lat="22.27794278125" lon="113.95291179638672" /><trkpt lat="22.27779578125" lon="113.95267479638672" /><trkpt lat="22.27750178125" lon="113.95241579638672" /><trkpt lat="22.27729778125" lon="113.95202679638672" /><trkpt lat="22.27719378125" lon="113.95169379638672" /><trkpt lat="22.27712978125" lon="113.95165779638671" /><trkpt lat="22.27701278125" lon="113.95142579638672" /><trkpt lat="22.27692178125" lon="113.95124079638671" /><trkpt lat="22.27671978125" lon="113.95108079638672" /><trkpt lat="22.27658678125" lon="113.95104179638672" /><trkpt lat="22.27641078125" lon="113.95106479638672" /><trkpt lat="22.27614778125" lon="113.95122579638672" /><trkpt lat="22.27588678125" lon="113.95119479638672" /><trkpt lat="22.27570878125" lon="113.95128679638673" /><trkpt lat="22.27547478125" lon="113.95134279638673" /><trkpt lat="22.27535178125" lon="113.95142379638672" /><trkpt lat="22.27524378125" lon="113.95158979638671" /><trkpt lat="22.27497278125" lon="113.95165279638672" /><trkpt lat="22.27470778125" lon="113.95192679638672" /><trkpt lat="22.27445378125" lon="113.95196379638672" /><trkpt lat="22.27390678125" lon="113.95213279638672" /><trkpt lat="22.27386478125" lon="113.95207979638671" /><trkpt lat="22.27375378125" lon="113.95209479638672" /><trkpt lat="22.27349278125" lon="113.95225479638673" /><trkpt lat="22.27285178125" lon="113.95242279638671" /><trkpt lat="22.27263078125" lon="113.95257079638672" /><trkpt lat="22.27247578125" lon="113.95251779638672" /><trkpt lat="22.27233978125" lon="113.95223379638672" /><trkpt lat="22.27205478125" lon="113.95097879638672" /><trkpt lat="22.27191678125" lon="113.95064779638672" /><trkpt lat="22.27167278125" lon="113.95030079638671" /><trkpt lat="22.27155978125" lon="113.95011079638672" /><trkpt lat="22.27149778125" lon="113.94995979638672" /><trkpt lat="22.27137578125" lon="113.94967579638671" /><trkpt lat="22.27125978125" lon="113.94939979638671" /><trkpt lat="22.27113678125" lon="113.94897779638671" /><trkpt lat="22.27110178125" lon="113.94881579638673" /><trkpt lat="22.27111778125" lon="113.94864379638672" /><trkpt lat="22.27120078125" lon="113.94842879638672" /><trkpt lat="22.27128678125" lon="113.94828279638672" /><trkpt lat="22.27139578125" lon="113.94813079638672" /><trkpt lat="22.27162378125" lon="113.94792179638672" /><trkpt lat="22.27168378125" lon="113.94787279638672" /><trkpt lat="22.27194478125" lon="113.94772979638672" /><trkpt lat="22.27227478125" lon="113.94759979638673" /><trkpt lat="22.27241378125" lon="113.94755779638672" /><trkpt lat="22.27271278125" lon="113.94750279638671" /><trkpt lat="22.27279278125" lon="113.94747279638672" /><trkpt lat="22.27285978125" lon="113.94742279638672" /><trkpt lat="22.27292978125" lon="113.94733879638672" /><trkpt lat="22.27305478125" lon="113.94714279638671" /><trkpt lat="22.27310878125" lon="113.94708579638672" /><trkpt lat="22.27316778125" lon="113.94705279638671" /><trkpt lat="22.27353078125" lon="113.94692179638672" /><trkpt lat="22.27359378125" lon="113.94687779638672" /><trkpt lat="22.27367578125" lon="113.94679879638672" /><trkpt lat="22.27378678125" lon="113.94666379638672" /><trkpt lat="22.27408078125" lon="113.94607279638672" /><trkpt lat="22.27421178125" lon="113.94574979638672" /><trkpt lat="22.27434578125" lon="113.94547279638672" /><trkpt lat="22.27447678125" lon="113.94521079638672" /><trkpt lat="22.27452878125" lon="113.94512679638672" /><trkpt lat="22.27473778125" lon="113.94492479638672" /><trkpt lat="22.27489478125" lon="113.94476679638672" /><trkpt lat="22.27507778125" lon="113.94455079638672" /><trkpt lat="22.27522378125" lon="113.94438379638672" /><trkpt lat="22.275361781249998" lon="113.94423279638671" /><trkpt lat="22.27553178125" lon="113.94403079638671" /><trkpt lat="22.27557978125" lon="113.94393479638671" /><trkpt lat="22.27562478125" lon="113.94377679638671" /><trkpt lat="22.27565878125" lon="113.94369679638672" /><trkpt lat="22.27577578125" lon="113.94358379638672" /><trkpt lat="22.27595678125" lon="113.94337779638671" /><trkpt lat="22.27613378125" lon="113.94319879638672" /><trkpt lat="22.27626578125" lon="113.94304279638672" /><trkpt lat="22.27636778125" lon="113.94286279638672" /><trkpt lat="22.27653178125" lon="113.94264279638672" /><trkpt lat="22.27677878125" lon="113.94234279638673" /><trkpt lat="22.27697678125" lon="113.94207479638672" /><trkpt lat="22.27715078125" lon="113.94180179638671" /><trkpt lat="22.27740878125" lon="113.94168379638671" /><trkpt lat="22.27799978125" lon="113.94157579638672" /><trkpt lat="22.27818778125" lon="113.94147979638672" /><trkpt lat="22.27835678125" lon="113.94131279638673" /><trkpt lat="22.27846078125" lon="113.94109879638673" /><trkpt lat="22.27857078125" lon="113.94084079638672" /><trkpt lat="22.27868478125" lon="113.94070179638672" /><trkpt lat="22.27887778125" lon="113.94052979638671" /><trkpt lat="22.27897278125" lon="113.94046079638672" /><trkpt lat="22.27906278125" lon="113.94040979638672" /><trkpt lat="22.27913578125" lon="113.94034179638672" /><trkpt lat="22.27928378125" lon="113.94020379638673" /><trkpt lat="22.27952078125" lon="113.94049879638672" /><trkpt lat="22.27960078125" lon="113.94058279638672" /><trkpt lat="22.27972078125" lon="113.94068979638672" /><trkpt lat="22.27981778125" lon="113.94059979638672" /><trkpt lat="22.27984478125" lon="113.94063679638671" /><trkpt lat="22.27990778125" lon="113.94072279638672" /><trkpt lat="22.28004578125" lon="113.94061079638672" /><trkpt lat="22.28116378125" lon="113.93958779638672" /><trkpt lat="22.28147178125" lon="113.93994679638672" /><trkpt lat="22.28158678125" lon="113.94006479638672" /><trkpt lat="22.28190078125" lon="113.94038479638672" /><trkpt lat="22.28222978125" lon="113.94068479638672" /><trkpt lat="22.28329378125" lon="113.94153879638672" /><trkpt lat="22.28401378125" lon="113.94212379638672" /><trkpt lat="22.28413478125" lon="113.94221779638671" /><trkpt lat="22.28427378125" lon="113.94232679638672" /><trkpt lat="22.28428578125" lon="113.94228979638672" /><trkpt lat="22.28459778125" lon="113.94251979638672" /><trkpt lat="22.28465278125" lon="113.94252579638672" /><trkpt lat="22.28470678125" lon="113.94252179638671" /><trkpt lat="22.28476978125" lon="113.94248679638672" /><trkpt lat="22.28487678125" lon="113.94238679638671" /><trkpt lat="22.28498278125" lon="113.94226579638672" /><trkpt lat="22.28501178125" lon="113.94221679638672" /><trkpt lat="22.28507078125" lon="113.94226879638671" /><trkpt lat="22.28522578125" lon="113.94209379638671" /><trkpt lat="22.28525478125" lon="113.94212379638672" /><trkpt lat="22.28542978125" lon="113.94193279638672" /><trkpt lat="22.28598278125" lon="113.94131079638672" /><trkpt lat="22.28602278125" lon="113.94126379638672" /><trkpt lat="22.28628278125" lon="113.94096679638672" /><trkpt lat="22.28649378125" lon="113.94066679638672" /><trkpt lat="22.28654578125" lon="113.94059679638671" /><trkpt lat="22.28661878125" lon="113.94048779638672" /><trkpt lat="22.28676578125" lon="113.94058979638672" /><trkpt lat="22.28684678125" lon="113.94063779638672" /><trkpt lat="22.28689378125" lon="113.94066679638672" /><trkpt lat="22.28717778125" lon="113.94084079638672" /><trkpt lat="22.28786978125" lon="113.94130779638672" /><trkpt lat="22.28791478125" lon="113.94133279638672" /><trkpt lat="22.28799678125" lon="113.94139579638671" /><trkpt lat="22.28807478125" lon="113.94145079638672" /><trkpt lat="22.28815478125" lon="113.94151079638672" /><trkpt lat="22.28828378125" lon="113.94161379638672" /><trkpt lat="22.28833478125" lon="113.94164779638672" /><trkpt lat="22.28861678125" lon="113.94183679638672" /><trkpt lat="22.28879978125" lon="113.94195979638671" /><trkpt lat="22.28897778125" lon="113.94203979638672" /><trkpt lat="22.28901778125" lon="113.94205779638672" /><trkpt lat="22.289054415232485" lon="113.94206313883836" /></trkseg></trk></gpx>