<?xml version='1.0' encoding='UTF-8' ?><gpx version="1.1" creator="HikingTrailHK" xsi:schemaLocation="http://www.topografix.com/GPX/1/1 http://www.topografix.com/GPX/1/1/gpx.xsd" xmlns="http://www.topografix.com/GPX/1/1" xmlns:xsi="http://www.w3.org/2001/XMLSchema-instance"><metadata><name>日落脊 @ 2024-12-22</name><desc></desc></metadata><wpt lat="22.336631297334335" lon="114.22364207592642"><name>大石</name></wpt><wpt lat="22.336859817133046" lon="114.22367617320992"><name>大石</name></wpt><wpt lat="22.337036696661556" lon="114.22371992841664"><name>大石</name></wpt><wpt lat="22.337784519396536" lon="114.22309461312096"><name>繩落位</name></wpt><wpt lat="22.338227536543926" lon="114.22232586822457"><name>大石</name></wpt><trk><trkseg><trkpt lat="22.33391678125" lon="114.22113479638672" /><trkpt lat="22.33395778125" lon="114.22117779638671" /><trkpt lat="22.33404278125" lon="114.22193079638672" /><trkpt lat="22.33410578125" lon="114.22209379638672" /><trkpt lat="22.33418478125" lon="114.22220279638672" /><trkpt lat="22.33428178125" lon="114.22221679638672" /><trkpt lat="22.33437578125" lon="114.22222079638672" /><trkpt lat="22.33456878125" lon="114.22236079638672" /><trkpt lat="22.33475478125" lon="114.22241679638672" /><trkpt lat="22.33494878125" lon="114.22247679638672" /><trkpt lat="22.33500578125" lon="114.22263979638672" /><trkpt lat="22.33505378125" lon="114.22271179638672" /><trkpt lat="22.33507578125" lon="114.22282579638672" /><trkpt lat="22.33506478125" lon="114.22286079638671" /><trkpt lat="22.33507978125" lon="114.22286579638671" /><trkpt lat="22.33506878125" lon="114.22291379638672" /><trkpt lat="22.33505303100921" lon="114.22291480915237" /><trkpt lat="22.335069205664936" lon="114.22290363150375" /><trkpt lat="22.335075686539383" lon="114.2228898460495" /><trkpt lat="22.335073858920097" lon="114.22287217776255" /><trkpt lat="22.33507578125" lon="114.22282579638672" /><trkpt lat="22.33509978125" lon="114.22279679638672" /><trkpt lat="22.33511078125" lon="114.22267379638672" /><trkpt lat="22.33507378125" lon="114.22255179638672" /><trkpt lat="22.33523878125" lon="114.22264679638671" /><trkpt lat="22.33556078125" lon="114.22270379638672" /><trkpt lat="22.33566978125" lon="114.22273379638672" /><trkpt lat="22.33570178125" lon="114.22281279638672" /><trkpt lat="22.33579378125" lon="114.22286679638673" /><trkpt lat="22.33580878125" lon="114.22291579638672" /><trkpt lat="22.33594978125" lon="114.22299279638672" /><trkpt lat="22.33602878125" lon="114.22303479638671" /><trkpt lat="22.33625778125" lon="114.22315879638671" /><trkpt lat="22.33636178125" lon="114.22333679638672" /><trkpt lat="22.33655578125" lon="114.22360979638673" /><trkpt lat="22.33668878125" lon="114.22366979638672" /><trkpt lat="22.33681978125" lon="114.22366979638672" /><trkpt lat="22.33697378125" lon="114.22372079638671" /><trkpt lat="22.33705678125" lon="114.22371979638672" /><trkpt lat="22.33715678125" lon="114.22377579638672" /><trkpt lat="22.33712978125" lon="114.22372679638671" /><trkpt lat="22.33716178125" lon="114.22372979638672" /><trkpt lat="22.33719378125" lon="114.22370779638672" /><trkpt lat="22.33723078125" lon="114.22364679638672" /><trkpt lat="22.33727078125" lon="114.22359579638672" /><trkpt lat="22.33731778125" lon="114.22359279638673" /><trkpt lat="22.33738678125" lon="114.22353179638672" /><trkpt lat="22.33742378125" lon="114.22344379638672" /><trkpt lat="22.33751478125" lon="114.22334979638671" /><trkpt lat="22.33756378125" lon="114.22329179638672" /><trkpt lat="22.33762478125" lon="114.22327879638672" /><trkpt lat="22.33771578125" lon="114.22314179638671" /><trkpt lat="22.33776678125" lon="114.22309979638672" /><trkpt lat="22.33790378125" lon="114.22286479638672" /><trkpt lat="22.33797678125" lon="114.22273579638671" /><trkpt lat="22.33806678125" lon="114.22255479638672" /><trkpt lat="22.33814278125" lon="114.22237979638672" /><trkpt lat="22.33820378125" lon="114.22228979638672" /><trkpt lat="22.33824578125" lon="114.22218679638672" /><trkpt lat="22.33829878125" lon="114.22211079638672" /><trkpt lat="22.33824178125" lon="114.22210679638673" /><trkpt lat="22.33828578125" lon="114.22187079638672" /><trkpt lat="22.33839778125" lon="114.22180379638672" /><trkpt lat="22.33846978125" lon="114.22174479638672" /><trkpt lat="22.33845778125" lon="114.22164879638672" /><trkpt lat="22.33844178125" lon="114.22159579638672" /><trkpt lat="22.33850878125" lon="114.22140979638672" /><trkpt lat="22.33857978125" lon="114.22127979638672" /><trkpt lat="22.33862178125" lon="114.22118579638672" /><trkpt lat="22.33872078125" lon="114.22116479638672" /><trkpt lat="22.33881678125" lon="114.22112279638672" /><trkpt lat="22.33908978125" lon="114.22099279638672" /><trkpt lat="22.33920678125" lon="114.22093679638672" /><trkpt lat="22.33933878125" lon="114.22090279638672" /><trkpt lat="22.33939078125" lon="114.22083479638673" /><trkpt lat="22.33943678125" lon="114.22078279638671" /><trkpt lat="22.33947678125" lon="114.22080779638672" /><trkpt lat="22.33953778125" lon="114.22073479638672" /><trkpt lat="22.33961278125" lon="114.22073579638672" /><trkpt lat="22.33963778125" lon="114.22072879638672" /><trkpt lat="22.33974278125" lon="114.22069979638673" /><trkpt lat="22.33978078125" lon="114.22068579638672" /><trkpt lat="22.33981078125" lon="114.22067579638671" /><trkpt lat="22.33987378125" lon="114.22068179638671" /><trkpt lat="22.33991178125" lon="114.22072379638672" /><trkpt lat="22.33993578125" lon="114.22075179638672" /><trkpt lat="22.33998578125" lon="114.22067379638672" /><trkpt lat="22.33997878125" lon="114.22053779638672" /><trkpt lat="22.33999778125" lon="114.22042879638671" /><trkpt lat="22.34000978125" lon="114.22039579638673" /><trkpt lat="22.34003678125" lon="114.22028679638672" /><trkpt lat="22.34010578125" lon="114.22025979638671" /><trkpt lat="22.34019078125" lon="114.22031579638671" /><trkpt lat="22.34025078125" lon="114.22030279638672" /><trkpt lat="22.34028578125" lon="114.22026279638672" /><trkpt lat="22.34034478125" lon="114.22022179638672" /><trkpt lat="22.34038578125" lon="114.22021079638672" /><trkpt lat="22.34049578125" lon="114.22015579638672" /><trkpt lat="22.34054978125" lon="114.22015579638672" /><trkpt lat="22.34058878125" lon="114.22008179638672" /><trkpt lat="22.34062478125" lon="114.22011679638672" /><trkpt lat="22.34068278125" lon="114.22013579638671" /><trkpt lat="22.34073878125" lon="114.22013479638672" /><trkpt lat="22.34079978125" lon="114.22013579638671" /><trkpt lat="22.34087978125" lon="114.22006379638673" /><trkpt lat="22.34089478125" lon="114.21998579638672" /><trkpt lat="22.34093378125" lon="114.21994779638672" /><trkpt lat="22.34098778125" lon="114.21989479638673" /><trkpt lat="22.34109478125" lon="114.21980779638672" /><trkpt lat="22.34121478125" lon="114.21987279638672" /><trkpt lat="22.34136878125" lon="114.21998579638672" /><trkpt lat="22.34147778125" lon="114.21999879638672" /><trkpt lat="22.34152078125" lon="114.21998979638671" /><trkpt lat="22.34165278125" lon="114.21996479638672" /><trkpt lat="22.34168378125" lon="114.22001579638672" /><trkpt lat="22.34177778125" lon="114.21999479638671" /><trkpt lat="22.34175878125" lon="114.21984279638671" /><trkpt lat="22.34183578125" lon="114.21953179638672" /><trkpt lat="22.34184178125" lon="114.21932879638672" /><trkpt lat="22.34179478125" lon="114.21923279638672" /><trkpt lat="22.34182678125" lon="114.21875679638671" /><trkpt lat="22.34174178125" lon="114.21863079638672" /><trkpt lat="22.34162978125" lon="114.21846479638671" /><trkpt lat="22.34156278125" lon="114.21815379638672" /><trkpt lat="22.34158878125" lon="114.21805679638672" /><trkpt lat="22.34147678125" lon="114.21774379638671" /><trkpt lat="22.34156678125" lon="114.21722379638672" /><trkpt lat="22.34154178125" lon="114.21690679638672" /><trkpt lat="22.34152178125" lon="114.21686679638673" /><trkpt lat="22.34144178125" lon="114.21678979638672" /><trkpt lat="22.34116478125" lon="114.21667679638672" /><trkpt lat="22.34147278125" lon="114.21643179638671" /><trkpt lat="22.34176678125" lon="114.21630679638672" /><trkpt lat="22.34161078125" lon="114.21541479638672" /><trkpt lat="22.34149978125" lon="114.21543979638672" /><trkpt lat="22.34143578125" lon="114.21549279638671" /><trkpt lat="22.34141778125" lon="114.21557579638672" /><trkpt lat="22.34140278125" lon="114.21568379638671" /><trkpt lat="22.34135478125" lon="114.21578579638673" /><trkpt lat="22.34129378125" lon="114.21584179638671" /><trkpt lat="22.34118478125" lon="114.21587879638672" /><trkpt lat="22.34107378125" lon="114.21587179638672" /><trkpt lat="22.34092478125" lon="114.21579979638672" /><trkpt lat="22.34084378125" lon="114.21575779638673" /><trkpt lat="22.34077778125" lon="114.21573779638672" /><trkpt lat="22.34067678125" lon="114.21573079638672" /><trkpt lat="22.33994578125" lon="114.21604479638673" /><trkpt lat="22.33986878125" lon="114.21609979638671" /><trkpt lat="22.33969278125" lon="114.21629079638672" /><trkpt lat="22.33941178125" lon="114.21647779638671" /><trkpt lat="22.33925678125" lon="114.21659979638672" /><trkpt lat="22.33913178125" lon="114.21666279638671" /><trkpt lat="22.33875678125" lon="114.21676079638672" /><trkpt lat="22.33867378125" lon="114.21676879638672" /><trkpt lat="22.33861478125" lon="114.21675179638672" /><trkpt lat="22.33845678125" lon="114.21665979638672" /><trkpt lat="22.33837778125" lon="114.21663179638672" /><trkpt lat="22.33829578125" lon="114.21662079638672" /><trkpt lat="22.33819078125" lon="114.21662979638671" /><trkpt lat="22.33813878125" lon="114.21665779638671" /><trkpt lat="22.33805278125" lon="114.21672679638672" /><trkpt lat="22.33785478125" lon="114.21703279638672" /><trkpt lat="22.33779378125" lon="114.21708879638672" /><trkpt lat="22.33772778125" lon="114.21711779638672" /><trkpt lat="22.33758478125" lon="114.21714279638672" /><trkpt lat="22.33721978125" lon="114.21720379638671" /><trkpt lat="22.33715678125" lon="114.21723979638672" /><trkpt lat="22.33710578125" lon="114.21728879638673" /><trkpt lat="22.33685878125" lon="114.21769279638671" /><trkpt lat="22.33675378125" lon="114.21787779638672" /><trkpt lat="22.33672778125" lon="114.21801779638672" /><trkpt lat="22.33673878125" lon="114.21815279638672" /><trkpt lat="22.33673278125" lon="114.21827479638672" /><trkpt lat="22.33671778125" lon="114.21833179638672" /><trkpt lat="22.33671078125" lon="114.21836179638672" /><trkpt lat="22.33664678125" lon="114.21849679638672" /><trkpt lat="22.33660778125" lon="114.21854379638671" /><trkpt lat="22.33655978125" lon="114.21858179638672" /><trkpt lat="22.33649378125" lon="114.21861679638671" /><trkpt lat="22.33646278125" lon="114.21863279638671" /><trkpt lat="22.33590278125" lon="114.21887179638672" /><trkpt lat="22.33581078125" lon="114.21889279638673" /><trkpt lat="22.33524678125" lon="114.21883779638672" /><trkpt lat="22.33517678125" lon="114.21882479638671" /><trkpt lat="22.33513178125" lon="114.21880079638672" /><trkpt lat="22.33503678125" lon="114.21873879638672" /><trkpt lat="22.33493678125" lon="114.21866179638671" /><trkpt lat="22.33475078125" lon="114.21848279638672" /><trkpt lat="22.33465878125" lon="114.21837779638672" /><trkpt lat="22.33457978125" lon="114.21828879638672" /><trkpt lat="22.33452678125" lon="114.21828679638672" /><trkpt lat="22.33427678125" lon="114.21819379638671" /><trkpt lat="22.33417378125" lon="114.21817979638672" /><trkpt lat="22.33397578125" lon="114.21817379638672" /><trkpt lat="22.33392878125" lon="114.21816679638673" /><trkpt lat="22.33385978125" lon="114.21814479638672" /><trkpt lat="22.333841328875284" lon="114.21819224454615" /></trkseg></trk></gpx>