<?xml version='1.0' encoding='UTF-8' ?><gpx version="1.1" creator="HikingTrailHK" xsi:schemaLocation="http://www.topografix.com/GPX/1/1 http://www.topografix.com/GPX/1/1/gpx.xsd" xmlns="http://www.topografix.com/GPX/1/1" xmlns:xsi="http://www.w3.org/2001/XMLSchema-instance"><metadata><name>暴雨後 @ 2025-08-07</name><desc></desc></metadata><wpt lat="22.332344328987062" lon="114.24244691175107"><name>穿洞樹</name></wpt><trk><trkseg><trkpt lat="22.317388243435765" lon="114.26782654994604" /><trkpt lat="22.31741478125" lon="114.26786979638672" /><trkpt lat="22.31764378125" lon="114.26809179638671" /><trkpt lat="22.317835078831468" lon="114.2682786399816" /><trkpt lat="22.31787578125" lon="114.26822979638672" /><trkpt lat="22.31794378125" lon="114.26828579638672" /><trkpt lat="22.31816178125" lon="114.26846879638671" /><trkpt lat="22.31828178125" lon="114.26854579638672" /><trkpt lat="22.31855878125" lon="114.26872279638673" /><trkpt lat="22.31858278125" lon="114.26874079638672" /><trkpt lat="22.31859878125" lon="114.26876779638673" /><trkpt lat="22.31863878125" lon="114.26880579638672" /><trkpt lat="22.31866878125" lon="114.26880979638672" /><trkpt lat="22.31870878125" lon="114.26881079638672" /><trkpt lat="22.31873978125" lon="114.26880779638672" /><trkpt lat="22.31873878125" lon="114.26884579638671" /><trkpt lat="22.31873678125" lon="114.26888379638672" /><trkpt lat="22.31876578125" lon="114.26889679638671" /><trkpt lat="22.31883778125" lon="114.26883479638671" /><trkpt lat="22.31884178125" lon="114.26886979638672" /><trkpt lat="22.31884778125" lon="114.26890379638672" /><trkpt lat="22.31886578125" lon="114.26896179638672" /><trkpt lat="22.31946578125" lon="114.26855679638672" /><trkpt lat="22.31949778125" lon="114.26854479638672" /><trkpt lat="22.31980594496813" lon="114.2684989750636" /><trkpt lat="22.31970178125" lon="114.26885679638671" /><trkpt lat="22.31968278125" lon="114.26891679638672" /><trkpt lat="22.31966678125" lon="114.26896179638672" /><trkpt lat="22.31961778125" lon="114.26908179638671" /><trkpt lat="22.31958078125" lon="114.26915979638672" /><trkpt lat="22.31955578125" lon="114.26920879638672" /><trkpt lat="22.31951978125" lon="114.26927179638672" /><trkpt lat="22.319599781249998" lon="114.26933979638672" /><trkpt lat="22.31957278125" lon="114.26938479638672" /><trkpt lat="22.31973178125" lon="114.26948479638672" /><trkpt lat="22.31971678125" lon="114.26955079638672" /><trkpt lat="22.31971078125" lon="114.26962379638672" /><trkpt lat="22.31971178125" lon="114.26968979638671" /><trkpt lat="22.31997878125" lon="114.26983679638671" /><trkpt lat="22.320020839927523" lon="114.26986913864738" /><trkpt lat="22.32002078125" lon="114.26986879638672" /><trkpt lat="22.32003878125" lon="114.26975679638672" /><trkpt lat="22.319906555244955" lon="114.26969912380855" /><trkpt lat="22.319875234869144" lon="114.26966108259757" /><trkpt lat="22.31987531700777" lon="114.26966099310482" /><trkpt lat="22.31989742571838" lon="114.26966468088187" /><trkpt lat="22.319950911364344" lon="114.26968562528697" /><trkpt lat="22.320013682171094" lon="114.26974247976256" /><trkpt lat="22.32003523507636" lon="114.26977530492371" /><trkpt lat="22.3200424062767" lon="114.26979739197697" /><trkpt lat="22.320041809131496" lon="114.26981828596121" /><trkpt lat="22.320022673715954" lon="114.26986520474895" /><trkpt lat="22.32003378125" lon="114.26994379638671" /><trkpt lat="22.32007878125" lon="114.27000479638671" /><trkpt lat="22.32013378125" lon="114.26995979638671" /><trkpt lat="22.32020878125" lon="114.26987279638672" /><trkpt lat="22.32028378125" lon="114.26973779638672" /><trkpt lat="22.32049078125" lon="114.26927179638672" /><trkpt lat="22.32054778125" lon="114.26917379638672" /><trkpt lat="22.32062578125" lon="114.26908279638671" /><trkpt lat="22.32069778125" lon="114.26903179638671" /><trkpt lat="22.32079978125" lon="114.26898279638672" /><trkpt lat="22.32089678125" lon="114.26894179638671" /><trkpt lat="22.32102078125" lon="114.26892579638672" /><trkpt lat="22.32116378125" lon="114.26891379638671" /><trkpt lat="22.32117178125" lon="114.26870879638672" /><trkpt lat="22.32117978125" lon="114.26856779638672" /><trkpt lat="22.32119778125" lon="114.26837679638672" /><trkpt lat="22.32120878125" lon="114.26832679638672" /><trkpt lat="22.32122978125" lon="114.26828079638672" /><trkpt lat="22.32124978125" lon="114.26827079638672" /><trkpt lat="22.32128478125" lon="114.26826079638671" /><trkpt lat="22.32133078125" lon="114.26825079638672" /><trkpt lat="22.32146978125" lon="114.26822579638672" /><trkpt lat="22.32146178125" lon="114.26810779638672" /><trkpt lat="22.32147578125" lon="114.26788879638671" /><trkpt lat="22.32100078125" lon="114.26784479638673" /><trkpt lat="22.32094078125" lon="114.26778579638672" /><trkpt lat="22.32100278125" lon="114.26778679638672" /><trkpt lat="22.32105378125" lon="114.26777879638672" /><trkpt lat="22.32105278125" lon="114.26774079638672" /><trkpt lat="22.32083678125" lon="114.26756779638671" /><trkpt lat="22.32089778125" lon="114.26752379638671" /><trkpt lat="22.32087178125" lon="114.26747779638671" /><trkpt lat="22.32078478125" lon="114.26746979638672" /><trkpt lat="22.32072078125" lon="114.26739179638672" /><trkpt lat="22.32084378125" lon="114.26724779638671" /><trkpt lat="22.32097578125" lon="114.26713879638672" /><trkpt lat="22.32178578125" lon="114.26727179638672" /><trkpt lat="22.321849146511056" lon="114.26731822165465" /><trkpt lat="22.32195728135555" lon="114.2673371755613" /><trkpt lat="22.32200269823194" lon="114.26738443592262" /><trkpt lat="22.322036823690112" lon="114.26746422156401" /><trkpt lat="22.322097000971283" lon="114.26750438618666" /><trkpt lat="22.322233498668965" lon="114.26752492962652" /><trkpt lat="22.322289809635862" lon="114.26749740537741" /><trkpt lat="22.32229614801166" lon="114.2674310052139" /><trkpt lat="22.322285463099703" lon="114.26734951591243" /><trkpt lat="22.32223729740663" lon="114.267255828069" /><trkpt lat="22.32226478125" lon="114.26739779638672" /><trkpt lat="22.32229378125" lon="114.26744579638672" /><trkpt lat="22.32234178125" lon="114.26746779638673" /><trkpt lat="22.32239278125" lon="114.26745479638672" /><trkpt lat="22.32242878125" lon="114.26741379638672" /><trkpt lat="22.32243578125" lon="114.26735679638672" /><trkpt lat="22.32241178125" lon="114.26730679638672" /><trkpt lat="22.32239278125" lon="114.26725779638672" /><trkpt lat="22.32238478125" lon="114.26720779638671" /><trkpt lat="22.32239078125" lon="114.26715679638671" /><trkpt lat="22.32243278125" lon="114.26709079638673" /><trkpt lat="22.322448710603354" lon="114.26715993434897" /><trkpt lat="22.322457681242966" lon="114.26735818956394" /><trkpt lat="22.322445104961517" lon="114.26744431527095" /><trkpt lat="22.32241247582992" lon="114.26752405808361" /><trkpt lat="22.32235300003221" lon="114.26750277623523" /><trkpt lat="22.32229378125" lon="114.26744579638672" /><trkpt lat="22.322240037639034" lon="114.26750451627771" /><trkpt lat="22.322199791219262" lon="114.267563761578" /><trkpt lat="22.3221375584245" lon="114.26754634068038" /><trkpt lat="22.322056645941032" lon="114.26748276004838" /><trkpt lat="22.321996516042347" lon="114.26739215702185" /><trkpt lat="22.3219487207747" lon="114.26734811102989" /><trkpt lat="22.32178578125" lon="114.26727179638672" /><trkpt lat="22.32097578125" lon="114.26713879638672" /><trkpt lat="22.32084378125" lon="114.26724779638671" /><trkpt lat="22.32036978125" lon="114.26666379638672" /><trkpt lat="22.32035178125" lon="114.26664979638672" /><trkpt lat="22.32031278125" lon="114.26662579638672" /><trkpt lat="22.32027578125" lon="114.26661379638672" /><trkpt lat="22.32024878125" lon="114.26660879638672" /><trkpt lat="22.32021978125" lon="114.26660279638672" /><trkpt lat="22.32025878125" lon="114.26638579638671" /><trkpt lat="22.32020978125" lon="114.26637979638672" /><trkpt lat="22.32025178125" lon="114.26602279638672" /><trkpt lat="22.32025778125" lon="114.26587879638672" /><trkpt lat="22.32025278125" lon="114.26584279638672" /><trkpt lat="22.32023978125" lon="114.26581379638672" /><trkpt lat="22.32021178125" lon="114.26578079638672" /><trkpt lat="22.32016278125" lon="114.26576979638672" /><trkpt lat="22.32003278125" lon="114.26575579638671" /><trkpt lat="22.31988478125" lon="114.26573079638672" /><trkpt lat="22.31967578125" lon="114.26570679638672" /><trkpt lat="22.31968278125" lon="114.26565679638672" /><trkpt lat="22.31969378125" lon="114.26558079638671" /><trkpt lat="22.31948478125" lon="114.26554579638672" /><trkpt lat="22.31941178125" lon="114.26552479638671" /><trkpt lat="22.31932978125" lon="114.26541079638672" /><trkpt lat="22.31930978125" lon="114.26519279638671" /><trkpt lat="22.31933278125" lon="114.26493079638672" /><trkpt lat="22.31937178125" lon="114.26465679638672" /><trkpt lat="22.31940378125" lon="114.26442179638671" /><trkpt lat="22.31946378125" lon="114.26399879638672" /><trkpt lat="22.31945478125" lon="114.26379479638672" /><trkpt lat="22.31948178125" lon="114.26363579638672" /><trkpt lat="22.31949378125" lon="114.26351379638672" /><trkpt lat="22.31951814697794" lon="114.26329207582332" /><trkpt lat="22.31978678125" lon="114.26330179638671" /><trkpt lat="22.31976378125" lon="114.26355579638673" /><trkpt lat="22.31966578125" lon="114.26461579638672" /><trkpt lat="22.31964978125" lon="114.26476679638672" /><trkpt lat="22.31965578125" lon="114.26486979638672" /><trkpt lat="22.31969378125" lon="114.26499979638672" /><trkpt lat="22.31968378125" lon="114.26489879638672" /><trkpt lat="22.31971678125" lon="114.26481679638673" /><trkpt lat="22.31975678125" lon="114.26473879638672" /><trkpt lat="22.31988278125" lon="114.26458179638672" /><trkpt lat="22.32002578125" lon="114.26447579638672" /><trkpt lat="22.32014778125" lon="114.26439279638672" /><trkpt lat="22.32021178125" lon="114.26435479638671" /><trkpt lat="22.32024978125" lon="114.26425879638671" /><trkpt lat="22.32026678125" lon="114.26407379638673" /><trkpt lat="22.32028778125" lon="114.26401579638672" /><trkpt lat="22.32038278125" lon="114.26382979638672" /><trkpt lat="22.32182978125" lon="114.26309879638671" /><trkpt lat="22.32206078125" lon="114.26281079638672" /><trkpt lat="22.32225478125" lon="114.26256879638672" /><trkpt lat="22.32239378125" lon="114.26250079638672" /><trkpt lat="22.32294278125" lon="114.26187779638671" /><trkpt lat="22.32328778125" lon="114.26158779638672" /><trkpt lat="22.32352278125" lon="114.26147079638672" /><trkpt lat="22.32372078125" lon="114.26136179638672" /><trkpt lat="22.32391778125" lon="114.26118279638672" /><trkpt lat="22.32408878125" lon="114.26112179638672" /><trkpt lat="22.32430978125" lon="114.26090479638673" /><trkpt lat="22.32450078125" lon="114.26081379638671" /><trkpt lat="22.32464178125" lon="114.26074779638672" /><trkpt lat="22.32482778125" lon="114.26063379638671" /><trkpt lat="22.32496978125" lon="114.26053179638672" /><trkpt lat="22.32505478125" lon="114.26037079638672" /><trkpt lat="22.32511278125" lon="114.26036379638671" /><trkpt lat="22.32516878125" lon="114.26034279638672" /><trkpt lat="22.32532678125" lon="114.26026379638672" /><trkpt lat="22.32543078125" lon="114.26021079638672" /><trkpt lat="22.325393765801493" lon="114.26016794895338" /><trkpt lat="22.325341717369852" lon="114.26001265451191" /><trkpt lat="22.325312196575155" lon="114.25994883527443" /><trkpt lat="22.32532327893908" lon="114.25988814576897" /><trkpt lat="22.325362975522864" lon="114.259839352889" /><trkpt lat="22.32541545025464" lon="114.25981540393371" /><trkpt lat="22.325464954883444" lon="114.25982191489408" /><trkpt lat="22.325492899816368" lon="114.25986899198779" /><trkpt lat="22.32553627898689" lon="114.26005857881358" /><trkpt lat="22.325573289890936" lon="114.26012931893142" /><trkpt lat="22.32632283236606" lon="114.25970236707116" /><trkpt lat="22.32644714534257" lon="114.25983257481028" /><trkpt lat="22.326497001640263" lon="114.2598602548756" /><trkpt lat="22.326567617600148" lon="114.25987484070112" /><trkpt lat="22.326629943243134" lon="114.25987068656303" /><trkpt lat="22.326688598072053" lon="114.25985007513157" /><trkpt lat="22.326728208489527" lon="114.2598155001325" /><trkpt lat="22.326762003222413" lon="114.25976653536321" /><trkpt lat="22.3267940162698" lon="114.25965219760099" /><trkpt lat="22.326767257194035" lon="114.2595934920327" /><trkpt lat="22.326707117219854" lon="114.25953710123645" /><trkpt lat="22.326659019081163" lon="114.25952405409902" /><trkpt lat="22.32641689234977" lon="114.25961357096253" /><trkpt lat="22.326356054523302" lon="114.2596188042769" /><trkpt lat="22.32629378125" lon="114.25958079638671" /><trkpt lat="22.32576078125" lon="114.25885279638672" /><trkpt lat="22.32556878125" lon="114.25860979638672" /><trkpt lat="22.325537637818286" lon="114.25855292101795" /><trkpt lat="22.32551378125" lon="114.25849379638672" /><trkpt lat="22.32551678125" lon="114.25849079638672" /><trkpt lat="22.32553078125" lon="114.25847879638673" /><trkpt lat="22.32557078125" lon="114.25844679638672" /><trkpt lat="22.32562578125" lon="114.25840379638672" /><trkpt lat="22.32569078125" lon="114.25835179638672" /><trkpt lat="22.32575078125" lon="114.25830379638671" /><trkpt lat="22.32579478125" lon="114.25825679638672" /><trkpt lat="22.32582778125" lon="114.25819679638671" /><trkpt lat="22.32584978125" lon="114.25813779638672" /><trkpt lat="22.32586778125" lon="114.25807879638671" /><trkpt lat="22.32579978125" lon="114.25807979638672" /><trkpt lat="22.32572978125" lon="114.25807779638671" /><trkpt lat="22.32561078125" lon="114.25805979638672" /><trkpt lat="22.32549785761626" lon="114.25803214542857" /><trkpt lat="22.32544978125" lon="114.25796979638672" /><trkpt lat="22.32541178125" lon="114.25794079638672" /><trkpt lat="22.32489978125" lon="114.25738179638672" /><trkpt lat="22.32478978125" lon="114.25726179638671" /><trkpt lat="22.32480778125" lon="114.25720279638672" /><trkpt lat="22.32474272933333" lon="114.25713205949438" /><trkpt lat="22.324815517170308" lon="114.25706039653193" /><trkpt lat="22.3248869706985" lon="114.25695340987079" /><trkpt lat="22.325073997264553" lon="114.25679235090962" /><trkpt lat="22.32509726340089" lon="114.25675955266195" /><trkpt lat="22.32513672728406" lon="114.25666672384574" /><trkpt lat="22.32514176413919" lon="114.25662866624162" /><trkpt lat="22.32513791733267" lon="114.25659056717774" /><trkpt lat="22.32508645911112" lon="114.25647506593202" /><trkpt lat="22.3250599921368" lon="114.2563516560275" /><trkpt lat="22.32504003941149" lon="114.25629699476406" /><trkpt lat="22.32500433629467" lon="114.2560668004354" /><trkpt lat="22.324964855812752" lon="114.2560354277283" /><trkpt lat="22.324913952464414" lon="114.25601726180145" /><trkpt lat="22.32487396702153" lon="114.25599290633261" /><trkpt lat="22.324738336977262" lon="114.25595229101606" /><trkpt lat="22.324711219481586" lon="114.25593001569973" /><trkpt lat="22.324689430927688" lon="114.25589520162897" /><trkpt lat="22.32484278125" lon="114.25551879638672" /><trkpt lat="22.32524578125" lon="114.25452279638672" /><trkpt lat="22.32477478125" lon="114.25447479638672" /><trkpt lat="22.32476378125" lon="114.25417679638672" /><trkpt lat="22.32471978125" lon="114.25402679638673" /><trkpt lat="22.32475678125" lon="114.25401779638672" /><trkpt lat="22.32478778125" lon="114.25399579638672" /><trkpt lat="22.32481078125" lon="114.25396379638671" /><trkpt lat="22.32482278125" lon="114.25392579638672" /><trkpt lat="22.32482178125" lon="114.25388479638671" /><trkpt lat="22.32480878125" lon="114.25384779638672" /><trkpt lat="22.32478478125" lon="114.25381679638672" /><trkpt lat="22.32475278125" lon="114.25379579638673" /><trkpt lat="22.32471578125" lon="114.25378779638672" /><trkpt lat="22.32467878125" lon="114.25379379638672" /><trkpt lat="22.32464578125" lon="114.25381179638671" /><trkpt lat="22.32462078125" lon="114.25384179638672" /><trkpt lat="22.32454678125" lon="114.25378179638672" /><trkpt lat="22.32454278125" lon="114.25303179638672" /><trkpt lat="22.32436178125" lon="114.25303379638672" /><trkpt lat="22.32424578125" lon="114.25300179638671" /><trkpt lat="22.32424378125" lon="114.25224879638672" /><trkpt lat="22.32443578125" lon="114.25219279638672" /><trkpt lat="22.32442778125" lon="114.25215079638672" /><trkpt lat="22.32444578125" lon="114.25210379638672" /><trkpt lat="22.32450078125" lon="114.25205979638672" /><trkpt lat="22.32490278125" lon="114.25188379638672" /><trkpt lat="22.32505578125" lon="114.25182079638672" /><trkpt lat="22.32518678125" lon="114.25181479638672" /><trkpt lat="22.32538878125" lon="114.25171979638672" /><trkpt lat="22.32550878125" lon="114.25176479638672" /><trkpt lat="22.32560578125" lon="114.25176879638671" /><trkpt lat="22.32569178125" lon="114.25175579638672" /><trkpt lat="22.32574578125" lon="114.25175179638671" /><trkpt lat="22.32577820726018" lon="114.25178529613227" /><trkpt lat="22.32583478125" lon="114.25176779638672" /><trkpt lat="22.32589078125" lon="114.25175279638673" /><trkpt lat="22.32591578125" lon="114.25171279638671" /><trkpt lat="22.32596478125" lon="114.25159879638672" /><trkpt lat="22.32592678125" lon="114.25158079638672" /><trkpt lat="22.325979871906267" lon="114.25153472195514" /><trkpt lat="22.32602578125" lon="114.25149679638672" /><trkpt lat="22.32608378125" lon="114.25147579638671" /><trkpt lat="22.32636678125" lon="114.25137279638672" /><trkpt lat="22.32640378125" lon="114.25135079638672" /><trkpt lat="22.32639878125" lon="114.25134079638671" /><trkpt lat="22.32637678125" lon="114.25127079638672" /><trkpt lat="22.32636278125" lon="114.25122279638671" /><trkpt lat="22.326333926034152" lon="114.25114047880392" /><trkpt lat="22.32638278125" lon="114.25112479638672" /><trkpt lat="22.32631578125" lon="114.25107779638672" /><trkpt lat="22.32628978125" lon="114.25108279638673" /><trkpt lat="22.32626778125" lon="114.25107179638673" /><trkpt lat="22.32624978125" lon="114.25105979638671" /><trkpt lat="22.32614678125" lon="114.25068579638672" /><trkpt lat="22.32602678125" lon="114.25034379638672" /><trkpt lat="22.32599778125" lon="114.25026279638672" /><trkpt lat="22.32580878125" lon="114.24999179638672" /><trkpt lat="22.32574578125" lon="114.24992279638671" /><trkpt lat="22.32565078125" lon="114.24983679638672" /><trkpt lat="22.32552678125" lon="114.24973979638672" /><trkpt lat="22.32543578125" lon="114.24968079638671" /><trkpt lat="22.32534878125" lon="114.24963379638672" /><trkpt lat="22.32525578125" lon="114.24959879638672" /><trkpt lat="22.32529078125" lon="114.24936479638671" /><trkpt lat="22.32480978125" lon="114.24911779638671" /><trkpt lat="22.32472478125" lon="114.24902779638671" /><trkpt lat="22.32463478125" lon="114.24897579638672" /><trkpt lat="22.32478078125" lon="114.24866279638672" /><trkpt lat="22.32481278125" lon="114.24841179638672" /><trkpt lat="22.32458278125" lon="114.24843479638672" /><trkpt lat="22.32445178125" lon="114.24844779638671" /><trkpt lat="22.324284128210685" lon="114.2483970525218" /><trkpt lat="22.324308387596673" lon="114.24827660502683" /><trkpt lat="22.324305487223143" lon="114.24818656225057" /><trkpt lat="22.32429042158293" lon="114.24815482936066" /><trkpt lat="22.3242617565148" lon="114.24813678311818" /><trkpt lat="22.324227405221947" lon="114.24815107025626" /><trkpt lat="22.324156049329886" lon="114.24825613051058" /><trkpt lat="22.324060749929703" lon="114.2483305096096" /><trkpt lat="22.323950898225668" lon="114.24829942961826" /><trkpt lat="22.323876151427243" lon="114.24819391392964" /><trkpt lat="22.323797487212758" lon="114.24814438664475" /><trkpt lat="22.323760242987937" lon="114.24813468610417" /><trkpt lat="22.32374578125" lon="114.24809379638671" /><trkpt lat="22.32372478125" lon="114.24804579638672" /><trkpt lat="22.32369478125" lon="114.24798479638672" /><trkpt lat="22.32365678125" lon="114.24790379638672" /><trkpt lat="22.32362378125" lon="114.24785279638672" /><trkpt lat="22.32356678125" lon="114.24777079638672" /><trkpt lat="22.32350178125" lon="114.24769779638672" /><trkpt lat="22.32339878125" lon="114.24761079638672" /><trkpt lat="22.32314678125" lon="114.24750779638671" /><trkpt lat="22.32302178125" lon="114.24748979638672" /><trkpt lat="22.32288978125" lon="114.24749179638673" /><trkpt lat="22.32278078125" lon="114.24749779638672" /><trkpt lat="22.32269178125" lon="114.24752179638672" /><trkpt lat="22.32268678125" lon="114.24749879638672" /><trkpt lat="22.32279778125" lon="114.24742979638673" /><trkpt lat="22.32273278125" lon="114.24706879638671" /><trkpt lat="22.32316178125" lon="114.24696879638672" /><trkpt lat="22.32333378125" lon="114.24688279638671" /><trkpt lat="22.32341278125" lon="114.24683979638672" /><trkpt lat="22.32352678125" lon="114.24678679638671" /><trkpt lat="22.32345278125" lon="114.24648079638672" /><trkpt lat="22.32348278125" lon="114.24636679638672" /><trkpt lat="22.32378978125" lon="114.24617279638672" /><trkpt lat="22.32406578125" lon="114.24612679638672" /><trkpt lat="22.32450278125" lon="114.24623479638672" /><trkpt lat="22.32473578125" lon="114.24633479638672" /><trkpt lat="22.32500178125" lon="114.24656979638672" /><trkpt lat="22.32520778125" lon="114.24660579638672" /><trkpt lat="22.32585378125" lon="114.24687379638672" /><trkpt lat="22.32701678125" lon="114.24752579638673" /><trkpt lat="22.32738378125" lon="114.24782379638673" /><trkpt lat="22.32751478125" lon="114.24796979638671" /><trkpt lat="22.32773978125" lon="114.24802579638671" /><trkpt lat="22.32787178125" lon="114.24799479638672" /><trkpt lat="22.32815378125" lon="114.24815279638672" /><trkpt lat="22.33011578125" lon="114.24782179638672" /><trkpt lat="22.33039178125" lon="114.24769279638672" /><trkpt lat="22.33049578125" lon="114.24768779638671" /><trkpt lat="22.33061978125" lon="114.24773179638672" /><trkpt lat="22.33074078125" lon="114.24773979638672" /><trkpt lat="22.33080778125" lon="114.24778879638671" /><trkpt lat="22.33090978125" lon="114.24778579638672" /><trkpt lat="22.33099478125" lon="114.24777079638672" /><trkpt lat="22.33105478125" lon="114.24776479638672" /><trkpt lat="22.33109078125" lon="114.24780479638672" /><trkpt lat="22.33114278125" lon="114.24786379638672" /><trkpt lat="22.33114578125" lon="114.24814279638672" /><trkpt lat="22.33115178125" lon="114.24877279638672" /><trkpt lat="22.33102378125" lon="114.24941679638673" /><trkpt lat="22.33102878125" lon="114.24997079638672" /><trkpt lat="22.33125678125" lon="114.24976079638672" /><trkpt lat="22.33166978125" lon="114.24909579638671" /><trkpt lat="22.33182578125" lon="114.24899379638671" /><trkpt lat="22.33208278125" lon="114.24823679638672" /><trkpt lat="22.33207778125" lon="114.24802279638672" /><trkpt lat="22.33193978125" lon="114.24745379638672" /><trkpt lat="22.33184878125" lon="114.24717779638672" /><trkpt lat="22.33169678125" lon="114.24690079638673" /><trkpt lat="22.33165878125" lon="114.24668179638672" /><trkpt lat="22.33174778125" lon="114.24635379638671" /><trkpt lat="22.33158178125" lon="114.24620979638672" /><trkpt lat="22.33173378125" lon="114.24595479638671" /><trkpt lat="22.33202378125" lon="114.24549579638672" /><trkpt lat="22.33222778125" lon="114.24447079638672" /><trkpt lat="22.33213078125" lon="114.24430479638671" /><trkpt lat="22.33177678125" lon="114.24419179638672" /><trkpt lat="22.33170178125" lon="114.24401479638672" /><trkpt lat="22.33184178125" lon="114.24323779638672" /><trkpt lat="22.33223878125" lon="114.24282479638671" /><trkpt lat="22.33235578125" lon="114.24249379638673" /><trkpt lat="22.33237178125" lon="114.24244779638671" /><trkpt lat="22.33229778125" lon="114.24245879638671" /><trkpt lat="22.33224578125" lon="114.24251279638672" /><trkpt lat="22.33218578125" lon="114.24262279638671" /><trkpt lat="22.33208678125" lon="114.24268679638672" /><trkpt lat="22.33193778125" lon="114.24272679638672" /><trkpt lat="22.33181178125" lon="114.24279679638671" /><trkpt lat="22.33171678125" lon="114.24281879638671" /><trkpt lat="22.33163578125" lon="114.24284779638671" /><trkpt lat="22.33157078125" lon="114.24291279638672" /><trkpt lat="22.33154578125" lon="114.24303279638671" /><trkpt lat="22.33153078125" lon="114.24316179638672" /><trkpt lat="22.33149878125" lon="114.24326679638672" /><trkpt lat="22.33147378125" lon="114.24338479638672" /><trkpt lat="22.33147878125" lon="114.24352379638673" /><trkpt lat="22.33145878125" lon="114.24363079638673" /><trkpt lat="22.33140678125" lon="114.24370879638671" /><trkpt lat="22.33133778125" lon="114.24376779638672" /><trkpt lat="22.33124078125" lon="114.24383479638672" /><trkpt lat="22.33116878125" lon="114.24390979638672" /><trkpt lat="22.33111178125" lon="114.24393179638672" /><trkpt lat="22.33100478125" lon="114.24397979638672" /><trkpt lat="22.33095078125" lon="114.24406579638672" /><trkpt lat="22.33086378125" lon="114.24412779638672" /><trkpt lat="22.33067978125" lon="114.24419979638672" /><trkpt lat="22.33058378125" lon="114.24427979638672" /><trkpt lat="22.33050878125" lon="114.24435579638671" /><trkpt lat="22.33043678125" lon="114.24438179638672" /><trkpt lat="22.33034078125" lon="114.24444379638672" /><trkpt lat="22.33020678125" lon="114.24457779638672" /><trkpt lat="22.33012478125" lon="114.24459979638672" /><trkpt lat="22.33002278125" lon="114.24457479638671" /><trkpt lat="22.32993878125" lon="114.24458879638672" /><trkpt lat="22.32986778125" lon="114.24460979638671" /><trkpt lat="22.32985578125" lon="114.24461579638673" /><trkpt lat="22.32984478125" lon="114.24462379638672" /><trkpt lat="22.32982978125" lon="114.24464179638672" /><trkpt lat="22.32981478125" lon="114.24465079638672" /><trkpt lat="22.32979778125" lon="114.24465579638672" /><trkpt lat="22.32971278125" lon="114.24466079638673" /><trkpt lat="22.32954678125" lon="114.24465279638672" /><trkpt lat="22.32930778125" lon="114.24470179638672" /><trkpt lat="22.32929978125" lon="114.24470479638671" /><trkpt lat="22.32929178125" lon="114.24471079638671" /><trkpt lat="22.32928278125" lon="114.24471979638672" /><trkpt lat="22.32927578125" lon="114.24472879638672" /><trkpt lat="22.32926778125" lon="114.24473879638671" /><trkpt lat="22.32926078125" lon="114.24475179638672" /><trkpt lat="22.32925578125" lon="114.24476479638672" /><trkpt lat="22.32925378125" lon="114.24477879638673" /><trkpt lat="22.32926578125" lon="114.24499979638672" /><trkpt lat="22.32926278125" lon="114.24501679638672" /><trkpt lat="22.32925778125" lon="114.24503379638672" /><trkpt lat="22.32924978125" lon="114.24504979638672" /><trkpt lat="22.32923978125" lon="114.24506679638672" /><trkpt lat="22.32922578125" lon="114.24507879638672" /><trkpt lat="22.32921178125" lon="114.24508879638672" /><trkpt lat="22.32918178125" lon="114.24510279638672" /><trkpt lat="22.32909178125" lon="114.24509179638672" /><trkpt lat="22.32905378125" lon="114.24508879638672" /><trkpt lat="22.32901278125" lon="114.24509079638672" /><trkpt lat="22.32897378125" lon="114.24510079638672" /><trkpt lat="22.32893478125" lon="114.24511379638672" /><trkpt lat="22.32884478125" lon="114.24516979638672" /><trkpt lat="22.32876278125" lon="114.24519979638671" /><trkpt lat="22.32860778125" lon="114.24521179638671" /><trkpt lat="22.32853078125" lon="114.24522979638672" /><trkpt lat="22.32845978125" lon="114.24525779638672" /><trkpt lat="22.32838978125" lon="114.24529479638672" /><trkpt lat="22.32820178125" lon="114.24544779638671" /><trkpt lat="22.32809178125" lon="114.24554179638672" /><trkpt lat="22.32802078125" lon="114.24558979638672" /><trkpt lat="22.32792978125" lon="114.24563879638671" /><trkpt lat="22.32784478125" lon="114.24566579638672" /><trkpt lat="22.32776278125" lon="114.24570079638671" /><trkpt lat="22.32744678125" lon="114.24592879638672" /><trkpt lat="22.32737578125" lon="114.24583879638672" /><trkpt lat="22.32732378125" lon="114.24574779638672" /><trkpt lat="22.32733678125" lon="114.24565979638672" /><trkpt lat="22.32740278125" lon="114.24548779638671" /><trkpt lat="22.32741178125" lon="114.24532479638673" /><trkpt lat="22.32744878125" lon="114.24527179638672" /><trkpt lat="22.32744078125" lon="114.24513279638671" /><trkpt lat="22.32728378125" lon="114.24481579638672" /><trkpt lat="22.32701578125" lon="114.24471579638671" /><trkpt lat="22.32692278125" lon="114.24457679638672" /><trkpt lat="22.32686178125" lon="114.24439179638672" /><trkpt lat="22.32664078125" lon="114.24433879638671" /><trkpt lat="22.32656278125" lon="114.24424079638672" /><trkpt lat="22.32629278125" lon="114.24426579638671" /><trkpt lat="22.32606878125" lon="114.24422179638673" /><trkpt lat="22.32577478125" lon="114.24415679638672" /><trkpt lat="22.32569678125" lon="114.24411879638672" /><trkpt lat="22.32557678125" lon="114.24399279638672" /><trkpt lat="22.32557978125" lon="114.24388879638671" /><trkpt lat="22.32562378125" lon="114.24381279638672" /><trkpt lat="22.32565478125" lon="114.24372979638672" /><trkpt lat="22.32565578125" lon="114.24364579638672" /><trkpt lat="22.32559178125" lon="114.24360179638671" /><trkpt lat="22.32556078125" lon="114.24351679638671" /><trkpt lat="22.32556478125" lon="114.24341879638672" /><trkpt lat="22.32557978125" lon="114.24333779638673" /><trkpt lat="22.32554378125" lon="114.24325979638672" /><trkpt lat="22.32550778125" lon="114.24308379638671" /><trkpt lat="22.32542078125" lon="114.24299679638672" /><trkpt lat="22.32535978125" lon="114.24286879638672" /><trkpt lat="22.32529278125" lon="114.24281479638672" /><trkpt lat="22.32526478125" lon="114.24265179638672" /><trkpt lat="22.32524178125" lon="114.24256379638672" /><trkpt lat="22.32519478125" lon="114.24237779638672" /><trkpt lat="22.32507478125" lon="114.24223879638672" /><trkpt lat="22.32493578125" lon="114.24217779638671" /><trkpt lat="22.32488378125" lon="114.24209979638673" /><trkpt lat="22.32494378125" lon="114.24203379638672" /><trkpt lat="22.32495078125" lon="114.24195279638671" /><trkpt lat="22.32497278125" lon="114.24186779638671" /><trkpt lat="22.32497578125" lon="114.24159379638672" /><trkpt lat="22.32490778125" lon="114.24151579638672" /><trkpt lat="22.32490378125" lon="114.24142579638672" /><trkpt lat="22.32487778125" lon="114.24135179638672" /><trkpt lat="22.324835781250002" lon="114.24129379638671" /><trkpt lat="22.32480678125" lon="114.24118579638672" /><trkpt lat="22.32484178125" lon="114.24110279638671" /><trkpt lat="22.32485078125" lon="114.24101879638673" /><trkpt lat="22.32488378125" lon="114.24092579638672" /><trkpt lat="22.32493378125" lon="114.24088979638672" /><trkpt lat="22.32499478125" lon="114.24081279638672" /><trkpt lat="22.32505778125" lon="114.24064579638672" /><trkpt lat="22.32502878125" lon="114.24048079638672" /><trkpt lat="22.32502278125" lon="114.24037479638672" /><trkpt lat="22.32496978125" lon="114.24031079638672" /><trkpt lat="22.32495378125" lon="114.24021879638671" /><trkpt lat="22.32497478125" lon="114.24013179638672" /><trkpt lat="22.32498778125" lon="114.24001679638671" /><trkpt lat="22.32498378125" lon="114.23993479638672" /><trkpt lat="22.32506378125" lon="114.23966979638672" /><trkpt lat="22.32505978125" lon="114.23957279638672" /><trkpt lat="22.32499578125" lon="114.23952679638671" /><trkpt lat="22.32494978125" lon="114.23940679638672" /><trkpt lat="22.32489678125" lon="114.23923179638672" /><trkpt lat="22.32497278125" lon="114.23909279638671" /><trkpt lat="22.32503078125" lon="114.23903679638671" /><trkpt lat="22.32508578125" lon="114.23896379638671" /><trkpt lat="22.32510278125" lon="114.23886579638672" /><trkpt lat="22.32513778125" lon="114.23876679638671" /><trkpt lat="22.32517278125" lon="114.23871279638672" /><trkpt lat="22.32520578125" lon="114.23861679638672" /><trkpt lat="22.325267781249998" lon="114.23856279638672" /><trkpt lat="22.32534578125" lon="114.23852579638672" /><trkpt lat="22.32541178125" lon="114.23847179638672" /><trkpt lat="22.32547778125" lon="114.23840279638672" /><trkpt lat="22.32550978125" lon="114.23831779638672" /><trkpt lat="22.32557678125" lon="114.23824979638673" /><trkpt lat="22.32563378125" lon="114.23817679638672" /><trkpt lat="22.32569978125" lon="114.23812379638672" /><trkpt lat="22.32577978125" lon="114.23809379638672" /><trkpt lat="22.32584178125" lon="114.23801379638672" /><trkpt lat="22.32592278125" lon="114.23798079638672" /><trkpt lat="22.32608278125" lon="114.23794279638672" /><trkpt lat="22.32615478125" lon="114.23790079638673" /><trkpt lat="22.32632478125" lon="114.23788379638673" /><trkpt lat="22.32641178125" lon="114.23786779638672" /><trkpt lat="22.32659078125" lon="114.23785179638672" /><trkpt lat="22.32674278125" lon="114.23774979638672" /><trkpt lat="22.32691578125" lon="114.23767579638672" /><trkpt lat="22.32697678125" lon="114.23762479638673" /><trkpt lat="22.32703678125" lon="114.23753979638671" /><trkpt lat="22.32710978125" lon="114.23749679638672" /><trkpt lat="22.32719478125" lon="114.23746579638672" /><trkpt lat="22.32728278125" lon="114.23745379638672" /><trkpt lat="22.32736678125" lon="114.23745079638672" /><trkpt lat="22.32744878125" lon="114.23741779638672" /><trkpt lat="22.32750678125" lon="114.23735479638673" /><trkpt lat="22.32777578125" lon="114.23724379638672" /><trkpt lat="22.32783178125" lon="114.23717679638672" /><trkpt lat="22.32790078125" lon="114.23713679638672" /><trkpt lat="22.32796978125" lon="114.23708179638672" /><trkpt lat="22.32803178125" lon="114.23700179638672" /><trkpt lat="22.32808478125" lon="114.23691779638672" /><trkpt lat="22.32826678125" lon="114.23671379638672" /><trkpt lat="22.32829278125" lon="114.23663379638671" /><trkpt lat="22.32834478125" lon="114.23656479638672" /><trkpt lat="22.32839978125" lon="114.23638679638672" /><trkpt lat="22.32841278125" lon="114.23629879638672" /><trkpt lat="22.32846178125" lon="114.23621879638672" /><trkpt lat="22.32850278125" lon="114.23613679638672" /><trkpt lat="22.32857378125" lon="114.23604579638672" /><trkpt lat="22.32858878125" lon="114.23595079638672" /><trkpt lat="22.32857778125" lon="114.23588479638671" /><trkpt lat="22.32887878125" lon="114.23598179638672" /><trkpt lat="22.32901978125" lon="114.23597379638672" /><trkpt lat="22.32911178125" lon="114.23595279638671" /><trkpt lat="22.32919778125" lon="114.23595279638671" /><trkpt lat="22.32928678125" lon="114.23592779638672" /><trkpt lat="22.32934878125" lon="114.23587079638672" /><trkpt lat="22.32955178125" lon="114.23576279638672" /><trkpt lat="22.32968678125" lon="114.23591579638672" /><trkpt lat="22.32975678125" lon="114.23596279638672" /><trkpt lat="22.32990278125" lon="114.23598679638671" /><trkpt lat="22.32993078125" lon="114.23597479638671" /><trkpt lat="22.33001678125" lon="114.23591579638672" /><trkpt lat="22.33013078125" lon="114.23594779638672" /><trkpt lat="22.33023578125" lon="114.23593379638672" /><trkpt lat="22.33046778125" lon="114.23594479638672" /><trkpt lat="22.33054078125" lon="114.23596879638671" /><trkpt lat="22.33047078125" lon="114.23614379638671" /><trkpt lat="22.33049378125" lon="114.23626579638672" /><trkpt lat="22.33056678125" lon="114.23642279638672" /><trkpt lat="22.33061378125" lon="114.23647879638672" /><trkpt lat="22.33066878125" lon="114.23651679638672" /><trkpt lat="22.33071578125" lon="114.23650879638672" /><trkpt lat="22.33079678125" lon="114.23647279638672" /><trkpt lat="22.33091378125" lon="114.23648179638671" /><trkpt lat="22.33122078125" lon="114.23667979638672" /><trkpt lat="22.33129378125" lon="114.23682679638672" /><trkpt lat="22.33130478125" lon="114.23688779638672" /><trkpt lat="22.33133578125" lon="114.23694079638672" /><trkpt lat="22.33136978125" lon="114.23698679638672" /><trkpt lat="22.33140478125" lon="114.23699379638671" /><trkpt lat="22.33143178125" lon="114.23698579638672" /><trkpt lat="22.33145478125" lon="114.23697079638671" /><trkpt lat="22.33150178125" lon="114.23698379638672" /><trkpt lat="22.33153978125" lon="114.23702779638671" /><trkpt lat="22.33157778125" lon="114.23700379638672" /><trkpt lat="22.33159678125" lon="114.23700079638672" /><trkpt lat="22.33164678125" lon="114.23700979638672" /><trkpt lat="22.33167878125" lon="114.23705679638672" /><trkpt lat="22.33175578125" lon="114.23708079638672" /><trkpt lat="22.33179778125" lon="114.23709979638672" /><trkpt lat="22.33184978125" lon="114.23716879638671" /><trkpt lat="22.33186778125" lon="114.23719479638672" /><trkpt lat="22.33191778125" lon="114.23724379638672" /><trkpt lat="22.33194578125" lon="114.23732479638672" /><trkpt lat="22.33199278125" lon="114.23740279638672" /><trkpt lat="22.33204678125" lon="114.23746279638672" /><trkpt lat="22.33220378125" lon="114.23760579638672" /><trkpt lat="22.33225378125" lon="114.23764479638672" /><trkpt lat="22.33227478125" lon="114.23765579638672" /><trkpt lat="22.33231278125" lon="114.23765579638672" /><trkpt lat="22.33241578125" lon="114.23771379638671" /><trkpt lat="22.33250078125" lon="114.23775679638672" /><trkpt lat="22.33257278125" lon="114.23778079638672" /><trkpt lat="22.33261678125" lon="114.23778379638672" /><trkpt lat="22.33266378125" lon="114.23777779638672" /><trkpt lat="22.33270578125" lon="114.23776279638672" /><trkpt lat="22.33274278125" lon="114.23773879638672" /><trkpt lat="22.33277578125" lon="114.23769479638672" /><trkpt lat="22.33284278125" lon="114.23756679638672" /><trkpt lat="22.33284978125" lon="114.23756179638671" /><trkpt lat="22.33286778125" lon="114.23756279638671" /><trkpt lat="22.33288778125" lon="114.23757079638672" /><trkpt lat="22.33290678125" lon="114.23764679638671" /><trkpt lat="22.33293078125" lon="114.23772079638672" /><trkpt lat="22.33293478125" lon="114.23776179638672" /><trkpt lat="22.33293878125" lon="114.23784379638671" /><trkpt lat="22.33295678125" lon="114.23788079638672" /><trkpt lat="22.33302178125" lon="114.23791779638672" /><trkpt lat="22.33310378125" lon="114.23794579638673" /><trkpt lat="22.33316478125" lon="114.23797479638672" /><trkpt lat="22.33333178125" lon="114.23811979638671" /><trkpt lat="22.33337778125" lon="114.23813579638671" /><trkpt lat="22.33348378125" lon="114.23811579638672" /><trkpt lat="22.33361478125" lon="114.23802979638671" /><trkpt lat="22.33365978125" lon="114.23797879638671" /><trkpt lat="22.33369978125" lon="114.23797579638672" /><trkpt lat="22.33372578125" lon="114.23797879638671" /><trkpt lat="22.33375978125" lon="114.23798879638672" /><trkpt lat="22.33382378125" lon="114.23803879638672" /><trkpt lat="22.33386578125" lon="114.23805379638672" /><trkpt lat="22.33391778125" lon="114.23805479638672" /><trkpt lat="22.33394778125" lon="114.23805079638672" /><trkpt lat="22.33398478125" lon="114.23803379638672" /><trkpt lat="22.333987226664416" lon="114.23797690023859" /><trkpt lat="22.33398478125" lon="114.23797079638672" /><trkpt lat="22.334031119768746" lon="114.23796828177079" /><trkpt lat="22.33433178125" lon="114.23786679638673" /><trkpt lat="22.33430178125" lon="114.23774479638672" /><trkpt lat="22.33427078125" lon="114.23770979638672" /><trkpt lat="22.33424178125" lon="114.23761679638672" /><trkpt lat="22.33421478125" lon="114.23746979638672" /><trkpt lat="22.334179157470086" lon="114.23739057990821" /></trkseg></trk></gpx>