<?xml version='1.0' encoding='UTF-8' ?><gpx version="1.1" creator="HikingTrailHK" xsi:schemaLocation="http://www.topografix.com/GPX/1/1 http://www.topografix.com/GPX/1/1/gpx.xsd https://hikingtrailhk.appspot.com/xml/gpxextensions/v1 https://hikingtrailhk.appspot.com/xml/gpxextensions/v1/gpxextensions.xsd" xmlns="http://www.topografix.com/GPX/1/1" xmlns:h="https://hikingtrailhk.appspot.com/xml/gpxextensions/v1" xmlns:xsi="http://www.w3.org/2001/XMLSchema-instance"><metadata><name>杯靈雙渡加強版 @ 2016-12</name><desc></desc><extensions><h:categoryid>tour_route</h:categoryid></extensions></metadata><trk><trkseg><trkpt lat="22.37287287262571" lon="113.95491328788142" /><trkpt lat="22.37275678125" lon="113.95483179638671" /><trkpt lat="22.372721116717035" lon="113.95480048116092" /><trkpt lat="22.372898085246135" lon="113.95478690033855" /><trkpt lat="22.37291411256112" lon="113.95477775780222" /><trkpt lat="22.37292863562719" lon="113.95476112127966" /><trkpt lat="22.372937639915307" lon="113.95473991256807" /><trkpt lat="22.372953064783815" lon="113.95469978118389" /><trkpt lat="22.37282378125" lon="113.95458479638671" /><trkpt lat="22.37203878125" lon="113.95412679638672" /><trkpt lat="22.37185478125" lon="113.95398079638672" /><trkpt lat="22.37178078125" lon="113.95386979638671" /><trkpt lat="22.37175978125" lon="113.95376779638671" /><trkpt lat="22.37177678125" lon="113.95366679638671" /><trkpt lat="22.37184078125" lon="113.95356779638672" /><trkpt lat="22.37210178125" lon="113.95329479638671" /><trkpt lat="22.37217578125" lon="113.95322379638672" /><trkpt lat="22.37225878125" lon="113.95331579638672" /><trkpt lat="22.37327078125" lon="113.95431679638672" /><trkpt lat="22.37296778125" lon="113.95359979638671" /><trkpt lat="22.37308378125" lon="113.95335979638672" /><trkpt lat="22.37314478125" lon="113.95331179638671" /><trkpt lat="22.37362178125" lon="113.95306279638672" /><trkpt lat="22.37384178125" lon="113.95314179638672" /><trkpt lat="22.37402778125" lon="113.95309679638672" /><trkpt lat="22.37411178125" lon="113.95305779638672" /><trkpt lat="22.37432078125" lon="113.95289379638672" /><trkpt lat="22.37439278125" lon="113.95275979638672" /><trkpt lat="22.37442678125" lon="113.95255679638672" /><trkpt lat="22.37459278125" lon="113.95238479638672" /><trkpt lat="22.37454778125" lon="113.95212679638672" /><trkpt lat="22.37468478125" lon="113.95200479638672" /><trkpt lat="22.37475278125" lon="113.95167279638672" /><trkpt lat="22.37474278125" lon="113.95127779638672" /><trkpt lat="22.37527978125" lon="113.95060679638672" /><trkpt lat="22.37531278125" lon="113.95027279638671" /><trkpt lat="22.37546278125" lon="113.95004879638672" /><trkpt lat="22.37609778125" lon="113.94991779638671" /><trkpt lat="22.37653978125" lon="113.94995479638672" /><trkpt lat="22.37722978125" lon="113.94986179638671" /><trkpt lat="22.37753978125" lon="113.94990179638671" /><trkpt lat="22.37785478125" lon="113.94996779638672" /><trkpt lat="22.37788778125" lon="113.95007279638672" /><trkpt lat="22.37833978125" lon="113.95027079638672" /><trkpt lat="22.37855778125" lon="113.95033579638672" /><trkpt lat="22.37871678125" lon="113.95038879638672" /><trkpt lat="22.37879578125" lon="113.95046479638673" /><trkpt lat="22.37902378125" lon="113.95034679638673" /><trkpt lat="22.37913278125" lon="113.95043179638672" /><trkpt lat="22.37960878125" lon="113.95074579638671" /><trkpt lat="22.37990178125" lon="113.95081279638671" /><trkpt lat="22.38014678125" lon="113.95077279638672" /><trkpt lat="22.38042478125" lon="113.95074279638672" /><trkpt lat="22.38074378125" lon="113.95111879638672" /><trkpt lat="22.38091878125" lon="113.95113979638671" /><trkpt lat="22.38110678125" lon="113.95107579638672" /><trkpt lat="22.38130478125" lon="113.95121179638672" /><trkpt lat="22.38148778125" lon="113.95125979638672" /><trkpt lat="22.38161778125" lon="113.95115279638672" /><trkpt lat="22.38201678125" lon="113.95119179638672" /><trkpt lat="22.38216278125" lon="113.95132979638672" /><trkpt lat="22.38231978125" lon="113.95146279638672" /><trkpt lat="22.38273678125" lon="113.95159979638672" /><trkpt lat="22.38303678125" lon="113.95160179638673" /><trkpt lat="22.38316778125" lon="113.95190679638672" /><trkpt lat="22.38342678125" lon="113.95204179638672" /><trkpt lat="22.38381278125" lon="113.95230979638671" /><trkpt lat="22.38391778125" lon="113.95246079638672" /><trkpt lat="22.38416978125" lon="113.95253779638672" /><trkpt lat="22.38454578125" lon="113.95233079638672" /><trkpt lat="22.38483478125" lon="113.95238179638672" /><trkpt lat="22.38490878125" lon="113.95260779638672" /><trkpt lat="22.38505778125" lon="113.95265179638672" /><trkpt lat="22.38527378125" lon="113.95234179638672" /><trkpt lat="22.38542278125" lon="113.95226679638672" /><trkpt lat="22.38573178125" lon="113.95239679638672" /><trkpt lat="22.38606778125" lon="113.95237379638672" /><trkpt lat="22.38646478125" lon="113.95252379638671" /><trkpt lat="22.38668278125" lon="113.95269579638672" /><trkpt lat="22.38699978125" lon="113.95269579638672" /><trkpt lat="22.38719878125" lon="113.95276079638671" /><trkpt lat="22.38747578125" lon="113.95258879638672" /><trkpt lat="22.38753778125" lon="113.95265179638672" /><trkpt lat="22.38764478125" lon="113.95276079638671" /><trkpt lat="22.38786078125" lon="113.95306179638672" /><trkpt lat="22.38795578125" lon="113.95312879638672" /><trkpt lat="22.38800978125" lon="113.95315879638672" /><trkpt lat="22.38812778125" lon="113.95322579638672" /><trkpt lat="22.38822778125" lon="113.95329779638672" /><trkpt lat="22.38836378125" lon="113.95333479638671" /><trkpt lat="22.38845278125" lon="113.95324779638672" /><trkpt lat="22.38861278125" lon="113.95328179638672" /><trkpt lat="22.38874878125" lon="113.95328979638671" /><trkpt lat="22.38881378125" lon="113.95326279638672" /><trkpt lat="22.38883678125" lon="113.95318079638672" /><trkpt lat="22.38893878125" lon="113.95317179638671" /><trkpt lat="22.38899678125" lon="113.95314179638672" /><trkpt lat="22.38941278125" lon="113.95322379638672" /><trkpt lat="22.38950978125" lon="113.95323079638672" /><trkpt lat="22.38961278125" lon="113.95319679638672" /><trkpt lat="22.38974678125" lon="113.95313179638671" /><trkpt lat="22.39015478125" lon="113.95301479638673" /><trkpt lat="22.39025478125" lon="113.95300379638672" /><trkpt lat="22.39035678125" lon="113.95300679638672" /><trkpt lat="22.39047278125" lon="113.95298579638671" /><trkpt lat="22.39079878125" lon="113.95302879638672" /><trkpt lat="22.39091278125" lon="113.95313379638672" /><trkpt lat="22.39100278125" lon="113.95314279638671" /><trkpt lat="22.39110778125" lon="113.95320379638672" /><trkpt lat="22.39121978125" lon="113.95323779638672" /><trkpt lat="22.39132778125" lon="113.95324479638671" /><trkpt lat="22.39145778125" lon="113.95328079638672" /><trkpt lat="22.39152378125" lon="113.95331079638672" /><trkpt lat="22.39160178125" lon="113.95337279638672" /><trkpt lat="22.39172578125" lon="113.95362579638672" /><trkpt lat="22.391821781250002" lon="113.95390679638672" /><trkpt lat="22.39186278125" lon="113.95395579638672" /><trkpt lat="22.39196278125" lon="113.95392979638672" /><trkpt lat="22.39209178125" lon="113.95387879638672" /><trkpt lat="22.39230478125" lon="113.95383479638672" /><trkpt lat="22.39244178125" lon="113.95381079638672" /><trkpt lat="22.39256378125" lon="113.95376079638672" /><trkpt lat="22.39265478125" lon="113.95366679638671" /><trkpt lat="22.39272578125" lon="113.95366579638672" /><trkpt lat="22.39274678125" lon="113.95375179638671" /><trkpt lat="22.39280978125" lon="113.95390679638672" /><trkpt lat="22.39280578125" lon="113.95396879638672" /><trkpt lat="22.39285778125" lon="113.95402579638672" /><trkpt lat="22.39291578125" lon="113.95402079638671" /><trkpt lat="22.39309878125" lon="113.95394579638672" /><trkpt lat="22.39329778125" lon="113.95408279638671" /><trkpt lat="22.39338978125" lon="113.95406879638672" /><trkpt lat="22.39349678125" lon="113.95397979638672" /><trkpt lat="22.39358978125" lon="113.95383979638672" /><trkpt lat="22.39383578125" lon="113.95378579638673" /><trkpt lat="22.39395178125" lon="113.95365579638671" /><trkpt lat="22.39406778125" lon="113.95356379638672" /><trkpt lat="22.39435778125" lon="113.95356679638672" /><trkpt lat="22.39468478125" lon="113.95365679638672" /><trkpt lat="22.39482278125" lon="113.95372379638673" /><trkpt lat="22.39491778125" lon="113.95375379638672" /><trkpt lat="22.39517178125" lon="113.95391579638672" /><trkpt lat="22.39527178125" lon="113.95400879638672" /><trkpt lat="22.39531478125" lon="113.95404379638671" /><trkpt lat="22.39536478125" lon="113.95408379638671" /><trkpt lat="22.39552578125" lon="113.95406879638672" /><trkpt lat="22.39583178125" lon="113.95389879638672" /><trkpt lat="22.39605578125" lon="113.95381379638673" /><trkpt lat="22.39632478125" lon="113.95361679638673" /><trkpt lat="22.39645378125" lon="113.95355179638672" /><trkpt lat="22.39658378125" lon="113.95350479638672" /><trkpt lat="22.39680978125" lon="113.95334179638672" /><trkpt lat="22.39712578125" lon="113.95326479638672" /><trkpt lat="22.39724478125" lon="113.95314379638671" /><trkpt lat="22.39746778125" lon="113.95307279638672" /><trkpt lat="22.39751778125" lon="113.95306879638672" /><trkpt lat="22.39774078125" lon="113.95293079638672" /><trkpt lat="22.39799578125" lon="113.95290279638672" /><trkpt lat="22.39825278125" lon="113.95298279638672" /><trkpt lat="22.39833078125" lon="113.95297279638672" /><trkpt lat="22.39848878125" lon="113.95297279638672" /><trkpt lat="22.39861378125" lon="113.95292279638672" /><trkpt lat="22.39874478125" lon="113.95288079638672" /><trkpt lat="22.39904078125" lon="113.95311479638671" /><trkpt lat="22.39926578125" lon="113.95304079638672" /><trkpt lat="22.39945878125" lon="113.95309279638671" /><trkpt lat="22.39952878125" lon="113.95295379638672" /><trkpt lat="22.39962978125" lon="113.95290179638671" /><trkpt lat="22.39972878125" lon="113.95283479638672" /><trkpt lat="22.39991478125" lon="113.95278279638671" /><trkpt lat="22.40001978125" lon="113.95260279638671" /><trkpt lat="22.40012178125" lon="113.95249479638672" /><trkpt lat="22.40023678125" lon="113.95226079638672" /><trkpt lat="22.40029578125" lon="113.95214279638672" /><trkpt lat="22.40033178125" lon="113.95205979638672" /><trkpt lat="22.40035578125" lon="113.95194179638672" /><trkpt lat="22.40047978125" lon="113.95189979638671" /><trkpt lat="22.40067778125" lon="113.95166479638672" /><trkpt lat="22.40075878125" lon="113.95137879638672" /><trkpt lat="22.40084578125" lon="113.95133379638672" /><trkpt lat="22.40094178125" lon="113.95115679638671" /><trkpt lat="22.40101978125" lon="113.95115579638671" /><trkpt lat="22.40112578125" lon="113.95105079638672" /><trkpt lat="22.40126578125" lon="113.95097979638672" /><trkpt lat="22.40129278125" lon="113.95089679638671" /><trkpt lat="22.40142978125" lon="113.95073779638672" /><trkpt lat="22.40154478125" lon="113.95069379638672" /><trkpt lat="22.40160878125" lon="113.95063879638671" /><trkpt lat="22.40169478125" lon="113.95061279638672" /><trkpt lat="22.40174278125" lon="113.95068779638672" /><trkpt lat="22.40176078125" lon="113.95074579638671" /><trkpt lat="22.40188078125" lon="113.95071379638672" /><trkpt lat="22.40206678125" lon="113.95076579638672" /><trkpt lat="22.40215778125" lon="113.95078879638672" /><trkpt lat="22.40222178125" lon="113.95089679638671" /><trkpt lat="22.40236378125" lon="113.95102479638672" /><trkpt lat="22.40240378125" lon="113.95102979638672" /><trkpt lat="22.40254478125" lon="113.95118479638671" /><trkpt lat="22.40264178125" lon="113.95120079638671" /><trkpt lat="22.40272478125" lon="113.95124179638673" /><trkpt lat="22.40297278125" lon="113.95127279638672" /><trkpt lat="22.40305178125" lon="113.95128979638672" /><trkpt lat="22.40313978125" lon="113.95123779638672" /><trkpt lat="22.40322578125" lon="113.95125079638672" /><trkpt lat="22.40327878125" lon="113.95135579638672" /><trkpt lat="22.40334978125" lon="113.95139579638672" /><trkpt lat="22.40348378125" lon="113.95142179638673" /><trkpt lat="22.40359478125" lon="113.95136979638671" /><trkpt lat="22.40375078125" lon="113.95138479638672" /><trkpt lat="22.40384878125" lon="113.95131979638671" /><trkpt lat="22.40399378125" lon="113.95126979638673" /><trkpt lat="22.40428778125" lon="113.95130279638671" /><trkpt lat="22.40452478125" lon="113.95130379638672" /><trkpt lat="22.40481578125" lon="113.95160379638672" /><trkpt lat="22.40498878125" lon="113.95174579638672" /><trkpt lat="22.40510178125" lon="113.95174779638671" /><trkpt lat="22.40519978125" lon="113.95186179638672" /><trkpt lat="22.40539478125" lon="113.95198779638672" /><trkpt lat="22.40571978125" lon="113.95202379638671" /><trkpt lat="22.40585878125" lon="113.95196679638671" /><trkpt lat="22.40597278125" lon="113.95205079638671" /><trkpt lat="22.40596378125" lon="113.95216479638673" /><trkpt lat="22.40600178125" lon="113.95231879638672" /><trkpt lat="22.40597978125" lon="113.95246179638671" /><trkpt lat="22.40598278125" lon="113.95258479638672" /><trkpt lat="22.40602778125" lon="113.95256679638672" /><trkpt lat="22.40605178125" lon="113.95256879638671" /><trkpt lat="22.40610078125" lon="113.95258879638672" /><trkpt lat="22.40625478125" lon="113.95271779638672" /><trkpt lat="22.40644778125" lon="113.95289479638672" /><trkpt lat="22.40655478125" lon="113.95301679638672" /><trkpt lat="22.40662578125" lon="113.95309979638672" /><trkpt lat="22.40664378125" lon="113.95312079638671" /><trkpt lat="22.40667678125" lon="113.95313479638672" /><trkpt lat="22.40689978125" lon="113.95316979638672" /><trkpt lat="22.40692778125" lon="113.95317679638671" /><trkpt lat="22.40700778125" lon="113.95319279638672" /><trkpt lat="22.40706678125" lon="113.95322979638672" /><trkpt lat="22.40713178125" lon="113.95328879638672" /><trkpt lat="22.40718478125" lon="113.95341179638672" /><trkpt lat="22.40729278125" lon="113.95349579638672" /><trkpt lat="22.40741078125" lon="113.95365379638672" /><trkpt lat="22.40748578125" lon="113.95371179638671" /><trkpt lat="22.40753778125" lon="113.95378779638672" /><trkpt lat="22.40751978125" lon="113.95401079638673" /><trkpt lat="22.40762478125" lon="113.95407179638671" /><trkpt lat="22.40765178125" lon="113.95416179638671" /><trkpt lat="22.40768678125" lon="113.95421779638671" /><trkpt lat="22.40811278125" lon="113.95427079638672" /><trkpt lat="22.40820078125" lon="113.95410679638672" /><trkpt lat="22.40865078125" lon="113.95406279638672" /><trkpt lat="22.40883178125" lon="113.95401879638672" /><trkpt lat="22.40920378125" lon="113.95429679638671" /><trkpt lat="22.40919978125" lon="113.95445479638671" /><trkpt lat="22.40921478125" lon="113.95462779638672" /><trkpt lat="22.40940678125" lon="113.95492979638672" /><trkpt lat="22.40946878125" lon="113.95520379638671" /><trkpt lat="22.40952978125" lon="113.95542379638673" /><trkpt lat="22.40949178125" lon="113.95558379638672" /><trkpt lat="22.40953178125" lon="113.95574979638671" /><trkpt lat="22.40983278125" lon="113.95600179638672" /><trkpt lat="22.41013878125" lon="113.95610679638672" /><trkpt lat="22.41020878125" lon="113.95619579638672" /><trkpt lat="22.41028678125" lon="113.95633679638672" /><trkpt lat="22.41022078125" lon="113.95647679638672" /><trkpt lat="22.41017778125" lon="113.95665379638672" /><trkpt lat="22.41023278125" lon="113.95677079638672" /><trkpt lat="22.41027478125" lon="113.95687779638672" /><trkpt lat="22.41047078125" lon="113.95705279638672" /><trkpt lat="22.41054178125" lon="113.95717879638671" /><trkpt lat="22.41074478125" lon="113.95724079638671" /><trkpt lat="22.41092278125" lon="113.95735979638673" /><trkpt lat="22.41110078125" lon="113.95738279638672" /><trkpt lat="22.41116978125" lon="113.95743379638672" /><trkpt lat="22.41156078125" lon="113.95735379638671" /><trkpt lat="22.41170378125" lon="113.95726679638672" /><trkpt lat="22.41181778125" lon="113.95725279638671" /><trkpt lat="22.41190078125" lon="113.95714279638672" /><trkpt lat="22.41199978125" lon="113.95712279638671" /><trkpt lat="22.41214878125" lon="113.95706579638671" /><trkpt lat="22.41224978125" lon="113.95704479638673" /><trkpt lat="22.41232778125" lon="113.95694579638672" /><trkpt lat="22.41252878125" lon="113.95697879638672" /><trkpt lat="22.41269678125" lon="113.95701079638673" /><trkpt lat="22.41280478125" lon="113.95706479638672" /><trkpt lat="22.41297178125" lon="113.95695579638672" /><trkpt lat="22.41302378125" lon="113.95708579638672" /><trkpt lat="22.41326878125" lon="113.95708379638671" /><trkpt lat="22.41330178125" lon="113.95719279638672" /><trkpt lat="22.41375478125" lon="113.95739379638673" /><trkpt lat="22.41403078125" lon="113.95741279638672" /><trkpt lat="22.41421578125" lon="113.95731879638672" /><trkpt lat="22.41464478125" lon="113.95724079638671" /><trkpt lat="22.41472178125" lon="113.95712679638672" /><trkpt lat="22.41496678125" lon="113.95701679638672" /><trkpt lat="22.41507478125" lon="113.95712779638671" /><trkpt lat="22.41516378125" lon="113.95715579638671" /><trkpt lat="22.41522278125" lon="113.95720679638671" /><trkpt lat="22.41527778125" lon="113.95724279638672" /><trkpt lat="22.41531078125" lon="113.95736779638672" /><trkpt lat="22.41536478125" lon="113.95744179638672" /><trkpt lat="22.41540678125" lon="113.95754079638672" /><trkpt lat="22.41555678125" lon="113.95765479638672" /><trkpt lat="22.41558678125" lon="113.95772579638673" /><trkpt lat="22.41563678125" lon="113.95779479638672" /><trkpt lat="22.41572278125" lon="113.95779879638673" /><trkpt lat="22.41588778125" lon="113.95787079638671" /><trkpt lat="22.41608878125" lon="113.95792379638672" /><trkpt lat="22.41623778125" lon="113.95809479638672" /><trkpt lat="22.41647878125" lon="113.95826479638671" /><trkpt lat="22.41657278125" lon="113.95837479638672" /><trkpt lat="22.41660578125" lon="113.95853579638671" /><trkpt lat="22.41665278125" lon="113.95862079638673" /><trkpt lat="22.41666178125" lon="113.95888279638672" /><trkpt lat="22.41677678125" lon="113.95902379638672" /><trkpt lat="22.41695278125" lon="113.95901879638672" /><trkpt lat="22.41699578125" lon="113.95907479638672" /><trkpt lat="22.41711978125" lon="113.95915179638672" /><trkpt lat="22.41721778125" lon="113.95917679638671" /><trkpt lat="22.41737078125" lon="113.95924879638672" /><trkpt lat="22.41744378125" lon="113.95931979638672" /><trkpt lat="22.41748978125" lon="113.95955579638672" /><trkpt lat="22.41745278125" lon="113.95969579638673" /><trkpt lat="22.41750778125" lon="113.95975079638671" /><trkpt lat="22.41760078125" lon="113.95997179638672" /><trkpt lat="22.41776078125" lon="113.96024579638672" /><trkpt lat="22.41775878125" lon="113.96045579638673" /><trkpt lat="22.41778178125" lon="113.96063079638672" /><trkpt lat="22.41787578125" lon="113.96075679638672" /><trkpt lat="22.41797678125" lon="113.96102779638672" /><trkpt lat="22.41802578125" lon="113.96122879638672" /><trkpt lat="22.41792778125" lon="113.96147079638672" /><trkpt lat="22.41791378125" lon="113.96167579638671" /><trkpt lat="22.41801578125" lon="113.96185179638672" /><trkpt lat="22.41809478125" lon="113.96211879638672" /><trkpt lat="22.41811478125" lon="113.96241779638672" /><trkpt lat="22.41823078125" lon="113.96263379638673" /><trkpt lat="22.41821878125" lon="113.96315679638671" /><trkpt lat="22.41843078125" lon="113.96340079638672" /><trkpt lat="22.41884778125" lon="113.96354879638672" /><trkpt lat="22.41911478125" lon="113.96371279638672" /><trkpt lat="22.41926478125" lon="113.96373779638672" /><trkpt lat="22.41935578125" lon="113.96372179638672" /><trkpt lat="22.41949578125" lon="113.96367079638672" /><trkpt lat="22.41960878125" lon="113.96367479638671" /><trkpt lat="22.42000978125" lon="113.96357379638673" /><trkpt lat="22.42020578125" lon="113.96360779638673" /><trkpt lat="22.42034278125" lon="113.96361179638672" /><trkpt lat="22.42057478125" lon="113.96370579638672" /><trkpt lat="22.42064878125" lon="113.96371979638671" /><trkpt lat="22.42072978125" lon="113.96369279638672" /><trkpt lat="22.42080778125" lon="113.96363479638671" /><trkpt lat="22.42084178125" lon="113.96358879638672" /><trkpt lat="22.42092078125" lon="113.96352079638672" /><trkpt lat="22.42099878125" lon="113.96348279638671" /><trkpt lat="22.42115678125" lon="113.96350079638673" /><trkpt lat="22.42135078125" lon="113.96348179638672" /><trkpt lat="22.42142578125" lon="113.96349779638672" /><trkpt lat="22.42151778125" lon="113.96348179638672" /><trkpt lat="22.42156478125" lon="113.96344079638672" /><trkpt lat="22.42160778125" lon="113.96341879638672" /><trkpt lat="22.42173378125" lon="113.96343979638672" /><trkpt lat="22.42176878125" lon="113.96345779638672" /><trkpt lat="22.42182778125" lon="113.96346879638672" /><trkpt lat="22.42220378125" lon="113.96335179638672" /><trkpt lat="22.42248478125" lon="113.96331279638672" /><trkpt lat="22.42263878125" lon="113.96330079638672" /><trkpt lat="22.42278378125" lon="113.96311179638671" /><trkpt lat="22.42294178125" lon="113.96300379638672" /><trkpt lat="22.42312878125" lon="113.96298079638672" /><trkpt lat="22.42317878125" lon="113.96301879638672" /><trkpt lat="22.42319878125" lon="113.96312979638672" /><trkpt lat="22.42328878125" lon="113.96325379638672" /><trkpt lat="22.42339278125" lon="113.96330979638672" /><trkpt lat="22.42355978125" lon="113.96346779638672" /><trkpt lat="22.42376878125" lon="113.96350279638672" /><trkpt lat="22.42393378125" lon="113.96359579638671" /><trkpt lat="22.42404178125" lon="113.96370579638672" /><trkpt lat="22.42416378125" lon="113.96374779638671" /><trkpt lat="22.42427678125" lon="113.96370079638672" /><trkpt lat="22.42448178125" lon="113.96373779638672" /><trkpt lat="22.42480878125" lon="113.96361379638672" /><trkpt lat="22.42506678125" lon="113.96356979638672" /><trkpt lat="22.42520378125" lon="113.96362779638672" /><trkpt lat="22.42525178125" lon="113.96369879638672" /><trkpt lat="22.42550178125" lon="113.96367679638672" /><trkpt lat="22.42558578125" lon="113.96379779638671" /><trkpt lat="22.42562978125" lon="113.96391779638672" /><trkpt lat="22.42582178125" lon="113.96407879638672" /><trkpt lat="22.42600978125" lon="113.96416679638672" /><trkpt lat="22.426102781250002" lon="113.96430579638672" /><trkpt lat="22.42631278125" lon="113.96449079638671" /><trkpt lat="22.42642578125" lon="113.96453879638672" /><trkpt lat="22.42652878125" lon="113.96449779638672" /><trkpt lat="22.42662178125" lon="113.96468079638672" /><trkpt lat="22.42659478125" lon="113.96485979638672" /><trkpt lat="22.42661778125" lon="113.96500879638671" /><trkpt lat="22.42690178125" lon="113.96539579638672" /><trkpt lat="22.42718078125" lon="113.96562479638672" /><trkpt lat="22.42727678125" lon="113.96567579638672" /><trkpt lat="22.42738378125" lon="113.96574779638672" /><trkpt lat="22.42748778125" lon="113.96587979638672" /><trkpt lat="22.42757878125" lon="113.96594079638672" /><trkpt lat="22.42771378125" lon="113.96597679638671" /><trkpt lat="22.42786478125" lon="113.96604779638672" /><trkpt lat="22.42796078125" lon="113.96604979638671" /><trkpt lat="22.42803178125" lon="113.96610279638672" /><trkpt lat="22.42818078125" lon="113.96605379638672" /><trkpt lat="22.42829678125" lon="113.96618679638672" /><trkpt lat="22.42858678125" lon="113.96640179638672" /><trkpt lat="22.42863478125" lon="113.96657879638671" /><trkpt lat="22.42869878125" lon="113.96670779638671" /><trkpt lat="22.42894478125" lon="113.96673479638672" /><trkpt lat="22.42908578125" lon="113.96672379638672" /><trkpt lat="22.42914778125" lon="113.96672779638672" /><trkpt lat="22.42916178125" lon="113.96677679638672" /><trkpt lat="22.42929278125" lon="113.96688679638672" /><trkpt lat="22.42938578125" lon="113.96709779638672" /><trkpt lat="22.42948078125" lon="113.96734879638672" /><trkpt lat="22.42957478125" lon="113.96749879638672" /><trkpt lat="22.42962278125" lon="113.96768379638672" /><trkpt lat="22.42956978125" lon="113.96788679638672" /><trkpt lat="22.42960678125" lon="113.96804479638672" /><trkpt lat="22.42974578125" lon="113.96825179638672" /><trkpt lat="22.42986378125" lon="113.96832079638672" /><trkpt lat="22.42992378125" lon="113.96841379638671" /><trkpt lat="22.42996078125" lon="113.96849579638672" /><trkpt lat="22.43001778125" lon="113.96875479638672" /><trkpt lat="22.42998078125" lon="113.96894579638672" /><trkpt lat="22.43003778125" lon="113.96916179638671" /><trkpt lat="22.43001178125" lon="113.96937779638672" /><trkpt lat="22.43011078125" lon="113.96968679638672" /><trkpt lat="22.43042078125" lon="113.97004679638673" /><trkpt lat="22.43048078125" lon="113.97026779638672" /><trkpt lat="22.43050878125" lon="113.97044879638672" /><trkpt lat="22.43058478125" lon="113.97057679638672" /><trkpt lat="22.43079078125" lon="113.97062679638672" /><trkpt lat="22.43085378125" lon="113.97065579638672" /><trkpt lat="22.43089478125" lon="113.97073479638672" /><trkpt lat="22.43089878125" lon="113.97079379638672" /><trkpt lat="22.43094378125" lon="113.97085379638672" /><trkpt lat="22.43118578125" lon="113.97091579638672" /><trkpt lat="22.43122578125" lon="113.97116279638672" /><trkpt lat="22.43118478125" lon="113.97146379638671" /><trkpt lat="22.43113678125" lon="113.97168079638672" /><trkpt lat="22.43109578125" lon="113.97178779638672" /><trkpt lat="22.43113078125" lon="113.97193779638671" /><trkpt lat="22.43122078125" lon="113.97200879638672" /><trkpt lat="22.43133178125" lon="113.97218479638671" /><trkpt lat="22.43145778125" lon="113.97227579638673" /><trkpt lat="22.43163378125" lon="113.97270679638672" /><trkpt lat="22.43164878125" lon="113.97281279638672" /><trkpt lat="22.43190878125" lon="113.97313679638673" /><trkpt lat="22.43224078125" lon="113.97337779638671" /><trkpt lat="22.43239278125" lon="113.97337579638672" /><trkpt lat="22.43247578125" lon="113.97340079638671" /><trkpt lat="22.43268978125" lon="113.97356579638672" /><trkpt lat="22.432755781250002" lon="113.97365579638672" /><trkpt lat="22.43276578125" lon="113.97374379638671" /><trkpt lat="22.43288078125" lon="113.97359079638672" /><trkpt lat="22.43297878125" lon="113.97355179638672" /><trkpt lat="22.43305678125" lon="113.97356679638672" /><trkpt lat="22.43308878125" lon="113.97360779638672" /><trkpt lat="22.43329678125" lon="113.97369879638671" /><trkpt lat="22.43336178125" lon="113.97369479638672" /><trkpt lat="22.43349678125" lon="113.97365179638672" /><trkpt lat="22.43359378125" lon="113.97365379638671" /><trkpt lat="22.43392078125" lon="113.97384979638672" /><trkpt lat="22.43416278125" lon="113.97392779638672" /><trkpt lat="22.43452978125" lon="113.97379779638672" /><trkpt lat="22.43471978125" lon="113.97371679638673" /><trkpt lat="22.43488078125" lon="113.97368979638672" /><trkpt lat="22.43507378125" lon="113.97371579638671" /><trkpt lat="22.43525578125" lon="113.97387779638672" /><trkpt lat="22.43545578125" lon="113.97402679638672" /><trkpt lat="22.43549178125" lon="113.97415579638673" /><trkpt lat="22.43548378125" lon="113.97446679638672" /><trkpt lat="22.43580178125" lon="113.97524179638671" /><trkpt lat="22.43586878125" lon="113.97557779638672" /><trkpt lat="22.43597078125" lon="113.97577179638672" /><trkpt lat="22.43594778125" lon="113.97592179638671" /><trkpt lat="22.43621378125" lon="113.97605579638672" /><trkpt lat="22.43629578125" lon="113.97634179638672" /><trkpt lat="22.43630378125" lon="113.97654879638672" /><trkpt lat="22.43610778125" lon="113.97665079638672" /><trkpt lat="22.43604778125" lon="113.97675279638672" /><trkpt lat="22.43601078125" lon="113.97709079638672" /><trkpt lat="22.43608278125" lon="113.97741179638672" /><trkpt lat="22.43620178125" lon="113.97742079638672" /><trkpt lat="22.43643378125" lon="113.97758279638671" /><trkpt lat="22.43779278125" lon="113.97787579638671" /><trkpt lat="22.43811078125" lon="113.97784579638672" /><trkpt lat="22.43826678125" lon="113.97773879638672" /><trkpt lat="22.43837778125" lon="113.97764079638672" /><trkpt lat="22.43854478125" lon="113.97762279638673" /><trkpt lat="22.43884178125" lon="113.97742979638672" /><trkpt lat="22.43906078125" lon="113.97749879638671" /><trkpt lat="22.43944878125" lon="113.97746279638672" /><trkpt lat="22.43960878125" lon="113.97740279638671" /><trkpt lat="22.43977378125" lon="113.97762779638671" /><trkpt lat="22.44007078125" lon="113.97781679638672" /><trkpt lat="22.44045678125" lon="113.97817279638672" /><trkpt lat="22.44057278125" lon="113.97844279638672" /><trkpt lat="22.44066978125" lon="113.97852479638672" /><trkpt lat="22.44115578125" lon="113.97908579638671" /><trkpt lat="22.44117578125" lon="113.97932879638672" /><trkpt lat="22.44096978125" lon="113.97961979638671" /><trkpt lat="22.44091178125" lon="113.97968379638672" /><trkpt lat="22.44072978125" lon="113.97984579638671" /><trkpt lat="22.44083278125" lon="113.98012379638672" /><trkpt lat="22.44095578125" lon="113.98036079638672" /><trkpt lat="22.44101578125" lon="113.98047379638672" /><trkpt lat="22.44108178125" lon="113.98078779638672" /><trkpt lat="22.44111778125" lon="113.98090579638672" /><trkpt lat="22.44121478125" lon="113.98099079638672" /><trkpt lat="22.44145578125" lon="113.98095279638672" /><trkpt lat="22.44195278125" lon="113.98098679638672" /><trkpt lat="22.44240778125" lon="113.98125479638672" /><trkpt lat="22.44256278125" lon="113.98144479638673" /><trkpt lat="22.44274678125" lon="113.98157979638673" /><trkpt lat="22.44306978125" lon="113.98176379638672" /><trkpt lat="22.44322978125" lon="113.98189179638672" /><trkpt lat="22.44329578125" lon="113.98201979638672" /><trkpt lat="22.44332778125" lon="113.98243779638672" /><trkpt lat="22.44349278125" lon="113.98294479638672" /><trkpt lat="22.44353078125" lon="113.98316379638672" /><trkpt lat="22.44362578125" lon="113.98345079638672" /><trkpt lat="22.44360778125" lon="113.98372879638671" /><trkpt lat="22.44355578125" lon="113.98415979638672" /><trkpt lat="22.44344278125" lon="113.98443779638671" /><trkpt lat="22.44344878125" lon="113.98451079638672" /><trkpt lat="22.44369178125" lon="113.98433179638671" /><trkpt lat="22.44382778125" lon="113.98436679638672" /><trkpt lat="22.44392478125" lon="113.98450679638673" /><trkpt lat="22.44396378125" lon="113.98463979638672" /><trkpt lat="22.44427178125" lon="113.98441579638671" /><trkpt lat="22.44450078125" lon="113.98425879638671" /><trkpt lat="22.44471378125" lon="113.98447479638672" /><trkpt lat="22.44509078125" lon="113.98474279638671" /><trkpt lat="22.44513978125" lon="113.98488179638672" /><trkpt lat="22.44511978125" lon="113.98512879638672" /><trkpt lat="22.44494178125" lon="113.98549379638672" /><trkpt lat="22.44496178125" lon="113.98575079638672" /><trkpt lat="22.44511978125" lon="113.98599779638671" /><trkpt lat="22.44516978125" lon="113.98609479638672" /><trkpt lat="22.44540778125" lon="113.98620179638672" /><trkpt lat="22.44553678125" lon="113.98645879638671" /><trkpt lat="22.44561578125" lon="113.98674879638672" /><trkpt lat="22.44572478125" lon="113.98700679638672" /><trkpt lat="22.44572478125" lon="113.98723179638672" /><trkpt lat="22.44594278125" lon="113.98747879638672" /><trkpt lat="22.44598378125" lon="113.98750579638671" /><trkpt lat="22.44634178125" lon="113.98740779638672" /><trkpt lat="22.44641678125" lon="113.98739879638671" /><trkpt lat="22.44647478125" lon="113.98741379638672" /><trkpt lat="22.44653778125" lon="113.98744579638672" /><trkpt lat="22.44658078125" lon="113.98751379638672" /><trkpt lat="22.44669978125" lon="113.98770679638672" /><trkpt lat="22.44674978125" lon="113.98774279638671" /><trkpt lat="22.44680378125" lon="113.98775679638672" /><trkpt lat="22.44760078125" lon="113.98774779638671" /><trkpt lat="22.44778778125" lon="113.98776379638672" /><trkpt lat="22.44791578125" lon="113.98782779638672" /><trkpt lat="22.44797778125" lon="113.98789079638672" /><trkpt lat="22.44802378125" lon="113.98795179638672" /><trkpt lat="22.44850778125" lon="113.98902479638672" /><trkpt lat="22.44852178125" lon="113.98908479638672" /><trkpt lat="22.44851978125" lon="113.98916779638672" /><trkpt lat="22.44849678125" lon="113.98925679638671" /><trkpt lat="22.44846678125" lon="113.98936479638672" /><trkpt lat="22.44835178125" lon="113.98956879638672" /><trkpt lat="22.44804678125" lon="113.98991879638672" /><trkpt lat="22.44801678125" lon="113.98996179638672" /><trkpt lat="22.44788378125" lon="113.99025179638672" /><trkpt lat="22.44785978125" lon="113.99032679638673" /><trkpt lat="22.44838278125" lon="113.99018079638672" /><trkpt lat="22.44861678125" lon="113.99005179638672" /><trkpt lat="22.44898478125" lon="113.99003179638672" /><trkpt lat="22.44910778125" lon="113.98994779638672" /><trkpt lat="22.44915378125" lon="113.98994379638673" /><trkpt lat="22.44924778125" lon="113.98992679638671" /><trkpt lat="22.44938578125" lon="113.98992979638672" /><trkpt lat="22.44950078125" lon="113.98996979638672" /><trkpt lat="22.44958678125" lon="113.99002579638672" /><trkpt lat="22.44967078125" lon="113.99009979638672" /><trkpt lat="22.44975178125" lon="113.99016879638671" /><trkpt lat="22.44975878125" lon="113.99007979638672" /><trkpt lat="22.44988378125" lon="113.98991379638672" /><trkpt lat="22.45015778125" lon="113.98961679638671" /><trkpt lat="22.45038478125" lon="113.98936979638673" /><trkpt lat="22.45072578125" lon="113.98899979638672" /><trkpt lat="22.45106278125" lon="113.98864079638672" /><trkpt lat="22.45110878125" lon="113.98857779638672" /><trkpt lat="22.45113478125" lon="113.98853079638671" /><trkpt lat="22.45114278125" lon="113.98847479638673" /><trkpt lat="22.45114878125" lon="113.98841979638672" /><trkpt lat="22.45114878125" lon="113.98832679638672" /><trkpt lat="22.45111678125" lon="113.98810379638672" /><trkpt lat="22.45118878125" lon="113.98814079638672" /><trkpt lat="22.45124678125" lon="113.98819079638672" /><trkpt lat="22.45128278125" lon="113.98824479638672" /><trkpt lat="22.45132678125" lon="113.98835979638672" /><trkpt lat="22.45143878125" lon="113.98873779638672" /><trkpt lat="22.45155078125" lon="113.98899079638672" /><trkpt lat="22.45158878125" lon="113.98904979638672" /><trkpt lat="22.45164878125" lon="113.98912279638672" /><trkpt lat="22.45149178125" lon="113.98928579638672" /><trkpt lat="22.45138578125" lon="113.98945979638673" /><trkpt lat="22.45125978125" lon="113.98975879638672" /><trkpt lat="22.45116078125" lon="113.98993379638672" /><trkpt lat="22.45109178125" lon="113.98994879638671" /><trkpt lat="22.45096578125" lon="113.99002879638672" /></trkseg></trk></gpx>