<?xml version='1.0' encoding='UTF-8' ?><gpx version="1.1" creator="HikingTrailHK" xsi:schemaLocation="http://www.topografix.com/GPX/1/1 http://www.topografix.com/GPX/1/1/gpx.xsd https://hikingtrailhk.appspot.com/xml/gpxextensions/v1 https://hikingtrailhk.appspot.com/xml/gpxextensions/v1/gpxextensions.xsd" xmlns="http://www.topografix.com/GPX/1/1" xmlns:h="https://hikingtrailhk.appspot.com/xml/gpxextensions/v1" xmlns:xsi="http://www.w3.org/2001/XMLSchema-instance"><metadata><name>東澳古道 @ 2016-9-25</name><desc></desc><extensions><h:categoryid>ancient_trail</h:categoryid></extensions></metadata><trk><trkseg><trkpt lat="22.28861278125" lon="113.94082379638672" /><trkpt lat="22.28858978125" lon="113.94084579638672" /><trkpt lat="22.288508781250002" lon="113.94091979638672" /><trkpt lat="22.28851678125" lon="113.94095579638672" /><trkpt lat="22.28848778125" lon="113.94102279638672" /><trkpt lat="22.28841778125" lon="113.94111279638672" /><trkpt lat="22.28825878125" lon="113.94127079638672" /><trkpt lat="22.28823878125" lon="113.94128979638671" /><trkpt lat="22.28807478125" lon="113.94145079638672" /><trkpt lat="22.28799678125" lon="113.94139579638671" /><trkpt lat="22.28791478125" lon="113.94133279638672" /><trkpt lat="22.28786978125" lon="113.94130779638672" /><trkpt lat="22.28717778125" lon="113.94084079638672" /><trkpt lat="22.28689378125" lon="113.94066679638672" /><trkpt lat="22.28684678125" lon="113.94063779638672" /><trkpt lat="22.28676578125" lon="113.94058979638672" /><trkpt lat="22.28680778125" lon="113.94052679638672" /><trkpt lat="22.28727378125" lon="113.93967579638672" /><trkpt lat="22.28757378125" lon="113.93915879638672" /><trkpt lat="22.28790278125" lon="113.93853379638672" /><trkpt lat="22.28803478125" lon="113.93834179638672" /><trkpt lat="22.28813578125" lon="113.93819479638672" /><trkpt lat="22.28803378125" lon="113.93811779638672" /><trkpt lat="22.28815778125" lon="113.93793079638672" /><trkpt lat="22.288206643257244" lon="113.93786533694858" /><trkpt lat="22.288157436565754" lon="113.93785649856993" /><trkpt lat="22.288117735075446" lon="113.9377934707508" /><trkpt lat="22.28812766234256" lon="113.9377934707508" /><trkpt lat="22.28812766234256" lon="113.93779078854179" /><trkpt lat="22.288122698709103" lon="113.93779078854179" /><trkpt lat="22.28816236592813" lon="113.93777573666196" /><trkpt lat="22.28810878125" lon="113.93761079638672" /><trkpt lat="22.28811378125" lon="113.93750879638672" /><trkpt lat="22.28811878125" lon="113.93735879638672" /><trkpt lat="22.28816778125" lon="113.93722979638672" /><trkpt lat="22.28811378125" lon="113.93709579638671" /><trkpt lat="22.28800978125" lon="113.93696179638673" /><trkpt lat="22.28778578125" lon="113.93680079638672" /><trkpt lat="22.28771178125" lon="113.93675179638672" /><trkpt lat="22.28766178125" lon="113.93667179638672" /><trkpt lat="22.28755778125" lon="113.93663979638671" /><trkpt lat="22.28748778125" lon="113.93661779638671" /><trkpt lat="22.28743378125" lon="113.93650579638673" /><trkpt lat="22.28739878125" lon="113.93640379638671" /><trkpt lat="22.28733978125" lon="113.93631779638672" /><trkpt lat="22.28728478125" lon="113.93624279638672" /><trkpt lat="22.28728478125" lon="113.93617779638672" /><trkpt lat="22.28721978125" lon="113.93604979638671" /><trkpt lat="22.28708578125" lon="113.93603879638673" /><trkpt lat="22.28703878125" lon="113.93592479638671" /><trkpt lat="22.28706978125" lon="113.93586779638672" /><trkpt lat="22.28709578125" lon="113.93580079638672" /><trkpt lat="22.28710678125" lon="113.93574779638672" /><trkpt lat="22.28711578125" lon="113.93566179638673" /><trkpt lat="22.28711178125" lon="113.93555879638672" /><trkpt lat="22.28708578125" lon="113.93546479638673" /><trkpt lat="22.28693778125" lon="113.93527179638671" /><trkpt lat="22.28685778125" lon="113.93509979638672" /><trkpt lat="22.28673378125" lon="113.93498679638672" /><trkpt lat="22.28668378125" lon="113.93487979638672" /><trkpt lat="22.28660978125" lon="113.93480979638672" /><trkpt lat="22.28630078125" lon="113.93471479638671" /><trkpt lat="22.28626178125" lon="113.93482079638672" /><trkpt lat="22.28619278125" lon="113.93485879638672" /><trkpt lat="22.28601578125" lon="113.93500079638672" /><trkpt lat="22.28597178125" lon="113.93507579638671" /><trkpt lat="22.28585678125" lon="113.93517279638672" /><trkpt lat="22.28577078125" lon="113.93520179638672" /><trkpt lat="22.28557678125" lon="113.93515379638671" /><trkpt lat="22.28554978125" lon="113.93518579638672" /><trkpt lat="22.28538078125" lon="113.93541379638671" /><trkpt lat="22.28525978125" lon="113.93563579638672" /><trkpt lat="22.28520478125" lon="113.93560979638671" /><trkpt lat="22.28517078125" lon="113.93567779638671" /><trkpt lat="22.28500478125" lon="113.93558779638671" /><trkpt lat="22.28482578125" lon="113.93581779638671" /><trkpt lat="22.28454878125" lon="113.93558179638671" /><trkpt lat="22.28429378125" lon="113.93564079638672" /><trkpt lat="22.28427878125" lon="113.93567879638672" /><trkpt lat="22.28393578125" lon="113.93563679638672" /><trkpt lat="22.28370078125" lon="113.93555479638673" /><trkpt lat="22.28365478125" lon="113.93552179638672" /><trkpt lat="22.28356478125" lon="113.93528979638671" /><trkpt lat="22.28349178125" lon="113.93509579638672" /><trkpt lat="22.28343678125" lon="113.93491579638672" /><trkpt lat="22.28327478125" lon="113.93454279638672" /><trkpt lat="22.28311578125" lon="113.93454379638672" /><trkpt lat="22.28283478125" lon="113.93449679638672" /><trkpt lat="22.282643781250002" lon="113.93449179638672" /><trkpt lat="22.28228478125" lon="113.93444179638672" /><trkpt lat="22.28200978125" lon="113.93445079638671" /><trkpt lat="22.28157678125" lon="113.93438179638672" /><trkpt lat="22.28122078125" lon="113.93437579638672" /><trkpt lat="22.28079278125" lon="113.93436279638672" /><trkpt lat="22.28028078125" lon="113.93404479638671" /><trkpt lat="22.28001278125" lon="113.93389779638672" /><trkpt lat="22.27985378125" lon="113.93402679638672" /><trkpt lat="22.27964578125" lon="113.93409079638671" /><trkpt lat="22.27948678125" lon="113.93408079638672" /><trkpt lat="22.27936778125" lon="113.93404779638672" /><trkpt lat="22.27931578125" lon="113.93358479638673" /><trkpt lat="22.27951778125" lon="113.93354979638671" /><trkpt lat="22.27972078125" lon="113.93349079638672" /><trkpt lat="22.27983578125" lon="113.93343079638672" /><trkpt lat="22.27994478125" lon="113.93334379638672" /><trkpt lat="22.27991378125" lon="113.93316479638672" /><trkpt lat="22.27976378125" lon="113.93299479638672" /><trkpt lat="22.27972778125" lon="113.93295479638672" /><trkpt lat="22.27965878125" lon="113.93281479638672" /><trkpt lat="22.27945878125" lon="113.93245579638672" /><trkpt lat="22.27931678125" lon="113.93213679638671" /><trkpt lat="22.27928178125" lon="113.93199679638671" /><trkpt lat="22.27925878125" lon="113.93172579638671" /><trkpt lat="22.27925078125" lon="113.93159479638672" /><trkpt lat="22.27931878125" lon="113.93145579638671" /><trkpt lat="22.27938078125" lon="113.93138879638671" /><trkpt lat="22.27942478125" lon="113.93134079638672" /><trkpt lat="22.27955378125" lon="113.93129279638671" /><trkpt lat="22.27960878125" lon="113.93119979638672" /><trkpt lat="22.27972078125" lon="113.93117079638672" /><trkpt lat="22.27978578125" lon="113.93118279638672" /><trkpt lat="22.27989378125" lon="113.93113179638672" /><trkpt lat="22.27999078125" lon="113.93108679638672" /><trkpt lat="22.28002278125" lon="113.93091879638672" /><trkpt lat="22.28008578125" lon="113.93025079638672" /><trkpt lat="22.28007978125" lon="113.93012079638672" /><trkpt lat="22.28005978125" lon="113.92998179638671" /><trkpt lat="22.27994978125" lon="113.92993079638671" /><trkpt lat="22.27989878125" lon="113.92940979638672" /><trkpt lat="22.27999078125" lon="113.92934779638672" /><trkpt lat="22.28006978125" lon="113.92927979638672" /><trkpt lat="22.28008678125" lon="113.92916179638672" /><trkpt lat="22.28008278125" lon="113.92903179638672" /><trkpt lat="22.28006478125" lon="113.92891179638671" /><trkpt lat="22.28004178125" lon="113.92879279638672" /><trkpt lat="22.27997778125" lon="113.92868279638672" /><trkpt lat="22.27990978125" lon="113.92858179638672" /><trkpt lat="22.27981978125" lon="113.92846179638671" /><trkpt lat="22.27987478125" lon="113.92837379638672" /><trkpt lat="22.27991778125" lon="113.92828479638672" /><trkpt lat="22.27998278125" lon="113.92821179638672" /><trkpt lat="22.28006978125" lon="113.92816479638672" /><trkpt lat="22.28005478125" lon="113.92804879638672" /><trkpt lat="22.28002078125" lon="113.92793779638671" /><trkpt lat="22.27998278125" lon="113.92784279638671" /><trkpt lat="22.28002778125" lon="113.92777979638672" /><trkpt lat="22.28012978125" lon="113.92775579638672" /><trkpt lat="22.280241781249998" lon="113.92772379638672" /><trkpt lat="22.28034278125" lon="113.92769879638672" /><trkpt lat="22.28042278125" lon="113.92764179638672" /><trkpt lat="22.28049678125" lon="113.92757979638672" /><trkpt lat="22.28057878125" lon="113.92751379638672" /><trkpt lat="22.28068678125" lon="113.92744179638672" /><trkpt lat="22.28082478125" lon="113.92737279638672" /><trkpt lat="22.28097178125" lon="113.92732579638673" /><trkpt lat="22.28106078125" lon="113.92728779638672" /><trkpt lat="22.28116978125" lon="113.92723579638673" /><trkpt lat="22.28134678125" lon="113.92714879638672" /><trkpt lat="22.28150578125" lon="113.92720479638672" /><trkpt lat="22.28171978125" lon="113.92720279638672" /><trkpt lat="22.28189378125" lon="113.92722379638671" /><trkpt lat="22.28208078125" lon="113.92721879638673" /><trkpt lat="22.28224278125" lon="113.92718379638671" /><trkpt lat="22.28247578125" lon="113.92720679638671" /><trkpt lat="22.28265278125" lon="113.92718179638672" /><trkpt lat="22.28277878125" lon="113.92711579638672" /><trkpt lat="22.28286778125" lon="113.92701979638672" /><trkpt lat="22.28295978125" lon="113.92693779638672" /><trkpt lat="22.28310078125" lon="113.92684579638671" /><trkpt lat="22.28321678125" lon="113.92676779638671" /><trkpt lat="22.28336478125" lon="113.92668679638672" /><trkpt lat="22.28351878125" lon="113.92657879638672" /><trkpt lat="22.28365878125" lon="113.92646579638672" /><trkpt lat="22.28376278125" lon="113.92636579638672" /><trkpt lat="22.28388178125" lon="113.92619979638671" /><trkpt lat="22.28395578125" lon="113.92606579638672" /><trkpt lat="22.28405578125" lon="113.92599579638672" /><trkpt lat="22.28417078125" lon="113.92591579638672" /><trkpt lat="22.28431178125" lon="113.92585479638672" /><trkpt lat="22.28447978125" lon="113.92580979638672" /><trkpt lat="22.28459878125" lon="113.92571479638671" /><trkpt lat="22.28468078125" lon="113.92562379638672" /><trkpt lat="22.28477478125" lon="113.92552879638671" /><trkpt lat="22.28486478125" lon="113.92547179638672" /><trkpt lat="22.28494578125" lon="113.92537879638672" /><trkpt lat="22.28500778125" lon="113.92527179638672" /><trkpt lat="22.28509578125" lon="113.92518879638672" /><trkpt lat="22.28518278125" lon="113.92510079638672" /><trkpt lat="22.28527678125" lon="113.92501879638672" /><trkpt lat="22.28536878125" lon="113.92492479638672" /><trkpt lat="22.28544678125" lon="113.92482079638671" /><trkpt lat="22.28551678125" lon="113.92471179638672" /><trkpt lat="22.28559278125" lon="113.92459579638673" /><trkpt lat="22.28565978125" lon="113.92448979638672" /><trkpt lat="22.28570178125" lon="113.92434479638672" /><trkpt lat="22.28579678125" lon="113.92420079638671" /><trkpt lat="22.28587578125" lon="113.92404779638672" /><trkpt lat="22.28600978125" lon="113.92392179638672" /><trkpt lat="22.28614678125" lon="113.92385579638672" /><trkpt lat="22.28625478125" lon="113.92376379638672" /><trkpt lat="22.28635878125" lon="113.92369479638671" /><trkpt lat="22.28646978125" lon="113.92364479638672" /><trkpt lat="22.28655778125" lon="113.92356579638673" /><trkpt lat="22.28665878125" lon="113.92352979638672" /><trkpt lat="22.28676678125" lon="113.92349679638671" /><trkpt lat="22.28685378125" lon="113.92342279638672" /><trkpt lat="22.28691978125" lon="113.92328779638672" /><trkpt lat="22.28695178125" lon="113.92316079638672" /><trkpt lat="22.28696878125" lon="113.92299879638672" /><trkpt lat="22.28705178125" lon="113.92277379638672" /><trkpt lat="22.28713278125" lon="113.92260579638672" /><trkpt lat="22.28725178125" lon="113.92253579638673" /><trkpt lat="22.28739578125" lon="113.92242279638671" /><trkpt lat="22.28751978125" lon="113.92230479638671" /><trkpt lat="22.28760978125" lon="113.92218179638672" /><trkpt lat="22.28768378125" lon="113.92211179638672" /><trkpt lat="22.28775378125" lon="113.92202079638672" /><trkpt lat="22.28781778125" lon="113.92191879638672" /><trkpt lat="22.28787278125" lon="113.92181679638672" /><trkpt lat="22.28790778125" lon="113.92167679638672" /><trkpt lat="22.28796178125" lon="113.92152179638671" /><trkpt lat="22.28803678125" lon="113.92149979638671" /><trkpt lat="22.28814578125" lon="113.92148279638671" /><trkpt lat="22.28826478125" lon="113.92142479638672" /><trkpt lat="22.28832978125" lon="113.92138179638673" /><trkpt lat="22.28840578125" lon="113.92128779638672" /><trkpt lat="22.28845278125" lon="113.92115779638672" /><trkpt lat="22.28850278125" lon="113.92106479638672" /><trkpt lat="22.28855378125" lon="113.92097979638672" /><trkpt lat="22.28861378125" lon="113.92090879638671" /><trkpt lat="22.28869278125" lon="113.92083379638672" /><trkpt lat="22.28883878125" lon="113.92050779638672" /><trkpt lat="22.28888678125" lon="113.92038579638673" /><trkpt lat="22.28896878125" lon="113.92031579638672" /><trkpt lat="22.28908478125" lon="113.92027379638672" /><trkpt lat="22.28916978125" lon="113.92023279638671" /><trkpt lat="22.28926878125" lon="113.92020879638672" /><trkpt lat="22.28939278125" lon="113.92015779638672" /><trkpt lat="22.28950578125" lon="113.92015279638672" /><trkpt lat="22.28961778125" lon="113.92013679638671" /><trkpt lat="22.28972178125" lon="113.92014979638672" /><trkpt lat="22.28982778125" lon="113.92021079638671" /><trkpt lat="22.28994778125" lon="113.92022179638671" /><trkpt lat="22.29004778125" lon="113.92024979638671" /><trkpt lat="22.29015778125" lon="113.92025279638672" /><trkpt lat="22.29026878125" lon="113.92025679638672" /><trkpt lat="22.29037778125" lon="113.92027379638672" /><trkpt lat="22.29049778125" lon="113.92026479638672" /><trkpt lat="22.29062278125" lon="113.92026679638671" /><trkpt lat="22.29072178125" lon="113.92020779638672" /><trkpt lat="22.29075678125" lon="113.92003579638671" /><trkpt lat="22.29078578125" lon="113.91989579638673" /><trkpt lat="22.29079578125" lon="113.91976779638672" /><trkpt lat="22.29082978125" lon="113.91964579638672" /><trkpt lat="22.29082478125" lon="113.91955179638671" /><trkpt lat="22.29084478125" lon="113.91944779638672" /><trkpt lat="22.29088778125" lon="113.91933579638672" /><trkpt lat="22.29092078125" lon="113.91927579638671" /><trkpt lat="22.29096078125" lon="113.91922579638671" /><trkpt lat="22.29108978125" lon="113.91912079638672" /><trkpt lat="22.29123478125" lon="113.91903379638671" /><trkpt lat="22.29135178125" lon="113.91890679638672" /><trkpt lat="22.29144678125" lon="113.91879079638672" /><trkpt lat="22.29154178125" lon="113.91866279638671" /><trkpt lat="22.29161278125" lon="113.91854779638672" /><trkpt lat="22.29168578125" lon="113.91843379638672" /><trkpt lat="22.29172978125" lon="113.91831879638671" /><trkpt lat="22.29183578125" lon="113.91820479638672" /><trkpt lat="22.29195578125" lon="113.91807179638671" /><trkpt lat="22.29200978125" lon="113.91791479638673" /><trkpt lat="22.29209778125" lon="113.91777279638671" /><trkpt lat="22.29214178125" lon="113.91764579638672" /><trkpt lat="22.29218878125" lon="113.91753079638671" /><trkpt lat="22.29224478125" lon="113.91741279638671" /><trkpt lat="22.29225178125" lon="113.91727579638672" /><trkpt lat="22.29224378125" lon="113.91714479638672" /><trkpt lat="22.29225678125" lon="113.91703579638671" /><trkpt lat="22.29230578125" lon="113.91694479638672" /><trkpt lat="22.29233278125" lon="113.91682979638672" /><trkpt lat="22.29236578125" lon="113.91671579638673" /><trkpt lat="22.29239678125" lon="113.91660079638672" /><trkpt lat="22.29240678125" lon="113.91646679638671" /><trkpt lat="22.29245478125" lon="113.91634379638671" /><trkpt lat="22.29248878125" lon="113.91623179638673" /><trkpt lat="22.29246678125" lon="113.91611079638672" /><trkpt lat="22.29243178125" lon="113.91599579638672" /><trkpt lat="22.29245878125" lon="113.91587379638672" /><trkpt lat="22.29246678125" lon="113.91574679638671" /><trkpt lat="22.29245878125" lon="113.91561579638672" /><trkpt lat="22.29244078125" lon="113.91550479638671" /><trkpt lat="22.29241578125" lon="113.91539279638671" /><trkpt lat="22.29242078125" lon="113.91524979638672" /><trkpt lat="22.29238478125" lon="113.91513279638671" /><trkpt lat="22.29234478125" lon="113.91500379638671" /><trkpt lat="22.29228978125" lon="113.91488079638673" /><trkpt lat="22.29231978125" lon="113.91479979638672" /><trkpt lat="22.29228478125" lon="113.91468779638672" /><trkpt lat="22.29222478125" lon="113.91462679638671" /><trkpt lat="22.29213578125" lon="113.91454279638671" /><trkpt lat="22.29207678125" lon="113.91445679638672" /><trkpt lat="22.29201678125" lon="113.91432279638671" /><trkpt lat="22.29197278125" lon="113.91420979638671" /><trkpt lat="22.29189778125" lon="113.91411379638672" /><trkpt lat="22.29178878125" lon="113.91408679638671" /><trkpt lat="22.29166978125" lon="113.91401679638672" /><trkpt lat="22.29158578125" lon="113.91395279638672" /><trkpt lat="22.29147078125" lon="113.91385079638673" /><trkpt lat="22.29140178125" lon="113.91371679638672" /><trkpt lat="22.29135178125" lon="113.91356579638672" /><trkpt lat="22.29139178125" lon="113.91343179638672" /><trkpt lat="22.29141178125" lon="113.91328179638671" /><trkpt lat="22.29135178125" lon="113.91314279638672" /><trkpt lat="22.29126078125" lon="113.91295379638672" /><trkpt lat="22.29119478125" lon="113.91283479638672" /><trkpt lat="22.29111578125" lon="113.91273979638672" /><trkpt lat="22.29104178125" lon="113.91261679638671" /><trkpt lat="22.29098878125" lon="113.91247479638672" /><trkpt lat="22.29091378125" lon="113.91238479638672" /><trkpt lat="22.29088078125" lon="113.91220679638671" /><trkpt lat="22.29085578125" lon="113.91206379638672" /><trkpt lat="22.29074678125" lon="113.91195679638672" /><trkpt lat="22.29062778125" lon="113.91180679638671" /><trkpt lat="22.29049878125" lon="113.91161879638672" /><trkpt lat="22.29038878125" lon="113.91143079638672" /><trkpt lat="22.29031478125" lon="113.91130279638672" /><trkpt lat="22.29025478125" lon="113.91114179638672" /><trkpt lat="22.29014578125" lon="113.91095379638672" /><trkpt lat="22.29003178125" lon="113.91086279638672" /><trkpt lat="22.28991778125" lon="113.91080879638672" /><trkpt lat="22.28983778125" lon="113.91069079638672" /><trkpt lat="22.28977378125" lon="113.91057879638672" /><trkpt lat="22.28976378125" lon="113.91043379638671" /><trkpt lat="22.28974378125" lon="113.91029379638672" /><trkpt lat="22.28975378125" lon="113.91010079638671" /><trkpt lat="22.28970378125" lon="113.90993979638672" /><trkpt lat="22.28959978125" lon="113.90981079638672" /><trkpt lat="22.28950078125" lon="113.90971979638672" /><trkpt lat="22.28942078125" lon="113.90962379638673" /><trkpt lat="22.28934678125" lon="113.90954279638672" /><trkpt lat="22.28928378125" lon="113.90942479638672" /><trkpt lat="22.28924078125" lon="113.90927879638672" /><trkpt lat="22.28918378125" lon="113.90917279638671" /><trkpt lat="22.28918278125" lon="113.90905479638671" /><trkpt lat="22.28916778125" lon="113.90893179638672" /><trkpt lat="22.28917278125" lon="113.90877079638672" /><trkpt lat="22.28931678125" lon="113.90868979638672" /><trkpt lat="22.28944078125" lon="113.90868379638673" /><trkpt lat="22.28954578125" lon="113.90868379638673" /><trkpt lat="22.28965278125" lon="113.90866679638673" /><trkpt lat="22.28975778125" lon="113.90862379638672" /><trkpt lat="22.28986878125" lon="113.90858779638671" /><trkpt lat="22.28995778125" lon="113.90855479638672" /><trkpt lat="22.29004178125" lon="113.90848079638671" /><trkpt lat="22.29004678125" lon="113.90835179638673" /><trkpt lat="22.29011578125" lon="113.90821279638672" /><trkpt lat="22.29013578125" lon="113.90808379638672" /><trkpt lat="22.29009178125" lon="113.90792779638672" /><trkpt lat="22.29006178125" lon="113.90776779638672" /><trkpt lat="22.29008178125" lon="113.90754779638672" /><trkpt lat="22.29003678125" lon="113.90729479638672" /><trkpt lat="22.29001578125" lon="113.90716579638672" /><trkpt lat="22.28999678125" lon="113.90705379638672" /><trkpt lat="22.28992578125" lon="113.90692079638671" /><trkpt lat="22.28993678125" lon="113.90680279638671" /><trkpt lat="22.28994778125" lon="113.90669479638672" /><trkpt lat="22.28995078125" lon="113.90657979638672" /><trkpt lat="22.28991478125" lon="113.90647079638671" /><trkpt lat="22.28987578125" lon="113.90634279638672" /><trkpt lat="22.28984178125" lon="113.90622679638672" /><trkpt lat="22.28976578125" lon="113.90611979638672" /><trkpt lat="22.28971778125" lon="113.90602879638672" /><trkpt lat="22.28966978125" lon="113.90593279638672" /><trkpt lat="22.28962278125" lon="113.90583979638672" /><trkpt lat="22.28957478125" lon="113.90573979638671" /><trkpt lat="22.28951578125" lon="113.90553079638671" /><trkpt lat="22.28941578125" lon="113.90534779638672" /><trkpt lat="22.28924278125" lon="113.90514979638672" /><trkpt lat="22.28908378125" lon="113.90495679638671" /><trkpt lat="22.28897978125" lon="113.90476879638672" /><trkpt lat="22.28891478125" lon="113.90460779638671" /><trkpt lat="22.28888178125" lon="113.90446179638671" /><trkpt lat="22.28889878125" lon="113.90431979638672" /><trkpt lat="22.28891078125" lon="113.90418379638672" /><trkpt lat="22.28893678125" lon="113.90405079638671" /><trkpt lat="22.28895778125" lon="113.90391479638672" /><trkpt lat="22.28895978125" lon="113.90373979638672" /><trkpt lat="22.28891978125" lon="113.90358879638671" /><trkpt lat="22.28883778125" lon="113.90348479638672" /><trkpt lat="22.28875778125" lon="113.90340679638672" /><trkpt lat="22.28866978125" lon="113.90331179638672" /><trkpt lat="22.28857478125" lon="113.90323379638671" /><trkpt lat="22.28844378125" lon="113.90314679638672" /><trkpt lat="22.28832578125" lon="113.90306279638672" /><trkpt lat="22.28820778125" lon="113.90297979638672" /><trkpt lat="22.28807478125" lon="113.90293179638672" /><trkpt lat="22.28795278125" lon="113.90281879638673" /><trkpt lat="22.28786678125" lon="113.90273879638671" /><trkpt lat="22.28775278125" lon="113.90287879638672" /><trkpt lat="22.28763378125" lon="113.90296479638671" /><trkpt lat="22.28751478125" lon="113.90300179638672" /><trkpt lat="22.28739078125" lon="113.90303979638672" /><trkpt lat="22.28725678125" lon="113.90304979638672" /><trkpt lat="22.28713978125" lon="113.90302379638672" /><trkpt lat="22.28703878125" lon="113.90300679638672" /><trkpt lat="22.28693978125" lon="113.90296079638672" /><trkpt lat="22.28684278125" lon="113.90291079638672" /><trkpt lat="22.28672678125" lon="113.90287979638671" /><trkpt lat="22.28662178125" lon="113.90285479638672" /><trkpt lat="22.28651578125" lon="113.90282279638672" /><trkpt lat="22.28641478125" lon="113.90281979638672" /><trkpt lat="22.28631078125" lon="113.90281279638671" /><trkpt lat="22.28619978125" lon="113.90281779638671" /><trkpt lat="22.28608778125" lon="113.90281479638672" /><trkpt lat="22.28600078125" lon="113.90275579638671" /><trkpt lat="22.28593678125" lon="113.90266179638672" /><trkpt lat="22.28585078125" lon="113.90259579638672" /><trkpt lat="22.28576178125" lon="113.90252279638672" /><trkpt lat="22.28567278125" lon="113.90246379638671" /><trkpt lat="22.28563978125" lon="113.90246079638672" /><trkpt lat="22.28559078125" lon="113.90237579638672" /><trkpt lat="22.28556178125" lon="113.90228479638672" /><trkpt lat="22.28555578125" lon="113.90226679638671" /><trkpt lat="22.28552278125" lon="113.90216579638673" /><trkpt lat="22.28549078125" lon="113.90204479638672" /><trkpt lat="22.28550878125" lon="113.90189279638672" /><trkpt lat="22.28552578125" lon="113.90177979638672" /><trkpt lat="22.28555078125" lon="113.90165979638672" /><trkpt lat="22.28556978125" lon="113.90154279638672" /><trkpt lat="22.28556678125" lon="113.90142479638672" /><trkpt lat="22.28559678125" lon="113.90132579638671" /><trkpt lat="22.28563878125" lon="113.90121979638671" /><trkpt lat="22.28563178125" lon="113.90111179638672" /><trkpt lat="22.28557778125" lon="113.90102679638672" /><trkpt lat="22.28550078125" lon="113.90096079638671" /><trkpt lat="22.28540278125" lon="113.90091979638672" /><trkpt lat="22.28533078125" lon="113.90083079638671" /><trkpt lat="22.28529678125" lon="113.90072879638672" /><trkpt lat="22.28521678125" lon="113.90063279638672" /><trkpt lat="22.28507078125" lon="113.90062779638671" /><trkpt lat="22.28495878125" lon="113.90054179638672" /><trkpt lat="22.28473578125" lon="113.90040179638672" /><trkpt lat="22.28455578125" lon="113.90037479638671" /><trkpt lat="22.28430478125" lon="113.90031279638671" /><trkpt lat="22.28414978125" lon="113.90019779638672" /><trkpt lat="22.28393678125" lon="113.90017179638672" /><trkpt lat="22.28376278125" lon="113.90014579638672" /><trkpt lat="22.28372578125" lon="113.90013179638672" /><trkpt lat="22.28368478125" lon="113.90010779638672" /><trkpt lat="22.28357378125" lon="113.89998879638672" /><trkpt lat="22.28349978125" lon="113.89976879638672" /><trkpt lat="22.28343978125" lon="113.89957079638671" /><trkpt lat="22.28339878125" lon="113.89941279638671" /><trkpt lat="22.28339178125" lon="113.89921079638673" /><trkpt lat="22.28334578125" lon="113.89908279638672" /><trkpt lat="22.28331978125" lon="113.89887279638671" /><trkpt lat="22.28326878125" lon="113.89874879638671" /><trkpt lat="22.28320278125" lon="113.89858579638671" /><trkpt lat="22.28310678125" lon="113.89845879638672" /><trkpt lat="22.28302778125" lon="113.89831479638671" /><trkpt lat="22.28289378125" lon="113.89820779638671" /><trkpt lat="22.28276478125" lon="113.89807879638671" /><trkpt lat="22.28266078125" lon="113.89791779638672" /><trkpt lat="22.28251978125" lon="113.89782779638672" /><trkpt lat="22.28241678125" lon="113.89774079638671" /><trkpt lat="22.28230778125" lon="113.89760679638673" /><trkpt lat="22.28220878125" lon="113.89744579638672" /><trkpt lat="22.28211478125" lon="113.89729579638671" /><trkpt lat="22.28202078125" lon="113.89705479638671" /><trkpt lat="22.28192078125" lon="113.89690479638672" /><trkpt lat="22.28177378125" lon="113.89684979638672" /><trkpt lat="22.28165578125" lon="113.89681879638673" /><trkpt lat="22.28153578125" lon="113.89669579638672" /><trkpt lat="22.28147378125" lon="113.89659179638672" /><trkpt lat="22.28137378125" lon="113.89650379638672" /><trkpt lat="22.28125478125" lon="113.89642979638671" /><trkpt lat="22.28121878125" lon="113.89630579638671" /><trkpt lat="22.28129078125" lon="113.89613179638671" /><trkpt lat="22.28130778125" lon="113.89594579638671" /><trkpt lat="22.28128778125" lon="113.89582179638671" /><trkpt lat="22.28123578125" lon="113.89568979638672" /><trkpt lat="22.28117678125" lon="113.89555279638672" /><trkpt lat="22.28108678125" lon="113.89545879638672" /><trkpt lat="22.28091378125" lon="113.89544479638671" /><trkpt lat="22.28076978125" lon="113.89538579638672" /><trkpt lat="22.28074478125" lon="113.89524679638672" /><trkpt lat="22.28075578125" lon="113.89512879638671" /><trkpt lat="22.28081978125" lon="113.89493679638672" /><trkpt lat="22.28085478125" lon="113.89480279638671" /><trkpt lat="22.28094278125" lon="113.89468879638672" /><trkpt lat="22.28099778125" lon="113.89458679638672" /><trkpt lat="22.28098478125" lon="113.89446679638672" /><trkpt lat="22.28093778125" lon="113.89434479638672" /><trkpt lat="22.28087878125" lon="113.89418979638671" /><trkpt lat="22.28073478125" lon="113.89402379638672" /><trkpt lat="22.28057878125" lon="113.89389779638672" /><trkpt lat="22.28035978125" lon="113.89363779638671" /><trkpt lat="22.28033278125" lon="113.89352979638672" /><trkpt lat="22.28040778125" lon="113.89343679638672" /><trkpt lat="22.28052578125" lon="113.89337979638672" /><trkpt lat="22.28055078125" lon="113.89324579638672" /><trkpt lat="22.28045678125" lon="113.89312279638672" /><trkpt lat="22.28035778125" lon="113.89300979638672" /><trkpt lat="22.28029778125" lon="113.89289679638672" /><trkpt lat="22.28019278125" lon="113.89278579638672" /><trkpt lat="22.28006078125" lon="113.89266679638672" /><trkpt lat="22.27994978125" lon="113.89257679638672" /><trkpt lat="22.27990578125" lon="113.89245679638672" /><trkpt lat="22.27980678125" lon="113.89232279638672" /><trkpt lat="22.27968378125" lon="113.89230279638672" /><trkpt lat="22.27958078125" lon="113.89227679638672" /><trkpt lat="22.27948378125" lon="113.89222079638672" /><trkpt lat="22.27935478125" lon="113.89214079638671" /><trkpt lat="22.27920578125" lon="113.89208279638672" /><trkpt lat="22.27911178125" lon="113.89200979638672" /><trkpt lat="22.27899178125" lon="113.89188279638672" /><trkpt lat="22.27882478125" lon="113.89174179638673" /><trkpt lat="22.27872878125" lon="113.89166679638672" /><trkpt lat="22.27859478125" lon="113.89164679638672" /><trkpt lat="22.27847078125" lon="113.89159479638671" /><trkpt lat="22.27837578125" lon="113.89155679638672" /><trkpt lat="22.27827178125" lon="113.89154279638672" /><trkpt lat="22.27817078125" lon="113.89154279638672" /><trkpt lat="22.27801378125" lon="113.89144579638672" /><trkpt lat="22.27775878125" lon="113.89138879638672" /><trkpt lat="22.27756478125" lon="113.89128279638672" /><trkpt lat="22.27746978125" lon="113.89111979638672" /><trkpt lat="22.27734778125" lon="113.89104279638671" /><trkpt lat="22.27720678125" lon="113.89094379638672" /><trkpt lat="22.27705078125" lon="113.89078379638671" /><trkpt lat="22.27693778125" lon="113.89069379638671" /><trkpt lat="22.27676878125" lon="113.89061079638672" /><trkpt lat="22.27662178125" lon="113.89055379638671" /><trkpt lat="22.27653078125" lon="113.89051179638672" /><trkpt lat="22.27647878125" lon="113.89048779638672" /><trkpt lat="22.27638078125" lon="113.89044179638672" /><trkpt lat="22.27632278125" lon="113.89043779638672" /><trkpt lat="22.27618978125" lon="113.89037279638671" /><trkpt lat="22.27608978125" lon="113.89032479638672" /><trkpt lat="22.27597978125" lon="113.89029079638672" /><trkpt lat="22.27587478125" lon="113.89023579638672" /><trkpt lat="22.27576578125" lon="113.89015279638672" /><trkpt lat="22.27565778125" lon="113.89009079638672" /><trkpt lat="22.27554878125" lon="113.89000879638672" /><trkpt lat="22.27545778125" lon="113.88993579638672" /><trkpt lat="22.27530178125" lon="113.88983479638672" /><trkpt lat="22.27510178125" lon="113.88970879638671" /><trkpt lat="22.27498178125" lon="113.88964279638672" /><trkpt lat="22.27479078125" lon="113.88957779638672" /><trkpt lat="22.27466478125" lon="113.88953679638672" /><trkpt lat="22.27448278125" lon="113.88950779638672" /><trkpt lat="22.27437078125" lon="113.88939979638671" /><trkpt lat="22.27426178125" lon="113.88934079638672" /><trkpt lat="22.27408778125" lon="113.88932979638672" /><trkpt lat="22.27396378125" lon="113.88928179638671" /><trkpt lat="22.27389878125" lon="113.88914779638672" /><trkpt lat="22.27380978125" lon="113.88902979638672" /><trkpt lat="22.27367678125" lon="113.88895979638671" /><trkpt lat="22.27350678125" lon="113.88886279638672" /><trkpt lat="22.27336278125" lon="113.88880379638672" /><trkpt lat="22.27320078125" lon="113.88874079638671" /><trkpt lat="22.27303078125" lon="113.88871979638672" /><trkpt lat="22.27282578125" lon="113.88866379638672" /><trkpt lat="22.27265678125" lon="113.88858079638672" /><trkpt lat="22.27244978125" lon="113.88856079638671" /><trkpt lat="22.27234378125" lon="113.88856579638671" /><trkpt lat="22.27216678125" lon="113.88848479638672" /><trkpt lat="22.27196678125" lon="113.88837779638672" /><trkpt lat="22.27175078125" lon="113.88823179638672" /><trkpt lat="22.27154578125" lon="113.88815479638671" /><trkpt lat="22.27132878125" lon="113.88809079638672" /><trkpt lat="22.27116978125" lon="113.88804179638672" /><trkpt lat="22.27104778125" lon="113.88798579638672" /><trkpt lat="22.27092978125" lon="113.88794379638672" /><trkpt lat="22.27084478125" lon="113.88787279638672" /><trkpt lat="22.27073578125" lon="113.88784179638672" /><trkpt lat="22.27064278125" lon="113.88778579638672" /><trkpt lat="22.27055578125" lon="113.88775079638671" /><trkpt lat="22.27053878125" lon="113.88775079638671" /><trkpt lat="22.27052278125" lon="113.88775179638672" /><trkpt lat="22.27044678125" lon="113.88775579638671" /><trkpt lat="22.27034378125" lon="113.88775379638672" /><trkpt lat="22.27023878125" lon="113.88776979638672" /><trkpt lat="22.27013778125" lon="113.88779679638672" /><trkpt lat="22.27004178125" lon="113.88781779638671" /><trkpt lat="22.26993678125" lon="113.88781579638672" /><trkpt lat="22.26982878125" lon="113.88778979638671" /><trkpt lat="22.26969478125" lon="113.88773679638672" /><trkpt lat="22.26957578125" lon="113.88775279638672" /><trkpt lat="22.26924178125" lon="113.88779479638671" /><trkpt lat="22.26913878125" lon="113.88779579638671" /><trkpt lat="22.26901778125" lon="113.88779379638672" /><trkpt lat="22.26890578125" lon="113.88778579638672" /><trkpt lat="22.26880178125" lon="113.88775679638673" /><trkpt lat="22.26873978125" lon="113.88774379638672" /><trkpt lat="22.26870478125" lon="113.88772279638673" /><trkpt lat="22.26865078125" lon="113.88765079638672" /><trkpt lat="22.26852278125" lon="113.88744779638672" /><trkpt lat="22.26850478125" lon="113.88740179638671" /><trkpt lat="22.26848778125" lon="113.88736579638672" /><trkpt lat="22.26843178125" lon="113.88727779638671" /><trkpt lat="22.26834578125" lon="113.88715179638672" /><trkpt lat="22.26835878125" lon="113.88706879638671" /><trkpt lat="22.26842078125" lon="113.88696179638671" /><trkpt lat="22.26843078125" lon="113.88682279638672" /><trkpt lat="22.26842078125" lon="113.88667879638672" /><trkpt lat="22.26849578125" lon="113.88641979638672" /><trkpt lat="22.26861878125" lon="113.88632079638671" /><trkpt lat="22.26878578125" lon="113.88621979638671" /><trkpt lat="22.26890078125" lon="113.88607779638672" /><trkpt lat="22.26895078125" lon="113.88591479638671" /><trkpt lat="22.26907378125" lon="113.88581179638672" /><trkpt lat="22.26915678125" lon="113.88573279638672" /><trkpt lat="22.26919678125" lon="113.88565879638672" /><trkpt lat="22.26925878125" lon="113.88562879638671" /><trkpt lat="22.26922978125" lon="113.88546079638672" /><trkpt lat="22.26927878125" lon="113.88530079638672" /><trkpt lat="22.26931478125" lon="113.88515579638671" /><trkpt lat="22.26929678125" lon="113.88495679638672" /><trkpt lat="22.26931878125" lon="113.88475879638672" /><trkpt lat="22.26939878125" lon="113.88462879638672" /><trkpt lat="22.26943578125" lon="113.88442879638671" /><trkpt lat="22.26951478125" lon="113.88428279638671" /><trkpt lat="22.26957578125" lon="113.88417779638672" /><trkpt lat="22.26954578125" lon="113.88400079638672" /><trkpt lat="22.26954778125" lon="113.88386779638672" /><trkpt lat="22.26960278125" lon="113.88375879638672" /><trkpt lat="22.26962278125" lon="113.88358679638672" /><trkpt lat="22.26971178125" lon="113.88332979638672" /><trkpt lat="22.26972178125" lon="113.88311479638672" /><trkpt lat="22.26970178125" lon="113.88293279638673" /><trkpt lat="22.26965978125" lon="113.88252579638672" /><trkpt lat="22.26957878125" lon="113.88214779638672" /><trkpt lat="22.26945778125" lon="113.88189979638672" /><trkpt lat="22.26929978125" lon="113.88161779638672" /><trkpt lat="22.26908678125" lon="113.88141579638672" /><trkpt lat="22.26894678125" lon="113.88112679638672" /><trkpt lat="22.26871278125" lon="113.88067879638672" /><trkpt lat="22.26865378125" lon="113.88055279638672" /><trkpt lat="22.26852278125" lon="113.88037279638672" /><trkpt lat="22.26843978125" lon="113.88027679638672" /><trkpt lat="22.26828278125" lon="113.88007179638672" /><trkpt lat="22.26823978125" lon="113.87993579638672" /><trkpt lat="22.26824278125" lon="113.87981479638673" /><trkpt lat="22.26826778125" lon="113.87966479638672" /><trkpt lat="22.26826578125" lon="113.87950779638672" /><trkpt lat="22.26823178125" lon="113.87938079638671" /><trkpt lat="22.26810778125" lon="113.87924379638672" /><trkpt lat="22.26814178125" lon="113.87895879638671" /><trkpt lat="22.26812978125" lon="113.87875379638672" /><trkpt lat="22.26810778125" lon="113.87862779638672" /><trkpt lat="22.26808778125" lon="113.87850279638671" /><trkpt lat="22.26810678125" lon="113.87837279638671" /><trkpt lat="22.26806778125" lon="113.87820479638673" /><trkpt lat="22.26804478125" lon="113.87805279638673" /><trkpt lat="22.26812878125" lon="113.87793579638672" /><trkpt lat="22.26820578125" lon="113.87782579638672" /><trkpt lat="22.26830578125" lon="113.87777779638672" /><trkpt lat="22.26841578125" lon="113.87778279638673" /><trkpt lat="22.26850078125" lon="113.87770979638672" /><trkpt lat="22.26859178125" lon="113.87755579638672" /><trkpt lat="22.26853978125" lon="113.87745979638672" /><trkpt lat="22.26849578125" lon="113.87734979638672" /><trkpt lat="22.26846178125" lon="113.87719279638672" /><trkpt lat="22.26843478125" lon="113.87698779638671" /><trkpt lat="22.26837478125" lon="113.87684579638672" /><trkpt lat="22.26828078125" lon="113.87675379638672" /><trkpt lat="22.26827578125" lon="113.87660179638672" /><trkpt lat="22.26824578125" lon="113.87649479638672" /><trkpt lat="22.26823378125" lon="113.87640779638672" /><trkpt lat="22.26818378125" lon="113.87625979638672" /><trkpt lat="22.26814978125" lon="113.87610379638672" /><trkpt lat="22.26806278125" lon="113.87604879638671" /><trkpt lat="22.26798778125" lon="113.87598279638672" /><trkpt lat="22.26805978125" lon="113.87573179638672" /><trkpt lat="22.26808578125" lon="113.87565479638671" /><trkpt lat="22.26800878125" lon="113.87555579638672" /><trkpt lat="22.26791878125" lon="113.87542879638671" /><trkpt lat="22.26798678125" lon="113.87524579638672" /><trkpt lat="22.26797178125" lon="113.87512979638672" /><trkpt lat="22.26789378125" lon="113.87493479638673" /><trkpt lat="22.26794078125" lon="113.87470779638672" /><trkpt lat="22.26791678125" lon="113.87449679638672" /><trkpt lat="22.26792278125" lon="113.87437279638672" /><trkpt lat="22.26794778125" lon="113.87422379638672" /><trkpt lat="22.26789178125" lon="113.87409779638672" /><trkpt lat="22.26781378125" lon="113.87397379638672" /><trkpt lat="22.26773178125" lon="113.87380579638672" /><trkpt lat="22.26766778125" lon="113.87367579638672" /><trkpt lat="22.26772078125" lon="113.87358479638672" /><trkpt lat="22.26777078125" lon="113.87349479638672" /><trkpt lat="22.26784078125" lon="113.87340179638672" /><trkpt lat="22.26788778125" lon="113.87329779638672" /><trkpt lat="22.26792078125" lon="113.87318379638671" /><trkpt lat="22.26794678125" lon="113.87308479638672" /><trkpt lat="22.26798578125" lon="113.87285979638672" /><trkpt lat="22.26805678125" lon="113.87279079638672" /><trkpt lat="22.26814478125" lon="113.87272179638671" /><trkpt lat="22.26819378125" lon="113.87260479638672" /><trkpt lat="22.26824278125" lon="113.87250079638672" /><trkpt lat="22.26827478125" lon="113.87239179638672" /><trkpt lat="22.26833078125" lon="113.87229479638673" /><trkpt lat="22.26829778125" lon="113.87219379638672" /><trkpt lat="22.26824978125" lon="113.87210379638672" /><trkpt lat="22.26825778125" lon="113.87199279638672" /><trkpt lat="22.26823878125" lon="113.87189179638672" /><trkpt lat="22.26820878125" lon="113.87179979638672" /><trkpt lat="22.26816778125" lon="113.87170979638672" /><trkpt lat="22.26815978125" lon="113.87159679638673" /><trkpt lat="22.26812978125" lon="113.87152879638671" /><trkpt lat="22.26803278125" lon="113.87145779638672" /><trkpt lat="22.26797178125" lon="113.87138379638672" /><trkpt lat="22.26788978125" lon="113.87132479638672" /><trkpt lat="22.26771478125" lon="113.87126779638672" /><trkpt lat="22.26761778125" lon="113.87116379638672" /><trkpt lat="22.26763278125" lon="113.87095179638672" /><trkpt lat="22.26761278125" lon="113.87082179638672" /><trkpt lat="22.26751378125" lon="113.87074979638672" /><trkpt lat="22.26742878125" lon="113.87066079638672" /><trkpt lat="22.26733578125" lon="113.87057179638671" /><trkpt lat="22.26731078125" lon="113.87045779638672" /><trkpt lat="22.26725078125" lon="113.87040079638672" /><trkpt lat="22.26708778125" lon="113.87040679638672" /><trkpt lat="22.26697678125" lon="113.87035479638672" /><trkpt lat="22.26685978125" lon="113.87031479638672" /><trkpt lat="22.26675678125" lon="113.87034879638672" /><trkpt lat="22.26672078125" lon="113.87044479638672" /><trkpt lat="22.26673578125" lon="113.87055079638672" /><trkpt lat="22.26659678125" lon="113.87060379638672" /><trkpt lat="22.26646278125" lon="113.87059379638671" /><trkpt lat="22.26638978125" lon="113.87059879638672" /><trkpt lat="22.26632578125" lon="113.87056279638672" /><trkpt lat="22.26624478125" lon="113.87045979638673" /><trkpt lat="22.26617878125" lon="113.87034279638672" /><trkpt lat="22.26613578125" lon="113.87023979638671" /><trkpt lat="22.26603578125" lon="113.87020179638672" /><trkpt lat="22.26592478125" lon="113.87017779638671" /><trkpt lat="22.26581078125" lon="113.87018679638672" /><trkpt lat="22.26574478125" lon="113.87017079638672" /><trkpt lat="22.26564978125" lon="113.87016479638672" /><trkpt lat="22.26554678125" lon="113.87006279638672" /><trkpt lat="22.26548978125" lon="113.87005879638672" /><trkpt lat="22.26537378125" lon="113.86997779638672" /><trkpt lat="22.26525678125" lon="113.86993479638672" /><trkpt lat="22.26518878125" lon="113.86985779638673" /><trkpt lat="22.26511778125" lon="113.86976979638672" /><trkpt lat="22.26503378125" lon="113.86970579638673" /><trkpt lat="22.26496678125" lon="113.86964079638672" /><trkpt lat="22.26487478125" lon="113.86956579638672" /><trkpt lat="22.26479778125" lon="113.86948779638672" /><trkpt lat="22.26470878125" lon="113.86943479638671" /><trkpt lat="22.26459478125" lon="113.86936879638672" /><trkpt lat="22.26452278125" lon="113.86928779638671" /><trkpt lat="22.26441478125" lon="113.86921079638672" /><trkpt lat="22.26433678125" lon="113.86915279638671" /><trkpt lat="22.26427478125" lon="113.86905779638671" /><trkpt lat="22.26412378125" lon="113.86890579638671" /><trkpt lat="22.26398178125" lon="113.86881779638672" /><trkpt lat="22.26387478125" lon="113.86877279638672" /><trkpt lat="22.26378778125" lon="113.86872279638672" /><trkpt lat="22.26371278125" lon="113.86866479638672" /><trkpt lat="22.26361978125" lon="113.86862779638672" /><trkpt lat="22.26355178125" lon="113.86855779638672" /><trkpt lat="22.26348378125" lon="113.86848779638672" /><trkpt lat="22.26341978125" lon="113.86839179638672" /><trkpt lat="22.26327178125" lon="113.86822879638672" /><trkpt lat="22.26316778125" lon="113.86812279638671" /><trkpt lat="22.26310078125" lon="113.86803879638671" /><trkpt lat="22.26298278125" lon="113.86796379638672" /><trkpt lat="22.26287778125" lon="113.86785479638672" /><trkpt lat="22.26275378125" lon="113.86778579638671" /><trkpt lat="22.26264478125" lon="113.86768879638672" /><trkpt lat="22.26249078125" lon="113.86759079638672" /><trkpt lat="22.26239578125" lon="113.86750979638671" /><trkpt lat="22.26226478125" lon="113.86734979638672" /><trkpt lat="22.26216678125" lon="113.86718479638672" /><trkpt lat="22.26207678125" lon="113.86708679638672" /><trkpt lat="22.26197678125" lon="113.86708879638672" /><trkpt lat="22.26187278125" lon="113.86700479638672" /><trkpt lat="22.26176978125" lon="113.86689579638671" /><trkpt lat="22.26172178125" lon="113.86682679638672" /><trkpt lat="22.26162478125" lon="113.86672179638671" /><trkpt lat="22.26151778125" lon="113.86657579638671" /><trkpt lat="22.26145078125" lon="113.86654679638671" /><trkpt lat="22.26131778125" lon="113.86646479638672" /><trkpt lat="22.26125278125" lon="113.86641079638672" /><trkpt lat="22.26113078125" lon="113.86632579638672" /><trkpt lat="22.26102178125" lon="113.86626879638672" /><trkpt lat="22.26092778125" lon="113.86623979638672" /><trkpt lat="22.26081378125" lon="113.86618979638672" /><trkpt lat="22.26070978125" lon="113.86613079638671" /><trkpt lat="22.26059978125" lon="113.86610479638672" /><trkpt lat="22.26047978125" lon="113.86603279638672" /><trkpt lat="22.26037778125" lon="113.86596179638671" /><trkpt lat="22.26030378125" lon="113.86611479638673" /><trkpt lat="22.26012578125" lon="113.86639379638672" /><trkpt lat="22.25981778125" lon="113.86643479638671" /><trkpt lat="22.25962378125" lon="113.86637779638671" /><trkpt lat="22.25938078125" lon="113.86635879638672" /><trkpt lat="22.25926678125" lon="113.86636779638673" /><trkpt lat="22.25920978125" lon="113.86630379638672" /><trkpt lat="22.25918178125" lon="113.86627579638672" /><trkpt lat="22.25914878125" lon="113.86624579638672" /><trkpt lat="22.259107781250002" lon="113.86608879638672" /><trkpt lat="22.25891878125" lon="113.86579879638671" /><trkpt lat="22.25861278125" lon="113.86544179638672" /><trkpt lat="22.25860378125" lon="113.86535679638672" /><trkpt lat="22.25849978125" lon="113.86514279638672" /><trkpt lat="22.25854378125" lon="113.86510379638672" /><trkpt lat="22.25852478125" lon="113.86487879638672" /><trkpt lat="22.25862378125" lon="113.86473879638672" /><trkpt lat="22.25859378125" lon="113.86466379638672" /><trkpt lat="22.25875278125" lon="113.86450079638672" /><trkpt lat="22.25876178125" lon="113.86441679638672" /><trkpt lat="22.25873778125" lon="113.86431079638672" /><trkpt lat="22.25871878125" lon="113.86421479638672" /><trkpt lat="22.25868178125" lon="113.86410579638672" /><trkpt lat="22.25862178125" lon="113.86402879638672" /><trkpt lat="22.25855078125" lon="113.86394279638672" /><trkpt lat="22.25853278125" lon="113.86388979638672" /><trkpt lat="22.25851478125" lon="113.86383779638672" /><trkpt lat="22.25848678125" lon="113.86374079638672" /><trkpt lat="22.25847378125" lon="113.86363179638671" /><trkpt lat="22.25846678125" lon="113.86352079638672" /><trkpt lat="22.25846878125" lon="113.86340979638672" /><trkpt lat="22.25847078125" lon="113.86329579638672" /><trkpt lat="22.25847478125" lon="113.86318779638673" /><trkpt lat="22.25847278125" lon="113.86307679638672" /><trkpt lat="22.25845578125" lon="113.86297679638672" /><trkpt lat="22.25840678125" lon="113.86289379638671" /><trkpt lat="22.25832978125" lon="113.86282579638672" /><trkpt lat="22.25823878125" lon="113.86278179638671" /><trkpt lat="22.25815078125" lon="113.86274579638672" /><trkpt lat="22.25805878125" lon="113.86271279638672" /><trkpt lat="22.25795278125" lon="113.86269079638672" /><trkpt lat="22.25786078125" lon="113.86268579638671" /><trkpt lat="22.25776278125" lon="113.86268879638672" /><trkpt lat="22.25765478125" lon="113.86273579638672" /><trkpt lat="22.25757678125" lon="113.86278579638672" /><trkpt lat="22.25745378125" lon="113.86281179638672" /><trkpt lat="22.25728978125" lon="113.86290579638671" /><trkpt lat="22.25711078125" lon="113.86300879638672" /><trkpt lat="22.25687778125" lon="113.86313079638671" /><trkpt lat="22.25674978125" lon="113.86327279638672" /><trkpt lat="22.25664178125" lon="113.86338279638672" /><trkpt lat="22.25652978125" lon="113.86345879638672" /><trkpt lat="22.25645178125" lon="113.86355779638671" /><trkpt lat="22.25636278125" lon="113.86366979638672" /><trkpt lat="22.25629378125" lon="113.86376079638671" /><trkpt lat="22.25619878125" lon="113.86383379638671" /><trkpt lat="22.25612578125" lon="113.86390979638672" /><trkpt lat="22.25603378125" lon="113.86399479638672" /><trkpt lat="22.25596878125" lon="113.86408579638672" /><trkpt lat="22.25595678125" lon="113.86413679638672" /><trkpt lat="22.25594678125" lon="113.86417679638672" /><trkpt lat="22.25586878125" lon="113.86425879638672" /><trkpt lat="22.25578478125" lon="113.86427079638672" /><trkpt lat="22.25570478125" lon="113.86417979638672" /><trkpt lat="22.25562578125" lon="113.86404979638672" /><trkpt lat="22.25555878125" lon="113.86389379638672" /><trkpt lat="22.25549378125" lon="113.86378679638672" /><trkpt lat="22.25549278125" lon="113.86370879638672" /><trkpt lat="22.25545478125" lon="113.86355479638672" /><trkpt lat="22.25533678125" lon="113.86354879638672" /><trkpt lat="22.25523478125" lon="113.86354179638671" /><trkpt lat="22.25522578125" lon="113.86351479638672" /><trkpt lat="22.25515178125" lon="113.86342879638671" /><trkpt lat="22.25507878125" lon="113.86336279638672" /><trkpt lat="22.25498878125" lon="113.86328279638671" /><trkpt lat="22.25488178125" lon="113.86318879638672" /><trkpt lat="22.25483878125" lon="113.86315679638672" /><trkpt lat="22.25474078125" lon="113.86304679638671" /><trkpt lat="22.25469078125" lon="113.86296879638672" /><trkpt lat="22.25466278125" lon="113.86290979638672" /><trkpt lat="22.254659781249998" lon="113.86286179638672" /><trkpt lat="22.25456678125" lon="113.86260079638672" /><trkpt lat="22.25452378125" lon="113.86248179638672" /><trkpt lat="22.25450378125" lon="113.86238079638672" /><trkpt lat="22.25447378125" lon="113.86222979638671" /><trkpt lat="22.25448578125" lon="113.86219179638672" /><trkpt lat="22.25448078125" lon="113.86212679638672" /><trkpt lat="22.25446478125" lon="113.86203479638672" /><trkpt lat="22.25410978125" lon="113.86218479638671" /><trkpt lat="22.25406278125" lon="113.86220279638673" /><trkpt lat="22.25404578125" lon="113.86220979638672" /><trkpt lat="22.25400278125" lon="113.86208879638671" /><trkpt lat="22.25379478125" lon="113.86218179638672" /><trkpt lat="22.25382078125" lon="113.86224579638672" /><trkpt lat="22.25379678125" lon="113.86227479638671" /><trkpt lat="22.25377078125" lon="113.86230679638672" /><trkpt lat="22.25369078125" lon="113.86236679638672" /><trkpt lat="22.25366478125" lon="113.86233979638672" /><trkpt lat="22.25359878125" lon="113.86224179638671" /><trkpt lat="22.25355678125" lon="113.86218779638672" /><trkpt lat="22.25349578125" lon="113.86210979638672" /><trkpt lat="22.25341778125" lon="113.86201579638671" /><trkpt lat="22.25337878125" lon="113.86193979638672" /><trkpt lat="22.25330978125" lon="113.86185579638672" /><trkpt lat="22.25325578125" lon="113.86189179638671" /><trkpt lat="22.25314578125" lon="113.86195379638671" /><trkpt lat="22.25311378125" lon="113.86196079638673" /><trkpt lat="22.25304678125" lon="113.86198479638672" /><trkpt lat="22.25299978125" lon="113.86200279638672" /><trkpt lat="22.25294278125" lon="113.86225079638672" /><trkpt lat="22.25293378125" lon="113.86224779638673" /><trkpt lat="22.25291878125" lon="113.86224679638671" /><trkpt lat="22.25288478125" lon="113.86224079638671" /><trkpt lat="22.252892151502436" lon="113.86219365051575" /></trkseg></trk></gpx>