<?xml version='1.0' encoding='UTF-8' ?><gpx version="1.1" creator="HikingTrailHK" xsi:schemaLocation="http://www.topografix.com/GPX/1/1 http://www.topografix.com/GPX/1/1/gpx.xsd" xmlns="http://www.topografix.com/GPX/1/1" xmlns:xsi="http://www.w3.org/2001/XMLSchema-instance"><metadata><name>東梅古道 @ 2021-12-30 08:11:05</name><desc></desc></metadata><wpt lat="22.295107343169605" lon="113.95932569850805"><name>大石影相位</name></wpt><wpt lat="22.29625008691582" lon="113.970082537861"><name>燒野的窰？</name></wpt><trk><trkseg><trkpt lat="22.289669212611937" lon="113.9506046595234" /><trkpt lat="22.29004578125" lon="113.95120579638672" /><trkpt lat="22.29049278125" lon="113.95182379638672" /><trkpt lat="22.29059578125" lon="113.95193879638671" /><trkpt lat="22.29059078125" lon="113.95185179638672" /><trkpt lat="22.29069178125" lon="113.95191979638672" /><trkpt lat="22.29104378125" lon="113.95206679638672" /><trkpt lat="22.29111778125" lon="113.95217079638672" /><trkpt lat="22.29118978125" lon="113.95227879638672" /><trkpt lat="22.29134178125" lon="113.95260879638671" /><trkpt lat="22.29152378125" lon="113.95277979638672" /><trkpt lat="22.29162778125" lon="113.95283979638671" /><trkpt lat="22.29177078125" lon="113.95289579638671" /><trkpt lat="22.29179878125" lon="113.95296679638672" /><trkpt lat="22.29179078125" lon="113.95312179638672" /><trkpt lat="22.29192578125" lon="113.95311279638672" /><trkpt lat="22.29231678125" lon="113.95336479638672" /><trkpt lat="22.29229978125" lon="113.95346679638672" /><trkpt lat="22.29226878125" lon="113.95364479638671" /><trkpt lat="22.29248578125" lon="113.95384779638673" /><trkpt lat="22.29237478125" lon="113.95427579638672" /><trkpt lat="22.29272078125" lon="113.95469679638671" /><trkpt lat="22.29285478125" lon="113.95480779638672" /><trkpt lat="22.29295378125" lon="113.95483379638672" /><trkpt lat="22.29310478125" lon="113.95496879638672" /><trkpt lat="22.29317378125" lon="113.95514179638671" /><trkpt lat="22.29339078125" lon="113.95524679638672" /><trkpt lat="22.29354278125" lon="113.95546979638672" /><trkpt lat="22.29357478125" lon="113.95570179638672" /><trkpt lat="22.29360478125" lon="113.95585779638672" /><trkpt lat="22.29387078125" lon="113.95606079638672" /><trkpt lat="22.29393778125" lon="113.95623179638672" /><trkpt lat="22.29403378125" lon="113.95631079638672" /><trkpt lat="22.29419778125" lon="113.95656179638672" /><trkpt lat="22.29426278125" lon="113.95659379638671" /><trkpt lat="22.29455778125" lon="113.95705979638672" /><trkpt lat="22.29467978125" lon="113.95707579638672" /><trkpt lat="22.29490978125" lon="113.95744979638671" /><trkpt lat="22.29491578125" lon="113.95759679638672" /><trkpt lat="22.29502578125" lon="113.95789779638672" /><trkpt lat="22.29501478125" lon="113.95809979638672" /><trkpt lat="22.29495278125" lon="113.95822779638672" /><trkpt lat="22.29500178125" lon="113.95845479638672" /><trkpt lat="22.29508978125" lon="113.95855979638672" /><trkpt lat="22.29513178125" lon="113.95886379638672" /><trkpt lat="22.29523978125" lon="113.95914679638672" /><trkpt lat="22.29523378125" lon="113.95931179638671" /><trkpt lat="22.29519578125" lon="113.95939179638673" /><trkpt lat="22.29522478125" lon="113.95953679638671" /><trkpt lat="22.29519678125" lon="113.95966579638672" /><trkpt lat="22.29512778125" lon="113.95975879638672" /><trkpt lat="22.29517678125" lon="113.95984979638672" /><trkpt lat="22.29521978125" lon="113.95987879638672" /><trkpt lat="22.29532378125" lon="113.96008079638672" /><trkpt lat="22.29527878125" lon="113.96025979638672" /><trkpt lat="22.29529878125" lon="113.96032479638671" /><trkpt lat="22.29530078125" lon="113.96033279638672" /><trkpt lat="22.29553978125" lon="113.96047579638672" /><trkpt lat="22.29565278125" lon="113.96060979638672" /><trkpt lat="22.29573378125" lon="113.96077379638672" /><trkpt lat="22.29583078125" lon="113.96137579638672" /><trkpt lat="22.29587578125" lon="113.96146779638671" /><trkpt lat="22.29596378125" lon="113.96153879638672" /><trkpt lat="22.29601578125" lon="113.96172079638671" /><trkpt lat="22.29619778125" lon="113.96207679638673" /><trkpt lat="22.29625478125" lon="113.96213279638671" /><trkpt lat="22.29630578125" lon="113.96235379638672" /><trkpt lat="22.29663678125" lon="113.96259979638671" /><trkpt lat="22.29680678125" lon="113.96293679638671" /><trkpt lat="22.29693978125" lon="113.96312179638672" /><trkpt lat="22.29696878125" lon="113.96319879638672" /><trkpt lat="22.29698878125" lon="113.96329379638672" /><trkpt lat="22.29698378125" lon="113.96343679638672" /><trkpt lat="22.29700478125" lon="113.96349379638671" /><trkpt lat="22.29705378125" lon="113.96358979638671" /><trkpt lat="22.29706078125" lon="113.96364979638672" /><trkpt lat="22.29706978125" lon="113.96394779638672" /><trkpt lat="22.29709478125" lon="113.96397879638671" /><trkpt lat="22.29711578125" lon="113.96401879638672" /><trkpt lat="22.29712678125" lon="113.96407079638672" /><trkpt lat="22.29712778125" lon="113.96415779638671" /><trkpt lat="22.29711878125" lon="113.96422579638671" /><trkpt lat="22.29709378125" lon="113.96429279638672" /><trkpt lat="22.29705578125" lon="113.96434279638672" /><trkpt lat="22.29704378125" lon="113.96437379638672" /><trkpt lat="22.29702778125" lon="113.96439579638673" /><trkpt lat="22.29701678125" lon="113.96441879638672" /><trkpt lat="22.29699678125" lon="113.96444579638671" /><trkpt lat="22.29698878125" lon="113.96446679638672" /><trkpt lat="22.29698978125" lon="113.96450179638671" /><trkpt lat="22.29699878125" lon="113.96452579638672" /><trkpt lat="22.29700478125" lon="113.96455379638672" /><trkpt lat="22.29700278125" lon="113.96460779638672" /><trkpt lat="22.29699678125" lon="113.96463879638672" /><trkpt lat="22.29698378125" lon="113.96468879638672" /><trkpt lat="22.29698578125" lon="113.96471579638671" /><trkpt lat="22.29699178125" lon="113.96473479638672" /><trkpt lat="22.29700078125" lon="113.96476579638671" /><trkpt lat="22.29700578125" lon="113.96478179638672" /><trkpt lat="22.29706378125" lon="113.96493979638672" /><trkpt lat="22.29708178125" lon="113.96501779638672" /><trkpt lat="22.29709378125" lon="113.96507979638672" /><trkpt lat="22.29712778125" lon="113.96518979638672" /><trkpt lat="22.29718178125" lon="113.96532879638671" /><trkpt lat="22.29732578125" lon="113.96551779638672" /><trkpt lat="22.29736478125" lon="113.96554179638672" /><trkpt lat="22.29739878125" lon="113.96560079638672" /><trkpt lat="22.29745378125" lon="113.96565079638673" /><trkpt lat="22.29755478125" lon="113.96574079638673" /><trkpt lat="22.29761478125" lon="113.96578579638673" /><trkpt lat="22.29769978125" lon="113.96613979638671" /><trkpt lat="22.29766578125" lon="113.96624379638672" /><trkpt lat="22.29764478125" lon="113.96638679638671" /><trkpt lat="22.29762778125" lon="113.96645179638672" /><trkpt lat="22.29751778125" lon="113.96685179638672" /><trkpt lat="22.29754078125" lon="113.96697779638671" /><trkpt lat="22.29751478125" lon="113.96732479638672" /><trkpt lat="22.29750978125" lon="113.96739579638673" /><trkpt lat="22.29761878125" lon="113.96750879638672" /><trkpt lat="22.29759478125" lon="113.96773879638671" /><trkpt lat="22.29757678125" lon="113.96782579638672" /><trkpt lat="22.29754678125" lon="113.96787579638672" /><trkpt lat="22.29764078125" lon="113.96794279638672" /><trkpt lat="22.29752478125" lon="113.96799179638671" /><trkpt lat="22.29744578125" lon="113.96812179638673" /><trkpt lat="22.29740978125" lon="113.96824879638672" /><trkpt lat="22.29733878125" lon="113.96852179638672" /><trkpt lat="22.29732578125" lon="113.96866379638672" /><trkpt lat="22.29728078125" lon="113.96885179638672" /><trkpt lat="22.29730978125" lon="113.96897179638673" /><trkpt lat="22.29734078125" lon="113.96906079638671" /><trkpt lat="22.29733478125" lon="113.96913879638672" /><trkpt lat="22.29724078125" lon="113.96925579638672" /><trkpt lat="22.29718978125" lon="113.96935379638671" /><trkpt lat="22.29711978125" lon="113.96946779638672" /><trkpt lat="22.29704778125" lon="113.96957279638671" /><trkpt lat="22.29694678125" lon="113.96967579638672" /><trkpt lat="22.29682378125" lon="113.96974479638672" /><trkpt lat="22.29660878125" lon="113.96991079638671" /><trkpt lat="22.29648178125" lon="113.96999479638671" /><trkpt lat="22.29641278125" lon="113.97003679638672" /><trkpt lat="22.29634678125" lon="113.97005479638672" /><trkpt lat="22.29628578125" lon="113.97006779638672" /><trkpt lat="22.29619578125" lon="113.97009079638671" /><trkpt lat="22.29617278125" lon="113.97009779638672" /><trkpt lat="22.29612978125" lon="113.97012979638671" /><trkpt lat="22.29610878125" lon="113.97018379638672" /><trkpt lat="22.29610478125" lon="113.97024079638672" /><trkpt lat="22.29608778125" lon="113.97038779638672" /><trkpt lat="22.29608778125" lon="113.97043679638672" /><trkpt lat="22.29608178125" lon="113.97047179638672" /><trkpt lat="22.29608278125" lon="113.97050979638672" /><trkpt lat="22.29600878125" lon="113.97053479638672" /><trkpt lat="22.29585878125" lon="113.97056879638671" /><trkpt lat="22.29582678125" lon="113.97060879638671" /><trkpt lat="22.29581778125" lon="113.97067079638671" /><trkpt lat="22.29583178125" lon="113.97073079638672" /><trkpt lat="22.29585178125" lon="113.97081979638672" /><trkpt lat="22.29584978125" lon="113.97092879638672" /><trkpt lat="22.29583778125" lon="113.97099579638672" /><trkpt lat="22.29581378125" lon="113.97115879638672" /><trkpt lat="22.29580478125" lon="113.97131079638672" /><trkpt lat="22.29577578125" lon="113.97144779638671" /><trkpt lat="22.29574278125" lon="113.97158479638672" /><trkpt lat="22.29572478125" lon="113.97166279638672" /><trkpt lat="22.29569378125" lon="113.97174479638672" /><trkpt lat="22.29564778125" lon="113.97189679638672" /><trkpt lat="22.29557478125" lon="113.97203979638672" /><trkpt lat="22.29542478125" lon="113.97217679638672" /><trkpt lat="22.29529678125" lon="113.97225279638671" /><trkpt lat="22.29517778125" lon="113.97232779638672" /><trkpt lat="22.29509878125" lon="113.97235979638671" /><trkpt lat="22.29501378125" lon="113.97240179638672" /><trkpt lat="22.29484378125" lon="113.97255479638672" /><trkpt lat="22.29478078125" lon="113.97267979638671" /><trkpt lat="22.29468978125" lon="113.97282679638671" /><trkpt lat="22.29461478125" lon="113.97290679638672" /><trkpt lat="22.29455578125" lon="113.97299079638672" /><trkpt lat="22.29450878125" lon="113.97302579638672" /><trkpt lat="22.29443378125" lon="113.97307479638671" /><trkpt lat="22.29436778125" lon="113.97313379638672" /><trkpt lat="22.29426378125" lon="113.97330079638672" /><trkpt lat="22.29414078125" lon="113.97352379638671" /><trkpt lat="22.29406478125" lon="113.97364579638672" /><trkpt lat="22.29393378125" lon="113.97379379638672" /><trkpt lat="22.29383178125" lon="113.97400279638671" /><trkpt lat="22.29375278125" lon="113.97416979638672" /><trkpt lat="22.29374778125" lon="113.97432479638672" /><trkpt lat="22.29373678125" lon="113.97435179638671" /><trkpt lat="22.29371578125" lon="113.97437379638671" /><trkpt lat="22.29363478125" lon="113.97441479638672" /><trkpt lat="22.29356078125" lon="113.97447079638673" /><trkpt lat="22.29348678125" lon="113.97450879638671" /><trkpt lat="22.29343678125" lon="113.97455079638672" /><trkpt lat="22.29339878125" lon="113.97459179638672" /><trkpt lat="22.29335878125" lon="113.97463579638672" /><trkpt lat="22.29333478125" lon="113.97469979638672" /><trkpt lat="22.29334178125" lon="113.97477379638671" /><trkpt lat="22.29337178125" lon="113.97482779638672" /><trkpt lat="22.29340278125" lon="113.97487579638671" /><trkpt lat="22.29341178125" lon="113.97493279638672" /><trkpt lat="22.29338778125" lon="113.97500479638671" /><trkpt lat="22.29335578125" lon="113.97509879638672" /><trkpt lat="22.29338378125" lon="113.97519379638672" /><trkpt lat="22.29341878125" lon="113.97526979638671" /><trkpt lat="22.29339578125" lon="113.97532379638672" /><trkpt lat="22.29336378125" lon="113.97533879638672" /><trkpt lat="22.29329178125" lon="113.97536479638671" /><trkpt lat="22.29323878125" lon="113.97540379638671" /><trkpt lat="22.29317678125" lon="113.97543379638672" /><trkpt lat="22.29310578125" lon="113.97542079638671" /><trkpt lat="22.29301178125" lon="113.97535679638672" /><trkpt lat="22.29292078125" lon="113.97532279638672" /><trkpt lat="22.29284178125" lon="113.97525679638672" /><trkpt lat="22.29275978125" lon="113.97518379638672" /><trkpt lat="22.29270078125" lon="113.97518579638673" /><trkpt lat="22.29264278125" lon="113.97521879638671" /><trkpt lat="22.29254578125" lon="113.97531179638672" /><trkpt lat="22.29251678125" lon="113.97539079638672" /><trkpt lat="22.29252078125" lon="113.97547579638672" /><trkpt lat="22.29253278125" lon="113.97556579638672" /><trkpt lat="22.29245478125" lon="113.97568779638672" /><trkpt lat="22.29243278125" lon="113.97580879638672" /><trkpt lat="22.29241178125" lon="113.97585979638671" /><trkpt lat="22.29235878125" lon="113.97590179638672" /><trkpt lat="22.29232478125" lon="113.97602079638672" /><trkpt lat="22.29228978125" lon="113.97612879638672" /><trkpt lat="22.29218678125" lon="113.97632479638672" /><trkpt lat="22.29212278125" lon="113.97644179638672" /><trkpt lat="22.29204978125" lon="113.97651879638671" /><trkpt lat="22.29197278125" lon="113.97661679638672" /><trkpt lat="22.29193078125" lon="113.97673979638672" /><trkpt lat="22.29189378125" lon="113.97688879638672" /><trkpt lat="22.29187578125" lon="113.97704179638671" /><trkpt lat="22.29189278125" lon="113.97716579638671" /><trkpt lat="22.29191578125" lon="113.97724179638672" /><trkpt lat="22.29190878125" lon="113.97731779638671" /><trkpt lat="22.29190378125" lon="113.97739579638672" /><trkpt lat="22.29190278125" lon="113.97743779638672" /><trkpt lat="22.29189478125" lon="113.97747379638672" /><trkpt lat="22.29180978125" lon="113.97760179638672" /><trkpt lat="22.29171078125" lon="113.97774079638671" /><trkpt lat="22.29160678125" lon="113.97773079638672" /><trkpt lat="22.29156078125" lon="113.97772679638672" /><trkpt lat="22.29134178125" lon="113.97772779638672" /><trkpt lat="22.29112278125" lon="113.97773079638672" /><trkpt lat="22.29103378125" lon="113.97777479638673" /><trkpt lat="22.290948781250002" lon="113.97780979638672" /><trkpt lat="22.29084578125" lon="113.97803379638673" /><trkpt lat="22.29075878125" lon="113.97817279638672" /><trkpt lat="22.29080978125" lon="113.97843179638672" /><trkpt lat="22.29082978125" lon="113.97856379638672" /><trkpt lat="22.29081578125" lon="113.97869679638671" /><trkpt lat="22.29079278125" lon="113.97877979638672" /><trkpt lat="22.29075378125" lon="113.97881879638672" /><trkpt lat="22.29070178125" lon="113.97880379638671" /><trkpt lat="22.29064678125" lon="113.97877579638671" /><trkpt lat="22.29046478125" lon="113.97879879638671" /><trkpt lat="22.29035178125" lon="113.97880279638672" /><trkpt lat="22.29022178125" lon="113.97887079638672" /><trkpt lat="22.29015378125" lon="113.97887379638672" /><trkpt lat="22.29008378125" lon="113.97884179638672" /><trkpt lat="22.28993278125" lon="113.97878379638672" /><trkpt lat="22.28983578125" lon="113.97877079638671" /><trkpt lat="22.28971678125" lon="113.97877879638672" /><trkpt lat="22.28956278125" lon="113.97874379638672" /><trkpt lat="22.28947578125" lon="113.97874779638671" /><trkpt lat="22.28937178125" lon="113.97878879638672" /><trkpt lat="22.28920478125" lon="113.97888979638672" /><trkpt lat="22.28921578125" lon="113.97892079638672" /><trkpt lat="22.28922878125" lon="113.97895379638672" /><trkpt lat="22.28923678125" lon="113.97897279638671" /><trkpt lat="22.28910078125" lon="113.97903079638672" /><trkpt lat="22.28905078125" lon="113.97904679638673" /><trkpt lat="22.28902178125" lon="113.97911779638672" /><trkpt lat="22.28904278125" lon="113.97921279638672" /><trkpt lat="22.28907478125" lon="113.97929379638671" /><trkpt lat="22.28910478125" lon="113.97945479638672" /><trkpt lat="22.28910878125" lon="113.97955879638671" /><trkpt lat="22.28901978125" lon="113.97965379638671" /><trkpt lat="22.28897178125" lon="113.97979379638672" /><trkpt lat="22.28887478125" lon="113.97994079638671" /><trkpt lat="22.28883878125" lon="113.98002879638672" /><trkpt lat="22.28880978125" lon="113.98008179638671" /><trkpt lat="22.28876478125" lon="113.98013579638672" /><trkpt lat="22.28875278125" lon="113.98019979638671" /><trkpt lat="22.28875778125" lon="113.98027479638672" /><trkpt lat="22.28876278125" lon="113.98033279638672" /><trkpt lat="22.28872778125" lon="113.98041279638672" /><trkpt lat="22.28866778125" lon="113.98049379638672" /><trkpt lat="22.28861678125" lon="113.98058879638671" /><trkpt lat="22.28856678125" lon="113.98068979638671" /><trkpt lat="22.28850378125" lon="113.98074779638672" /><trkpt lat="22.28844278125" lon="113.98076679638672" /><trkpt lat="22.28837878125" lon="113.98077479638673" /><trkpt lat="22.28825078125" lon="113.98085179638672" /><trkpt lat="22.28818278125" lon="113.98090279638672" /><trkpt lat="22.28813178125" lon="113.98096679638672" /><trkpt lat="22.28806478125" lon="113.98106879638672" /><trkpt lat="22.28799178125" lon="113.98114779638672" /><trkpt lat="22.28788278125" lon="113.98123079638673" /><trkpt lat="22.28786278125" lon="113.98124679638671" /><trkpt lat="22.28781878125" lon="113.98129579638672" /><trkpt lat="22.28776378125" lon="113.98131279638672" /><trkpt lat="22.28770378125" lon="113.98137679638671" /><trkpt lat="22.28762878125" lon="113.98148579638672" /><trkpt lat="22.28759978125" lon="113.98156779638671" /><trkpt lat="22.28755978125" lon="113.98162979638671" /><trkpt lat="22.28749478125" lon="113.98166479638672" /><trkpt lat="22.28741578125" lon="113.98166879638671" /><trkpt lat="22.28722078125" lon="113.98165079638672" /><trkpt lat="22.28719078125" lon="113.98164979638672" /><trkpt lat="22.28699578125" lon="113.98170879638671" /><trkpt lat="22.28690178125" lon="113.98167079638672" /><trkpt lat="22.28676778125" lon="113.98159779638672" /><trkpt lat="22.28665078125" lon="113.98153579638672" /><trkpt lat="22.28655378125" lon="113.98152779638671" /><trkpt lat="22.28649778125" lon="113.98154679638672" /><trkpt lat="22.28644178125" lon="113.98158079638672" /><trkpt lat="22.28639378125" lon="113.98162179638672" /><trkpt lat="22.28628878125" lon="113.98168079638671" /><trkpt lat="22.28609178125" lon="113.98173279638672" /><trkpt lat="22.28599678125" lon="113.98178279638672" /><trkpt lat="22.28595778125" lon="113.98180879638672" /><trkpt lat="22.28585378125" lon="113.98177579638671" /><trkpt lat="22.28576878125" lon="113.98186679638673" /><trkpt lat="22.28566778125" lon="113.98195179638672" /><trkpt lat="22.28555278125" lon="113.98196879638672" /><trkpt lat="22.28545778125" lon="113.98198479638671" /><trkpt lat="22.28538378125" lon="113.98196879638672" /><trkpt lat="22.28532278125" lon="113.98193979638671" /><trkpt lat="22.28528278125" lon="113.98190979638672" /><trkpt lat="22.28519178125" lon="113.98182579638672" /><trkpt lat="22.28512778125" lon="113.98179679638672" /><trkpt lat="22.28509278125" lon="113.98180879638672" /><trkpt lat="22.28500378125" lon="113.98187079638672" /><trkpt lat="22.28492278125" lon="113.98188579638672" /><trkpt lat="22.28484178125" lon="113.98188479638672" /><trkpt lat="22.28476478125" lon="113.98187779638671" /><trkpt lat="22.28468578125" lon="113.98188979638672" /><trkpt lat="22.28460178125" lon="113.98186779638672" /><trkpt lat="22.28454678125" lon="113.98194379638672" /><trkpt lat="22.28443078125" lon="113.98201779638671" /><trkpt lat="22.28437878125" lon="113.98215679638672" /><trkpt lat="22.28431078125" lon="113.98241779638671" /><trkpt lat="22.28424378125" lon="113.98250679638672" /><trkpt lat="22.28422578125" lon="113.98258579638672" /><trkpt lat="22.28425578125" lon="113.98274079638672" /><trkpt lat="22.28418178125" lon="113.98284879638672" /><trkpt lat="22.28410278125" lon="113.98292479638671" /><trkpt lat="22.28397178125" lon="113.98308379638672" /><trkpt lat="22.28389778125" lon="113.98315879638672" /><trkpt lat="22.28378278125" lon="113.98327679638672" /><trkpt lat="22.28367278125" lon="113.98336279638671" /><trkpt lat="22.28352878125" lon="113.98343979638672" /><trkpt lat="22.28342978125" lon="113.98347479638672" /><trkpt lat="22.28326378125" lon="113.98319879638672" /><trkpt lat="22.28311378125" lon="113.98321379638672" /><trkpt lat="22.28302878125" lon="113.98317479638672" /><trkpt lat="22.28289378125" lon="113.98308879638672" /><trkpt lat="22.28281478125" lon="113.98303879638672" /><trkpt lat="22.28261778125" lon="113.98306979638672" /><trkpt lat="22.28252378125" lon="113.98310979638671" /><trkpt lat="22.28232578125" lon="113.98321779638673" /><trkpt lat="22.28223778125" lon="113.98329679638672" /><trkpt lat="22.28215678125" lon="113.98336479638672" /><trkpt lat="22.28204678125" lon="113.98344979638672" /><trkpt lat="22.28189178125" lon="113.98352079638671" /><trkpt lat="22.28171278125" lon="113.98352779638672" /><trkpt lat="22.28160078125" lon="113.98356879638672" /><trkpt lat="22.28152878125" lon="113.98361279638672" /><trkpt lat="22.28147778125" lon="113.98363979638673" /><trkpt lat="22.28143978125" lon="113.98366179638671" /><trkpt lat="22.28121978125" lon="113.98390679638672" /><trkpt lat="22.28049078125" lon="113.98504379638672" /><trkpt lat="22.28028978125" lon="113.98515179638672" /><trkpt lat="22.28006478125" lon="113.98544979638672" /><trkpt lat="22.28013678125" lon="113.98578479638672" /><trkpt lat="22.27995678125" lon="113.98590679638671" /><trkpt lat="22.27986378125" lon="113.98613079638672" /><trkpt lat="22.27987478125" lon="113.98635679638672" /><trkpt lat="22.27994178125" lon="113.98648379638672" /><trkpt lat="22.27991278125" lon="113.98672379638671" /><trkpt lat="22.27975378125" lon="113.98684179638671" /><trkpt lat="22.27971278125" lon="113.98707679638672" /><trkpt lat="22.27963478125" lon="113.98712279638671" /><trkpt lat="22.27955878125" lon="113.98709679638672" /><trkpt lat="22.27946478125" lon="113.98710079638671" /><trkpt lat="22.27938978125" lon="113.98723679638672" /><trkpt lat="22.27933978125" lon="113.98771979638671" /><trkpt lat="22.27941378125" lon="113.98805679638672" /><trkpt lat="22.27942678125" lon="113.98815279638671" /><trkpt lat="22.27940378125" lon="113.98824079638672" /><trkpt lat="22.27939978125" lon="113.98833379638671" /><trkpt lat="22.27936578125" lon="113.98834779638672" /><trkpt lat="22.27933478125" lon="113.98833679638672" /><trkpt lat="22.27931378125" lon="113.98831179638672" /><trkpt lat="22.27925778125" lon="113.98828879638671" /><trkpt lat="22.27920078125" lon="113.98829879638672" /><trkpt lat="22.27914878125" lon="113.98826479638672" /><trkpt lat="22.27905978125" lon="113.98823279638673" /><trkpt lat="22.27892178125" lon="113.98833879638671" /><trkpt lat="22.27873878125" lon="113.98842279638671" /><trkpt lat="22.27855978125" lon="113.98846279638671" /><trkpt lat="22.27846078125" lon="113.98848179638672" /><trkpt lat="22.278327187518936" lon="113.98849792172958" /><trkpt lat="22.27831578125" lon="113.98853379638672" /><trkpt lat="22.27819678125" lon="113.98863579638672" /><trkpt lat="22.27810378125" lon="113.98872679638671" /><trkpt lat="22.27799978125" lon="113.98876979638672" /><trkpt lat="22.27785478125" lon="113.98879779638672" /><trkpt lat="22.27782578125" lon="113.98886779638671" /><trkpt lat="22.27778978125" lon="113.98893779638672" /><trkpt lat="22.27770878125" lon="113.98897879638672" /><trkpt lat="22.27767378125" lon="113.98900779638672" /><trkpt lat="22.27763578125" lon="113.98900879638671" /><trkpt lat="22.27760378125" lon="113.98895079638672" /><trkpt lat="22.27754978125" lon="113.98892679638672" /><trkpt lat="22.27744678125" lon="113.98881579638672" /><trkpt lat="22.27734078125" lon="113.98879679638672" /><trkpt lat="22.27726078125" lon="113.98879479638671" /><trkpt lat="22.27717978125" lon="113.98876979638672" /><trkpt lat="22.27708978125" lon="113.98877579638672" /><trkpt lat="22.27704778125" lon="113.98879979638672" /><trkpt lat="22.27705078125" lon="113.98883879638672" /><trkpt lat="22.27711578125" lon="113.98895379638672" /><trkpt lat="22.27710778125" lon="113.98904879638673" /><trkpt lat="22.27711578125" lon="113.98913979638672" /><trkpt lat="22.27709678125" lon="113.98918779638672" /><trkpt lat="22.27704778125" lon="113.98918079638672" /><trkpt lat="22.27699878125" lon="113.98914079638672" /><trkpt lat="22.27697578125" lon="113.98918379638671" /><trkpt lat="22.27695178125" lon="113.98920679638672" /><trkpt lat="22.27693478125" lon="113.98929579638671" /><trkpt lat="22.27688578125" lon="113.98931579638672" /><trkpt lat="22.27682278125" lon="113.98932879638672" /><trkpt lat="22.27678278125" lon="113.98936479638672" /><trkpt lat="22.27675578125" lon="113.98945779638672" /><trkpt lat="22.27669478125" lon="113.98951879638672" /><trkpt lat="22.27664478125" lon="113.98952579638672" /><trkpt lat="22.27659478125" lon="113.98957979638672" /><trkpt lat="22.27655278125" lon="113.98960979638672" /><trkpt lat="22.27648978125" lon="113.98954179638672" /><trkpt lat="22.27641778125" lon="113.98953279638671" /><trkpt lat="22.27637178125" lon="113.98954379638671" /><trkpt lat="22.27628678125" lon="113.98952679638671" /><trkpt lat="22.27622978125" lon="113.98946579638672" /><trkpt lat="22.27618178125" lon="113.98942279638672" /><trkpt lat="22.27615878125" lon="113.98928779638672" /><trkpt lat="22.27609878125" lon="113.98931579638672" /><trkpt lat="22.27603778125" lon="113.98932579638672" /><trkpt lat="22.27593078125" lon="113.98942379638672" /><trkpt lat="22.27585378125" lon="113.98942179638672" /><trkpt lat="22.27569778125" lon="113.98926579638672" /><trkpt lat="22.27549078125" lon="113.98912579638672" /><trkpt lat="22.27541578125" lon="113.98910579638672" /><trkpt lat="22.27530678125" lon="113.98911979638672" /><trkpt lat="22.27518278125" lon="113.98914279638672" /><trkpt lat="22.27511578125" lon="113.98917079638672" /><trkpt lat="22.27502078125" lon="113.98927179638672" /><trkpt lat="22.27495778125" lon="113.98931979638672" /><trkpt lat="22.27489578125" lon="113.98931479638672" /><trkpt lat="22.27479278125" lon="113.98930179638671" /><trkpt lat="22.27469878125" lon="113.98926879638672" /><trkpt lat="22.27466178125" lon="113.98926179638671" /><trkpt lat="22.27461978125" lon="113.98927679638672" /><trkpt lat="22.27445178125" lon="113.98936379638671" /><trkpt lat="22.27437178125" lon="113.98940979638672" /><trkpt lat="22.27429878125" lon="113.98942179638672" /><trkpt lat="22.27424378125" lon="113.98949079638672" /><trkpt lat="22.27422078125" lon="113.98952679638671" /><trkpt lat="22.27420678125" lon="113.98957179638671" /><trkpt lat="22.27418978125" lon="113.98966779638671" /><trkpt lat="22.27415578125" lon="113.98974179638672" /><trkpt lat="22.27410078125" lon="113.98977679638672" /><trkpt lat="22.27403878125" lon="113.98980979638672" /><trkpt lat="22.27400278125" lon="113.98979279638672" /><trkpt lat="22.27394878125" lon="113.98993079638672" /><trkpt lat="22.27392078125" lon="113.98992179638672" /><trkpt lat="22.27386778125" lon="113.98995679638672" /><trkpt lat="22.27381878125" lon="113.98999679638672" /><trkpt lat="22.27380478125" lon="113.99007379638672" /><trkpt lat="22.27379778125" lon="113.99014979638672" /><trkpt lat="22.27375678125" lon="113.99055279638672" /><trkpt lat="22.27375078125" lon="113.99074679638672" /><trkpt lat="22.27373778125" lon="113.99082079638671" /><trkpt lat="22.27370778125" lon="113.99089479638671" /><trkpt lat="22.27380578125" lon="113.99102579638672" /><trkpt lat="22.27403178125" lon="113.99111879638671" /><trkpt lat="22.27392036310647" lon="113.99098367987222" /><trkpt lat="22.2737363767111" lon="113.99089302456593" /><trkpt lat="22.27364375682292" lon="113.99096944438594" /><trkpt lat="22.273627114533383" lon="113.990988369903" /><trkpt lat="22.27364073362601" lon="113.99089976253572" /><trkpt lat="22.27362978125" lon="113.99089779638672" /><trkpt lat="22.27354978125" lon="113.99088979638672" /><trkpt lat="22.27349978125" lon="113.99087979638672" /><trkpt lat="22.27337978125" lon="113.99084079638672" /><trkpt lat="22.27324978125" lon="113.99080979638671" /><trkpt lat="22.27304978125" lon="113.99079179638672" /><trkpt lat="22.27298978125" lon="113.99078979638672" /><trkpt lat="22.27294978125" lon="113.99079179638672" /><trkpt lat="22.27290978125" lon="113.99079879638671" /><trkpt lat="22.27289378125" lon="113.99080579638672" /><trkpt lat="22.27288478125" lon="113.99081979638672" /><trkpt lat="22.27288278125" lon="113.99083979638672" /><trkpt lat="22.27289178125" lon="113.99087979638672" /><trkpt lat="22.27311978125" lon="113.99114379638672" /><trkpt lat="22.27312978125" lon="113.99118379638672" /><trkpt lat="22.27312178125" lon="113.99122979638672" /><trkpt lat="22.27309678125" lon="113.99132879638672" /><trkpt lat="22.27303878125" lon="113.99149579638672" /><trkpt lat="22.27299878125" lon="113.99156179638672" /><trkpt lat="22.27290978125" lon="113.99161979638671" /><trkpt lat="22.27281878125" lon="113.99167579638672" /><trkpt lat="22.27271778125" lon="113.99172379638672" /><trkpt lat="22.27262778125" lon="113.99178479638672" /><trkpt lat="22.27250878125" lon="113.99187379638671" /><trkpt lat="22.27242678125" lon="113.99195179638672" /><trkpt lat="22.27239078125" lon="113.99200379638671" /><trkpt lat="22.27231978125" lon="113.99202979638672" /><trkpt lat="22.27217478125" lon="113.99201279638672" /><trkpt lat="22.27214178125" lon="113.99199579638672" /><trkpt lat="22.27204878125" lon="113.99197179638672" /><trkpt lat="22.27190578125" lon="113.99185779638672" /><trkpt lat="22.27181178125" lon="113.99181079638672" /><trkpt lat="22.27170578125" lon="113.99175279638672" /><trkpt lat="22.27165478125" lon="113.99168879638673" /><trkpt lat="22.27163278125" lon="113.99161379638672" /><trkpt lat="22.27162678125" lon="113.99153679638673" /><trkpt lat="22.27158678125" lon="113.99131779638672" /><trkpt lat="22.27156778125" lon="113.99110979638672" /><trkpt lat="22.27157178125" lon="113.99090379638672" /><trkpt lat="22.27152578125" lon="113.99077479638672" /><trkpt lat="22.27151178125" lon="113.99074879638673" /><trkpt lat="22.27153178125" lon="113.99070379638673" /><trkpt lat="22.27152278125" lon="113.99068779638672" /><trkpt lat="22.27148778125" lon="113.99065179638671" /><trkpt lat="22.27139778125" lon="113.99055579638672" /><trkpt lat="22.27120978125" lon="113.99038379638672" /><trkpt lat="22.27111378125" lon="113.99029679638672" /><trkpt lat="22.27095178125" lon="113.99014779638672" /><trkpt lat="22.27086178125" lon="113.99010879638672" /><trkpt lat="22.27081078125" lon="113.99008579638672" /><trkpt lat="22.27072078125" lon="113.99004979638671" /><trkpt lat="22.27049478125" lon="113.99001879638672" /><trkpt lat="22.27038678125" lon="113.99004279638672" /><trkpt lat="22.27026378125" lon="113.99007979638672" /><trkpt lat="22.27021678125" lon="113.99010479638672" /><trkpt lat="22.27014978125" lon="113.99013579638672" /><trkpt lat="22.27003378125" lon="113.99027779638672" /><trkpt lat="22.26996878125" lon="113.99038979638672" /><trkpt lat="22.26984078125" lon="113.99064979638672" /><trkpt lat="22.26977078125" lon="113.99079179638672" /><trkpt lat="22.26967178125" lon="113.99102079638672" /><trkpt lat="22.26958978125" lon="113.99119179638672" /><trkpt lat="22.26949078125" lon="113.99133979638673" /><trkpt lat="22.26940178125" lon="113.99141579638672" /><trkpt lat="22.26930078125" lon="113.99151879638671" /><trkpt lat="22.26927678125" lon="113.99155379638673" /><trkpt lat="22.26924978125" lon="113.99162679638673" /><trkpt lat="22.26922878125" lon="113.99179979638672" /><trkpt lat="22.26919978125" lon="113.99189979638672" /><trkpt lat="22.26917478125" lon="113.99195979638672" /><trkpt lat="22.26913978125" lon="113.99201979638671" /><trkpt lat="22.26909278125" lon="113.99208279638673" /><trkpt lat="22.26903978125" lon="113.99213979638672" /><trkpt lat="22.26897978125" lon="113.99218679638672" /><trkpt lat="22.26891978125" lon="113.99221879638672" /><trkpt lat="22.26885978125" lon="113.99224279638672" /><trkpt lat="22.26855978125" lon="113.99233979638672" /><trkpt lat="22.26851978125" lon="113.99234679638671" /><trkpt lat="22.26846978125" lon="113.99234779638672" /><trkpt lat="22.26840978125" lon="113.99233979638672" /><trkpt lat="22.26834978125" lon="113.99234879638672" /><trkpt lat="22.26829978125" lon="113.99237479638671" /><trkpt lat="22.26824478125" lon="113.99245179638672" /><trkpt lat="22.26816878125" lon="113.99255879638672" /><trkpt lat="22.26811278125" lon="113.99262779638671" /><trkpt lat="22.26788878125" lon="113.99277179638672" /><trkpt lat="22.26781478125" lon="113.99285179638672" /><trkpt lat="22.26774778125" lon="113.99295179638672" /><trkpt lat="22.26768178125" lon="113.99308379638671" /><trkpt lat="22.26754278125" lon="113.99320179638671" /><trkpt lat="22.26751178125" lon="113.99328579638671" /><trkpt lat="22.26748978125" lon="113.99335579638672" /><trkpt lat="22.26748778125" lon="113.99342779638671" /><trkpt lat="22.26748578125" lon="113.99358879638672" /><trkpt lat="22.26746978125" lon="113.99380379638671" /><trkpt lat="22.26744178125" lon="113.99386379638672" /><trkpt lat="22.26738778125" lon="113.99397579638672" /><trkpt lat="22.26730178125" lon="113.99416879638672" /><trkpt lat="22.26720178125" lon="113.99427579638672" /><trkpt lat="22.26708278125" lon="113.99433979638673" /><trkpt lat="22.26699278125" lon="113.99437179638672" /><trkpt lat="22.26695378125" lon="113.99441879638673" /><trkpt lat="22.26684378125" lon="113.99442279638671" /><trkpt lat="22.26654178125" lon="113.99437679638672" /><trkpt lat="22.26640578125" lon="113.99428579638672" /><trkpt lat="22.26640078125" lon="113.99424879638671" /><trkpt lat="22.26637278125" lon="113.99423379638672" /><trkpt lat="22.26633678125" lon="113.99423079638672" /><trkpt lat="22.26631678125" lon="113.99420379638671" /><trkpt lat="22.26630478125" lon="113.99422179638673" /><trkpt lat="22.26620978125" lon="113.99436979638672" /><trkpt lat="22.26617678125" lon="113.99443279638672" /><trkpt lat="22.26608978125" lon="113.99462679638673" /><trkpt lat="22.26602178125" lon="113.99477879638673" /><trkpt lat="22.26588878125" lon="113.99507279638672" /><trkpt lat="22.26587478125" lon="113.99506079638672" /><trkpt lat="22.26560978125" lon="113.99492379638671" /><trkpt lat="22.26558178125" lon="113.99490879638672" /><trkpt lat="22.26554778125" lon="113.99500979638673" /><trkpt lat="22.26552078125" lon="113.99511479638672" /><trkpt lat="22.26550178125" lon="113.99522079638672" /><trkpt lat="22.26548978125" lon="113.99532779638672" /><trkpt lat="22.26548478125" lon="113.99543579638672" /><trkpt lat="22.26548778125" lon="113.99554379638671" /><trkpt lat="22.26549878125" lon="113.99565179638672" /><trkpt lat="22.26551678125" lon="113.99575779638671" /><trkpt lat="22.26554278125" lon="113.99586279638672" /><trkpt lat="22.26566978125" lon="113.99618979638672" /><trkpt lat="22.26569078125" lon="113.99624379638672" /><trkpt lat="22.26570978125" lon="113.99629179638671" /><trkpt lat="22.26612278125" lon="113.99727579638672" /><trkpt lat="22.26652078125" lon="113.99825479638672" /><trkpt lat="22.26656278125" lon="113.99835479638672" /><trkpt lat="22.26659178125" lon="113.99837879638672" /><trkpt lat="22.26658478125" lon="113.99840679638672" /><trkpt lat="22.26658578125" lon="113.99843479638672" /><trkpt lat="22.26659278125" lon="113.99846279638672" /><trkpt lat="22.26661478125" lon="113.99851779638672" /><trkpt lat="22.26663178125" lon="113.99857379638672" /><trkpt lat="22.26664478125" lon="113.99863179638672" /><trkpt lat="22.26665378125" lon="113.99869879638672" /><trkpt lat="22.26665678125" lon="113.99876679638672" /><trkpt lat="22.26665378125" lon="113.99883479638672" /><trkpt lat="22.26664778125" lon="113.99896679638672" /><trkpt lat="22.26664278125" lon="113.99903179638672" /><trkpt lat="22.26663278125" lon="113.99909579638671" /><trkpt lat="22.26661878125" lon="113.99915479638672" /><trkpt lat="22.26659978125" lon="113.99921379638671" /><trkpt lat="22.26637878125" lon="113.99990779638672" /><trkpt lat="22.26644278125" lon="113.99993279638672" /><trkpt lat="22.26640178125" lon="114.00003379638672" /><trkpt lat="22.26635278125" lon="114.00013179638673" /><trkpt lat="22.26631378125" lon="114.00019879638671" /><trkpt lat="22.26624662660277" lon="114.00024753847688" /><trkpt lat="22.26624378125" lon="114.00025279638672" /><trkpt lat="22.26620578125" lon="114.00030979638672" /><trkpt lat="22.26616378125" lon="114.00036279638672" /><trkpt lat="22.26611678125" lon="114.00041279638671" /><trkpt lat="22.26606678125" lon="114.00045679638671" /><trkpt lat="22.26601378125" lon="114.00049779638672" /><trkpt lat="22.26595678125" lon="114.00053279638672" /><trkpt lat="22.26589778125" lon="114.00056179638672" /><trkpt lat="22.26583678125" lon="114.00058579638672" /><trkpt lat="22.26577378125" lon="114.00060479638672" /><trkpt lat="22.26574478125" lon="114.00061479638671" /><trkpt lat="22.26571778125" lon="114.00063179638671" /><trkpt lat="22.26569378125" lon="114.00065279638672" /><trkpt lat="22.26567478125" lon="114.00067879638672" /><trkpt lat="22.26565978125" lon="114.00070879638672" /><trkpt lat="22.26565078125" lon="114.00074079638672" /><trkpt lat="22.26556978125" lon="114.00114979638671" /><trkpt lat="22.26554078125" lon="114.00124079638672" /><trkpt lat="22.26550678125" lon="114.00132979638671" /><trkpt lat="22.26546578125" lon="114.00141479638671" /><trkpt lat="22.26541978125" lon="114.00149779638672" /><trkpt lat="22.26536878125" lon="114.00157579638672" /><trkpt lat="22.26531278125" lon="114.00165079638671" /><trkpt lat="22.26525178125" lon="114.00171979638672" /><trkpt lat="22.26519078125" lon="114.00178979638672" /><trkpt lat="22.26518478125" lon="114.00179179638671" /><trkpt lat="22.26511178125" lon="114.00181779638672" /><trkpt lat="22.265029901990783" lon="114.00182590248002" /></trkseg></trk></gpx>