<?xml version='1.0' encoding='UTF-8' ?><gpx version="1.1" creator="HikingTrailHK" xsi:schemaLocation="http://www.topografix.com/GPX/1/1 http://www.topografix.com/GPX/1/1/gpx.xsd" xmlns="http://www.topografix.com/GPX/1/1" xmlns:xsi="http://www.w3.org/2001/XMLSchema-instance"><metadata><name>東龍石澗 @ 2022-07-23</name><desc></desc></metadata><trk><trkseg><trkpt lat="22.28885178948847" lon="113.94126387852945" /><trkpt lat="22.28883378125" lon="113.94123879638671" /><trkpt lat="22.28863078125" lon="113.94095679638671" /><trkpt lat="22.28856278125" lon="113.94101479638672" /><trkpt lat="22.28851878125" lon="113.94096279638671" /><trkpt lat="22.28850578125" lon="113.94091979638672" /><trkpt lat="22.28848278125" lon="113.94089579638671" /><trkpt lat="22.28845578125" lon="113.94088179638672" /><trkpt lat="22.28842578125" lon="113.94087879638671" /><trkpt lat="22.28839678125" lon="113.94088779638672" /><trkpt lat="22.28837178125" lon="113.94090679638671" /><trkpt lat="22.28831778125" lon="113.94087679638672" /><trkpt lat="22.28830378125" lon="113.94091079638672" /><trkpt lat="22.28829678125" lon="113.94094679638673" /><trkpt lat="22.28829378125" lon="113.94098479638672" /><trkpt lat="22.28828178125" lon="113.94101979638671" /><trkpt lat="22.28826178125" lon="113.94104979638672" /><trkpt lat="22.28813978125" lon="113.94117779638673" /><trkpt lat="22.28810878125" lon="113.94120379638672" /><trkpt lat="22.28807178125" lon="113.94121979638672" /><trkpt lat="22.28803278125" lon="113.94122379638672" /><trkpt lat="22.28799478125" lon="113.94121479638672" /><trkpt lat="22.28795978125" lon="113.94119479638672" /><trkpt lat="22.28741978125" lon="113.94087579638672" /><trkpt lat="22.28719678125" lon="113.94071779638672" /><trkpt lat="22.28716678125" lon="113.94069779638671" /><trkpt lat="22.28708578125" lon="113.94063979638672" /><trkpt lat="22.28698078125" lon="113.94057479638671" /><trkpt lat="22.28695278125" lon="113.94052979638671" /><trkpt lat="22.28693678125" lon="113.94047879638671" /><trkpt lat="22.28687578125" lon="113.94058479638672" /><trkpt lat="22.28692478125" lon="113.94062179638672" /><trkpt lat="22.28689978125" lon="113.94066979638671" /><trkpt lat="22.28687278125" lon="113.94072279638672" /><trkpt lat="22.28683978125" lon="113.94070979638671" /><trkpt lat="22.28680378125" lon="113.94070679638672" /><trkpt lat="22.28676878125" lon="113.94071279638672" /><trkpt lat="22.28673678125" lon="113.94072879638672" /><trkpt lat="22.28668278125" lon="113.94067779638672" /><trkpt lat="22.28663278125" lon="113.94062979638672" /><trkpt lat="22.28665378125" lon="113.94060479638672" /><trkpt lat="22.28658478125" lon="113.94053979638672" /><trkpt lat="22.28651078125" lon="113.94047079638672" /><trkpt lat="22.28605878125" lon="113.94103879638672" /><trkpt lat="22.28582978125" lon="113.94137579638672" /><trkpt lat="22.28581778125" lon="113.94138979638672" /><trkpt lat="22.28526278125" lon="113.94201879638672" /><trkpt lat="22.28524878125" lon="113.94202979638672" /><trkpt lat="22.28523778125" lon="113.94203079638672" /><trkpt lat="22.28518278125" lon="113.94204879638671" /><trkpt lat="22.28513278125" lon="113.94210379638672" /><trkpt lat="22.28513878125" lon="113.94212079638672" /><trkpt lat="22.28513878125" lon="113.94213379638671" /><trkpt lat="22.28513378125" lon="113.94214679638672" /><trkpt lat="22.28508178125" lon="113.94218779638672" /><trkpt lat="22.28506178125" lon="113.94220779638673" /><trkpt lat="22.2850213274234" lon="113.94229045835934" /><trkpt lat="22.28484678125" lon="113.94247979638672" /><trkpt lat="22.28479378125" lon="113.94252879638672" /><trkpt lat="22.28470178125" lon="113.94257179638672" /><trkpt lat="22.28462078125" lon="113.94256679638671" /><trkpt lat="22.28451978125" lon="113.94251679638671" /><trkpt lat="22.28424878125" lon="113.94232079638672" /><trkpt lat="22.28411978125" lon="113.94222479638672" /><trkpt lat="22.28396878125" lon="113.94208179638672" /><trkpt lat="22.28384378125" lon="113.94197479638672" /><trkpt lat="22.28373078125" lon="113.94187879638672" /><trkpt lat="22.28353478125" lon="113.94170879638672" /><trkpt lat="22.28310778125" lon="113.94136979638672" /><trkpt lat="22.28266378125" lon="113.94102179638672" /><trkpt lat="22.28222578125" lon="113.94067979638672" /><trkpt lat="22.28185578125" lon="113.94036579638671" /><trkpt lat="22.28132978125" lon="113.93982479638672" /><trkpt lat="22.28112978125" lon="113.93958879638672" /><trkpt lat="22.28073678125" lon="113.93996579638672" /><trkpt lat="22.27999678125" lon="113.94064579638672" /><trkpt lat="22.27990778125" lon="113.94072279638672" /><trkpt lat="22.27984678125" lon="113.94077879638672" /><trkpt lat="22.27981178125" lon="113.94081379638672" /><trkpt lat="22.27972578125" lon="113.94074779638672" /><trkpt lat="22.27958678125" lon="113.94062079638672" /><trkpt lat="22.27947378125" lon="113.94048979638671" /><trkpt lat="22.27934778125" lon="113.94031679638672" /><trkpt lat="22.27932278125" lon="113.94028679638672" /><trkpt lat="22.27926878125" lon="113.94028679638672" /><trkpt lat="22.27923078125" lon="113.94024979638672" /><trkpt lat="22.27913578125" lon="113.94034179638672" /><trkpt lat="22.27906278125" lon="113.94040979638672" /><trkpt lat="22.27901578125" lon="113.94043579638672" /><trkpt lat="22.27896878125" lon="113.94046579638672" /><trkpt lat="22.27887778125" lon="113.94052979638671" /><trkpt lat="22.27867578125" lon="113.94069479638672" /><trkpt lat="22.27864978125" lon="113.94072079638671" /><trkpt lat="22.27857078125" lon="113.94084079638672" /><trkpt lat="22.27842278125" lon="113.94107079638673" /><trkpt lat="22.27829278125" lon="113.94125679638672" /><trkpt lat="22.27815478125" lon="113.94144879638672" /><trkpt lat="22.27807478125" lon="113.94150679638672" /><trkpt lat="22.27798978125" lon="113.94155379638671" /><trkpt lat="22.27793878125" lon="113.94157379638672" /><trkpt lat="22.27769078125" lon="113.94162279638672" /><trkpt lat="22.27740878125" lon="113.94168379638671" /><trkpt lat="22.27726978125" lon="113.94170579638671" /><trkpt lat="22.27713678125" lon="113.94177179638672" /><trkpt lat="22.27705278125" lon="113.94183679638672" /><trkpt lat="22.27698378125" lon="113.94192779638672" /><trkpt lat="22.27691978125" lon="113.94203279638671" /><trkpt lat="22.27675378125" lon="113.94230579638672" /><trkpt lat="22.27664178125" lon="113.94248879638671" /><trkpt lat="22.27661078125" lon="113.94253779638672" /><trkpt lat="22.27657978125" lon="113.94258479638673" /><trkpt lat="22.27654578125" lon="113.94263179638672" /><trkpt lat="22.27636778125" lon="113.94286279638672" /><trkpt lat="22.27626578125" lon="113.94304279638672" /><trkpt lat="22.27624978125" lon="113.94307979638671" /><trkpt lat="22.27613378125" lon="113.94319879638672" /><trkpt lat="22.27594578125" lon="113.94337179638671" /><trkpt lat="22.27580578125" lon="113.94356079638672" /><trkpt lat="22.27564678125" lon="113.94368379638672" /><trkpt lat="22.27560278125" lon="113.94376279638672" /><trkpt lat="22.27555678125" lon="113.94392579638672" /><trkpt lat="22.27551778125" lon="113.94401579638672" /><trkpt lat="22.27543178125" lon="113.94411779638672" /><trkpt lat="22.27534478125" lon="113.94422079638672" /><trkpt lat="22.27527978125" lon="113.94430079638671" /><trkpt lat="22.27522378125" lon="113.94438379638672" /><trkpt lat="22.27506578125" lon="113.94453279638672" /><trkpt lat="22.27497478125" lon="113.94464679638672" /><trkpt lat="22.27491678125" lon="113.94469979638671" /><trkpt lat="22.27487678125" lon="113.94475779638672" /><trkpt lat="22.27472978125" lon="113.94491379638671" /><trkpt lat="22.27462578125" lon="113.94498279638672" /><trkpt lat="22.27452578125" lon="113.94509279638672" /><trkpt lat="22.27446078125" lon="113.94519879638672" /><trkpt lat="22.27432978125" lon="113.94545579638672" /><trkpt lat="22.27427778125" lon="113.94559579638671" /><trkpt lat="22.27420278125" lon="113.94570479638672" /><trkpt lat="22.27407278125" lon="113.94606979638672" /><trkpt lat="22.27394578125" lon="113.94627379638672" /><trkpt lat="22.27386578125" lon="113.94650479638672" /><trkpt lat="22.27383878125" lon="113.94656279638671" /><trkpt lat="22.27366778125" lon="113.94678879638671" /><trkpt lat="22.27358878125" lon="113.94686979638672" /><trkpt lat="22.27352578125" lon="113.94691379638672" /><trkpt lat="22.27316578125" lon="113.94704479638672" /><trkpt lat="22.27310778125" lon="113.94707379638672" /><trkpt lat="22.27304678125" lon="113.94712279638672" /><trkpt lat="22.27292978125" lon="113.94733879638672" /><trkpt lat="22.27285978125" lon="113.94742279638672" /><trkpt lat="22.27279278125" lon="113.94747279638672" /><trkpt lat="22.27271278125" lon="113.94750279638671" /><trkpt lat="22.27256378125" lon="113.94754179638672" /><trkpt lat="22.27240478125" lon="113.94753879638672" /><trkpt lat="22.27227378125" lon="113.94758779638671" /><trkpt lat="22.27210878125" lon="113.94764279638672" /><trkpt lat="22.27194078125" lon="113.94772179638672" /><trkpt lat="22.27167578125" lon="113.94786179638672" /><trkpt lat="22.27161478125" lon="113.94789779638671" /><trkpt lat="22.27156278125" lon="113.94792979638672" /><trkpt lat="22.27149178125" lon="113.94801479638672" /><trkpt lat="22.27139578125" lon="113.94813079638672" /><trkpt lat="22.27133078125" lon="113.94819679638672" /><trkpt lat="22.27127278125" lon="113.94828179638672" /><trkpt lat="22.27117978125" lon="113.94842879638672" /><trkpt lat="22.27110078125" lon="113.94864779638672" /><trkpt lat="22.27106878125" lon="113.94881979638672" /><trkpt lat="22.27112078125" lon="113.94898079638672" /><trkpt lat="22.27117678125" lon="113.94911179638672" /><trkpt lat="22.27121478125" lon="113.94931779638672" /><trkpt lat="22.27111878125" lon="113.94927279638672" /><trkpt lat="22.27102578125" lon="113.94921579638672" /><trkpt lat="22.27097078125" lon="113.94914879638672" /><trkpt lat="22.27093178125" lon="113.94909579638671" /><trkpt lat="22.27088878125" lon="113.94907679638672" /><trkpt lat="22.27081278125" lon="113.94907179638672" /><trkpt lat="22.27069278125" lon="113.94906979638672" /><trkpt lat="22.27058478125" lon="113.94906179638672" /><trkpt lat="22.27049978125" lon="113.94903279638672" /><trkpt lat="22.27042378125" lon="113.94904079638673" /><trkpt lat="22.27036878125" lon="113.94903179638672" /><trkpt lat="22.27029078125" lon="113.94898379638671" /><trkpt lat="22.27019378125" lon="113.94889079638672" /><trkpt lat="22.27011878125" lon="113.94876879638672" /><trkpt lat="22.26994478125" lon="113.94870379638672" /><trkpt lat="22.26974278125" lon="113.94863179638672" /><trkpt lat="22.26963078125" lon="113.94859379638672" /><trkpt lat="22.26951778125" lon="113.94854279638672" /><trkpt lat="22.26943678125" lon="113.94848779638671" /><trkpt lat="22.26933178125" lon="113.94838279638672" /><trkpt lat="22.26912378125" lon="113.94824779638672" /><trkpt lat="22.26902225937478" lon="113.94801125769419" /><trkpt lat="22.26898278125" lon="113.94799379638673" /><trkpt lat="22.26895278125" lon="113.94796479638671" /><trkpt lat="22.26865678125" lon="113.94804979638671" /><trkpt lat="22.26833778125" lon="113.94782079638672" /><trkpt lat="22.26808278125" lon="113.94793679638671" /><trkpt lat="22.26756678125" lon="113.94765779638672" /><trkpt lat="22.26710378125" lon="113.94770479638672" /><trkpt lat="22.26695278125" lon="113.94779079638671" /><trkpt lat="22.26671678125" lon="113.94792579638671" /><trkpt lat="22.26652878125" lon="113.94811379638672" /><trkpt lat="22.26653878125" lon="113.94835979638673" /><trkpt lat="22.26659478125" lon="113.94845279638672" /><trkpt lat="22.26650878125" lon="113.94851379638672" /><trkpt lat="22.26631378125" lon="113.94854679638672" /><trkpt lat="22.26626678125" lon="113.94858879638672" /><trkpt lat="22.26609478125" lon="113.94853679638672" /><trkpt lat="22.26594078125" lon="113.94864279638672" /><trkpt lat="22.26564278125" lon="113.94914679638671" /><trkpt lat="22.26559878125" lon="113.94915979638672" /><trkpt lat="22.26565978125" lon="113.94926479638671" /><trkpt lat="22.26566478125" lon="113.94939079638672" /><trkpt lat="22.26561678125" lon="113.94943279638672" /><trkpt lat="22.26545678125" lon="113.94940479638672" /><trkpt lat="22.26524978125" lon="113.94944279638672" /><trkpt lat="22.26502878125" lon="113.94934379638671" /><trkpt lat="22.26497778125" lon="113.94932579638672" /><trkpt lat="22.26498178125" lon="113.94926979638672" /><trkpt lat="22.26488178125" lon="113.94924179638672" /><trkpt lat="22.26475678125" lon="113.94934879638672" /><trkpt lat="22.26471378125" lon="113.94944679638672" /><trkpt lat="22.26473178125" lon="113.94949779638672" /><trkpt lat="22.26476578125" lon="113.94958679638673" /><trkpt lat="22.26480878125" lon="113.94962979638672" /><trkpt lat="22.26474878125" lon="113.94962879638672" /><trkpt lat="22.26466602246277" lon="113.94955403957577" /><trkpt lat="22.264659418742355" lon="113.94963035106514" /><trkpt lat="22.26471438312973" lon="113.94968467008079" /><trkpt lat="22.26478740988081" lon="113.94970227884164" /><trkpt lat="22.26486823259704" lon="113.9497015795991" /><trkpt lat="22.264887216339602" lon="113.9497228606927" /><trkpt lat="22.26488741774648" lon="113.94972714172064" /><trkpt lat="22.264891970433766" lon="113.94972857221438" /><trkpt lat="22.26489433116295" lon="113.94973360076227" /><trkpt lat="22.264901789466222" lon="113.94974169172212" /><trkpt lat="22.264904075116604" lon="113.94974207428942" /><trkpt lat="22.264904146092164" lon="113.94974599262338" /><trkpt lat="22.264921089784217" lon="113.94972042766075" /><trkpt lat="22.26499078125" lon="113.94976879638672" /><trkpt lat="22.26502878125" lon="113.94993279638672" /><trkpt lat="22.26487778125" lon="113.95013379638672" /><trkpt lat="22.26484778125" lon="113.95027779638671" /><trkpt lat="22.26499478125" lon="113.95045579638672" /><trkpt lat="22.26505078125" lon="113.95049279638671" /><trkpt lat="22.26505478125" lon="113.95058179638671" /><trkpt lat="22.26513678125" lon="113.95063779638672" /><trkpt lat="22.26520678125" lon="113.95082979638671" /><trkpt lat="22.26520178125" lon="113.95094179638672" /><trkpt lat="22.26511978125" lon="113.95098379638672" /><trkpt lat="22.26502078125" lon="113.95113279638672" /><trkpt lat="22.26492578125" lon="113.95137079638671" /><trkpt lat="22.26487378125" lon="113.95143179638671" /><trkpt lat="22.26489078125" lon="113.95155779638672" /><trkpt lat="22.26482178125" lon="113.95175379638673" /><trkpt lat="22.26485678125" lon="113.95187579638672" /><trkpt lat="22.26495178125" lon="113.95202979638673" /><trkpt lat="22.26492578125" lon="113.95211779638672" /><trkpt lat="22.26487378125" lon="113.95222579638671" /><trkpt lat="22.26488178125" lon="113.95234679638672" /><trkpt lat="22.26493878125" lon="113.95250079638672" /><trkpt lat="22.26504178125" lon="113.95264079638672" /><trkpt lat="22.26509878125" lon="113.95279979638671" /><trkpt lat="22.26510278125" lon="113.95285179638672" /><trkpt lat="22.26516478125" lon="113.95292179638672" /><trkpt lat="22.26525578125" lon="113.95286579638672" /><trkpt lat="22.26534078125" lon="113.95281479638672" /><trkpt lat="22.26550978125" lon="113.95273979638672" /><trkpt lat="22.26564778125" lon="113.95272879638672" /><trkpt lat="22.26580778125" lon="113.95279879638672" /><trkpt lat="22.26595678125" lon="113.95279879638672" /><trkpt lat="22.26605078125" lon="113.95273379638672" /><trkpt lat="22.26620478125" lon="113.95266979638672" /><trkpt lat="22.26638778125" lon="113.95267479638672" /><trkpt lat="22.26664678125" lon="113.95276079638671" /><trkpt lat="22.26680078125" lon="113.95279879638672" /><trkpt lat="22.267018781250002" lon="113.95282579638672" /><trkpt lat="22.26714278125" lon="113.95278279638671" /><trkpt lat="22.26730678125" lon="113.95281479638672" /><trkpt lat="22.26742578125" lon="113.95279279638672" /><trkpt lat="22.26758478125" lon="113.95290079638671" /><trkpt lat="22.26772378125" lon="113.95299679638671" /><trkpt lat="22.26781278125" lon="113.95308279638672" /><trkpt lat="22.26801178125" lon="113.95324379638672" /><trkpt lat="22.26838378125" lon="113.95324379638672" /><trkpt lat="22.26843878125" lon="113.95326279638672" /><trkpt lat="22.26847778125" lon="113.95323079638672" /><trkpt lat="22.26851078125" lon="113.95325179638672" /><trkpt lat="22.26854278125" lon="113.95321179638673" /><trkpt lat="22.26855978125" lon="113.95316879638672" /><trkpt lat="22.26857778125" lon="113.95320579638671" /><trkpt lat="22.26861678125" lon="113.95319579638672" /><trkpt lat="22.26860778125" lon="113.95315779638672" /><trkpt lat="22.26863678125" lon="113.95314179638672" /><trkpt lat="22.26868678125" lon="113.95317979638672" /><trkpt lat="22.26878078125" lon="113.95314179638672" /><trkpt lat="22.26896978125" lon="113.95305579638672" /><trkpt lat="22.26912378125" lon="113.95305579638672" /><trkpt lat="22.26921278125" lon="113.95298579638671" /><trkpt lat="22.26935678125" lon="113.95290579638672" /><trkpt lat="22.26965978125" lon="113.95278779638672" /><trkpt lat="22.26972878125" lon="113.95267479638672" /><trkpt lat="22.26980378125" lon="113.95248779638672" /><trkpt lat="22.26996278125" lon="113.95239579638672" /><trkpt lat="22.27006178125" lon="113.95222479638672" /><trkpt lat="22.27016078125" lon="113.95200979638672" /><trkpt lat="22.27012178125" lon="113.95186479638672" /><trkpt lat="22.27040978125" lon="113.95155979638672" /><trkpt lat="22.27060278125" lon="113.95157579638672" /><trkpt lat="22.27070678125" lon="113.95150079638672" /><trkpt lat="22.27077678125" lon="113.95139279638671" /><trkpt lat="22.27091578125" lon="113.95128079638671" /><trkpt lat="22.27103478125" lon="113.95125879638672" /><trkpt lat="22.27107478125" lon="113.95119479638672" /><trkpt lat="22.27126278125" lon="113.95115179638672" /><trkpt lat="22.27135778125" lon="113.95104479638673" /><trkpt lat="22.27158578125" lon="113.95108679638672" /><trkpt lat="22.27187378125" lon="113.95103879638671" /><trkpt lat="22.27205478125" lon="113.95097879638672" /><trkpt lat="22.27202978125" lon="113.95091779638672" /><trkpt lat="22.27191678125" lon="113.95064779638672" /><trkpt lat="22.27169878125" lon="113.95033679638672" /><trkpt lat="22.27167278125" lon="113.95030079638671" /><trkpt lat="22.27155978125" lon="113.95011079638672" /><trkpt lat="22.27149778125" lon="113.94995979638672" /><trkpt lat="22.27137578125" lon="113.94967579638671" /><trkpt lat="22.27129178125" lon="113.94950479638672" /><trkpt lat="22.27124378125" lon="113.94940779638672" /><trkpt lat="22.27121478125" lon="113.94931779638672" /><trkpt lat="22.27117678125" lon="113.94911179638672" /><trkpt lat="22.27112078125" lon="113.94898079638672" /><trkpt lat="22.27106878125" lon="113.94881979638672" /><trkpt lat="22.27110078125" lon="113.94864779638672" /><trkpt lat="22.27117978125" lon="113.94842879638672" /><trkpt lat="22.27127278125" lon="113.94828179638672" /><trkpt lat="22.27133078125" lon="113.94819679638672" /><trkpt lat="22.27139578125" lon="113.94813079638672" /><trkpt lat="22.27149178125" lon="113.94801479638672" /><trkpt lat="22.27156278125" lon="113.94792979638672" /><trkpt lat="22.27161478125" lon="113.94789779638671" /><trkpt lat="22.27167578125" lon="113.94786179638672" /><trkpt lat="22.27194078125" lon="113.94772179638672" /><trkpt lat="22.27210878125" lon="113.94764279638672" /><trkpt lat="22.27227378125" lon="113.94758779638671" /><trkpt lat="22.27240478125" lon="113.94753879638672" /><trkpt lat="22.27256378125" lon="113.94754179638672" /><trkpt lat="22.27271278125" lon="113.94750279638671" /><trkpt lat="22.27279278125" lon="113.94747279638672" /><trkpt lat="22.27285978125" lon="113.94742279638672" /><trkpt lat="22.27292978125" lon="113.94733879638672" /><trkpt lat="22.27304678125" lon="113.94712279638672" /><trkpt lat="22.27310778125" lon="113.94707379638672" /><trkpt lat="22.27316578125" lon="113.94704479638672" /><trkpt lat="22.27352578125" lon="113.94691379638672" /><trkpt lat="22.27358878125" lon="113.94686979638672" /><trkpt lat="22.27366778125" lon="113.94678879638671" /><trkpt lat="22.27383878125" lon="113.94656279638671" /><trkpt lat="22.27386578125" lon="113.94650479638672" /><trkpt lat="22.27394578125" lon="113.94627379638672" /><trkpt lat="22.27407278125" lon="113.94606979638672" /><trkpt lat="22.27420278125" lon="113.94570479638672" /><trkpt lat="22.27427778125" lon="113.94559579638671" /><trkpt lat="22.27432978125" lon="113.94545579638672" /><trkpt lat="22.27446078125" lon="113.94519879638672" /><trkpt lat="22.27452578125" lon="113.94509279638672" /><trkpt lat="22.27462578125" lon="113.94498279638672" /><trkpt lat="22.27472978125" lon="113.94491379638671" /><trkpt lat="22.27487678125" lon="113.94475779638672" /><trkpt lat="22.27491678125" lon="113.94469979638671" /><trkpt lat="22.27497478125" lon="113.94464679638672" /><trkpt lat="22.27506578125" lon="113.94453279638672" /><trkpt lat="22.27522378125" lon="113.94438379638672" /><trkpt lat="22.27527978125" lon="113.94430079638671" /><trkpt lat="22.27534478125" lon="113.94422079638672" /><trkpt lat="22.27543178125" lon="113.94411779638672" /><trkpt lat="22.27551778125" lon="113.94401579638672" /><trkpt lat="22.27555678125" lon="113.94392579638672" /><trkpt lat="22.27560278125" lon="113.94376279638672" /><trkpt lat="22.27564678125" lon="113.94368379638672" /><trkpt lat="22.27580578125" lon="113.94356079638672" /><trkpt lat="22.27594578125" lon="113.94337179638671" /><trkpt lat="22.27613378125" lon="113.94319879638672" /><trkpt lat="22.27624978125" lon="113.94307979638671" /><trkpt lat="22.27626578125" lon="113.94304279638672" /><trkpt lat="22.27636778125" lon="113.94286279638672" /><trkpt lat="22.27654578125" lon="113.94263179638672" /><trkpt lat="22.27657978125" lon="113.94258479638673" /><trkpt lat="22.27661078125" lon="113.94253779638672" /><trkpt lat="22.27658478125" lon="113.94250679638672" /><trkpt lat="22.27663578125" lon="113.94243379638672" /><trkpt lat="22.27665178125" lon="113.94241479638671" /><trkpt lat="22.27667578125" lon="113.94237879638672" /><trkpt lat="22.27672978125" lon="113.94228779638672" /><trkpt lat="22.27675378125" lon="113.94230579638672" /><trkpt lat="22.27691978125" lon="113.94203279638671" /><trkpt lat="22.27698378125" lon="113.94192779638672" /><trkpt lat="22.27705278125" lon="113.94183679638672" /><trkpt lat="22.27713678125" lon="113.94177179638672" /><trkpt lat="22.27726978125" lon="113.94170579638671" /><trkpt lat="22.27740878125" lon="113.94168379638671" /><trkpt lat="22.27769078125" lon="113.94162279638672" /><trkpt lat="22.27793878125" lon="113.94157379638672" /><trkpt lat="22.27798978125" lon="113.94155379638671" /><trkpt lat="22.27807478125" lon="113.94150679638672" /><trkpt lat="22.27815478125" lon="113.94144879638672" /><trkpt lat="22.27829278125" lon="113.94125679638672" /><trkpt lat="22.27842278125" lon="113.94107079638673" /><trkpt lat="22.27857078125" lon="113.94084079638672" /><trkpt lat="22.27864978125" lon="113.94072079638671" /><trkpt lat="22.27867578125" lon="113.94069479638672" /><trkpt lat="22.27887778125" lon="113.94052979638671" /><trkpt lat="22.27896878125" lon="113.94046579638672" /><trkpt lat="22.27901578125" lon="113.94043579638672" /><trkpt lat="22.27906278125" lon="113.94040979638672" /><trkpt lat="22.27913578125" lon="113.94034179638672" /><trkpt lat="22.27923078125" lon="113.94024979638672" /><trkpt lat="22.27926878125" lon="113.94028679638672" /><trkpt lat="22.27932278125" lon="113.94028679638672" /><trkpt lat="22.27934778125" lon="113.94031679638672" /><trkpt lat="22.27947378125" lon="113.94048979638671" /><trkpt lat="22.27958678125" lon="113.94062079638672" /><trkpt lat="22.27972578125" lon="113.94074779638672" /><trkpt lat="22.27981178125" lon="113.94081379638672" /><trkpt lat="22.27984678125" lon="113.94077879638672" /><trkpt lat="22.27990778125" lon="113.94072279638672" /><trkpt lat="22.27999678125" lon="113.94064579638672" /><trkpt lat="22.28002078125" lon="113.94062179638672" /><trkpt lat="22.28073678125" lon="113.93996579638672" /><trkpt lat="22.28112978125" lon="113.93958879638672" /><trkpt lat="22.28132978125" lon="113.93982479638672" /><trkpt lat="22.28185578125" lon="113.94036579638671" /><trkpt lat="22.28222578125" lon="113.94067979638672" /><trkpt lat="22.28266378125" lon="113.94102179638672" /><trkpt lat="22.28310778125" lon="113.94136979638672" /><trkpt lat="22.28353478125" lon="113.94170879638672" /><trkpt lat="22.28373078125" lon="113.94187879638672" /><trkpt lat="22.28384378125" lon="113.94197479638672" /><trkpt lat="22.28396878125" lon="113.94208179638672" /><trkpt lat="22.28411978125" lon="113.94222479638672" /><trkpt lat="22.28424878125" lon="113.94232079638672" /><trkpt lat="22.28451978125" lon="113.94251679638671" /><trkpt lat="22.28462078125" lon="113.94256679638671" /><trkpt lat="22.28470178125" lon="113.94257179638672" /><trkpt lat="22.28479378125" lon="113.94252879638672" /><trkpt lat="22.28484678125" lon="113.94247979638672" /><trkpt lat="22.28502378125" lon="113.94228779638672" /><trkpt lat="22.28504078125" lon="113.94225279638673" /><trkpt lat="22.28509678125" lon="113.94218879638672" /><trkpt lat="22.28513378125" lon="113.94214679638672" /><trkpt lat="22.28513278125" lon="113.94210379638672" /><trkpt lat="22.28520178125" lon="113.94202879638672" /><trkpt lat="22.28522078125" lon="113.94203179638671" /><trkpt lat="22.28523778125" lon="113.94203079638672" /><trkpt lat="22.28524878125" lon="113.94202979638672" /><trkpt lat="22.28526278125" lon="113.94201879638672" /><trkpt lat="22.28581778125" lon="113.94138979638672" /><trkpt lat="22.28582978125" lon="113.94137579638672" /><trkpt lat="22.28605878125" lon="113.94103879638672" /><trkpt lat="22.28651078125" lon="113.94047079638672" /><trkpt lat="22.28658478125" lon="113.94053979638672" /><trkpt lat="22.28665378125" lon="113.94060479638672" /><trkpt lat="22.28663278125" lon="113.94062979638672" /><trkpt lat="22.28668278125" lon="113.94067779638672" /><trkpt lat="22.28673678125" lon="113.94072879638672" /><trkpt lat="22.28676878125" lon="113.94071279638672" /><trkpt lat="22.28680378125" lon="113.94070679638672" /><trkpt lat="22.28683978125" lon="113.94070979638671" /><trkpt lat="22.28687278125" lon="113.94072279638672" /><trkpt lat="22.28689978125" lon="113.94066979638671" /><trkpt lat="22.28692478125" lon="113.94062179638672" /><trkpt lat="22.28687578125" lon="113.94058479638672" /><trkpt lat="22.28693678125" lon="113.94047879638671" /><trkpt lat="22.28695278125" lon="113.94052979638671" /><trkpt lat="22.28698078125" lon="113.94057479638671" /><trkpt lat="22.28708578125" lon="113.94063979638672" /><trkpt lat="22.28717878125" lon="113.94066979638671" /><trkpt lat="22.28720978125" lon="113.94069079638672" /><trkpt lat="22.28765678125" lon="113.94095779638671" /><trkpt lat="22.28794178125" lon="113.94096879638671" /><trkpt lat="22.288240344263453" lon="113.94092096026687" /></trkseg></trk></gpx>