<?xml version='1.0' encoding='UTF-8' ?><gpx version="1.1" creator="HikingTrailHK" xsi:schemaLocation="http://www.topografix.com/GPX/1/1 http://www.topografix.com/GPX/1/1/gpx.xsd" xmlns="http://www.topografix.com/GPX/1/1" xmlns:xsi="http://www.w3.org/2001/XMLSchema-instance"><metadata><name>柏柴石澗 @ 2022-06-25</name><desc></desc></metadata><trk><trkseg><trkpt lat="22.26039678125" lon="114.23116979638672" /><trkpt lat="22.26051478125" lon="114.23101579638671" /><trkpt lat="22.26046978125" lon="114.23088079638671" /><trkpt lat="22.26043778125" lon="114.23079379638672" /><trkpt lat="22.26048978125" lon="114.23075979638672" /><trkpt lat="22.26045778125" lon="114.23070079638671" /><trkpt lat="22.26045478125" lon="114.23068579638672" /><trkpt lat="22.26045278125" lon="114.23066979638672" /><trkpt lat="22.26045278125" lon="114.23063679638672" /><trkpt lat="22.26045378125" lon="114.23062079638672" /><trkpt lat="22.26045178125" lon="114.23060579638671" /><trkpt lat="22.26044578125" lon="114.23059279638672" /><trkpt lat="22.26043678125" lon="114.23058179638672" /><trkpt lat="22.26042578125" lon="114.23057279638672" /><trkpt lat="22.26041378125" lon="114.23056679638673" /><trkpt lat="22.26039978125" lon="114.23056379638672" /><trkpt lat="22.26027378125" lon="114.23053479638672" /><trkpt lat="22.26024878125" lon="114.23052879638672" /><trkpt lat="22.26022578125" lon="114.23051679638672" /><trkpt lat="22.26020578125" lon="114.23049879638671" /><trkpt lat="22.26019078125" lon="114.23047579638671" /><trkpt lat="22.26017178125" lon="114.23044079638672" /><trkpt lat="22.26014978125" lon="114.23038379638672" /><trkpt lat="22.26014278125" lon="114.23035579638672" /><trkpt lat="22.26016278125" lon="114.23027179638672" /><trkpt lat="22.26018978125" lon="114.23013679638672" /><trkpt lat="22.26018678125" lon="114.23010579638672" /><trkpt lat="22.26018678125" lon="114.23007379638672" /><trkpt lat="22.26019178125" lon="114.23004279638671" /><trkpt lat="22.26020078125" lon="114.23001279638672" /><trkpt lat="22.26023078125" lon="114.22995879638673" /><trkpt lat="22.26022578125" lon="114.22994079638671" /><trkpt lat="22.26021478125" lon="114.22987779638672" /><trkpt lat="22.26020778125" lon="114.22979079638672" /><trkpt lat="22.26014778125" lon="114.22968179638671" /><trkpt lat="22.26015778125" lon="114.22954979638672" /><trkpt lat="22.26012778125" lon="114.22936579638672" /><trkpt lat="22.25978778125" lon="114.22887779638671" /><trkpt lat="22.25913678125" lon="114.22825079638672" /><trkpt lat="22.25914178125" lon="114.22813779638672" /><trkpt lat="22.25925578125" lon="114.22798779638671" /><trkpt lat="22.25927078125" lon="114.22786479638673" /><trkpt lat="22.25934578125" lon="114.22779979638672" /><trkpt lat="22.25938578125" lon="114.22766579638672" /><trkpt lat="22.259342781249998" lon="114.22750479638673" /><trkpt lat="22.25928678125" lon="114.22744679638672" /><trkpt lat="22.25952978125" lon="114.22736079638672" /><trkpt lat="22.259598166011507" lon="114.22735410709043" /><trkpt lat="22.259654237522398" lon="114.22731655486126" /><trkpt lat="22.259706754048366" lon="114.22736383215425" /><trkpt lat="22.259692476438147" lon="114.2274428598123" /><trkpt lat="22.259602975064613" lon="114.22742508773405" /><trkpt lat="22.259593173680155" lon="114.22735459547081" /><trkpt lat="22.25952978125" lon="114.22736079638672" /><trkpt lat="22.25928678125" lon="114.22744679638672" /><trkpt lat="22.25925878125" lon="114.22735479638672" /><trkpt lat="22.25928778125" lon="114.22732179638672" /><trkpt lat="22.25930178125" lon="114.22728279638672" /><trkpt lat="22.25929878125" lon="114.22724479638671" /><trkpt lat="22.25928278125" lon="114.22721579638672" /><trkpt lat="22.25925778125" lon="114.22719079638672" /><trkpt lat="22.25913978125" lon="114.22713879638673" /><trkpt lat="22.25908678125" lon="114.22708879638672" /><trkpt lat="22.25906178125" lon="114.22703779638672" /><trkpt lat="22.25917778125" lon="114.22700679638672" /><trkpt lat="22.25945478125" lon="114.22688079638672" /><trkpt lat="22.25969678125" lon="114.22678079638672" /><trkpt lat="22.25983178125" lon="114.22672479638672" /><trkpt lat="22.25995778125" lon="114.22668079638672" /><trkpt lat="22.26013878125" lon="114.22671979638672" /><trkpt lat="22.26059378125" lon="114.22673779638671" /><trkpt lat="22.26074478125" lon="114.22672979638672" /><trkpt lat="22.26090078125" lon="114.22666479638671" /><trkpt lat="22.26108678125" lon="114.22669679638672" /><trkpt lat="22.26114278125" lon="114.22677179638671" /><trkpt lat="22.26130078125" lon="114.22668579638672" /><trkpt lat="22.26157278125" lon="114.22668079638672" /><trkpt lat="22.26180578125" lon="114.22655679638672" /><trkpt lat="22.26194378125" lon="114.22658779638672" /><trkpt lat="22.26216678125" lon="114.22655079638672" /><trkpt lat="22.26236178125" lon="114.22652179638672" /><trkpt lat="22.26252178125" lon="114.22637079638672" /><trkpt lat="22.26262178125" lon="114.22627479638672" /><trkpt lat="22.26265378125" lon="114.22618279638672" /><trkpt lat="22.26266678125" lon="114.22596279638672" /><trkpt lat="22.26273778125" lon="114.22585779638672" /><trkpt lat="22.26279078125" lon="114.22572279638672" /><trkpt lat="22.26293078125" lon="114.22559979638672" /><trkpt lat="22.26293978125" lon="114.22553279638672" /><trkpt lat="22.262968884099777" lon="114.22546240085151" /><trkpt lat="22.26298478125" lon="114.22550479638672" /><trkpt lat="22.26305178125" lon="114.22554879638672" /><trkpt lat="22.26308678125" lon="114.22559979638672" /><trkpt lat="22.26311278125" lon="114.22563479638671" /><trkpt lat="22.26312678125" lon="114.22573779638672" /><trkpt lat="22.26317778125" lon="114.22575779638672" /><trkpt lat="22.26315178125" lon="114.22562979638671" /><trkpt lat="22.26311078125" lon="114.22552979638672" /><trkpt lat="22.26306978125" lon="114.22547279638673" /><trkpt lat="22.262996562258472" lon="114.22541748057012" /><trkpt lat="22.26301978125" lon="114.22537979638672" /><trkpt lat="22.26305078125" lon="114.22532879638672" /><trkpt lat="22.26306978125" lon="114.22527979638672" /><trkpt lat="22.26311778125" lon="114.22521479638672" /><trkpt lat="22.26317508490981" lon="114.22512762539363" /><trkpt lat="22.263190316477775" lon="114.22513311635976" /><trkpt lat="22.263205161657226" lon="114.22514167774074" /><trkpt lat="22.263207792235264" lon="114.2251489157415" /><trkpt lat="22.26320813324007" lon="114.22515824201815" /><trkpt lat="22.263202973811616" lon="114.22516377276037" /><trkpt lat="22.263196785991454" lon="114.22516184123378" /><trkpt lat="22.263167748081187" lon="114.2251387862571" /><trkpt lat="22.26311778125" lon="114.22521479638672" /><trkpt lat="22.26306978125" lon="114.22527979638672" /><trkpt lat="22.26305078125" lon="114.22532879638672" /><trkpt lat="22.26300030551349" lon="114.22541140544963" /><trkpt lat="22.26311934261227" lon="114.22553977920842" /><trkpt lat="22.263171199380068" lon="114.22562296941754" /><trkpt lat="22.263182527959188" lon="114.22566501807722" /><trkpt lat="22.26317778125" lon="114.22575779638672" /><trkpt lat="22.26320478125" lon="114.22608479638671" /><trkpt lat="22.26320678125" lon="114.22614079638672" /><trkpt lat="22.26319978125" lon="114.22622979638672" /><trkpt lat="22.26318278125" lon="114.22631079638671" /><trkpt lat="22.26316378125" lon="114.22637279638671" /><trkpt lat="22.26314178125" lon="114.22642279638671" /><trkpt lat="22.26311278125" lon="114.22646979638672" /><trkpt lat="22.26308178125" lon="114.22650979638672" /><trkpt lat="22.26304778125" lon="114.22654779638673" /><trkpt lat="22.26300678125" lon="114.22658379638672" /><trkpt lat="22.26265678125" lon="114.22685179638673" /><trkpt lat="22.26266478125" lon="114.22686379638672" /><trkpt lat="22.26266978125" lon="114.22687479638672" /><trkpt lat="22.26266978125" lon="114.22689079638671" /><trkpt lat="22.26264478125" lon="114.22710379638671" /><trkpt lat="22.26264078125" lon="114.22711879638672" /><trkpt lat="22.26263478125" lon="114.22713579638672" /><trkpt lat="22.26262678125" lon="114.22715079638672" /><trkpt lat="22.26261478125" lon="114.22716979638672" /><trkpt lat="22.26260278125" lon="114.22718679638672" /><trkpt lat="22.26257978125" lon="114.22721379638672" /><trkpt lat="22.26257178125" lon="114.22722479638672" /><trkpt lat="22.26256378125" lon="114.22723779638672" /><trkpt lat="22.26255978125" lon="114.22724879638672" /><trkpt lat="22.26255478125" lon="114.22726579638672" /><trkpt lat="22.26255278125" lon="114.22728279638672" /><trkpt lat="22.26255378125" lon="114.22730479638672" /><trkpt lat="22.26255978125" lon="114.22738379638672" /><trkpt lat="22.26255978125" lon="114.22741179638672" /><trkpt lat="22.26255778125" lon="114.22743779638672" /><trkpt lat="22.26255378125" lon="114.22746279638672" /><trkpt lat="22.26254878125" lon="114.22749079638672" /><trkpt lat="22.26253678125" lon="114.22753379638672" /><trkpt lat="22.262532781250002" lon="114.22755679638672" /><trkpt lat="22.26252878125" lon="114.22758079638672" /><trkpt lat="22.26252678125" lon="114.22761079638671" /><trkpt lat="22.26252678125" lon="114.22763779638672" /><trkpt lat="22.26253078125" lon="114.22766679638671" /><trkpt lat="22.26253578125" lon="114.22769279638672" /><trkpt lat="22.26254378125" lon="114.22771679638672" /><trkpt lat="22.26255378125" lon="114.22774179638672" /><trkpt lat="22.26256578125" lon="114.22776679638672" /><trkpt lat="22.26258178125" lon="114.22779879638672" /><trkpt lat="22.26260178125" lon="114.22783379638672" /><trkpt lat="22.26261978125" lon="114.22785979638672" /><trkpt lat="22.26264178125" lon="114.22788679638671" /><trkpt lat="22.26266778125" lon="114.22791679638672" /><trkpt lat="22.26267778125" lon="114.22792979638672" /><trkpt lat="22.26268478125" lon="114.22794279638671" /><trkpt lat="22.26269278125" lon="114.22795879638672" /><trkpt lat="22.26269678125" lon="114.22797379638672" /><trkpt lat="22.26270178125" lon="114.22799579638672" /><trkpt lat="22.26270878125" lon="114.22803879638671" /><trkpt lat="22.26271378125" lon="114.22806279638672" /><trkpt lat="22.26271978125" lon="114.22808579638672" /><trkpt lat="22.26272878125" lon="114.22810779638672" /><trkpt lat="22.26273878125" lon="114.22812679638672" /><trkpt lat="22.26275078125" lon="114.22814679638672" /><trkpt lat="22.26276878125" lon="114.22817279638672" /><trkpt lat="22.26278778125" lon="114.22819579638671" /><trkpt lat="22.26280578125" lon="114.22821379638673" /><trkpt lat="22.26282178125" lon="114.22822879638672" /><trkpt lat="22.26283778125" lon="114.22824079638671" /><trkpt lat="22.26285478125" lon="114.22825079638672" /><trkpt lat="22.26287178125" lon="114.22825879638673" /><trkpt lat="22.26289078125" lon="114.22826479638672" /><trkpt lat="22.26290878125" lon="114.22826779638672" /><trkpt lat="22.26292678125" lon="114.22826879638671" /><trkpt lat="22.26294578125" lon="114.22826679638672" /><trkpt lat="22.26301878125" lon="114.22825279638671" /><trkpt lat="22.26305478125" lon="114.22824479638672" /><trkpt lat="22.26310578125" lon="114.22823079638673" /><trkpt lat="22.26312478125" lon="114.22822779638672" /><trkpt lat="22.26314878125" lon="114.22822579638672" /><trkpt lat="22.26356978125" lon="114.22827279638672" /><trkpt lat="22.26360278125" lon="114.22827579638673" /><trkpt lat="22.26377978125" lon="114.22833679638671" /><trkpt lat="22.26380978125" lon="114.22835179638672" /><trkpt lat="22.26383578125" lon="114.22836579638673" /><trkpt lat="22.26385678125" lon="114.22837979638672" /><trkpt lat="22.26387678125" lon="114.22839379638671" /><trkpt lat="22.26390778125" lon="114.22841979638672" /><trkpt lat="22.26392378125" lon="114.22843279638671" /><trkpt lat="22.26394578125" lon="114.22844779638672" /><trkpt lat="22.26397078125" lon="114.22846279638672" /><trkpt lat="22.26399578125" lon="114.22847479638672" /><trkpt lat="22.26401978125" lon="114.22848479638672" /><trkpt lat="22.26403978125" lon="114.22849079638672" /><trkpt lat="22.26408878125" lon="114.22850279638672" /><trkpt lat="22.26412078125" lon="114.22851179638671" /><trkpt lat="22.26415778125" lon="114.22852479638672" /><trkpt lat="22.26418878125" lon="114.22853679638672" /><trkpt lat="22.26421478125" lon="114.22854979638672" /><trkpt lat="22.26423378125" lon="114.22856079638672" /><trkpt lat="22.26425078125" lon="114.22857179638672" /><trkpt lat="22.26426478125" lon="114.22858279638672" /><trkpt lat="22.26427878125" lon="114.22859579638671" /><trkpt lat="22.26428978125" lon="114.22860979638672" /><trkpt lat="22.26429978125" lon="114.22862479638673" /><trkpt lat="22.26430878125" lon="114.22864079638671" /><trkpt lat="22.26431578125" lon="114.22865979638672" /><trkpt lat="22.26433578125" lon="114.22872779638672" /><trkpt lat="22.26434978125" lon="114.22877179638672" /><trkpt lat="22.26436678125" lon="114.22882079638671" /><trkpt lat="22.26441778125" lon="114.22895079638671" /><trkpt lat="22.26444778125" lon="114.22903679638672" /><trkpt lat="22.26446078125" lon="114.22907879638672" /><trkpt lat="22.26447078125" lon="114.22911079638672" /><trkpt lat="22.26448278125" lon="114.22914079638672" /><trkpt lat="22.26449478125" lon="114.22916579638672" /><trkpt lat="22.26450778125" lon="114.22918979638672" /><trkpt lat="22.26452178125" lon="114.22921279638672" /><trkpt lat="22.26454078125" lon="114.22924079638672" /><trkpt lat="22.26456078125" lon="114.22926779638672" /><trkpt lat="22.26458678125" lon="114.22929779638672" /><trkpt lat="22.26461778125" lon="114.22933179638672" /><trkpt lat="22.26466478125" lon="114.22937479638672" /><trkpt lat="22.26470478125" lon="114.22940579638671" /><trkpt lat="22.26474278125" lon="114.22943279638672" /><trkpt lat="22.26477178125" lon="114.22944879638672" /><trkpt lat="22.26479778125" lon="114.22946179638672" /><trkpt lat="22.26484878125" lon="114.22949679638671" /><trkpt lat="22.26487878125" lon="114.22954179638671" /><trkpt lat="22.26511378125" lon="114.22957479638671" /><trkpt lat="22.26513078125" lon="114.22958479638672" /><trkpt lat="22.26514578125" lon="114.22959579638672" /><trkpt lat="22.26515978125" lon="114.22961079638672" /><trkpt lat="22.26516878125" lon="114.22962279638672" /><trkpt lat="22.26517678125" lon="114.22963779638673" /><trkpt lat="22.26518178125" lon="114.22964979638672" /><trkpt lat="22.26518678125" lon="114.22966579638671" /><trkpt lat="22.26519478125" lon="114.22968379638672" /><trkpt lat="22.26520478125" lon="114.22970379638672" /><trkpt lat="22.26521578125" lon="114.22972179638671" /><trkpt lat="22.26523078125" lon="114.22974179638672" /><trkpt lat="22.26524478125" lon="114.22975679638672" /><trkpt lat="22.26525878125" lon="114.22976879638672" /><trkpt lat="22.26527478125" lon="114.22977979638672" /><trkpt lat="22.26529578125" lon="114.22979079638672" /><trkpt lat="22.26531878125" lon="114.22980079638671" /><trkpt lat="22.26538878125" lon="114.22982679638672" /><trkpt lat="22.26541478125" lon="114.22983879638672" /><trkpt lat="22.26543978125" lon="114.22985079638671" /><trkpt lat="22.26546278125" lon="114.22986579638672" /><trkpt lat="22.26548178125" lon="114.22987879638671" /><trkpt lat="22.26550078125" lon="114.22989479638672" /><trkpt lat="22.26582178125" lon="114.23021279638672" /><trkpt lat="22.26621878125" lon="114.23039779638673" /><trkpt lat="22.26647778125" lon="114.23053679638672" /><trkpt lat="22.266472408178554" lon="114.23063433859835" /><trkpt lat="22.26644378125" lon="114.23072779638672" /><trkpt lat="22.26643778125" lon="114.23083479638672" /><trkpt lat="22.26654178125" lon="114.23079179638673" /><trkpt lat="22.26665178125" lon="114.23093279638672" /><trkpt lat="22.26684778125" lon="114.23101279638672" /><trkpt lat="22.26695778125" lon="114.23110379638672" /><trkpt lat="22.26705378125" lon="114.23108279638672" /><trkpt lat="22.26721478125" lon="114.23114979638672" /><trkpt lat="22.26754078125" lon="114.23119179638672" /><trkpt lat="22.26767178125" lon="114.23134279638671" /><trkpt lat="22.26781478125" lon="114.23135779638672" /><trkpt lat="22.26781878125" lon="114.23130979638672" /><trkpt lat="22.26806178125" lon="114.23145279638672" /><trkpt lat="22.26810278125" lon="114.23153679638672" /><trkpt lat="22.26826278125" lon="114.23158779638672" /><trkpt lat="22.26837678125" lon="114.23168079638671" /><trkpt lat="22.26855078125" lon="114.23162279638672" /><trkpt lat="22.26860478125" lon="114.23167079638672" /><trkpt lat="22.26879678125" lon="114.23168079638671" /><trkpt lat="22.26896678125" lon="114.23160479638672" /><trkpt lat="22.26924878125" lon="114.23184279638672" /><trkpt lat="22.26952678125" lon="114.23197879638671" /><trkpt lat="22.26962178125" lon="114.23209479638672" /><trkpt lat="22.26969678125" lon="114.23211679638672" /><trkpt lat="22.26978978125" lon="114.23201279638671" /><trkpt lat="22.26990978125" lon="114.23219979638672" /><trkpt lat="22.26966178125" lon="114.23241879638672" /><trkpt lat="22.26973978125" lon="114.23250879638672" /><trkpt lat="22.26981778125" lon="114.23262679638673" /><trkpt lat="22.27007178125" lon="114.23255079638672" /><trkpt lat="22.26995778125" lon="114.23265179638672" /><trkpt lat="22.26992678125" lon="114.23266379638672" /><trkpt lat="22.26989478125" lon="114.23267079638671" /><trkpt lat="22.26986078125" lon="114.23267579638672" /><trkpt lat="22.26982078125" lon="114.23267579638672" /><trkpt lat="22.26977778125" lon="114.23266979638672" /><trkpt lat="22.26975078125" lon="114.23266179638672" /><trkpt lat="22.26972378125" lon="114.23264979638672" /><trkpt lat="22.26970178125" lon="114.23263579638672" /><trkpt lat="22.26966478125" lon="114.23260779638672" /><trkpt lat="22.26958178125" lon="114.23253279638672" /><trkpt lat="22.26955378125" lon="114.23251079638672" /><trkpt lat="22.26953078125" lon="114.23249779638672" /><trkpt lat="22.26950678125" lon="114.23248679638672" /><trkpt lat="22.26948578125" lon="114.23248279638672" /><trkpt lat="22.26946478125" lon="114.23248179638672" /><trkpt lat="22.26944478125" lon="114.23248179638672" /><trkpt lat="22.26942378125" lon="114.23248579638671" /><trkpt lat="22.26934378125" lon="114.23250579638672" /><trkpt lat="22.26930578125" lon="114.23251179638672" /><trkpt lat="22.26926378125" lon="114.23251579638672" /><trkpt lat="22.26921678125" lon="114.23251579638672" /><trkpt lat="22.26917978125" lon="114.23251179638672" /><trkpt lat="22.26913578125" lon="114.23250279638673" /><trkpt lat="22.26910278125" lon="114.23249379638672" /><trkpt lat="22.26906178125" lon="114.23247879638672" /><trkpt lat="22.26901878125" lon="114.23245879638672" /><trkpt lat="22.26883978125" lon="114.23236379638672" /><trkpt lat="22.26877778125" lon="114.23233279638671" /><trkpt lat="22.26871378125" lon="114.23230179638672" /><trkpt lat="22.26858278125" lon="114.23224379638671" /><trkpt lat="22.26855078125" lon="114.23222679638671" /><trkpt lat="22.26851778125" lon="114.23220779638672" /><trkpt lat="22.26848778125" lon="114.23218779638673" /><trkpt lat="22.26840478125" lon="114.23212979638672" /><trkpt lat="22.26837778125" lon="114.23211379638671" /><trkpt lat="22.26834378125" lon="114.23209679638671" /><trkpt lat="22.26831778125" lon="114.23208679638672" /><trkpt lat="22.26829578125" lon="114.23208079638673" /><trkpt lat="22.26826778125" lon="114.23207579638672" /><trkpt lat="22.26823678125" lon="114.23207379638671" /><trkpt lat="22.26820478125" lon="114.23207679638672" /><trkpt lat="22.26818078125" lon="114.23208379638672" /><trkpt lat="22.26816278125" lon="114.23209879638672" /><trkpt lat="22.26814778125" lon="114.23211879638671" /><trkpt lat="22.26813678125" lon="114.23214079638672" /><trkpt lat="22.26812678125" lon="114.23219079638672" /><trkpt lat="22.26816978125" lon="114.23220079638672" /><trkpt lat="22.26821978125" lon="114.23221479638671" /><trkpt lat="22.26826978125" lon="114.23223279638673" /><trkpt lat="22.26831378125" lon="114.23225279638672" /><trkpt lat="22.26835978125" lon="114.23227879638672" /><trkpt lat="22.26840478125" lon="114.23230879638672" /><trkpt lat="22.26893578125" lon="114.23274579638672" /><trkpt lat="22.26897978125" lon="114.23277979638672" /><trkpt lat="22.26893978125" lon="114.23286079638672" /><trkpt lat="22.26888978125" lon="114.23291879638671" /><trkpt lat="22.26881978125" lon="114.23293079638673" /><trkpt lat="22.26880978125" lon="114.23292979638671" /><trkpt lat="22.26879978125" lon="114.23292979638671" /><trkpt lat="22.26865978125" lon="114.23284979638672" /><trkpt lat="22.26849078125" lon="114.23276679638671" /><trkpt lat="22.26824878125" lon="114.23260879638671" /><trkpt lat="22.26812078125" lon="114.23257679638672" /><trkpt lat="22.26797178125" lon="114.23259279638673" /><trkpt lat="22.26798978125" lon="114.23263279638672" /><trkpt lat="22.26799178125" lon="114.23267579638672" /><trkpt lat="22.26797778125" lon="114.23271779638672" /><trkpt lat="22.26795078125" lon="114.23274979638671" /><trkpt lat="22.26791478125" lon="114.23276879638672" /><trkpt lat="22.26787378125" lon="114.23277079638672" /><trkpt lat="22.26783578125" lon="114.23275679638672" /><trkpt lat="22.26780578125" lon="114.23272779638671" /><trkpt lat="22.26766778125" lon="114.23277279638671" /><trkpt lat="22.26755490455005" lon="114.23277975456605" /><trkpt lat="22.26757168956719" lon="114.23306382567552" /><trkpt lat="22.267542781409727" lon="114.2331099920015" /><trkpt lat="22.26754278125" lon="114.23339879638672" /><trkpt lat="22.26784178125" lon="114.23338879638672" /><trkpt lat="22.26784278946096" lon="114.23342715292263" /></trkseg></trk></gpx>