<?xml version='1.0' encoding='UTF-8' ?><gpx version="1.1" creator="HikingTrailHK" xsi:schemaLocation="http://www.topografix.com/GPX/1/1 http://www.topografix.com/GPX/1/1/gpx.xsd" xmlns="http://www.topografix.com/GPX/1/1" xmlns:xsi="http://www.w3.org/2001/XMLSchema-instance"><metadata><name>柏鰂石澗 @ 2023-05-20</name><desc></desc></metadata><trk><trkseg><trkpt lat="22.284619611897824" lon="114.21500641457901" /><trkpt lat="22.28462478125" lon="114.21494179638673" /><trkpt lat="22.28463678125" lon="114.21474679638672" /><trkpt lat="22.28463578125" lon="114.21446079638672" /><trkpt lat="22.28462878125" lon="114.21428979638672" /><trkpt lat="22.28460578125" lon="114.21367479638671" /><trkpt lat="22.28460078125" lon="114.21355479638672" /><trkpt lat="22.28459378125" lon="114.21302679638671" /><trkpt lat="22.28459478125" lon="114.21298679638672" /><trkpt lat="22.28451578125" lon="114.21294779638671" /><trkpt lat="22.28447878125" lon="114.21293479638672" /><trkpt lat="22.28436778125" lon="114.21290679638672" /><trkpt lat="22.28418378125" lon="114.21289879638672" /><trkpt lat="22.28409178125" lon="114.21289479638672" /><trkpt lat="22.28399278125" lon="114.21288879638672" /><trkpt lat="22.28382178125" lon="114.21288779638672" /><trkpt lat="22.28373078125" lon="114.21289779638671" /><trkpt lat="22.28364178125" lon="114.21292179638672" /><trkpt lat="22.28358978125" lon="114.21295179638672" /><trkpt lat="22.28352978125" lon="114.21300779638672" /><trkpt lat="22.28348778125" lon="114.21307079638672" /><trkpt lat="22.28345578125" lon="114.21317679638672" /><trkpt lat="22.28343378125" lon="114.21328779638672" /><trkpt lat="22.28341278125" lon="114.21344579638672" /><trkpt lat="22.28336678125" lon="114.21354779638672" /><trkpt lat="22.28334678125" lon="114.21358979638671" /><trkpt lat="22.28331878125" lon="114.21362979638671" /><trkpt lat="22.28328278125" lon="114.21366379638673" /><trkpt lat="22.28324078125" lon="114.21369379638672" /><trkpt lat="22.28314878125" lon="114.21374879638672" /><trkpt lat="22.28311078125" lon="114.21375679638672" /><trkpt lat="22.28305178125" lon="114.21376379638671" /><trkpt lat="22.28299178125" lon="114.21376379638671" /><trkpt lat="22.28274578125" lon="114.21374879638672" /><trkpt lat="22.28246978125" lon="114.21373179638672" /><trkpt lat="22.28198878125" lon="114.21370479638672" /><trkpt lat="22.28179478125" lon="114.21369379638672" /><trkpt lat="22.28165078125" lon="114.21368579638671" /><trkpt lat="22.28137178125" lon="114.21367479638671" /><trkpt lat="22.28130878125" lon="114.21367279638672" /><trkpt lat="22.28127478125" lon="114.21367279638672" /><trkpt lat="22.28127878125" lon="114.21359979638672" /><trkpt lat="22.28127678125" lon="114.21355679638671" /><trkpt lat="22.28126778125" lon="114.21353579638672" /><trkpt lat="22.28124778125" lon="114.21351379638672" /><trkpt lat="22.28121478125" lon="114.21349879638672" /><trkpt lat="22.28118078125" lon="114.21349379638671" /><trkpt lat="22.28111178125" lon="114.21349279638672" /><trkpt lat="22.28100678125" lon="114.21349579638672" /><trkpt lat="22.28060278125" lon="114.21356079638672" /><trkpt lat="22.28053378125" lon="114.21356879638672" /><trkpt lat="22.28044778125" lon="114.21357279638671" /><trkpt lat="22.28038078125" lon="114.21356679638671" /><trkpt lat="22.28031078125" lon="114.21355279638672" /><trkpt lat="22.28024578125" lon="114.21352979638672" /><trkpt lat="22.28018978125" lon="114.21350179638672" /><trkpt lat="22.27996678125" lon="114.21336279638672" /><trkpt lat="22.27972378125" lon="114.21320279638672" /><trkpt lat="22.27948078125" lon="114.21312279638671" /><trkpt lat="22.27932478125" lon="114.21314379638672" /><trkpt lat="22.27927478125" lon="114.21319879638672" /><trkpt lat="22.27923378125" lon="114.21319079638671" /><trkpt lat="22.27915078125" lon="114.21321979638672" /><trkpt lat="22.27911978125" lon="114.21310979638672" /><trkpt lat="22.27910378125" lon="114.21304779638672" /><trkpt lat="22.27909178125" lon="114.21301179638672" /><trkpt lat="22.27873978125" lon="114.21311079638672" /><trkpt lat="22.27849078125" lon="114.21319079638671" /><trkpt lat="22.27784578125" lon="114.21341579638671" /><trkpt lat="22.27772778125" lon="114.21358879638672" /><trkpt lat="22.27768078125" lon="114.21363979638672" /><trkpt lat="22.27760178125" lon="114.21370179638672" /><trkpt lat="22.27749078125" lon="114.21372179638672" /><trkpt lat="22.27702878125" lon="114.21369479638672" /><trkpt lat="22.27697878125" lon="114.21367079638672" /><trkpt lat="22.27691778125" lon="114.21361179638672" /><trkpt lat="22.27650878125" lon="114.21354779638672" /><trkpt lat="22.27639278125" lon="114.21355579638671" /><trkpt lat="22.27563878125" lon="114.21367179638672" /><trkpt lat="22.27501102218748" lon="114.21376949069486" /><trkpt lat="22.274981733704713" lon="114.21380988387457" /><trkpt lat="22.27485078125" lon="114.21390979638672" /><trkpt lat="22.27470878125" lon="114.21390079638672" /><trkpt lat="22.27447778125" lon="114.21380479638673" /><trkpt lat="22.27427078125" lon="114.21377979638672" /><trkpt lat="22.27404778125" lon="114.21382979638672" /><trkpt lat="22.27387578125" lon="114.21378779638673" /><trkpt lat="22.27353678125" lon="114.21381279638672" /><trkpt lat="22.27335678125" lon="114.21392979638672" /><trkpt lat="22.27307478125" lon="114.21398079638672" /><trkpt lat="22.27276578125" lon="114.21398379638671" /><trkpt lat="22.27257678125" lon="114.21405279638672" /><trkpt lat="22.27242478125" lon="114.21380779638672" /><trkpt lat="22.27203578125" lon="114.21373079638671" /><trkpt lat="22.27183278125" lon="114.21362579638672" /><trkpt lat="22.27156678125" lon="114.21351879638672" /><trkpt lat="22.27148278125" lon="114.21331079638672" /><trkpt lat="22.27139778125" lon="114.21316279638671" /><trkpt lat="22.27109078125" lon="114.21319579638671" /><trkpt lat="22.27056678125" lon="114.21298979638672" /><trkpt lat="22.27038478125" lon="114.21304879638672" /><trkpt lat="22.27013578125" lon="114.21317479638672" /><trkpt lat="22.27013978125" lon="114.21319079638671" /><trkpt lat="22.27014278125" lon="114.21322779638672" /><trkpt lat="22.27014778125" lon="114.21324979638672" /><trkpt lat="22.27015678125" lon="114.21327179638672" /><trkpt lat="22.27017078125" lon="114.21329579638672" /><trkpt lat="22.27017478125" lon="114.21330479638672" /><trkpt lat="22.27017678125" lon="114.21331379638671" /><trkpt lat="22.27017678125" lon="114.21332379638672" /><trkpt lat="22.27017378125" lon="114.21333879638672" /><trkpt lat="22.27016778125" lon="114.21335179638672" /><trkpt lat="22.270138185553776" lon="114.2133801724437" /><trkpt lat="22.27006378125" lon="114.21326379638671" /><trkpt lat="22.26996278125" lon="114.21324879638672" /><trkpt lat="22.26988078125" lon="114.21333879638672" /><trkpt lat="22.26964978125" lon="114.21337279638672" /><trkpt lat="22.26934978125" lon="114.21335079638672" /><trkpt lat="22.26923178125" lon="114.21325779638671" /><trkpt lat="22.26895778125" lon="114.21327179638672" /><trkpt lat="22.26895778125" lon="114.21333679638671" /><trkpt lat="22.26863178125" lon="114.21328279638672" /><trkpt lat="22.26844978125" lon="114.21341979638672" /><trkpt lat="22.26785678125" lon="114.21344879638671" /><trkpt lat="22.26775478125" lon="114.21354379638672" /><trkpt lat="22.26761378125" lon="114.21354079638672" /><trkpt lat="22.26751978125" lon="114.21344079638672" /><trkpt lat="22.26749478125" lon="114.21347779638671" /><trkpt lat="22.26725178125" lon="114.21335179638672" /><trkpt lat="22.26714578125" lon="114.21337679638673" /><trkpt lat="22.26713178125" lon="114.21321379638673" /><trkpt lat="22.26708678125" lon="114.21323979638672" /><trkpt lat="22.26687378125" lon="114.21333579638672" /><trkpt lat="22.26683978125" lon="114.21388379638672" /><trkpt lat="22.26675178125" lon="114.21394979638671" /><trkpt lat="22.26678178125" lon="114.21414079638672" /><trkpt lat="22.26670478125" lon="114.21437779638671" /><trkpt lat="22.26660378125" lon="114.21454279638672" /><trkpt lat="22.26652678125" lon="114.21475079638672" /><trkpt lat="22.26631878125" lon="114.21503879638672" /><trkpt lat="22.26627678125" lon="114.21515479638671" /><trkpt lat="22.26622978125" lon="114.21521479638672" /><trkpt lat="22.26599478125" lon="114.21534479638672" /><trkpt lat="22.26592478125" lon="114.21540079638672" /><trkpt lat="22.26580078125" lon="114.21559079638672" /><trkpt lat="22.26562678125" lon="114.21568979638671" /><trkpt lat="22.26547178125" lon="114.21570979638672" /><trkpt lat="22.26533278125" lon="114.21577179638672" /><trkpt lat="22.26525778125" lon="114.21578379638672" /><trkpt lat="22.26485578125" lon="114.21572279638671" /><trkpt lat="22.26457578125" lon="114.21577179638672" /><trkpt lat="22.26444578125" lon="114.21580379638672" /><trkpt lat="22.26430278125" lon="114.21588479638672" /><trkpt lat="22.26410778125" lon="114.21593979638672" /><trkpt lat="22.26400278125" lon="114.21594979638672" /><trkpt lat="22.26393278125" lon="114.21599179638672" /><trkpt lat="22.26386978125" lon="114.21602879638672" /><trkpt lat="22.26350478125" lon="114.21617579638672" /><trkpt lat="22.26326678125" lon="114.21619679638673" /><trkpt lat="22.26306378125" lon="114.21618379638672" /><trkpt lat="22.26271678125" lon="114.21622779638672" /><trkpt lat="22.26242878125" lon="114.21631279638672" /><trkpt lat="22.26231978125" lon="114.21638179638671" /><trkpt lat="22.26214978125" lon="114.21644179638672" /><trkpt lat="22.26210578125" lon="114.21646579638671" /><trkpt lat="22.26188278125" lon="114.21658379638671" /><trkpt lat="22.26163678125" lon="114.21666379638671" /><trkpt lat="22.26138878125" lon="114.21683479638672" /><trkpt lat="22.26100678125" lon="114.21689279638672" /><trkpt lat="22.26083578125" lon="114.21700379638672" /><trkpt lat="22.26074878125" lon="114.21710979638672" /><trkpt lat="22.26070778125" lon="114.21722679638673" /><trkpt lat="22.26068578125" lon="114.21745979638672" /><trkpt lat="22.26058578125" lon="114.21798179638672" /><trkpt lat="22.26058278125" lon="114.21822379638672" /><trkpt lat="22.26056078125" lon="114.21832079638672" /><trkpt lat="22.26043978125" lon="114.21860079638672" /><trkpt lat="22.26031478125" lon="114.21880979638672" /><trkpt lat="22.26025978125" lon="114.21894679638672" /><trkpt lat="22.26025378125" lon="114.21896479638671" /><trkpt lat="22.26024878125" lon="114.21898179638671" /><trkpt lat="22.26024778125" lon="114.21899579638672" /><trkpt lat="22.26024778125" lon="114.21900979638671" /><trkpt lat="22.26024978125" lon="114.21902579638672" /><trkpt lat="22.26025378125" lon="114.21904279638672" /><trkpt lat="22.26025878125" lon="114.21905679638672" /><trkpt lat="22.26026478125" lon="114.21906879638672" /><trkpt lat="22.26027178125" lon="114.21907879638673" /><trkpt lat="22.26027978125" lon="114.21908579638672" /><trkpt lat="22.26028778125" lon="114.21909179638672" /><trkpt lat="22.26029578125" lon="114.21909679638672" /><trkpt lat="22.26031678125" lon="114.21910579638671" /><trkpt lat="22.26032678125" lon="114.21911179638671" /><trkpt lat="22.26033378125" lon="114.21911779638671" /><trkpt lat="22.26034078125" lon="114.21912679638672" /><trkpt lat="22.26034578125" lon="114.21913979638671" /><trkpt lat="22.26034978125" lon="114.21915279638672" /><trkpt lat="22.26036778125" lon="114.21925279638671" /><trkpt lat="22.26036878125" lon="114.21926579638672" /><trkpt lat="22.26036778125" lon="114.21927779638672" /><trkpt lat="22.26036578125" lon="114.21928579638671" /><trkpt lat="22.26036178125" lon="114.21929279638672" /><trkpt lat="22.26035678125" lon="114.21929879638672" /><trkpt lat="22.26034878125" lon="114.21930379638673" /><trkpt lat="22.26034078125" lon="114.21930879638671" /><trkpt lat="22.26031178125" lon="114.21932379638672" /><trkpt lat="22.26029378125" lon="114.21933279638672" /><trkpt lat="22.26028078125" lon="114.21934279638671" /><trkpt lat="22.26026978125" lon="114.21935379638671" /><trkpt lat="22.26026178125" lon="114.21936379638672" /><trkpt lat="22.26025678125" lon="114.21937379638672" /><trkpt lat="22.26025178125" lon="114.21938479638672" /><trkpt lat="22.26024378125" lon="114.21940579638672" /><trkpt lat="22.26023878125" lon="114.21941679638672" /><trkpt lat="22.26023278125" lon="114.21942679638671" /><trkpt lat="22.26022678125" lon="114.21943479638672" /><trkpt lat="22.26021778125" lon="114.21944379638671" /><trkpt lat="22.26020778125" lon="114.21945179638672" /><trkpt lat="22.26019678125" lon="114.21945979638672" /><trkpt lat="22.26017878125" lon="114.21946979638672" /><trkpt lat="22.26016078125" lon="114.21947679638672" /><trkpt lat="22.26011178125" lon="114.21949579638672" /><trkpt lat="22.26009578125" lon="114.21949979638671" /><trkpt lat="22.26008278125" lon="114.21950179638672" /><trkpt lat="22.26006978125" lon="114.21950279638672" /><trkpt lat="22.26003078125" lon="114.21950079638673" /><trkpt lat="22.26001478125" lon="114.21950179638672" /><trkpt lat="22.25999878125" lon="114.21950479638672" /><trkpt lat="22.25998178125" lon="114.21950979638672" /><trkpt lat="22.25996178125" lon="114.21951679638671" /><trkpt lat="22.25994378125" lon="114.21952579638672" /><trkpt lat="22.25992378125" lon="114.21953879638671" /><trkpt lat="22.25990178125" lon="114.21955579638671" /><trkpt lat="22.25988478125" lon="114.21957279638671" /><trkpt lat="22.25987178125" lon="114.21959079638673" /><trkpt lat="22.25985778125" lon="114.21961479638672" /><trkpt lat="22.25984878125" lon="114.21964079638671" /><trkpt lat="22.25984278125" lon="114.21966579638672" /><trkpt lat="22.25983878125" lon="114.21968979638672" /><trkpt lat="22.25983578125" lon="114.21971279638672" /><trkpt lat="22.25982978125" lon="114.21978179638671" /><trkpt lat="22.25982578125" lon="114.21980279638672" /><trkpt lat="22.25982078125" lon="114.21982779638672" /><trkpt lat="22.25981378125" lon="114.21985379638672" /><trkpt lat="22.25980478125" lon="114.21988279638671" /><trkpt lat="22.25979478125" lon="114.21990779638672" /><trkpt lat="22.25978578125" lon="114.21992879638672" /><trkpt lat="22.25977478125" lon="114.21995179638672" /><trkpt lat="22.25976278125" lon="114.21997179638672" /><trkpt lat="22.25974878125" lon="114.21999079638672" /><trkpt lat="22.25973578125" lon="114.22000779638672" /><trkpt lat="22.25972278125" lon="114.22002079638672" /><trkpt lat="22.25970978125" lon="114.22003179638672" /><trkpt lat="22.25969678125" lon="114.22004079638671" /><trkpt lat="22.25968078125" lon="114.22004979638672" /><trkpt lat="22.25966678125" lon="114.22005579638672" /><trkpt lat="22.25958878125" lon="114.22008979638672" /><trkpt lat="22.25957578125" lon="114.22009679638671" /><trkpt lat="22.25956178125" lon="114.22010379638672" /><trkpt lat="22.25955078125" lon="114.22011079638672" /><trkpt lat="22.25954078125" lon="114.22011879638671" /><trkpt lat="22.25952378125" lon="114.22013379638672" /><trkpt lat="22.25950978125" lon="114.22014679638671" /><trkpt lat="22.25950278125" lon="114.22015479638672" /><trkpt lat="22.25949478125" lon="114.22016379638671" /><trkpt lat="22.25948578125" lon="114.22017579638671" /><trkpt lat="22.25947978125" lon="114.22018379638672" /><trkpt lat="22.25947478125" lon="114.22019479638672" /><trkpt lat="22.25947078125" lon="114.22020679638672" /><trkpt lat="22.25946678125" lon="114.22021779638672" /><trkpt lat="22.25946478125" lon="114.22023079638672" /><trkpt lat="22.25946178125" lon="114.22026079638673" /><trkpt lat="22.25945878125" lon="114.22028379638672" /><trkpt lat="22.25944878125" lon="114.22034579638672" /><trkpt lat="22.25944478125" lon="114.22036079638671" /><trkpt lat="22.25943978125" lon="114.22037579638672" /><trkpt lat="22.25943578125" lon="114.22038379638671" /><trkpt lat="22.25943178125" lon="114.22039179638672" /><trkpt lat="22.25942678125" lon="114.22039879638672" /><trkpt lat="22.25942078125" lon="114.22040479638672" /><trkpt lat="22.25941578125" lon="114.22040879638672" /><trkpt lat="22.25940978125" lon="114.22041079638672" /><trkpt lat="22.25940178125" lon="114.22041079638672" /><trkpt lat="22.25939478125" lon="114.22040979638672" /><trkpt lat="22.25938678125" lon="114.22040679638671" /><trkpt lat="22.25936678125" lon="114.22039779638672" /><trkpt lat="22.25935778125" lon="114.22039379638672" /><trkpt lat="22.25934678125" lon="114.22038979638671" /><trkpt lat="22.25922578125" lon="114.22035779638672" /><trkpt lat="22.25920578125" lon="114.22035379638672" /><trkpt lat="22.25918778125" lon="114.22035079638673" /><trkpt lat="22.25902178125" lon="114.22033779638672" /><trkpt lat="22.25900878125" lon="114.22033679638672" /><trkpt lat="22.25892678125" lon="114.22032379638672" /><trkpt lat="22.25891778125" lon="114.22032279638672" /><trkpt lat="22.25890778125" lon="114.22032379638672" /><trkpt lat="22.25889878125" lon="114.22032479638672" /><trkpt lat="22.25889078125" lon="114.22032679638671" /><trkpt lat="22.25888178125" lon="114.22032979638672" /><trkpt lat="22.25884678125" lon="114.22034579638672" /><trkpt lat="22.25883778125" lon="114.22035079638673" /><trkpt lat="22.25882978125" lon="114.22035579638671" /><trkpt lat="22.25882278125" lon="114.22036179638671" /><trkpt lat="22.25881478125" lon="114.22036879638672" /><trkpt lat="22.25880778125" lon="114.22037679638672" /><trkpt lat="22.25880178125" lon="114.22038479638672" /><trkpt lat="22.25879678125" lon="114.22039379638672" /><trkpt lat="22.25879378125" lon="114.22040279638672" /><trkpt lat="22.25879078125" lon="114.22041079638672" /><trkpt lat="22.25878978125" lon="114.22041879638672" /><trkpt lat="22.25878878125" lon="114.22042779638672" /><trkpt lat="22.25878778125" lon="114.22043579638672" /><trkpt lat="22.25878478125" lon="114.22051579638672" /><trkpt lat="22.25878278125" lon="114.22052779638672" /><trkpt lat="22.25878078125" lon="114.22053579638671" /><trkpt lat="22.25877978125" lon="114.22054279638672" /><trkpt lat="22.25877678125" lon="114.22054979638672" /><trkpt lat="22.25877278125" lon="114.22055579638672" /><trkpt lat="22.25876878125" lon="114.22056179638672" /><trkpt lat="22.25876378125" lon="114.22056579638672" /><trkpt lat="22.25875678125" lon="114.22056979638671" /><trkpt lat="22.25874978125" lon="114.22057379638672" /><trkpt lat="22.25874278125" lon="114.22057579638673" /><trkpt lat="22.25873478125" lon="114.22057679638672" /><trkpt lat="22.25859678125" lon="114.22059179638671" /><trkpt lat="22.25858578125" lon="114.22059379638672" /><trkpt lat="22.25857778125" lon="114.22059579638672" /><trkpt lat="22.25856978125" lon="114.22059779638671" /><trkpt lat="22.25856078125" lon="114.22060279638671" /><trkpt lat="22.25854978125" lon="114.22060979638673" /><trkpt lat="22.25853978125" lon="114.22061879638672" /><trkpt lat="22.25852978125" lon="114.22062779638672" /><trkpt lat="22.25851578125" lon="114.22064079638672" /><trkpt lat="22.25850578125" lon="114.22065379638671" /><trkpt lat="22.25849578125" lon="114.22066779638672" /><trkpt lat="22.25848578125" lon="114.22068379638672" /><trkpt lat="22.25847878125" lon="114.22069479638672" /><trkpt lat="22.25847278125" lon="114.22070779638672" /><trkpt lat="22.25846578125" lon="114.22072279638672" /><trkpt lat="22.25846178125" lon="114.22073279638671" /><trkpt lat="22.25845878125" lon="114.22074279638672" /><trkpt lat="22.25845778125" lon="114.22075179638672" /><trkpt lat="22.25845678125" lon="114.22075979638672" /><trkpt lat="22.25840378125" lon="114.22114279638672" /><trkpt lat="22.25828578125" lon="114.22127179638672" /><trkpt lat="22.25810678125" lon="114.22155979638671" /><trkpt lat="22.25791778125" lon="114.22176179638672" /><trkpt lat="22.25772278125" lon="114.22202979638672" /><trkpt lat="22.25762278125" lon="114.22220179638671" /><trkpt lat="22.25752178125" lon="114.22228079638671" /><trkpt lat="22.25749578125" lon="114.22233379638672" /><trkpt lat="22.25740378125" lon="114.22275279638671" /><trkpt lat="22.25743978125" lon="114.22292479638672" /><trkpt lat="22.25742378125" lon="114.22301579638672" /><trkpt lat="22.25723478125" lon="114.22348379638672" /><trkpt lat="22.25723478125" lon="114.22364579638672" /><trkpt lat="22.25721878125" lon="114.22370579638672" /><trkpt lat="22.25718378125" lon="114.22376079638671" /><trkpt lat="22.25712278125" lon="114.22387879638671" /><trkpt lat="22.25706378125" lon="114.22388279638672" /><trkpt lat="22.25698878125" lon="114.22402479638671" /><trkpt lat="22.25687178125" lon="114.22414479638672" /><trkpt lat="22.25682978125" lon="114.22422479638672" /><trkpt lat="22.25671278125" lon="114.22428679638672" /><trkpt lat="22.25672578125" lon="114.22451779638672" /><trkpt lat="22.25665678125" lon="114.22471879638672" /><trkpt lat="22.25668178125" lon="114.22492279638672" /><trkpt lat="22.25665678125" lon="114.22514479638672" /><trkpt lat="22.25686478125" lon="114.22530879638671" /><trkpt lat="22.25701878125" lon="114.22581279638672" /><trkpt lat="22.25711578125" lon="114.22586179638672" /><trkpt lat="22.25721378125" lon="114.22599879638672" /><trkpt lat="22.25720878125" lon="114.22645579638672" /><trkpt lat="22.25730378125" lon="114.22661079638672" /><trkpt lat="22.25736378125" lon="114.22707379638672" /><trkpt lat="22.25737678125" lon="114.22729379638672" /><trkpt lat="22.25749178125" lon="114.22749379638672" /><trkpt lat="22.25744378125" lon="114.22773379638672" /><trkpt lat="22.25751978125" lon="114.22775479638672" /><trkpt lat="22.25751878125" lon="114.22795679638672" /><trkpt lat="22.25743878125" lon="114.22800379638672" /><trkpt lat="22.25737078125" lon="114.22809279638672" /><trkpt lat="22.25714278125" lon="114.22803779638672" /><trkpt lat="22.25708978125" lon="114.22802879638672" /><trkpt lat="22.25700178125" lon="114.22801479638672" /><trkpt lat="22.25681378125" lon="114.22803079638672" /><trkpt lat="22.25680178125" lon="114.22807279638671" /><trkpt lat="22.25684678125" lon="114.22808879638671" /><trkpt lat="22.25702578125" lon="114.22814579638671" /><trkpt lat="22.25706478125" lon="114.22815879638672" /><trkpt lat="22.25710778125" lon="114.22818379638672" /><trkpt lat="22.25715378125" lon="114.22820579638672" /><trkpt lat="22.25716678125" lon="114.22819579638671" /><trkpt lat="22.25718278125" lon="114.22818879638672" /><trkpt lat="22.25719878125" lon="114.22818779638672" /><trkpt lat="22.25722978125" lon="114.22819879638672" /><trkpt lat="22.25726678125" lon="114.22819879638672" /><trkpt lat="22.25728378125" lon="114.22819979638672" /><trkpt lat="22.25730478125" lon="114.22820179638671" /><trkpt lat="22.25736278125" lon="114.22821979638672" /><trkpt lat="22.25747178125" lon="114.22817579638672" /><trkpt lat="22.25750678125" lon="114.22816279638671" /><trkpt lat="22.25755578125" lon="114.22812679638672" /><trkpt lat="22.25761378125" lon="114.22806079638671" /><trkpt lat="22.25762578125" lon="114.22803079638672" /><trkpt lat="22.25770478125" lon="114.22807679638672" /><trkpt lat="22.25777978125" lon="114.22811679638671" /><trkpt lat="22.25795078125" lon="114.22815379638672" /><trkpt lat="22.25798178125" lon="114.22816979638672" /><trkpt lat="22.25801578125" lon="114.22816179638671" /><trkpt lat="22.25802978125" lon="114.22812779638672" /><trkpt lat="22.25802978125" lon="114.22810579638671" /><trkpt lat="22.25799978125" lon="114.22806179638673" /><trkpt lat="22.25793578125" lon="114.22801979638672" /><trkpt lat="22.25787478125" lon="114.22795779638672" /><trkpt lat="22.25785078125" lon="114.22789479638672" /><trkpt lat="22.25784578125" lon="114.22784479638672" /><trkpt lat="22.25788278125" lon="114.22769979638672" /><trkpt lat="22.25793078125" lon="114.22760279638672" /><trkpt lat="22.25798778125" lon="114.22754279638671" /><trkpt lat="22.25806978125" lon="114.22747579638671" /><trkpt lat="22.25809378125" lon="114.22744379638672" /><trkpt lat="22.25811078125" lon="114.22738779638672" /><trkpt lat="22.25812078125" lon="114.22725279638672" /><trkpt lat="22.25814078125" lon="114.22721679638671" /><trkpt lat="22.25821478125" lon="114.22716079638671" /><trkpt lat="22.25831378125" lon="114.22707179638672" /><trkpt lat="22.25835478125" lon="114.22702079638673" /><trkpt lat="22.25838578125" lon="114.22696879638671" /><trkpt lat="22.25840878125" lon="114.22690179638671" /><trkpt lat="22.25846378125" lon="114.22681179638671" /><trkpt lat="22.25850378125" lon="114.22677679638672" /><trkpt lat="22.25862778125" lon="114.22670179638672" /><trkpt lat="22.25875978125" lon="114.22662179638672" /><trkpt lat="22.25880178125" lon="114.22661979638671" /><trkpt lat="22.25883178125" lon="114.22662779638672" /><trkpt lat="22.25887378125" lon="114.22667379638672" /><trkpt lat="22.25904278125" lon="114.22699779638671" /><trkpt lat="22.25906178125" lon="114.22703779638672" /><trkpt lat="22.25917778125" lon="114.22700679638672" /><trkpt lat="22.25945478125" lon="114.22688079638672" /><trkpt lat="22.25969678125" lon="114.22678079638672" /><trkpt lat="22.25977878125" lon="114.22690179638671" /><trkpt lat="22.25983578125" lon="114.22700079638672" /><trkpt lat="22.25988978125" lon="114.22713379638672" /><trkpt lat="22.25991078125" lon="114.22718979638672" /><trkpt lat="22.25992878125" lon="114.22732879638671" /><trkpt lat="22.26012878125" lon="114.22769379638672" /><trkpt lat="22.26020078125" lon="114.22783479638672" /><trkpt lat="22.26021578125" lon="114.22798879638673" /><trkpt lat="22.26023378125" lon="114.22825479638672" /><trkpt lat="22.26032978125" lon="114.22834079638672" /><trkpt lat="22.26042678125" lon="114.22858879638672" /><trkpt lat="22.26057078125" lon="114.22874679638672" /><trkpt lat="22.26067078125" lon="114.22881179638672" /><trkpt lat="22.26072178125" lon="114.22897579638672" /><trkpt lat="22.26073878125" lon="114.22908179638672" /><trkpt lat="22.26077278125" lon="114.22915879638671" /><trkpt lat="22.26079178125" lon="114.22926279638672" /><trkpt lat="22.26085478125" lon="114.22937579638672" /><trkpt lat="22.26091578125" lon="114.22946979638672" /><trkpt lat="22.26096078125" lon="114.22954179638671" /><trkpt lat="22.26100278125" lon="114.22967479638672" /><trkpt lat="22.26111778125" lon="114.22980379638672" /><trkpt lat="22.26122978125" lon="114.22999979638672" /><trkpt lat="22.26131078125" lon="114.23015279638672" /><trkpt lat="22.26142978125" lon="114.23014679638672" /><trkpt lat="22.26168178125" lon="114.23009179638672" /><trkpt lat="22.26186878125" lon="114.23039479638672" /><trkpt lat="22.26196278125" lon="114.23046279638672" /><trkpt lat="22.26193178125" lon="114.23053279638673" /><trkpt lat="22.26188778125" lon="114.23058479638672" /><trkpt lat="22.26174978125" lon="114.23111479638672" /><trkpt lat="22.26170978125" lon="114.23113379638671" /><trkpt lat="22.26160878125" lon="114.23097879638672" /><trkpt lat="22.26146978125" lon="114.23092579638671" /><trkpt lat="22.26146178125" lon="114.23134179638672" /><trkpt lat="22.26161078125" lon="114.23144479638673" /><trkpt lat="22.26160678125" lon="114.23168779638672" /><trkpt lat="22.26149378125" lon="114.23151479638672" /><trkpt lat="22.26143678125" lon="114.23167779638672" /><trkpt lat="22.26126878125" lon="114.23172979638672" /><trkpt lat="22.26112378125" lon="114.23188379638673" /><trkpt lat="22.26108578125" lon="114.23193479638672" /><trkpt lat="22.26105378125" lon="114.23199079638673" /><trkpt lat="22.26102778125" lon="114.23205079638672" /><trkpt lat="22.26100978125" lon="114.23211379638671" /><trkpt lat="22.26107078125" lon="114.23218779638673" /><trkpt lat="22.26107078125" lon="114.23226679638672" /><trkpt lat="22.26108878125" lon="114.23234379638671" /><trkpt lat="22.26115378125" lon="114.23253179638672" /><trkpt lat="22.26117978125" lon="114.23260079638672" /><trkpt lat="22.26120578125" lon="114.23269579638672" /><trkpt lat="22.26128978125" lon="114.23363079638672" /><trkpt lat="22.26143278125" lon="114.23409979638672" /><trkpt lat="22.26151978125" lon="114.23432379638672" /><trkpt lat="22.26164578125" lon="114.23459779638672" /><trkpt lat="22.26170178125" lon="114.23473479638672" /><trkpt lat="22.261744781250002" lon="114.23485879638672" /><trkpt lat="22.26178178125" lon="114.23497779638672" /><trkpt lat="22.26181878125" lon="114.23511379638671" /><trkpt lat="22.26187478125" lon="114.23531679638671" /><trkpt lat="22.26191178125" lon="114.23545279638672" /><trkpt lat="22.26195778125" lon="114.23558079638671" /><trkpt lat="22.26205278125" lon="114.23581879638672" /><trkpt lat="22.26206578125" lon="114.23585079638671" /><trkpt lat="22.26209078125" lon="114.23591479638672" /><trkpt lat="22.26210778125" lon="114.23595679638672" /><trkpt lat="22.26212578125" lon="114.23598479638672" /><trkpt lat="22.262176781249998" lon="114.23606279638672" /><trkpt lat="22.26219378125" lon="114.23608879638672" /><trkpt lat="22.26233878125" lon="114.23631479638672" /><trkpt lat="22.26240178125" lon="114.23641079638672" /><trkpt lat="22.26255878125" lon="114.23665079638671" /><trkpt lat="22.26251578125" lon="114.23669579638671" /><trkpt lat="22.26255578125" lon="114.23675379638672" /><trkpt lat="22.26260178125" lon="114.23682279638672" /><trkpt lat="22.262767781249998" lon="114.23714579638671" /><trkpt lat="22.26286478125" lon="114.23733479638672" /><trkpt lat="22.26294578125" lon="114.23749679638672" /><trkpt lat="22.26308078125" lon="114.23776579638673" /><trkpt lat="22.26313178125" lon="114.23790979638672" /><trkpt lat="22.26314778125" lon="114.23813079638671" /><trkpt lat="22.26315278125" lon="114.23820979638671" /><trkpt lat="22.26314578125" lon="114.23850079638672" /><trkpt lat="22.26310778125" lon="114.23869079638672" /><trkpt lat="22.26310878125" lon="114.23889979638672" /><trkpt lat="22.26322478125" lon="114.23928979638671" /><trkpt lat="22.26331278125" lon="114.23949379638672" /><trkpt lat="22.26332878125" lon="114.23955179638672" /><trkpt lat="22.26331078125" lon="114.23958579638672" /><trkpt lat="22.26333278125" lon="114.23961979638672" /><trkpt lat="22.26336278125" lon="114.23965579638671" /></trkseg></trk></gpx>