<?xml version='1.0' encoding='UTF-8' ?><gpx version="1.1" creator="HikingTrailHK" xsi:schemaLocation="http://www.topografix.com/GPX/1/1 http://www.topografix.com/GPX/1/1/gpx.xsd" xmlns="http://www.topografix.com/GPX/1/1" xmlns:xsi="http://www.w3.org/2001/XMLSchema-instance"><metadata><name>桃坑峒 @ 2021-11-27 18:34:07</name><desc></desc></metadata><trk><trkseg><trkpt lat="22.358540066170583" lon="114.01855808272715" /><trkpt lat="22.35853978125" lon="114.01855779638672" /><trkpt lat="22.35852478125" lon="114.01854179638671" /><trkpt lat="22.35819978125" lon="114.01883679638672" /><trkpt lat="22.35817378125" lon="114.01886979638672" /><trkpt lat="22.35819178125" lon="114.01899279638671" /><trkpt lat="22.35822478125" lon="114.01903879638672" /><trkpt lat="22.35872478125" lon="114.01908879638673" /><trkpt lat="22.36031278125" lon="114.01910079638672" /><trkpt lat="22.36064078125" lon="114.01913179638672" /><trkpt lat="22.360704413387218" lon="114.01918132119273" /><trkpt lat="22.36086278125" lon="114.01920579638671" /><trkpt lat="22.36147178125" lon="114.01929979638672" /><trkpt lat="22.36176178125" lon="114.01933579638671" /><trkpt lat="22.36206578125" lon="114.01932879638672" /><trkpt lat="22.36217878125" lon="114.01932179638672" /><trkpt lat="22.36217978125" lon="114.01944079638672" /><trkpt lat="22.362184093520813" lon="114.01950549405149" /><trkpt lat="22.36219600474878" lon="114.01951891442997" /><trkpt lat="22.36220114396849" lon="114.01951899715658" /><trkpt lat="22.3622032469746" lon="114.01952123576825" /><trkpt lat="22.362242612328163" lon="114.01951606363055" /><trkpt lat="22.36226078125" lon="114.01962779638671" /><trkpt lat="22.36466978125" lon="114.02122479638672" /><trkpt lat="22.36465578125" lon="114.02125479638671" /><trkpt lat="22.36547678125" lon="114.02176879638672" /><trkpt lat="22.36581678125" lon="114.02190379638672" /><trkpt lat="22.36588878125" lon="114.02192279638672" /><trkpt lat="22.36626578125" lon="114.02202679638673" /><trkpt lat="22.36635678125" lon="114.02204079638672" /><trkpt lat="22.36871078125" lon="114.02241379638672" /><trkpt lat="22.36887478125" lon="114.02244179638672" /><trkpt lat="22.36894778125" lon="114.02247379638672" /><trkpt lat="22.36902178125" lon="114.02247879638672" /><trkpt lat="22.36910278125" lon="114.02247479638672" /><trkpt lat="22.36919978125" lon="114.02248279638673" /><trkpt lat="22.36926378125" lon="114.02248479638672" /><trkpt lat="22.36937478125" lon="114.02243679638671" /><trkpt lat="22.36941178125" lon="114.02243279638672" /><trkpt lat="22.36948778125" lon="114.02242679638672" /><trkpt lat="22.36957878125" lon="114.02241279638672" /><trkpt lat="22.37167478125" lon="114.02208079638672" /><trkpt lat="22.37187478125" lon="114.02201679638672" /><trkpt lat="22.37189178125" lon="114.02203679638671" /><trkpt lat="22.37191378125" lon="114.02205079638672" /><trkpt lat="22.37193778125" lon="114.02205679638672" /><trkpt lat="22.37196278125" lon="114.02205579638672" /><trkpt lat="22.37200678125" lon="114.02202979638672" /><trkpt lat="22.37202178125" lon="114.02200779638672" /><trkpt lat="22.37202578125" lon="114.02193079638671" /><trkpt lat="22.37209878125" lon="114.02191379638671" /><trkpt lat="22.37231278125" lon="114.02172479638672" /><trkpt lat="22.37239678125" lon="114.02166079638671" /><trkpt lat="22.37245478125" lon="114.02162579638672" /><trkpt lat="22.37256278125" lon="114.02159279638671" /><trkpt lat="22.37269178125" lon="114.02157579638671" /><trkpt lat="22.37276878125" lon="114.02158579638672" /><trkpt lat="22.37292378125" lon="114.02164579638672" /><trkpt lat="22.37306778125" lon="114.02172779638671" /><trkpt lat="22.37317578125" lon="114.02179279638672" /><trkpt lat="22.37326778125" lon="114.02186979638672" /><trkpt lat="22.37336478125" lon="114.02193179638672" /><trkpt lat="22.37341678125" lon="114.02204579638672" /><trkpt lat="22.37342178125" lon="114.02220379638672" /><trkpt lat="22.37340678125" lon="114.02228779638672" /><trkpt lat="22.37338478125" lon="114.02238779638672" /><trkpt lat="22.37341078125" lon="114.02249079638672" /><trkpt lat="22.37345678125" lon="114.02254279638672" /><trkpt lat="22.37349678125" lon="114.02256279638672" /><trkpt lat="22.37352478125" lon="114.02256779638672" /><trkpt lat="22.37357878125" lon="114.02257179638671" /><trkpt lat="22.37364478125" lon="114.02254379638671" /><trkpt lat="22.37372378125" lon="114.02250279638672" /><trkpt lat="22.37381978125" lon="114.02245979638671" /><trkpt lat="22.37388678125" lon="114.02242579638671" /><trkpt lat="22.37399678125" lon="114.02233179638672" /><trkpt lat="22.37409878125" lon="114.02224079638673" /><trkpt lat="22.37414978125" lon="114.02215379638672" /><trkpt lat="22.37414878125" lon="114.02209279638672" /><trkpt lat="22.37413978125" lon="114.02202279638672" /><trkpt lat="22.37409678125" lon="114.02190679638672" /><trkpt lat="22.37404578125" lon="114.02179879638672" /><trkpt lat="22.37400278125" lon="114.02169979638671" /><trkpt lat="22.37394478125" lon="114.02166479638672" /><trkpt lat="22.37384278125" lon="114.02164479638672" /><trkpt lat="22.37380678125" lon="114.02162479638672" /><trkpt lat="22.37373078125" lon="114.02156379638672" /><trkpt lat="22.37367878125" lon="114.02147979638671" /><trkpt lat="22.37367378125" lon="114.02136279638673" /><trkpt lat="22.37368878125" lon="114.02129879638672" /><trkpt lat="22.37372378125" lon="114.02127179638671" /><trkpt lat="22.37378378125" lon="114.02126179638672" /><trkpt lat="22.37383378125" lon="114.02129979638671" /><trkpt lat="22.37387378125" lon="114.02135679638671" /><trkpt lat="22.37391778125" lon="114.02139879638672" /><trkpt lat="22.373953781250002" lon="114.02140479638672" /><trkpt lat="22.37402478125" lon="114.02137979638673" /><trkpt lat="22.37406178125" lon="114.02132979638672" /><trkpt lat="22.37406878125" lon="114.02129979638671" /><trkpt lat="22.37406978125" lon="114.02116579638673" /><trkpt lat="22.37404378125" lon="114.02109179638671" /><trkpt lat="22.37400978125" lon="114.02101979638672" /><trkpt lat="22.37398078125" lon="114.02096979638672" /><trkpt lat="22.37398778125" lon="114.02087479638672" /><trkpt lat="22.37402678125" lon="114.02086779638672" /><trkpt lat="22.37454578125" lon="114.02129179638672" /><trkpt lat="22.37474378125" lon="114.02150379638672" /><trkpt lat="22.37486178125" lon="114.02171679638671" /><trkpt lat="22.37492978125" lon="114.02189379638672" /><trkpt lat="22.37497978125" lon="114.02209279638672" /><trkpt lat="22.37499678125" lon="114.02220179638672" /><trkpt lat="22.37500878125" lon="114.02228579638673" /><trkpt lat="22.37503578125" lon="114.02228979638672" /><trkpt lat="22.37505978125" lon="114.02230379638672" /><trkpt lat="22.37507878125" lon="114.02232479638671" /><trkpt lat="22.37509278125" lon="114.02237979638672" /><trkpt lat="22.37508678125" lon="114.02240879638671" /><trkpt lat="22.37507278125" lon="114.02243379638672" /><trkpt lat="22.37505178125" lon="114.02245279638672" /><trkpt lat="22.37499878125" lon="114.02246279638672" /><trkpt lat="22.37499578125" lon="114.02252279638672" /><trkpt lat="22.37497678125" lon="114.02265379638672" /><trkpt lat="22.37491878125" lon="114.02286379638672" /><trkpt lat="22.37469078125" lon="114.02338179638672" /><trkpt lat="22.37464378125" lon="114.02348479638673" /><trkpt lat="22.37456278125" lon="114.02365979638672" /><trkpt lat="22.37425978125" lon="114.02431479638672" /><trkpt lat="22.37346278125" lon="114.02604479638671" /><trkpt lat="22.37349478125" lon="114.02615779638671" /><trkpt lat="22.37333778125" lon="114.02650879638672" /><trkpt lat="22.37338578125" lon="114.02665179638672" /><trkpt lat="22.37345478125" lon="114.02673779638671" /><trkpt lat="22.37352278125" lon="114.02678979638672" /><trkpt lat="22.37363278125" lon="114.02687079638672" /><trkpt lat="22.37370378125" lon="114.02691079638672" /><trkpt lat="22.37374078125" lon="114.02694779638672" /><trkpt lat="22.37375278125" lon="114.02699379638672" /><trkpt lat="22.37372578125" lon="114.02702479638671" /><trkpt lat="22.37369278125" lon="114.02704579638672" /><trkpt lat="22.37365178125" lon="114.02704179638671" /><trkpt lat="22.37359178125" lon="114.02703079638673" /><trkpt lat="22.37342278125" lon="114.02696079638672" /><trkpt lat="22.37326278125" lon="114.02687979638672" /><trkpt lat="22.37287478125" lon="114.02661579638672" /><trkpt lat="22.37275478125" lon="114.02650579638672" /><trkpt lat="22.37266378125" lon="114.02642579638672" /><trkpt lat="22.37261578125" lon="114.02634579638672" /><trkpt lat="22.37257878125" lon="114.02630479638673" /><trkpt lat="22.37253878125" lon="114.02629279638671" /><trkpt lat="22.37249778125" lon="114.02627079638673" /><trkpt lat="22.37244978125" lon="114.02623679638671" /><trkpt lat="22.37240978125" lon="114.02628479638672" /><trkpt lat="22.37236278125" lon="114.02635479638671" /><trkpt lat="22.37234278125" lon="114.02644279638672" /><trkpt lat="22.37234578125" lon="114.02653679638672" /><trkpt lat="22.37238578125" lon="114.02669679638672" /><trkpt lat="22.37242378125" lon="114.02684579638672" /><trkpt lat="22.37247078125" lon="114.02695879638672" /><trkpt lat="22.37248778125" lon="114.02699279638672" /><trkpt lat="22.37250878125" lon="114.02706079638672" /><trkpt lat="22.37250878125" lon="114.02711679638672" /><trkpt lat="22.37244578125" lon="114.02731079638671" /><trkpt lat="22.37243378125" lon="114.02735279638672" /><trkpt lat="22.37243978125" lon="114.02743679638672" /><trkpt lat="22.37244978125" lon="114.02749479638672" /><trkpt lat="22.37245578125" lon="114.02755679638672" /><trkpt lat="22.37245878125" lon="114.02762879638672" /><trkpt lat="22.37238578125" lon="114.02766379638672" /><trkpt lat="22.37236778125" lon="114.02781179638671" /><trkpt lat="22.37233478125" lon="114.02797079638673" /><trkpt lat="22.37231778125" lon="114.02806379638672" /><trkpt lat="22.37222878125" lon="114.02813079638672" /><trkpt lat="22.37219578125" lon="114.02818379638671" /><trkpt lat="22.37213378125" lon="114.02829479638672" /><trkpt lat="22.37205478125" lon="114.02839779638671" /><trkpt lat="22.37195678125" lon="114.02847479638672" /><trkpt lat="22.37190378125" lon="114.02863079638672" /><trkpt lat="22.37189978125" lon="114.02883879638672" /><trkpt lat="22.37190978125" lon="114.02893079638672" /><trkpt lat="22.37188178125" lon="114.02917979638671" /><trkpt lat="22.37186678125" lon="114.02948479638673" /><trkpt lat="22.37175578125" lon="114.02971679638672" /><trkpt lat="22.37166878125" lon="114.02978279638671" /><trkpt lat="22.37169078125" lon="114.02992379638673" /><trkpt lat="22.37170978125" lon="114.03012779638672" /><trkpt lat="22.37175478125" lon="114.03021579638671" /><trkpt lat="22.37179278125" lon="114.03036279638673" /><trkpt lat="22.37179378125" lon="114.03059879638671" /><trkpt lat="22.37177778125" lon="114.03082679638672" /><trkpt lat="22.37177678125" lon="114.03093979638672" /><trkpt lat="22.37182278125" lon="114.03112979638672" /><trkpt lat="22.37184978125" lon="114.03128479638671" /><trkpt lat="22.37183778125" lon="114.03137179638672" /><trkpt lat="22.37189178125" lon="114.03159579638672" /><trkpt lat="22.37194278125" lon="114.03155679638672" /><trkpt lat="22.37198478125" lon="114.03152579638672" /><trkpt lat="22.37204778125" lon="114.03152379638672" /><trkpt lat="22.37208278125" lon="114.03162679638672" /><trkpt lat="22.37209078125" lon="114.03169979638672" /><trkpt lat="22.37210178125" lon="114.03180279638671" /><trkpt lat="22.37215078125" lon="114.03188279638672" /><trkpt lat="22.37218378125" lon="114.03197679638672" /><trkpt lat="22.37223078125" lon="114.03196079638671" /><trkpt lat="22.37226278125" lon="114.03209079638673" /><trkpt lat="22.37230778125" lon="114.03219579638672" /><trkpt lat="22.37232578125" lon="114.03228779638673" /><trkpt lat="22.37232178125" lon="114.03240379638672" /><trkpt lat="22.37228878125" lon="114.03255079638672" /><trkpt lat="22.37228678125" lon="114.03280679638672" /><trkpt lat="22.37229278125" lon="114.03286779638672" /><trkpt lat="22.37227478125" lon="114.03299979638672" /><trkpt lat="22.37224978125" lon="114.03310879638671" /><trkpt lat="22.37222978125" lon="114.03319279638671" /><trkpt lat="22.37217478125" lon="114.03330379638672" /><trkpt lat="22.37209878125" lon="114.03340779638671" /><trkpt lat="22.37204678125" lon="114.03348679638673" /><trkpt lat="22.37203778125" lon="114.03354979638672" /><trkpt lat="22.37202378125" lon="114.03362679638671" /><trkpt lat="22.37201378125" lon="114.03364879638671" /><trkpt lat="22.37199778125" lon="114.03369579638672" /><trkpt lat="22.37195078125" lon="114.03375179638672" /><trkpt lat="22.37185778125" lon="114.03373279638672" /><trkpt lat="22.37177978125" lon="114.03375779638672" /><trkpt lat="22.37177478125" lon="114.03379779638672" /><trkpt lat="22.37174678125" lon="114.03381579638672" /><trkpt lat="22.37174478125" lon="114.03385779638671" /><trkpt lat="22.37176278125" lon="114.03388979638672" /><trkpt lat="22.37173378125" lon="114.03405079638672" /><trkpt lat="22.37162278125" lon="114.03427679638672" /><trkpt lat="22.37159178125" lon="114.03442279638672" /><trkpt lat="22.37153678125" lon="114.03442679638673" /><trkpt lat="22.37141878125" lon="114.03440279638671" /><trkpt lat="22.37137578125" lon="114.03437279638672" /><trkpt lat="22.37131778125" lon="114.03436679638672" /><trkpt lat="22.37121778125" lon="114.03434179638671" /><trkpt lat="22.37115378125" lon="114.03417579638672" /><trkpt lat="22.37111578125" lon="114.03405779638672" /><trkpt lat="22.37104878125" lon="114.03409879638671" /><trkpt lat="22.37088678125" lon="114.03412679638672" /><trkpt lat="22.37077078125" lon="114.03410279638672" /><trkpt lat="22.37066578125" lon="114.03398079638671" /><trkpt lat="22.37061678125" lon="114.03381479638672" /><trkpt lat="22.37050078125" lon="114.03369679638672" /><trkpt lat="22.37034078125" lon="114.03374379638672" /><trkpt lat="22.37029478125" lon="114.03380979638672" /><trkpt lat="22.37024278125" lon="114.03378979638671" /><trkpt lat="22.37018078125" lon="114.03378379638671" /><trkpt lat="22.37011378125" lon="114.03375679638673" /><trkpt lat="22.37006078125" lon="114.03374879638672" /><trkpt lat="22.36996778125" lon="114.03371879638672" /><trkpt lat="22.36988578125" lon="114.03375179638672" /><trkpt lat="22.36982978125" lon="114.03376879638672" /><trkpt lat="22.36978978125" lon="114.03383679638672" /><trkpt lat="22.36977178125" lon="114.03389379638672" /><trkpt lat="22.36972078125" lon="114.03393679638671" /><trkpt lat="22.36966978125" lon="114.03397479638672" /><trkpt lat="22.36958878125" lon="114.03400779638672" /><trkpt lat="22.36955278125" lon="114.03403579638672" /><trkpt lat="22.36954178125" lon="114.03414779638672" /><trkpt lat="22.36951678125" lon="114.03421579638672" /><trkpt lat="22.36949678125" lon="114.03428579638671" /><trkpt lat="22.36947378125" lon="114.03436779638672" /><trkpt lat="22.36943078125" lon="114.03443379638672" /><trkpt lat="22.36935578125" lon="114.03447379638672" /><trkpt lat="22.36932778125" lon="114.03452679638671" /><trkpt lat="22.36932678125" lon="114.03461079638672" /><trkpt lat="22.36928478125" lon="114.03473279638672" /><trkpt lat="22.36926678125" lon="114.03485279638672" /><trkpt lat="22.36929278125" lon="114.03488879638672" /><trkpt lat="22.36927678125" lon="114.03494579638672" /><trkpt lat="22.36928278125" lon="114.03497379638672" /><trkpt lat="22.36928278125" lon="114.03501079638671" /><trkpt lat="22.36925278125" lon="114.03506379638672" /><trkpt lat="22.36920478125" lon="114.03508979638671" /><trkpt lat="22.36916978125" lon="114.03511679638672" /><trkpt lat="22.36912078125" lon="114.03510979638672" /><trkpt lat="22.36906578125" lon="114.03518879638672" /><trkpt lat="22.36896578125" lon="114.03529479638672" /><trkpt lat="22.36892778125" lon="114.03532379638672" /><trkpt lat="22.36890178125" lon="114.03535979638671" /><trkpt lat="22.36888578125" lon="114.03541979638672" /><trkpt lat="22.36884678125" lon="114.03548779638672" /><trkpt lat="22.36880278125" lon="114.03553879638672" /><trkpt lat="22.36877078125" lon="114.03561679638672" /><trkpt lat="22.36871578125" lon="114.03566279638672" /><trkpt lat="22.36866278125" lon="114.03568679638671" /><trkpt lat="22.36855178125" lon="114.03567579638671" /><trkpt lat="22.36845578125" lon="114.03569979638672" /><trkpt lat="22.36830778125" lon="114.03576579638671" /><trkpt lat="22.36823078125" lon="114.03577479638672" /><trkpt lat="22.36814778125" lon="114.03577979638672" /><trkpt lat="22.36807078125" lon="114.03579479638672" /><trkpt lat="22.36795178125" lon="114.03588079638672" /><trkpt lat="22.36786978125" lon="114.03590079638671" /><trkpt lat="22.36777678125" lon="114.03587779638671" /><trkpt lat="22.36768578125" lon="114.03586879638672" /><trkpt lat="22.36763578125" lon="114.03590079638671" /><trkpt lat="22.36758278125" lon="114.03587479638672" /><trkpt lat="22.36745778125" lon="114.03578579638672" /><trkpt lat="22.36736278125" lon="114.03580279638672" /><trkpt lat="22.36720878125" lon="114.03583779638672" /><trkpt lat="22.36714878125" lon="114.03581779638672" /><trkpt lat="22.36703778125" lon="114.03578379638672" /><trkpt lat="22.36664778125" lon="114.03571579638673" /><trkpt lat="22.36654778125" lon="114.03595379638672" /><trkpt lat="22.36654578125" lon="114.03620779638672" /><trkpt lat="22.36655678125" lon="114.03642379638671" /><trkpt lat="22.36675978125" lon="114.03674579638673" /><trkpt lat="22.36684278125" lon="114.03687179638672" /><trkpt lat="22.36689378125" lon="114.03692379638672" /><trkpt lat="22.36695078125" lon="114.03697979638672" /><trkpt lat="22.36701378125" lon="114.03717179638672" /><trkpt lat="22.36717878125" lon="114.03732979638671" /><trkpt lat="22.36731378125" lon="114.03742679638673" /><trkpt lat="22.36746978125" lon="114.03760279638672" /><trkpt lat="22.36754378125" lon="114.03778879638672" /><trkpt lat="22.36761278125" lon="114.03787879638672" /><trkpt lat="22.36766378125" lon="114.03796479638672" /><trkpt lat="22.36781178125" lon="114.03812579638672" /><trkpt lat="22.36792078125" lon="114.03820879638671" /><trkpt lat="22.36809678125" lon="114.03822979638672" /><trkpt lat="22.36828978125" lon="114.03831679638672" /><trkpt lat="22.36844978125" lon="114.03842379638672" /><trkpt lat="22.36864278125" lon="114.03876179638672" /><trkpt lat="22.36872478125" lon="114.03911879638672" /><trkpt lat="22.36868278125" lon="114.03960979638671" /><trkpt lat="22.36867078125" lon="114.03974079638672" /><trkpt lat="22.36865478125" lon="114.03984579638671" /><trkpt lat="22.36857078125" lon="114.04012379638672" /><trkpt lat="22.36855878125" lon="114.04022579638672" /><trkpt lat="22.36859978125" lon="114.04034579638672" /><trkpt lat="22.36897578125" lon="114.04037579638671" /><trkpt lat="22.36915778125" lon="114.04036779638672" /><trkpt lat="22.36928878125" lon="114.04042979638672" /><trkpt lat="22.36935178125" lon="114.04047279638672" /><trkpt lat="22.36937478125" lon="114.04052779638671" /><trkpt lat="22.36942478125" lon="114.04061279638672" /><trkpt lat="22.36951378125" lon="114.04070079638672" /><trkpt lat="22.36960778125" lon="114.04075279638671" /><trkpt lat="22.36982778125" lon="114.04105879638672" /><trkpt lat="22.36999078125" lon="114.04099079638672" /><trkpt lat="22.37005978125" lon="114.04087779638672" /><trkpt lat="22.37009078125" lon="114.04079279638673" /><trkpt lat="22.37016078125" lon="114.04060279638672" /><trkpt lat="22.37035278125" lon="114.04053879638671" /><trkpt lat="22.37051178125" lon="114.04066279638671" /><trkpt lat="22.37053978125" lon="114.04088079638672" /><trkpt lat="22.37052878125" lon="114.04108079638672" /><trkpt lat="22.37061378125" lon="114.04112079638672" /><trkpt lat="22.37066978125" lon="114.04115679638672" /><trkpt lat="22.37078278125" lon="114.04118579638671" /><trkpt lat="22.37087678125" lon="114.04122679638672" /><trkpt lat="22.37098878125" lon="114.04126279638672" /><trkpt lat="22.37115778125" lon="114.04126079638672" /><trkpt lat="22.37123578125" lon="114.04128479638672" /><trkpt lat="22.37134778125" lon="114.04127679638673" /><trkpt lat="22.37150578125" lon="114.04130479638673" /><trkpt lat="22.37168878125" lon="114.04138379638673" /><trkpt lat="22.37181078125" lon="114.04149179638672" /><trkpt lat="22.37211878125" lon="114.04188679638672" /><trkpt lat="22.37222878125" lon="114.04201279638671" /><trkpt lat="22.37230778125" lon="114.04212179638672" /><trkpt lat="22.37246578125" lon="114.04226779638672" /><trkpt lat="22.37267078125" lon="114.04241179638672" /><trkpt lat="22.37280378125" lon="114.04248179638672" /><trkpt lat="22.37287678125" lon="114.04254479638672" /><trkpt lat="22.37299278125" lon="114.04267579638672" /><trkpt lat="22.37301678125" lon="114.04278679638672" /><trkpt lat="22.37306278125" lon="114.04291579638672" /><trkpt lat="22.37318178125" lon="114.04308979638672" /><trkpt lat="22.37334978125" lon="114.04314279638672" /><trkpt lat="22.37352278125" lon="114.04315179638672" /><trkpt lat="22.37372278125" lon="114.04312879638672" /><trkpt lat="22.37401578125" lon="114.04316779638671" /><trkpt lat="22.37421878125" lon="114.04302779638672" /><trkpt lat="22.37441678125" lon="114.04294179638671" /><trkpt lat="22.37450278125" lon="114.04293079638671" /><trkpt lat="22.37436778125" lon="114.04326979638672" /><trkpt lat="22.37431778125" lon="114.04342379638672" /><trkpt lat="22.37425978125" lon="114.04348879638673" /><trkpt lat="22.37413278125" lon="114.04345479638671" /><trkpt lat="22.37376478125" lon="114.04358279638672" /><trkpt lat="22.37358878125" lon="114.04376479638672" /><trkpt lat="22.37350378125" lon="114.04378479638672" /><trkpt lat="22.37341678125" lon="114.04381579638672" /><trkpt lat="22.37329678125" lon="114.04392579638672" /><trkpt lat="22.37303678125" lon="114.04402279638671" /><trkpt lat="22.37248778125" lon="114.04453579638673" /><trkpt lat="22.37233178125" lon="114.04479079638672" /><trkpt lat="22.37254478125" lon="114.04484679638672" /><trkpt lat="22.37271378125" lon="114.04493679638672" /><trkpt lat="22.37285978125" lon="114.04514879638671" /><trkpt lat="22.37290578125" lon="114.04524479638673" /><trkpt lat="22.37294878125" lon="114.04536579638672" /><trkpt lat="22.37305078125" lon="114.04576079638672" /><trkpt lat="22.37308178125" lon="114.04604679638672" /><trkpt lat="22.37284878125" lon="114.04632379638672" /><trkpt lat="22.37284278125" lon="114.04641379638672" /><trkpt lat="22.37291578125" lon="114.04657279638671" /><trkpt lat="22.37309678125" lon="114.04661479638672" /><trkpt lat="22.37334478125" lon="114.04662279638671" /><trkpt lat="22.37352678125" lon="114.04679479638672" /><trkpt lat="22.37368778125" lon="114.04700179638672" /><trkpt lat="22.37379778125" lon="114.04709779638672" /><trkpt lat="22.37414178125" lon="114.04729579638672" /><trkpt lat="22.37426178125" lon="114.04737179638671" /><trkpt lat="22.37434278125" lon="114.04746579638672" /><trkpt lat="22.37473278125" lon="114.04815279638672" /><trkpt lat="22.37503678125" lon="114.04858079638672" /><trkpt lat="22.37515078125" lon="114.04871279638672" /><trkpt lat="22.37525278125" lon="114.04879679638672" /><trkpt lat="22.37553278125" lon="114.04892479638671" /><trkpt lat="22.37580878125" lon="114.04903979638672" /><trkpt lat="22.37589278125" lon="114.04914179638672" /><trkpt lat="22.37589278125" lon="114.04925379638672" /><trkpt lat="22.37579178125" lon="114.04950779638672" /><trkpt lat="22.37604578125" lon="114.04936079638672" /><trkpt lat="22.37609978125" lon="114.04923479638671" /><trkpt lat="22.37612078125" lon="114.04914779638672" /><trkpt lat="22.37608578125" lon="114.04903079638672" /><trkpt lat="22.37601478125" lon="114.04887179638672" /><trkpt lat="22.37607578125" lon="114.04875879638672" /><trkpt lat="22.37615678125" lon="114.04869579638672" /><trkpt lat="22.37630538476032" lon="114.04867548372096" /><trkpt lat="22.37634749549092" lon="114.0487795975148" /><trkpt lat="22.37634501297667" lon="114.048833401421" /><trkpt lat="22.37631818052202" lon="114.0488846876749" /><trkpt lat="22.376292912147463" lon="114.04883772915014" /><trkpt lat="22.37626130294936" lon="114.0487145436033" /><trkpt lat="22.376262706637167" lon="114.04868131741438" /><trkpt lat="22.37615678125" lon="114.04869579638672" /><trkpt lat="22.37607578125" lon="114.04875879638672" /><trkpt lat="22.37601478125" lon="114.04887179638672" /><trkpt lat="22.37608578125" lon="114.04903079638672" /><trkpt lat="22.37612078125" lon="114.04914779638672" /><trkpt lat="22.37609978125" lon="114.04923479638671" /><trkpt lat="22.37604578125" lon="114.04936079638672" /><trkpt lat="22.37577078125" lon="114.04952079638672" /><trkpt lat="22.37563278125" lon="114.04960879638672" /><trkpt lat="22.37510378125" lon="114.04989379638671" /><trkpt lat="22.37491178125" lon="114.04999679638672" /><trkpt lat="22.37447178125" lon="114.05025879638671" /><trkpt lat="22.37416178125" lon="114.05038179638672" /><trkpt lat="22.37388778125" lon="114.05033379638672" /><trkpt lat="22.37363478125" lon="114.05015579638672" /><trkpt lat="22.37322678125" lon="114.05004179638672" /><trkpt lat="22.37300078125" lon="114.04984179638672" /><trkpt lat="22.37266078125" lon="114.04966979638672" /><trkpt lat="22.37240878125" lon="114.04944779638672" /><trkpt lat="22.37228278125" lon="114.04930279638671" /><trkpt lat="22.37205078125" lon="114.04926779638672" /><trkpt lat="22.37188478125" lon="114.04930479638672" /><trkpt lat="22.37165778125" lon="114.04949279638672" /><trkpt lat="22.37155578125" lon="114.04981479638671" /><trkpt lat="22.37175878125" lon="114.05045179638672" /><trkpt lat="22.37200478125" lon="114.05095479638672" /><trkpt lat="22.37211778125" lon="114.05135979638672" /><trkpt lat="22.37213978125" lon="114.05166779638672" /><trkpt lat="22.37202678125" lon="114.05181279638671" /><trkpt lat="22.37185578125" lon="114.05185479638672" /><trkpt lat="22.37161878125" lon="114.05182979638671" /><trkpt lat="22.37143778125" lon="114.05175979638672" /><trkpt lat="22.37127478125" lon="114.05169679638672" /><trkpt lat="22.37109278125" lon="114.05162079638671" /><trkpt lat="22.37077678125" lon="114.05152379638672" /><trkpt lat="22.37067178125" lon="114.05135679638671" /><trkpt lat="22.37054278125" lon="114.05120079638672" /><trkpt lat="22.37038278125" lon="114.05102279638672" /><trkpt lat="22.37001378125" lon="114.05106879638672" /><trkpt lat="22.37008578125" lon="114.05124479638671" /><trkpt lat="22.37009778125" lon="114.05141479638672" /><trkpt lat="22.37001178125" lon="114.05168479638672" /><trkpt lat="22.37002878125" lon="114.05178679638672" /><trkpt lat="22.37009878125" lon="114.05187879638672" /><trkpt lat="22.37013778125" lon="114.05200079638672" /><trkpt lat="22.37011078125" lon="114.05230279638671" /><trkpt lat="22.37009078125" lon="114.05252779638671" /><trkpt lat="22.37015478125" lon="114.05261979638672" /><trkpt lat="22.37029378125" lon="114.05270179638671" /><trkpt lat="22.37038878125" lon="114.05277679638672" /><trkpt lat="22.37059378125" lon="114.05304679638672" /><trkpt lat="22.37067778125" lon="114.05321779638672" /><trkpt lat="22.37070878125" lon="114.05329879638671" /><trkpt lat="22.37078778125" lon="114.05335079638672" /><trkpt lat="22.371182697352314" lon="114.05354386611087" /><trkpt lat="22.37116083974317" lon="114.05345804642917" /><trkpt lat="22.37108134030092" lon="114.05344226741607" /><trkpt lat="22.371078510448896" lon="114.05344225040614" /><trkpt lat="22.371078487703798" lon="114.05344667739615" /><trkpt lat="22.371074417092245" lon="114.05344528608663" /><trkpt lat="22.371072819310825" lon="114.05344833674485" /><trkpt lat="22.371069973613032" lon="114.05345138002548" /><trkpt lat="22.37105621768237" lon="114.05348203158925" /><trkpt lat="22.37078778125" lon="114.05335079638672" /><trkpt lat="22.37070878125" lon="114.05329879638671" /><trkpt lat="22.37070778125" lon="114.05349279638672" /><trkpt lat="22.37068078125" lon="114.05371879638672" /><trkpt lat="22.37065078125" lon="114.05385879638672" /><trkpt lat="22.37038778125" lon="114.05419179638672" /><trkpt lat="22.37011978125" lon="114.05444179638671" /><trkpt lat="22.37003878125" lon="114.05445279638671" /><trkpt lat="22.36994078125" lon="114.05441079638672" /><trkpt lat="22.36987578125" lon="114.05437479638672" /><trkpt lat="22.36982778125" lon="114.05432779638672" /><trkpt lat="22.36960778125" lon="114.05452479638672" /><trkpt lat="22.36942478125" lon="114.05473979638671" /><trkpt lat="22.36934078125" lon="114.05477279638671" /><trkpt lat="22.36925478125" lon="114.05479379638672" /><trkpt lat="22.36916078125" lon="114.05481579638672" /><trkpt lat="22.36899978125" lon="114.05480579638672" /><trkpt lat="22.36893878125" lon="114.05487879638672" /><trkpt lat="22.36895278125" lon="114.05504979638673" /><trkpt lat="22.36892278125" lon="114.05513679638672" /><trkpt lat="22.36887778125" lon="114.05525879638672" /><trkpt lat="22.36892178125" lon="114.05539579638672" /><trkpt lat="22.36883378125" lon="114.05554279638672" /><trkpt lat="22.36870578125" lon="114.05570479638672" /><trkpt lat="22.36870778125" lon="114.05577579638671" /><trkpt lat="22.36881278125" lon="114.05587979638672" /><trkpt lat="22.36886378125" lon="114.05600679638673" /><trkpt lat="22.36881778125" lon="114.05610579638672" /><trkpt lat="22.36874778125" lon="114.05619579638672" /><trkpt lat="22.36875278125" lon="114.05633679638672" /><trkpt lat="22.36882678125" lon="114.05648679638672" /><trkpt lat="22.36900678125" lon="114.05666679638672" /><trkpt lat="22.36906678125" lon="114.05671279638672" /><trkpt lat="22.36912378125" lon="114.05676979638672" /><trkpt lat="22.36912978125" lon="114.05684879638672" /><trkpt lat="22.36913778125" lon="114.05696079638672" /><trkpt lat="22.36917978125" lon="114.05707579638671" /><trkpt lat="22.36918978125" lon="114.05715179638672" /><trkpt lat="22.36919478125" lon="114.05725679638672" /><trkpt lat="22.36924478125" lon="114.05742079638672" /><trkpt lat="22.36929278125" lon="114.05760579638672" /><trkpt lat="22.36934378125" lon="114.05782479638673" /><trkpt lat="22.36938178125" lon="114.05792179638672" /><trkpt lat="22.36940578125" lon="114.05798079638672" /><trkpt lat="22.36939478125" lon="114.05804179638672" /><trkpt lat="22.36939478125" lon="114.05809979638671" /><trkpt lat="22.36940578125" lon="114.05817979638672" /><trkpt lat="22.36936578125" lon="114.05828579638671" /><trkpt lat="22.36933378125" lon="114.05832679638672" /><trkpt lat="22.36928578125" lon="114.05837079638673" /><trkpt lat="22.36921278125" lon="114.05840479638672" /><trkpt lat="22.36917078125" lon="114.05840479638672" /><trkpt lat="22.36912778125" lon="114.05839079638672" /><trkpt lat="22.36900578125" lon="114.05833179638672" /><trkpt lat="22.36894278125" lon="114.05826679638672" /><trkpt lat="22.36887578125" lon="114.05823879638672" /><trkpt lat="22.36878878125" lon="114.05823379638672" /><trkpt lat="22.36859378125" lon="114.05826179638672" /><trkpt lat="22.36844678125" lon="114.05829679638671" /><trkpt lat="22.36843178125" lon="114.05835779638672" /><trkpt lat="22.36848478125" lon="114.05845779638672" /><trkpt lat="22.36838978125" lon="114.05843879638672" /><trkpt lat="22.36836478125" lon="114.05848279638671" /><trkpt lat="22.36826878125" lon="114.05846379638672" /><trkpt lat="22.36810778125" lon="114.05837379638672" /><trkpt lat="22.36806278125" lon="114.05836579638672" /><trkpt lat="22.36808878125" lon="114.05841879638672" /><trkpt lat="22.36818278125" lon="114.05860579638671" /><trkpt lat="22.36823578125" lon="114.05867279638672" /><trkpt lat="22.36822978125" lon="114.05879979638672" /><trkpt lat="22.36798078125" lon="114.05886779638672" /><trkpt lat="22.36778878125" lon="114.05900779638672" /><trkpt lat="22.36782178125" lon="114.05917979638672" /><trkpt lat="22.36764578125" lon="114.05925179638672" /><trkpt lat="22.36758078125" lon="114.05920179638672" /><trkpt lat="22.36737278125" lon="114.05898479638672" /><trkpt lat="22.36729478125" lon="114.05909579638671" /><trkpt lat="22.36719078125" lon="114.05924379638672" /><trkpt lat="22.367177024863107" lon="114.05922777501753" /></trkseg></trk></gpx>