<?xml version='1.0' encoding='UTF-8' ?><gpx version="1.1" creator="HikingTrailHK" xsi:schemaLocation="http://www.topografix.com/GPX/1/1 http://www.topografix.com/GPX/1/1/gpx.xsd" xmlns="http://www.topografix.com/GPX/1/1" xmlns:xsi="http://www.w3.org/2001/XMLSchema-instance"><metadata><name>梅窩至貝澳 @ 2015-5-25</name><desc></desc></metadata><trk><trkseg><trkpt lat="22.265142007988565" lon="114.00079538369464" /><trkpt lat="22.26504378125" lon="114.00078479638672" /><trkpt lat="22.26487478125" lon="114.00082779638672" /><trkpt lat="22.26479778125" lon="114.00084079638673" /><trkpt lat="22.26467678125" lon="114.00086179638672" /><trkpt lat="22.26438878125" lon="114.00091479638672" /><trkpt lat="22.26421278125" lon="114.00094179638671" /><trkpt lat="22.26405378125" lon="114.00097179638672" /><trkpt lat="22.26371978125" lon="114.00103879638672" /><trkpt lat="22.26365678125" lon="114.00106379638672" /><trkpt lat="22.26361978125" lon="114.00109479638672" /><trkpt lat="22.26360178125" lon="114.00114579638672" /><trkpt lat="22.26359378125" lon="114.00120479638672" /><trkpt lat="22.26362178125" lon="114.00143179638673" /><trkpt lat="22.26370178125" lon="114.00182879638672" /><trkpt lat="22.26369178125" lon="114.00188579638672" /><trkpt lat="22.26367878125" lon="114.00191779638672" /><trkpt lat="22.26365778125" lon="114.00194479638672" /><trkpt lat="22.26361078125" lon="114.00199879638672" /><trkpt lat="22.26344978125" lon="114.00203379638671" /><trkpt lat="22.26328178125" lon="114.00206179638671" /><trkpt lat="22.26324278125" lon="114.00206479638672" /><trkpt lat="22.26318378125" lon="114.00206979638672" /><trkpt lat="22.26308778125" lon="114.00206879638672" /><trkpt lat="22.26302378125" lon="114.00206579638672" /><trkpt lat="22.26297378125" lon="114.00203379638671" /><trkpt lat="22.26294178125" lon="114.00197979638672" /><trkpt lat="22.26291878125" lon="114.00189679638672" /><trkpt lat="22.26290878125" lon="114.00181879638671" /><trkpt lat="22.26283178125" lon="114.00123279638672" /><trkpt lat="22.26281378125" lon="114.00113279638671" /><trkpt lat="22.26277278125" lon="114.00101579638672" /><trkpt lat="22.26270978125" lon="114.00093679638672" /><trkpt lat="22.26258978125" lon="114.00092179638672" /><trkpt lat="22.26244278125" lon="114.00094579638672" /><trkpt lat="22.26236478125" lon="114.00098879638672" /><trkpt lat="22.26230378125" lon="114.00107179638673" /><trkpt lat="22.26227378125" lon="114.00117079638672" /><trkpt lat="22.26224778125" lon="114.00125679638671" /><trkpt lat="22.26219778125" lon="114.00159779638672" /><trkpt lat="22.26218478125" lon="114.00170879638672" /><trkpt lat="22.26211378125" lon="114.00165779638672" /><trkpt lat="22.26203178125" lon="114.00162079638672" /><trkpt lat="22.26195378125" lon="114.00157079638672" /><trkpt lat="22.26192178125" lon="114.00163479638672" /><trkpt lat="22.26183978125" lon="114.00176279638671" /><trkpt lat="22.26176278125" lon="114.00195879638672" /><trkpt lat="22.26169878125" lon="114.00209579638671" /><trkpt lat="22.26166178125" lon="114.00225079638672" /><trkpt lat="22.26162078125" lon="114.00245679638672" /><trkpt lat="22.26154778125" lon="114.00272179638672" /><trkpt lat="22.26146978125" lon="114.00286779638672" /><trkpt lat="22.26135578125" lon="114.00314179638671" /><trkpt lat="22.26125978125" lon="114.00337879638671" /><trkpt lat="22.26117778125" lon="114.00357579638671" /><trkpt lat="22.26105878125" lon="114.00380779638672" /><trkpt lat="22.26082678125" lon="114.00426079638672" /><trkpt lat="22.26059778125" lon="114.00464879638672" /><trkpt lat="22.26041178125" lon="114.00527179638672" /><trkpt lat="22.26025178125" lon="114.00552279638671" /><trkpt lat="22.26016678125" lon="114.00565479638672" /><trkpt lat="22.26006178125" lon="114.00585379638672" /><trkpt lat="22.25993278125" lon="114.00605679638672" /><trkpt lat="22.25973478125" lon="114.00627379638672" /><trkpt lat="22.25957078125" lon="114.00631079638671" /><trkpt lat="22.25944778125" lon="114.00626979638672" /><trkpt lat="22.25927878125" lon="114.00620079638672" /><trkpt lat="22.25907278125" lon="114.00611879638672" /><trkpt lat="22.25892678125" lon="114.00622379638672" /><trkpt lat="22.25878078125" lon="114.00638779638672" /><trkpt lat="22.25867478125" lon="114.00658679638671" /><trkpt lat="22.25861078125" lon="114.00674979638671" /><trkpt lat="22.25818678125" lon="114.00697679638672" /><trkpt lat="22.25805478125" lon="114.00693579638671" /><trkpt lat="22.25792178125" lon="114.00681279638673" /><trkpt lat="22.25784478125" lon="114.00669879638671" /><trkpt lat="22.25776278125" lon="114.00667579638672" /><trkpt lat="22.25766178125" lon="114.00678079638672" /><trkpt lat="22.25750678125" lon="114.00694479638672" /><trkpt lat="22.25740378125" lon="114.00726779638671" /><trkpt lat="22.25735478125" lon="114.00734979638672" /><trkpt lat="22.25732678125" lon="114.00745779638672" /><trkpt lat="22.25729478125" lon="114.00765979638672" /><trkpt lat="22.25720678125" lon="114.00780679638672" /><trkpt lat="22.25712578125" lon="114.00786179638672" /><trkpt lat="22.25705178125" lon="114.00786879638672" /><trkpt lat="22.25695378125" lon="114.00784479638672" /><trkpt lat="22.25683578125" lon="114.00780379638672" /><trkpt lat="22.25642878125" lon="114.00776679638672" /><trkpt lat="22.25616478125" lon="114.00776679638672" /><trkpt lat="22.25596778125" lon="114.00784479638672" /><trkpt lat="22.25577578125" lon="114.00794079638672" /><trkpt lat="22.25575378125" lon="114.00800479638671" /><trkpt lat="22.25573678125" lon="114.00820579638672" /><trkpt lat="22.25566578125" lon="114.00851379638672" /><trkpt lat="22.25562078125" lon="114.00862579638672" /><trkpt lat="22.25550678125" lon="114.00873079638671" /><trkpt lat="22.25533278125" lon="114.00883079638672" /><trkpt lat="22.25525078125" lon="114.00880379638672" /><trkpt lat="22.25509578125" lon="114.00877579638671" /><trkpt lat="22.25492678125" lon="114.00881279638672" /><trkpt lat="22.25472178125" lon="114.00893179638672" /><trkpt lat="22.25452078125" lon="114.00901379638672" /><trkpt lat="22.25427078125" lon="114.00908179638672" /><trkpt lat="22.25401278125" lon="114.00926079638671" /><trkpt lat="22.25381578125" lon="114.00936479638672" /><trkpt lat="22.25355078125" lon="114.00940279638672" /><trkpt lat="22.25352778125" lon="114.00921679638672" /><trkpt lat="22.25354778125" lon="114.00907179638672" /><trkpt lat="22.25356278125" lon="114.00894279638672" /><trkpt lat="22.25353078125" lon="114.00873579638672" /><trkpt lat="22.25364278125" lon="114.00838979638672" /><trkpt lat="22.25394078125" lon="114.00815379638672" /><trkpt lat="22.25388178125" lon="114.00778879638672" /><trkpt lat="22.25411978125" lon="114.00738079638671" /><trkpt lat="22.25423878125" lon="114.00701679638672" /><trkpt lat="22.25431878125" lon="114.00665179638672" /><trkpt lat="22.25429878125" lon="114.00615779638672" /><trkpt lat="22.25427878125" lon="114.00575079638672" /><trkpt lat="22.25417878125" lon="114.00542879638672" /><trkpt lat="22.25405978125" lon="114.00518479638671" /><trkpt lat="22.25387078125" lon="114.00504779638672" /><trkpt lat="22.25370378125" lon="114.00448379638672" /><trkpt lat="22.25369678125" lon="114.00394279638672" /><trkpt lat="22.25364278125" lon="114.00381879638672" /><trkpt lat="22.25352378125" lon="114.00360479638672" /><trkpt lat="22.25341478125" lon="114.00341579638672" /><trkpt lat="22.25348678125" lon="114.00303379638672" /><trkpt lat="22.25353478125" lon="114.00167479638672" /><trkpt lat="22.25386178125" lon="114.00127679638672" /><trkpt lat="22.25404978125" lon="114.00093879638672" /><trkpt lat="22.25424378125" lon="114.00080479638672" /><trkpt lat="22.25428278125" lon="114.00042479638672" /><trkpt lat="22.25433878125" lon="114.00016979638671" /><trkpt lat="22.25476178125" lon="113.99956579638672" /><trkpt lat="22.25493378125" lon="113.99944179638672" /><trkpt lat="22.25512878125" lon="113.99930479638672" /><trkpt lat="22.25524078125" lon="113.99938879638673" /><trkpt lat="22.25543378125" lon="113.99942279638672" /><trkpt lat="22.25558478125" lon="113.99931079638672" /><trkpt lat="22.25565678125" lon="113.99922979638671" /><trkpt lat="22.25576878125" lon="113.99912779638672" /><trkpt lat="22.25580878125" lon="113.99890679638672" /><trkpt lat="22.25591578125" lon="113.99861379638672" /><trkpt lat="22.25608478125" lon="113.99843879638672" /><trkpt lat="22.25638778125" lon="113.99821079638672" /><trkpt lat="22.25613078125" lon="113.99808379638672" /><trkpt lat="22.25623878125" lon="113.99816579638671" /><trkpt lat="22.25602778125" lon="113.99785379638672" /><trkpt lat="22.25598878125" lon="113.99706479638672" /><trkpt lat="22.25582978125" lon="113.99679679638672" /><trkpt lat="22.25566578125" lon="113.99656079638672" /><trkpt lat="22.25543578125" lon="113.99650179638672" /><trkpt lat="22.25504278125" lon="113.99604079638672" /><trkpt lat="22.25473578125" lon="113.99586879638672" /><trkpt lat="22.25437778125" lon="113.99568679638672" /><trkpt lat="22.25416478125" lon="113.99550979638671" /><trkpt lat="22.25399778125" lon="113.99539079638672" /><trkpt lat="22.25384878125" lon="113.99525179638673" /><trkpt lat="22.25358578125" lon="113.99524579638671" /><trkpt lat="22.25325778125" lon="113.99512279638672" /><trkpt lat="22.25313078125" lon="113.99517479638672" /><trkpt lat="22.25289478125" lon="113.99509879638671" /><trkpt lat="22.25279078125" lon="113.99497179638672" /><trkpt lat="22.25233378125" lon="113.99488879638672" /><trkpt lat="22.25217378125" lon="113.99482879638671" /><trkpt lat="22.25200478125" lon="113.99457079638672" /><trkpt lat="22.25204478125" lon="113.99433479638672" /><trkpt lat="22.25225678125" lon="113.99400779638673" /><trkpt lat="22.25244178125" lon="113.99384179638672" /><trkpt lat="22.25262078125" lon="113.99366979638671" /><trkpt lat="22.25299778125" lon="113.99348779638672" /><trkpt lat="22.25332578125" lon="113.99322979638671" /><trkpt lat="22.25348678125" lon="113.99308079638672" /><trkpt lat="22.25355278125" lon="113.99296579638671" /><trkpt lat="22.25388578125" lon="113.99273179638672" /><trkpt lat="22.25404978125" lon="113.99251079638672" /><trkpt lat="22.25409978125" lon="113.99231779638671" /><trkpt lat="22.254030781250002" lon="113.99184579638671" /><trkpt lat="22.25393278125" lon="113.99152579638672" /><trkpt lat="22.25384978125" lon="113.99125779638672" /><trkpt lat="22.25361278125" lon="113.99095379638672" /><trkpt lat="22.25326278125" lon="113.99066279638672" /><trkpt lat="22.25308178125" lon="113.99050479638672" /><trkpt lat="22.25298578125" lon="113.99035979638671" /><trkpt lat="22.25280078125" lon="113.99022779638672" /><trkpt lat="22.25253278125" lon="113.99011979638672" /><trkpt lat="22.25211078125" lon="113.99022479638671" /><trkpt lat="22.25179578125" lon="113.99025579638672" /><trkpt lat="22.25157778125" lon="113.99029079638672" /><trkpt lat="22.25142378125" lon="113.99026879638672" /><trkpt lat="22.25113478125" lon="113.99014979638672" /><trkpt lat="22.25078078125" lon="113.99011879638672" /><trkpt lat="22.25050478125" lon="113.99006279638672" /><trkpt lat="22.25033078125" lon="113.99004379638671" /><trkpt lat="22.25030078125" lon="113.99010579638671" /><trkpt lat="22.25019778125" lon="113.99007679638672" /><trkpt lat="22.25008478125" lon="113.98997779638673" /><trkpt lat="22.24986378125" lon="113.98986479638671" /><trkpt lat="22.24958078125" lon="113.98971379638672" /><trkpt lat="22.24939078125" lon="113.98971879638673" /><trkpt lat="22.24916678125" lon="113.98979279638672" /><trkpt lat="22.24895278125" lon="113.98977579638672" /><trkpt lat="22.24870778125" lon="113.98969479638671" /><trkpt lat="22.24859078125" lon="113.98962379638672" /><trkpt lat="22.24840878125" lon="113.98957879638672" /><trkpt lat="22.24827378125" lon="113.98939079638672" /><trkpt lat="22.24803678125" lon="113.98930279638672" /><trkpt lat="22.24788678125" lon="113.98933679638672" /><trkpt lat="22.24776878125" lon="113.98965879638672" /><trkpt lat="22.24767678125" lon="113.98973079638672" /><trkpt lat="22.24756678125" lon="113.98968179638672" /><trkpt lat="22.24721078125" lon="113.98946779638672" /><trkpt lat="22.24712278125" lon="113.98935579638672" /><trkpt lat="22.24692578125" lon="113.98924479638671" /><trkpt lat="22.24681478125" lon="113.98905179638672" /><trkpt lat="22.24671978125" lon="113.98891679638672" /><trkpt lat="22.24657278125" lon="113.98883979638671" /><trkpt lat="22.24644878125" lon="113.98871879638672" /><trkpt lat="22.24637478125" lon="113.98858379638672" /><trkpt lat="22.24624578125" lon="113.98832079638672" /><trkpt lat="22.24576978125" lon="113.98784679638672" /><trkpt lat="22.24552478125" lon="113.98751279638672" /><trkpt lat="22.24537678125" lon="113.98723079638673" /><trkpt lat="22.24537178125" lon="113.98713379638671" /><trkpt lat="22.24540378125" lon="113.98703979638672" /><trkpt lat="22.24536878125" lon="113.98689079638672" /><trkpt lat="22.24540678125" lon="113.98673979638671" /><trkpt lat="22.24531678125" lon="113.98655179638672" /><trkpt lat="22.24508878125" lon="113.98638679638672" /><trkpt lat="22.24488378125" lon="113.98629979638672" /><trkpt lat="22.24462978125" lon="113.98608879638672" /><trkpt lat="22.24425878125" lon="113.98589679638673" /><trkpt lat="22.24404978125" lon="113.98572379638672" /><trkpt lat="22.24381878125" lon="113.98558679638671" /><trkpt lat="22.24359478125" lon="113.98545179638671" /><trkpt lat="22.24351878125" lon="113.98532579638672" /><trkpt lat="22.24320578125" lon="113.98506579638672" /><trkpt lat="22.24305778125" lon="113.98526879638672" /><trkpt lat="22.24293078125" lon="113.98551179638672" /><trkpt lat="22.24275978125" lon="113.98561779638672" /><trkpt lat="22.24258678125" lon="113.98561879638672" /><trkpt lat="22.24246178125" lon="113.98556379638671" /><trkpt lat="22.24210778125" lon="113.98567679638671" /><trkpt lat="22.24181378125" lon="113.98582179638672" /><trkpt lat="22.24159278125" lon="113.98581379638672" /><trkpt lat="22.24130678125" lon="113.98607479638672" /><trkpt lat="22.24124378125" lon="113.98626879638672" /><trkpt lat="22.24131678125" lon="113.98672179638672" /><trkpt lat="22.24128778125" lon="113.98694179638672" /><trkpt lat="22.24130978125" lon="113.98706879638672" /><trkpt lat="22.24118978125" lon="113.98716379638672" /><trkpt lat="22.24102578125" lon="113.98746179638673" /><trkpt lat="22.24100378125" lon="113.98757679638672" /><trkpt lat="22.24088378125" lon="113.98777979638672" /><trkpt lat="22.24068178125" lon="113.98784879638671" /><trkpt lat="22.24043378125" lon="113.98788379638673" /><trkpt lat="22.24020278125" lon="113.98778779638671" /><trkpt lat="22.23997978125" lon="113.98779579638672" /><trkpt lat="22.23983278125" lon="113.98782379638672" /><trkpt lat="22.23961278125" lon="113.98782579638672" /><trkpt lat="22.23948078125" lon="113.98782279638672" /><trkpt lat="22.23941678125" lon="113.98769479638672" /><trkpt lat="22.23929378125" lon="113.98767979638671" /><trkpt lat="22.23921878125" lon="113.98771879638672" /><trkpt lat="22.23912578125" lon="113.98765679638672" /><trkpt lat="22.23909078125" lon="113.98752579638672" /><trkpt lat="22.23889378125" lon="113.98750479638672" /><trkpt lat="22.23893978125" lon="113.98734779638671" /><trkpt lat="22.23893978125" lon="113.98719879638672" /><trkpt lat="22.23880778125" lon="113.98686479638671" /><trkpt lat="22.23868578125" lon="113.98661679638671" /><trkpt lat="22.23853978125" lon="113.98638679638672" /><trkpt lat="22.23824978125" lon="113.98615979638672" /><trkpt lat="22.23820278125" lon="113.98609279638671" /><trkpt lat="22.23813078125" lon="113.98586979638672" /><trkpt lat="22.23810478125" lon="113.98567579638672" /><trkpt lat="22.23803078125" lon="113.98543979638671" /><trkpt lat="22.23794978125" lon="113.98516279638672" /><trkpt lat="22.23802378125" lon="113.98488079638672" /><trkpt lat="22.23791878125" lon="113.98422279638672" /><trkpt lat="22.23802278125" lon="113.98395379638671" /><trkpt lat="22.23818378125" lon="113.98380679638672" /><trkpt lat="22.23835178125" lon="113.98385479638672" /><trkpt lat="22.23859878125" lon="113.98374679638673" /><trkpt lat="22.23866278125" lon="113.98361579638672" /><trkpt lat="22.23865478125" lon="113.98336379638671" /><trkpt lat="22.238602781250002" lon="113.98298279638672" /><trkpt lat="22.23865278125" lon="113.98292879638672" /><trkpt lat="22.23878178125" lon="113.98282679638672" /><trkpt lat="22.23896378125" lon="113.98272279638672" /><trkpt lat="22.23900378125" lon="113.98265479638673" /><trkpt lat="22.23900978125" lon="113.98253379638672" /><trkpt lat="22.23897078125" lon="113.98232679638672" /><trkpt lat="22.23888078125" lon="113.98209579638672" /><trkpt lat="22.23885378125" lon="113.98198579638672" /><trkpt lat="22.23886478125" lon="113.98169879638672" /><trkpt lat="22.23892878125" lon="113.98144179638672" /><trkpt lat="22.23896778125" lon="113.98134379638672" /><trkpt lat="22.23913378125" lon="113.98109279638672" /><trkpt lat="22.23922978125" lon="113.98098179638671" /><trkpt lat="22.23932678125" lon="113.98091379638672" /><trkpt lat="22.23973778125" lon="113.98078479638671" /><trkpt lat="22.23987578125" lon="113.98071679638672" /><trkpt lat="22.24019378125" lon="113.98050179638672" /><trkpt lat="22.24050878125" lon="113.98025779638672" /><trkpt lat="22.24058778125" lon="113.98021879638672" /><trkpt lat="22.24065578125" lon="113.98021579638672" /><trkpt lat="22.24084178125" lon="113.98027979638672" /><trkpt lat="22.24123978125" lon="113.98044379638672" /><trkpt lat="22.24150678125" lon="113.98059579638672" /><trkpt lat="22.24164378125" lon="113.98062479638672" /><trkpt lat="22.24174778125" lon="113.98057579638672" /><trkpt lat="22.24220678125" lon="113.97993379638672" /><trkpt lat="22.24220878125" lon="113.97976379638672" /><trkpt lat="22.24221978125" lon="113.97968279638673" /><trkpt lat="22.24224678125" lon="113.97949479638672" /><trkpt lat="22.24217678125" lon="113.97930979638672" /><trkpt lat="22.24192578125" lon="113.97916479638671" /><trkpt lat="22.24187278125" lon="113.97897579638672" /><trkpt lat="22.24183978125" lon="113.97885379638672" /><trkpt lat="22.24168478125" lon="113.97873579638672" /><trkpt lat="22.24152078125" lon="113.97868679638673" /><trkpt lat="22.24146878125" lon="113.97867079638672" /><trkpt lat="22.24127578125" lon="113.97845779638672" /><trkpt lat="22.24143678125" lon="113.97789279638671" /><trkpt lat="22.24159078125" lon="113.97742279638672" /><trkpt lat="22.24174178125" lon="113.97705979638671" /><trkpt lat="22.24191578125" lon="113.97695479638672" /><trkpt lat="22.24216978125" lon="113.97680379638672" /><trkpt lat="22.24245778125" lon="113.97668379638672" /><trkpt lat="22.24262778125" lon="113.97663579638672" /><trkpt lat="22.24285078125" lon="113.97663579638672" /><trkpt lat="22.24306578125" lon="113.97666179638672" /><trkpt lat="22.24319178125" lon="113.97666679638672" /><trkpt lat="22.24333078125" lon="113.97667279638672" /><trkpt lat="22.24332478125" lon="113.97716879638672" /><trkpt lat="22.24333078125" lon="113.97724979638672" /><trkpt lat="22.24336078125" lon="113.97761079638671" /><trkpt lat="22.24338278125" lon="113.97767479638672" /><trkpt lat="22.24348779862911" lon="113.97798089331067" /></trkseg></trk></gpx>