<?xml version='1.0' encoding='UTF-8' ?><gpx version="1.1" creator="HikingTrailHK" xsi:schemaLocation="http://www.topografix.com/GPX/1/1 http://www.topografix.com/GPX/1/1/gpx.xsd" xmlns="http://www.topografix.com/GPX/1/1" xmlns:xsi="http://www.w3.org/2001/XMLSchema-instance"><metadata><name>橋咀島 @ 2023-12-03</name><desc></desc></metadata><trk><trkseg><trkpt lat="22.367789592157607" lon="114.287144638921" /><trkpt lat="22.36778978125" lon="114.28714479638671" /><trkpt lat="22.36746378125" lon="114.28760879638672" /><trkpt lat="22.36743878125" lon="114.28764179638672" /><trkpt lat="22.36749778125" lon="114.28769679638671" /><trkpt lat="22.36753578125" lon="114.28774179638671" /><trkpt lat="22.36734378125" lon="114.28796079638671" /><trkpt lat="22.36718678125" lon="114.28809479638672" /><trkpt lat="22.36705378125" lon="114.28809379638672" /><trkpt lat="22.36671178125" lon="114.28831879638672" /><trkpt lat="22.36649278125" lon="114.28841479638672" /><trkpt lat="22.36644378125" lon="114.28843679638672" /><trkpt lat="22.36639378125" lon="114.28845879638672" /><trkpt lat="22.36626678125" lon="114.28850679638671" /><trkpt lat="22.36623178125" lon="114.28847679638672" /><trkpt lat="22.36561078125" lon="114.28801779638673" /><trkpt lat="22.36528678125" lon="114.28787379638672" /><trkpt lat="22.36500078125" lon="114.28774479638672" /><trkpt lat="22.36486178125" lon="114.28766779638671" /><trkpt lat="22.36443978125" lon="114.28735179638672" /><trkpt lat="22.36429678125" lon="114.28716879638672" /><trkpt lat="22.36414578125" lon="114.28694279638673" /><trkpt lat="22.36394578125" lon="114.28678679638672" /><trkpt lat="22.36382478125" lon="114.28680179638671" /><trkpt lat="22.36370878125" lon="114.28680779638673" /><trkpt lat="22.36350978125" lon="114.28675679638671" /><trkpt lat="22.36340478125" lon="114.28664479638672" /><trkpt lat="22.36329378125" lon="114.28662079638671" /><trkpt lat="22.36317978125" lon="114.28649779638671" /><trkpt lat="22.36305578125" lon="114.28658379638672" /><trkpt lat="22.36294578125" lon="114.28672279638671" /><trkpt lat="22.36289878125" lon="114.28672579638672" /><trkpt lat="22.36288678125" lon="114.28669079638672" /><trkpt lat="22.36289378125" lon="114.28658579638672" /><trkpt lat="22.36305178125" lon="114.28619779638672" /><trkpt lat="22.36309758218654" lon="114.2862412618756" /><trkpt lat="22.363097559448832" lon="114.28629538117349" /><trkpt lat="22.36304596368531" lon="114.28629892757118" /><trkpt lat="22.36301604139577" lon="114.28628556332784" /><trkpt lat="22.36289378125" lon="114.28658579638672" /><trkpt lat="22.36288678125" lon="114.28669079638672" /><trkpt lat="22.36289878125" lon="114.28672579638672" /><trkpt lat="22.36294578125" lon="114.28672279638671" /><trkpt lat="22.36305578125" lon="114.28658379638672" /><trkpt lat="22.36317978125" lon="114.28649779638671" /><trkpt lat="22.36329378125" lon="114.28662079638671" /><trkpt lat="22.36340478125" lon="114.28664479638672" /><trkpt lat="22.36350978125" lon="114.28675679638671" /><trkpt lat="22.36370878125" lon="114.28680779638673" /><trkpt lat="22.36382478125" lon="114.28680179638671" /><trkpt lat="22.36394578125" lon="114.28678679638672" /><trkpt lat="22.36414578125" lon="114.28694279638673" /><trkpt lat="22.36429678125" lon="114.28716879638672" /><trkpt lat="22.36443978125" lon="114.28735179638672" /><trkpt lat="22.36486178125" lon="114.28766779638671" /><trkpt lat="22.36500078125" lon="114.28774479638672" /><trkpt lat="22.36528678125" lon="114.28787379638672" /><trkpt lat="22.36561078125" lon="114.28801779638673" /><trkpt lat="22.36623178125" lon="114.28847679638672" /><trkpt lat="22.36626678125" lon="114.28850679638671" /><trkpt lat="22.36608878125" lon="114.28875379638671" /><trkpt lat="22.36594278125" lon="114.28891979638672" /><trkpt lat="22.36585478125" lon="114.28907979638672" /><trkpt lat="22.366436781250002" lon="114.28889079638672" /><trkpt lat="22.36644478125" lon="114.28890379638672" /><trkpt lat="22.36635078125" lon="114.28902279638672" /><trkpt lat="22.36595478125" lon="114.28932679638672" /><trkpt lat="22.36595878125" lon="114.28940879638672" /><trkpt lat="22.36620578125" lon="114.28944979638672" /><trkpt lat="22.36625078125" lon="114.28956879638672" /><trkpt lat="22.36626478125" lon="114.28969079638672" /><trkpt lat="22.36626178125" lon="114.28987879638672" /><trkpt lat="22.36625178125" lon="114.29007679638671" /><trkpt lat="22.36625678125" lon="114.29012779638671" /><trkpt lat="22.36626078125" lon="114.29013879638671" /><trkpt lat="22.36626778125" lon="114.29014779638672" /><trkpt lat="22.36627478125" lon="114.29015579638671" /><trkpt lat="22.36636478125" lon="114.29017379638672" /><trkpt lat="22.36637178125" lon="114.29018079638672" /><trkpt lat="22.36637578125" lon="114.29018779638672" /><trkpt lat="22.36637978125" lon="114.29019679638672" /><trkpt lat="22.36637878125" lon="114.29020779638672" /><trkpt lat="22.36637578125" lon="114.29021979638672" /><trkpt lat="22.36637178125" lon="114.29023079638672" /><trkpt lat="22.36635578125" lon="114.29026279638671" /><trkpt lat="22.36631078125" lon="114.29031779638672" /><trkpt lat="22.36619678125" lon="114.29040279638672" /><trkpt lat="22.36598878125" lon="114.29053879638671" /><trkpt lat="22.36596978125" lon="114.29054979638671" /><trkpt lat="22.36595178125" lon="114.29055679638672" /><trkpt lat="22.36593278125" lon="114.29055979638672" /><trkpt lat="22.36591278125" lon="114.29055979638672" /><trkpt lat="22.36589578125" lon="114.29055779638672" /><trkpt lat="22.36587778125" lon="114.29055279638672" /><trkpt lat="22.36585878125" lon="114.29054379638671" /><trkpt lat="22.36583978125" lon="114.29053479638672" /><trkpt lat="22.36582378125" lon="114.29052279638672" /><trkpt lat="22.36575178125" lon="114.29044479638672" /><trkpt lat="22.36573878125" lon="114.29043479638672" /><trkpt lat="22.36572478125" lon="114.29042579638671" /><trkpt lat="22.36570778125" lon="114.29041879638672" /><trkpt lat="22.36569178125" lon="114.29041479638671" /><trkpt lat="22.36567678125" lon="114.29041279638672" /><trkpt lat="22.36565878125" lon="114.29041279638672" /><trkpt lat="22.36558578125" lon="114.29042779638672" /><trkpt lat="22.36551478125" lon="114.29045079638672" /><trkpt lat="22.36548478125" lon="114.29047179638673" /><trkpt lat="22.36546778125" lon="114.29048679638672" /><trkpt lat="22.36545578125" lon="114.29050579638673" /><trkpt lat="22.36544678125" lon="114.29052679638671" /><trkpt lat="22.36543278125" lon="114.29058179638672" /><trkpt lat="22.36537678125" lon="114.29072979638671" /><trkpt lat="22.36529378125" lon="114.29092779638673" /><trkpt lat="22.36528378125" lon="114.29095879638672" /><trkpt lat="22.36527478125" lon="114.29099279638672" /><trkpt lat="22.36525678125" lon="114.29108479638671" /><trkpt lat="22.36525378125" lon="114.29109379638672" /><trkpt lat="22.36524878125" lon="114.29110179638671" /><trkpt lat="22.36524278125" lon="114.29110779638673" /><trkpt lat="22.36522878125" lon="114.29111879638671" /><trkpt lat="22.36521878125" lon="114.29112779638672" /><trkpt lat="22.36519578125" lon="114.29115479638672" /><trkpt lat="22.36517878125" lon="114.29117679638672" /><trkpt lat="22.36515378125" lon="114.29121379638671" /><trkpt lat="22.36514978125" lon="114.29122079638672" /><trkpt lat="22.36514778125" lon="114.29122879638672" /><trkpt lat="22.36514178125" lon="114.29125979638673" /><trkpt lat="22.36514078125" lon="114.29126679638672" /><trkpt lat="22.36514078125" lon="114.29127379638672" /><trkpt lat="22.36514378125" lon="114.29134179638672" /><trkpt lat="22.36514578125" lon="114.29135679638672" /><trkpt lat="22.36515578125" lon="114.29140479638671" /><trkpt lat="22.36515678125" lon="114.29141379638672" /><trkpt lat="22.36515678125" lon="114.29142279638671" /><trkpt lat="22.36514978125" lon="114.29147779638672" /><trkpt lat="22.36514978125" lon="114.29148879638672" /><trkpt lat="22.36515178125" lon="114.29149879638672" /><trkpt lat="22.36516678125" lon="114.29154279638672" /><trkpt lat="22.36516778125" lon="114.29155079638672" /><trkpt lat="22.36516878125" lon="114.29155879638672" /><trkpt lat="22.36516578125" lon="114.29158679638672" /><trkpt lat="22.36516378125" lon="114.29159279638672" /><trkpt lat="22.36516078125" lon="114.29159779638672" /><trkpt lat="22.36515278125" lon="114.29160979638672" /><trkpt lat="22.36514578125" lon="114.29161679638672" /><trkpt lat="22.36513678125" lon="114.29162779638672" /><trkpt lat="22.36512878125" lon="114.29163779638672" /><trkpt lat="22.36511578125" lon="114.29165679638672" /><trkpt lat="22.36510778125" lon="114.29166679638672" /><trkpt lat="22.36508378125" lon="114.29168879638672" /><trkpt lat="22.36507478125" lon="114.29170079638672" /><trkpt lat="22.36506478125" lon="114.29171779638672" /><trkpt lat="22.36505878125" lon="114.29172579638671" /><trkpt lat="22.36504178125" lon="114.29173679638672" /><trkpt lat="22.36503078125" lon="114.29174779638672" /><trkpt lat="22.36501478125" lon="114.29176979638672" /><trkpt lat="22.36500578125" lon="114.29179079638672" /><trkpt lat="22.36496278125" lon="114.29182179638671" /><trkpt lat="22.36489778125" lon="114.29182179638671" /><trkpt lat="22.36488278125" lon="114.29181979638672" /><trkpt lat="22.36481178125" lon="114.29179579638672" /><trkpt lat="22.36476978125" lon="114.29178779638671" /><trkpt lat="22.36475878125" lon="114.29178779638671" /><trkpt lat="22.36470378125" lon="114.29179079638672" /><trkpt lat="22.36468878125" lon="114.29179379638671" /><trkpt lat="22.36466478125" lon="114.29179979638671" /><trkpt lat="22.36461978125" lon="114.29179779638672" /><trkpt lat="22.36456878125" lon="114.29184079638672" /><trkpt lat="22.36452378125" lon="114.29190779638672" /><trkpt lat="22.36448978125" lon="114.29190779638672" /><trkpt lat="22.36446178125" lon="114.29192479638672" /><trkpt lat="22.36444478125" lon="114.29193379638672" /><trkpt lat="22.36440578125" lon="114.29195279638672" /><trkpt lat="22.36438078125" lon="114.29198479638671" /><trkpt lat="22.36436278125" lon="114.29201479638672" /><trkpt lat="22.36432478125" lon="114.29204379638672" /><trkpt lat="22.36430278125" lon="114.29207379638672" /><trkpt lat="22.36426478125" lon="114.29211079638672" /><trkpt lat="22.36423678125" lon="114.29211279638672" /><trkpt lat="22.36421778125" lon="114.29211679638672" /><trkpt lat="22.36419778125" lon="114.29212479638672" /><trkpt lat="22.36418178125" lon="114.29213379638672" /><trkpt lat="22.36414978125" lon="114.29215579638672" /><trkpt lat="22.36409878125" lon="114.29222479638672" /><trkpt lat="22.36409678125" lon="114.29223779638671" /><trkpt lat="22.36409378125" lon="114.29224279638672" /><trkpt lat="22.36408878125" lon="114.29224479638673" /><trkpt lat="22.36407778125" lon="114.29224879638672" /><trkpt lat="22.36405278125" lon="114.29225079638672" /><trkpt lat="22.36404678125" lon="114.29225279638672" /><trkpt lat="22.36404078125" lon="114.29225779638672" /><trkpt lat="22.36401178125" lon="114.29228979638673" /><trkpt lat="22.36400978125" lon="114.29229479638671" /><trkpt lat="22.36400878125" lon="114.29229979638671" /><trkpt lat="22.36400878125" lon="114.29230479638672" /><trkpt lat="22.36400978125" lon="114.29230979638672" /><trkpt lat="22.36402278125" lon="114.29234079638672" /><trkpt lat="22.36402478125" lon="114.29234879638672" /><trkpt lat="22.36402578125" lon="114.29235479638672" /><trkpt lat="22.36402578125" lon="114.29236479638672" /><trkpt lat="22.36402278125" lon="114.29237279638672" /><trkpt lat="22.36401678125" lon="114.29238579638672" /><trkpt lat="22.36401278125" lon="114.29239579638671" /><trkpt lat="22.36400078125" lon="114.29243679638672" /><trkpt lat="22.36397778125" lon="114.29247979638671" /><trkpt lat="22.36394178125" lon="114.29251779638672" /><trkpt lat="22.36393378125" lon="114.29257979638672" /><trkpt lat="22.36392278125" lon="114.29262279638672" /><trkpt lat="22.36389578125" lon="114.29264779638672" /><trkpt lat="22.36387678125" lon="114.29266279638672" /><trkpt lat="22.36384278125" lon="114.29268079638672" /><trkpt lat="22.36383378125" lon="114.29268579638672" /><trkpt lat="22.36378878125" lon="114.29269979638671" /><trkpt lat="22.36377578125" lon="114.29270479638672" /><trkpt lat="22.36372878125" lon="114.29273179638672" /><trkpt lat="22.36371778125" lon="114.29273679638672" /><trkpt lat="22.36366078125" lon="114.29275179638672" /><trkpt lat="22.36362678125" lon="114.29278879638672" /><trkpt lat="22.36360578125" lon="114.29278579638672" /><trkpt lat="22.36358878125" lon="114.29278679638672" /><trkpt lat="22.36357478125" lon="114.29279179638672" /><trkpt lat="22.36355578125" lon="114.29280579638672" /><trkpt lat="22.36352578125" lon="114.29286579638672" /><trkpt lat="22.36351878125" lon="114.29288479638672" /><trkpt lat="22.36349978125" lon="114.29294179638671" /><trkpt lat="22.36349378125" lon="114.29295279638671" /><trkpt lat="22.36346778125" lon="114.29298679638671" /><trkpt lat="22.36343178125" lon="114.29302179638672" /><trkpt lat="22.36339978125" lon="114.29304179638672" /><trkpt lat="22.36339578125" lon="114.29304479638672" /><trkpt lat="22.36339378125" lon="114.29304879638671" /><trkpt lat="22.36339178125" lon="114.29305279638672" /><trkpt lat="22.36338978125" lon="114.29305779638672" /><trkpt lat="22.36336178125" lon="114.29315579638671" /><trkpt lat="22.36335478125" lon="114.29316979638672" /><trkpt lat="22.36332378125" lon="114.29321579638672" /><trkpt lat="22.36331278125" lon="114.29322579638672" /><trkpt lat="22.36327578125" lon="114.29324579638671" /><trkpt lat="22.36325278125" lon="114.29325979638672" /><trkpt lat="22.36322178125" lon="114.29328079638672" /><trkpt lat="22.36320578125" lon="114.29328979638672" /><trkpt lat="22.36317278125" lon="114.29330179638671" /><trkpt lat="22.36316378125" lon="114.29330679638672" /><trkpt lat="22.36315678125" lon="114.29331179638672" /><trkpt lat="22.36314178125" lon="114.29332979638671" /><trkpt lat="22.36313078125" lon="114.29334679638671" /><trkpt lat="22.36312778125" lon="114.29335779638672" /><trkpt lat="22.36312278125" lon="114.29336679638672" /><trkpt lat="22.36311678125" lon="114.29337179638672" /><trkpt lat="22.36305778125" lon="114.29337879638672" /><trkpt lat="22.36303678125" lon="114.29338079638671" /><trkpt lat="22.36300978125" lon="114.29338079638671" /><trkpt lat="22.36299478125" lon="114.29338279638672" /><trkpt lat="22.36297078125" lon="114.29338979638672" /><trkpt lat="22.36296078125" lon="114.29339079638672" /><trkpt lat="22.36295078125" lon="114.29338979638672" /><trkpt lat="22.36294278125" lon="114.29338679638671" /><trkpt lat="22.36291278125" lon="114.29336879638672" /><trkpt lat="22.36290478125" lon="114.29336479638673" /><trkpt lat="22.36289578125" lon="114.29336179638672" /><trkpt lat="22.36287378125" lon="114.29335779638672" /><trkpt lat="22.36286278125" lon="114.29335279638671" /><trkpt lat="22.36282478125" lon="114.29332779638672" /><trkpt lat="22.36274378125" lon="114.29334679638671" /><trkpt lat="22.36271078125" lon="114.29337479638671" /><trkpt lat="22.36270378125" lon="114.29337979638672" /><trkpt lat="22.36269678125" lon="114.29338379638672" /><trkpt lat="22.36268478125" lon="114.29338979638672" /><trkpt lat="22.36267778125" lon="114.29339379638672" /><trkpt lat="22.36265278125" lon="114.29341279638672" /><trkpt lat="22.36265978125" lon="114.29342079638671" /><trkpt lat="22.36266078125" lon="114.29342579638671" /><trkpt lat="22.36265878125" lon="114.29343079638672" /><trkpt lat="22.36265478125" lon="114.29343479638672" /><trkpt lat="22.36264878125" lon="114.29343879638672" /><trkpt lat="22.36264178125" lon="114.29344279638671" /><trkpt lat="22.36262578125" lon="114.29344679638672" /><trkpt lat="22.36261178125" lon="114.29344779638672" /><trkpt lat="22.36255278125" lon="114.29344779638672" /><trkpt lat="22.36254178125" lon="114.29345379638671" /><trkpt lat="22.36253678125" lon="114.29345579638672" /><trkpt lat="22.36252878125" lon="114.29345779638672" /><trkpt lat="22.36250678125" lon="114.29345979638671" /><trkpt lat="22.36249078125" lon="114.29346279638672" /><trkpt lat="22.36243578125" lon="114.29347779638672" /><trkpt lat="22.36242478125" lon="114.29347979638672" /><trkpt lat="22.36241478125" lon="114.29347979638672" /><trkpt lat="22.36238578125" lon="114.29347879638672" /><trkpt lat="22.36237778125" lon="114.29347679638671" /><trkpt lat="22.36236978125" lon="114.29347479638672" /><trkpt lat="22.36232978125" lon="114.29345779638672" /><trkpt lat="22.36232078125" lon="114.29345479638671" /><trkpt lat="22.36231178125" lon="114.29345379638671" /><trkpt lat="22.36229678125" lon="114.29345379638671" /><trkpt lat="22.36229078125" lon="114.29345279638672" /><trkpt lat="22.36228478125" lon="114.29345179638672" /><trkpt lat="22.36228078125" lon="114.29344979638672" /><trkpt lat="22.36221278125" lon="114.29341279638672" /><trkpt lat="22.36219778125" lon="114.29340579638672" /><trkpt lat="22.36217878125" lon="114.29339979638672" /><trkpt lat="22.36216578125" lon="114.29339579638672" /><trkpt lat="22.36215778125" lon="114.29339579638672" /><trkpt lat="22.36215078125" lon="114.29339679638672" /><trkpt lat="22.36214378125" lon="114.29339979638672" /><trkpt lat="22.36208578125" lon="114.29342779638672" /><trkpt lat="22.36207578125" lon="114.29343179638671" /><trkpt lat="22.36206478125" lon="114.29343479638672" /><trkpt lat="22.36199278125" lon="114.29344579638672" /><trkpt lat="22.36195478125" lon="114.29345379638671" /><trkpt lat="22.36194778125" lon="114.29345679638672" /><trkpt lat="22.36194178125" lon="114.29346079638673" /><trkpt lat="22.36192378125" lon="114.29348279638671" /><trkpt lat="22.36190978125" lon="114.29350479638671" /><trkpt lat="22.36189578125" lon="114.29353179638672" /><trkpt lat="22.36189078125" lon="114.29354479638671" /><trkpt lat="22.36188578125" lon="114.29356179638671" /><trkpt lat="22.36187578125" lon="114.29360879638672" /><trkpt lat="22.36187278125" lon="114.29362179638672" /><trkpt lat="22.36185478125" lon="114.29366779638671" /><trkpt lat="22.36182378125" lon="114.29373179638672" /><trkpt lat="22.36181078125" lon="114.29376179638672" /><trkpt lat="22.36180778125" lon="114.29377279638672" /><trkpt lat="22.36180578125" lon="114.29378479638672" /><trkpt lat="22.36180778125" lon="114.29380179638672" /><trkpt lat="22.36181078125" lon="114.29381979638671" /><trkpt lat="22.36181878125" lon="114.29384379638672" /><trkpt lat="22.36182078125" lon="114.29385179638672" /><trkpt lat="22.36182078125" lon="114.29386179638672" /><trkpt lat="22.36181978125" lon="114.29387379638672" /><trkpt lat="22.36181678125" lon="114.29388479638672" /><trkpt lat="22.36181178125" lon="114.29389379638671" /><trkpt lat="22.36179278125" lon="114.29391579638671" /><trkpt lat="22.36177978125" lon="114.29393579638672" /><trkpt lat="22.36175978125" lon="114.29396979638672" /><trkpt lat="22.36174378125" lon="114.29399979638671" /><trkpt lat="22.36173178125" lon="114.29402479638672" /><trkpt lat="22.36172678125" lon="114.29403779638672" /><trkpt lat="22.36172278125" lon="114.29405379638672" /><trkpt lat="22.36172078125" lon="114.29407279638671" /><trkpt lat="22.36171878125" lon="114.29408079638672" /><trkpt lat="22.36171578125" lon="114.29408879638672" /><trkpt lat="22.36170978125" lon="114.29409879638672" /><trkpt lat="22.36167178125" lon="114.29414079638671" /><trkpt lat="22.36166378125" lon="114.29414779638672" /><trkpt lat="22.36165478125" lon="114.29415279638673" /><trkpt lat="22.36162478125" lon="114.29416479638672" /><trkpt lat="22.36161178125" lon="114.29416979638673" /><trkpt lat="22.36158378125" lon="114.29418379638672" /><trkpt lat="22.36156978125" lon="114.29418879638672" /><trkpt lat="22.36154078125" lon="114.29419779638671" /><trkpt lat="22.36153278125" lon="114.29420179638672" /><trkpt lat="22.36152378125" lon="114.29420779638671" /><trkpt lat="22.36149978125" lon="114.29423379638672" /><trkpt lat="22.36149078125" lon="114.29424079638672" /><trkpt lat="22.36148178125" lon="114.29424679638672" /><trkpt lat="22.36146278125" lon="114.29425579638672" /><trkpt lat="22.36145178125" lon="114.29426279638672" /><trkpt lat="22.36143478125" lon="114.29427679638673" /><trkpt lat="22.36142478125" lon="114.29428679638671" /><trkpt lat="22.36140878125" lon="114.29430379638671" /><trkpt lat="22.36140078125" lon="114.29430979638671" /><trkpt lat="22.36138778125" lon="114.29431279638672" /><trkpt lat="22.36137478125" lon="114.29431379638672" /><trkpt lat="22.36135678125" lon="114.29431279638672" /><trkpt lat="22.36130478125" lon="114.29430579638672" /><trkpt lat="22.36129278125" lon="114.29430479638673" /><trkpt lat="22.36128278125" lon="114.29430679638672" /><trkpt lat="22.36127378125" lon="114.29431179638672" /><trkpt lat="22.36126078125" lon="114.29432279638672" /><trkpt lat="22.36125378125" lon="114.29432579638672" /><trkpt lat="22.36124878125" lon="114.29432779638672" /><trkpt lat="22.36124378125" lon="114.29432779638672" /><trkpt lat="22.36122078125" lon="114.29432679638671" /><trkpt lat="22.36121078125" lon="114.29432779638672" /><trkpt lat="22.36120478125" lon="114.29433079638672" /><trkpt lat="22.36119778125" lon="114.29433479638672" /><trkpt lat="22.36119278125" lon="114.29433979638672" /><trkpt lat="22.36119078125" lon="114.29434379638671" /><trkpt lat="22.36118778125" lon="114.29435279638672" /><trkpt lat="22.36118578125" lon="114.29435779638672" /><trkpt lat="22.36118178125" lon="114.29436279638672" /><trkpt lat="22.36117178125" lon="114.29437179638671" /><trkpt lat="22.36111878125" lon="114.29441279638672" /><trkpt lat="22.36110978125" lon="114.29441679638671" /><trkpt lat="22.36109178125" lon="114.29442479638672" /><trkpt lat="22.36108178125" lon="114.29442979638672" /><trkpt lat="22.36105578125" lon="114.29444879638672" /><trkpt lat="22.36103778125" lon="114.29446279638672" /><trkpt lat="22.36101878125" lon="114.29448179638672" /><trkpt lat="22.36101178125" lon="114.29448979638671" /><trkpt lat="22.36100578125" lon="114.29449879638672" /><trkpt lat="22.36100178125" lon="114.29450279638672" /><trkpt lat="22.36099778125" lon="114.29450579638672" /><trkpt lat="22.36098978125" lon="114.29450779638672" /><trkpt lat="22.36096378125" lon="114.29450979638672" /><trkpt lat="22.36094678125" lon="114.29451279638671" /><trkpt lat="22.36088578125" lon="114.29453079638672" /><trkpt lat="22.36087678125" lon="114.29453279638672" /><trkpt lat="22.36086778125" lon="114.29453379638672" /><trkpt lat="22.36085278125" lon="114.29453379638672" /><trkpt lat="22.36084478125" lon="114.29453479638671" /><trkpt lat="22.36083678125" lon="114.29453779638672" /><trkpt lat="22.36082878125" lon="114.29454279638672" /><trkpt lat="22.36078378125" lon="114.29457779638672" /><trkpt lat="22.36077278125" lon="114.29458279638672" /><trkpt lat="22.36076278125" lon="114.29458579638671" /><trkpt lat="22.36075178125" lon="114.29458479638672" /><trkpt lat="22.36073978125" lon="114.29458279638672" /><trkpt lat="22.36067778125" lon="114.29456779638672" /><trkpt lat="22.36066578125" lon="114.29456279638671" /><trkpt lat="22.36065978125" lon="114.29455879638672" /><trkpt lat="22.36064178125" lon="114.29454279638672" /><trkpt lat="22.36063278125" lon="114.29453779638672" /><trkpt lat="22.36062178125" lon="114.29453279638672" /><trkpt lat="22.36061078125" lon="114.29452979638671" /><trkpt lat="22.36059678125" lon="114.29452779638672" /><trkpt lat="22.36053378125" lon="114.29452379638671" /><trkpt lat="22.36052378125" lon="114.29452579638672" /><trkpt lat="22.36051178125" lon="114.29452979638671" /><trkpt lat="22.36049578125" lon="114.29453679638672" /><trkpt lat="22.36048678125" lon="114.29454079638671" /><trkpt lat="22.36047878125" lon="114.29454279638672" /><trkpt lat="22.36047178125" lon="114.29454279638672" /><trkpt lat="22.36046478125" lon="114.29454279638672" /><trkpt lat="22.36044178125" lon="114.29453879638672" /><trkpt lat="22.36041978125" lon="114.29453679638672" /><trkpt lat="22.36040578125" lon="114.29453779638672" /><trkpt lat="22.36038978125" lon="114.29454079638671" /><trkpt lat="22.36037978125" lon="114.29454479638672" /><trkpt lat="22.36037178125" lon="114.29454979638672" /><trkpt lat="22.36036378125" lon="114.29455679638671" /><trkpt lat="22.36034978125" lon="114.29457579638672" /><trkpt lat="22.36034378125" lon="114.29458079638673" /><trkpt lat="22.36033778125" lon="114.29458479638672" /><trkpt lat="22.36033078125" lon="114.29458879638672" /><trkpt lat="22.36032278125" lon="114.29458979638672" /><trkpt lat="22.36028878125" lon="114.29459279638672" /><trkpt lat="22.36027378125" lon="114.29459479638672" /><trkpt lat="22.36026078125" lon="114.29459779638673" /><trkpt lat="22.36024378125" lon="114.29460579638672" /><trkpt lat="22.36018978125" lon="114.29463979638672" /><trkpt lat="22.36017078125" lon="114.29464979638672" /><trkpt lat="22.36015578125" lon="114.29465579638672" /><trkpt lat="22.36014078125" lon="114.29466079638672" /><trkpt lat="22.36012778125" lon="114.29466079638672" /><trkpt lat="22.36011578125" lon="114.29465879638671" /><trkpt lat="22.36010378125" lon="114.29465579638672" /><trkpt lat="22.36009278125" lon="114.29464979638672" /><trkpt lat="22.36007778125" lon="114.29464079638672" /><trkpt lat="22.36007078125" lon="114.29463679638671" /><trkpt lat="22.36006478125" lon="114.29463579638671" /><trkpt lat="22.36005978125" lon="114.29463579638671" /><trkpt lat="22.36005478125" lon="114.29463679638671" /><trkpt lat="22.36005078125" lon="114.29463979638672" /><trkpt lat="22.36004278125" lon="114.29464579638672" /><trkpt lat="22.36003578125" lon="114.29464979638672" /><trkpt lat="22.36002778125" lon="114.29465079638672" /><trkpt lat="22.36001778125" lon="114.29465179638672" /><trkpt lat="22.36000678125" lon="114.29465179638672" /><trkpt lat="22.35998478125" lon="114.29464779638671" /><trkpt lat="22.35997878125" lon="114.29464779638671" /><trkpt lat="22.35997378125" lon="114.29464879638672" /><trkpt lat="22.35996878125" lon="114.29465279638671" /><trkpt lat="22.35996378125" lon="114.29465879638671" /><trkpt lat="22.35995078125" lon="114.29467579638671" /><trkpt lat="22.35994278125" lon="114.29468379638672" /><trkpt lat="22.35993078125" lon="114.29469079638672" /><trkpt lat="22.35991678125" lon="114.29469579638672" /><trkpt lat="22.35990178125" lon="114.29469879638673" /><trkpt lat="22.35986478125" lon="114.29470479638672" /><trkpt lat="22.35984978125" lon="114.29470879638671" /><trkpt lat="22.35983978125" lon="114.29471279638672" /><trkpt lat="22.35982878125" lon="114.29471879638672" /><trkpt lat="22.35981678125" lon="114.29473079638672" /><trkpt lat="22.35980578125" lon="114.29474379638671" /><trkpt lat="22.35978178125" lon="114.29477679638671" /><trkpt lat="22.35977378125" lon="114.29478679638672" /><trkpt lat="22.35976478125" lon="114.29479579638672" /><trkpt lat="22.35975778125" lon="114.29480179638672" /><trkpt lat="22.35974678125" lon="114.29480679638672" /><trkpt lat="22.35973278125" lon="114.29480979638672" /><trkpt lat="22.35970678125" lon="114.29481279638672" /><trkpt lat="22.35969478125" lon="114.29481479638672" /><trkpt lat="22.35968678125" lon="114.29481779638672" /><trkpt lat="22.35968178125" lon="114.29482179638671" /><trkpt lat="22.35967978125" lon="114.29482679638672" /><trkpt lat="22.35967778125" lon="114.29483079638672" /><trkpt lat="22.35967678125" lon="114.29483579638672" /><trkpt lat="22.35967778125" lon="114.29485379638672" /><trkpt lat="22.35967678125" lon="114.29485879638672" /><trkpt lat="22.35967578125" lon="114.29486379638672" /><trkpt lat="22.35967278125" lon="114.29486679638671" /><trkpt lat="22.35966578125" lon="114.29487079638672" /><trkpt lat="22.35966278125" lon="114.29487379638672" /><trkpt lat="22.35966078125" lon="114.29487779638671" /><trkpt lat="22.35966078125" lon="114.29488379638671" /><trkpt lat="22.35966378125" lon="114.29490379638672" /><trkpt lat="22.35966178125" lon="114.29491179638671" /><trkpt lat="22.35965778125" lon="114.29491879638672" /><trkpt lat="22.35965078125" lon="114.29492379638671" /><trkpt lat="22.35963778125" lon="114.29493179638672" /><trkpt lat="22.35962578125" lon="114.29493979638671" /><trkpt lat="22.35961578125" lon="114.29495079638671" /><trkpt lat="22.35960878125" lon="114.29496079638672" /><trkpt lat="22.35960178125" lon="114.29497279638672" /><trkpt lat="22.35959678125" lon="114.29498579638671" /><trkpt lat="22.35959478125" lon="114.29499479638672" /><trkpt lat="22.35959278125" lon="114.29500079638672" /><trkpt lat="22.35958978125" lon="114.29500679638672" /><trkpt lat="22.35957978125" lon="114.29501579638672" /><trkpt lat="22.35953578125" lon="114.29505279638671" /><trkpt lat="22.35949878125" lon="114.29508679638671" /><trkpt lat="22.35946578125" lon="114.29512079638671" /><trkpt lat="22.35945278125" lon="114.29513079638672" /><trkpt lat="22.35943778125" lon="114.29513879638672" /><trkpt lat="22.35941778125" lon="114.29514779638671" /><trkpt lat="22.35939878125" lon="114.29515879638672" /><trkpt lat="22.35937978125" lon="114.29517079638671" /><trkpt lat="22.35936578125" lon="114.29517779638672" /><trkpt lat="22.35935278125" lon="114.29518179638671" /><trkpt lat="22.35931978125" lon="114.29518579638672" /><trkpt lat="22.35930278125" lon="114.29519079638672" /><trkpt lat="22.35917578125" lon="114.29523679638672" /><trkpt lat="22.35916878125" lon="114.29524079638672" /><trkpt lat="22.35916478125" lon="114.29524879638672" /><trkpt lat="22.359154781249998" lon="114.29526679638671" /><trkpt lat="22.35914478125" lon="114.29528079638672" /><trkpt lat="22.35913278125" lon="114.29529379638672" /><trkpt lat="22.35910478125" lon="114.29531879638672" /><trkpt lat="22.35908378125" lon="114.29534379638672" /><trkpt lat="22.35905378125" lon="114.29538679638672" /><trkpt lat="22.35904678125" lon="114.29539379638672" /><trkpt lat="22.35903978125" lon="114.29539879638672" /><trkpt lat="22.35903278125" lon="114.29540279638672" /><trkpt lat="22.35902478125" lon="114.29540379638672" /><trkpt lat="22.35901578125" lon="114.29540279638672" /><trkpt lat="22.35900978125" lon="114.29539879638672" /><trkpt lat="22.35899878125" lon="114.29538979638671" /><trkpt lat="22.35899278125" lon="114.29538579638673" /><trkpt lat="22.35898678125" lon="114.29538279638672" /><trkpt lat="22.35897478125" lon="114.29538179638672" /><trkpt lat="22.35895978125" lon="114.29538279638672" /><trkpt lat="22.35894378125" lon="114.29538579638673" /><trkpt lat="22.35892978125" lon="114.29538479638671" /><trkpt lat="22.35891978125" lon="114.29538079638672" /><trkpt lat="22.35890278125" lon="114.29536979638672" /><trkpt lat="22.35889878125" lon="114.29536579638672" /><trkpt lat="22.35889378125" lon="114.29535879638672" /><trkpt lat="22.35888978125" lon="114.29535579638672" /><trkpt lat="22.35888478125" lon="114.29535479638672" /><trkpt lat="22.35887778125" lon="114.29535479638672" /><trkpt lat="22.35887378125" lon="114.29535279638672" /><trkpt lat="22.35886878125" lon="114.29534779638672" /><trkpt lat="22.35886478125" lon="114.29534579638671" /><trkpt lat="22.35886078125" lon="114.29534579638671" /><trkpt lat="22.35884078125" lon="114.29535379638672" /><trkpt lat="22.35881378125" lon="114.29537279638672" /><trkpt lat="22.35874778125" lon="114.29542579638672" /><trkpt lat="22.35873278125" lon="114.29543379638672" /><trkpt lat="22.35871278125" lon="114.29543879638672" /><trkpt lat="22.35869378125" lon="114.29544279638672" /><trkpt lat="22.35867078125" lon="114.29544379638672" /><trkpt lat="22.35864278125" lon="114.29544079638671" /><trkpt lat="22.35862278125" lon="114.29544179638673" /><trkpt lat="22.35859678125" lon="114.29544379638672" /><trkpt lat="22.35857878125" lon="114.29544379638672" /><trkpt lat="22.35853878125" lon="114.29543779638672" /><trkpt lat="22.35852178125" lon="114.29543879638672" /><trkpt lat="22.35850978125" lon="114.29543979638672" /><trkpt lat="22.35850078125" lon="114.29544379638672" /><trkpt lat="22.35849478125" lon="114.29544279638672" /><trkpt lat="22.35847178125" lon="114.29543279638672" /><trkpt lat="22.35845178125" lon="114.29542979638671" /><trkpt lat="22.35840278125" lon="114.29543079638673" /><trkpt lat="22.35839378125" lon="114.29542979638671" /><trkpt lat="22.35838578125" lon="114.29542579638672" /><trkpt lat="22.35837878125" lon="114.29542479638671" /><trkpt lat="22.35836578125" lon="114.29542379638671" /><trkpt lat="22.35835778125" lon="114.29542179638672" /><trkpt lat="22.35835078125" lon="114.29541679638672" /><trkpt lat="22.35834678125" lon="114.29541079638672" /><trkpt lat="22.35833978125" lon="114.29539779638672" /><trkpt lat="22.35833378125" lon="114.29539179638672" /><trkpt lat="22.35832678125" lon="114.29538779638672" /><trkpt lat="22.35831978125" lon="114.29538679638672" /><trkpt lat="22.35830078125" lon="114.29538379638672" /><trkpt lat="22.35828778125" lon="114.29538079638672" /><trkpt lat="22.35827378125" lon="114.29537379638671" /><trkpt lat="22.35825078125" lon="114.29535879638672" /><trkpt lat="22.35823278125" lon="114.29533979638671" /><trkpt lat="22.35821078125" lon="114.29532379638673" /><trkpt lat="22.35817978125" lon="114.29531179638671" /><trkpt lat="22.35813978125" lon="114.29530179638672" /><trkpt lat="22.35811678125" lon="114.29530079638671" /><trkpt lat="22.35811078125" lon="114.29530179638672" /><trkpt lat="22.35810478125" lon="114.29530379638672" /><trkpt lat="22.35809578125" lon="114.29530879638672" /><trkpt lat="22.35808378125" lon="114.29531479638672" /><trkpt lat="22.35799278125" lon="114.29537379638671" /><trkpt lat="22.35782278125" lon="114.29547179638672" /><trkpt lat="22.35767878125" lon="114.29562779638673" /><trkpt lat="22.35767378125" lon="114.29563479638672" /><trkpt lat="22.35766978125" lon="114.29564279638672" /><trkpt lat="22.35766878125" lon="114.29565179638672" /><trkpt lat="22.35767278125" lon="114.29572379638672" /><trkpt lat="22.35765778125" lon="114.29572179638672" /><trkpt lat="22.35764078125" lon="114.29576079638672" /><trkpt lat="22.35756478125" lon="114.29584479638672" /><trkpt lat="22.35753278125" lon="114.29591379638671" /><trkpt lat="22.35751978125" lon="114.29602279638672" /><trkpt lat="22.35750078125" lon="114.29607379638672" /><trkpt lat="22.35747878125" lon="114.29612979638672" /><trkpt lat="22.35741078125" lon="114.29628779638672" /><trkpt lat="22.35738078125" lon="114.29631679638672" /><trkpt lat="22.35730978125" lon="114.29635879638671" /><trkpt lat="22.35726978125" lon="114.29637879638672" /><trkpt lat="22.35725378125" lon="114.29639879638673" /><trkpt lat="22.35721878125" lon="114.29647679638671" /><trkpt lat="22.35718678125" lon="114.29651179638672" /><trkpt lat="22.35712478125" lon="114.29651179638672" /><trkpt lat="22.35704778125" lon="114.29646779638672" /><trkpt lat="22.35697178125" lon="114.29649279638672" /><trkpt lat="22.35681378125" lon="114.29659379638672" /><trkpt lat="22.35667278125" lon="114.29657679638672" /><trkpt lat="22.35654878125" lon="114.29658379638671" /><trkpt lat="22.35647578125" lon="114.29651479638672" /><trkpt lat="22.35641578125" lon="114.29647279638672" /><trkpt lat="22.35628178125" lon="114.29630879638673" /><trkpt lat="22.35670278125" lon="114.29618079638672" /><trkpt lat="22.35680178125" lon="114.29614679638672" /><trkpt lat="22.35703278125" lon="114.29598179638671" /><trkpt lat="22.35708778125" lon="114.29593879638672" /><trkpt lat="22.35714278125" lon="114.29586779638672" /><trkpt lat="22.35719478125" lon="114.29575679638671" /><trkpt lat="22.35720078125" lon="114.29560079638672" /><trkpt lat="22.35720878125" lon="114.29555179638672" /><trkpt lat="22.35721778125" lon="114.29551079638672" /><trkpt lat="22.35722878125" lon="114.29546979638671" /><trkpt lat="22.35722578125" lon="114.29542179638672" /><trkpt lat="22.35720978125" lon="114.29534579638671" /><trkpt lat="22.35720578125" lon="114.29520979638671" /><trkpt lat="22.35721378125" lon="114.29514279638671" /><trkpt lat="22.35722378125" lon="114.29511979638671" /><trkpt lat="22.35735178125" lon="114.29494679638672" /><trkpt lat="22.35735878125" lon="114.29492379638671" /><trkpt lat="22.35736178125" lon="114.29490079638671" /><trkpt lat="22.35736178125" lon="114.29487779638671" /><trkpt lat="22.35735378125" lon="114.29482079638672" /><trkpt lat="22.35734378125" lon="114.29476779638672" /><trkpt lat="22.35733078125" lon="114.29471479638671" /><trkpt lat="22.35731078125" lon="114.29463479638672" /><trkpt lat="22.35729778125" lon="114.29459079638671" /><trkpt lat="22.35729178125" lon="114.29456079638672" /><trkpt lat="22.35729078125" lon="114.29454379638672" /><trkpt lat="22.35728878125" lon="114.29451779638671" /><trkpt lat="22.35728978125" lon="114.29450079638671" /><trkpt lat="22.35728878125" lon="114.29448879638672" /><trkpt lat="22.35728178125" lon="114.29445179638672" /><trkpt lat="22.35727578125" lon="114.29443479638672" /><trkpt lat="22.35726678125" lon="114.29441879638672" /><trkpt lat="22.35724778125" lon="114.29439879638672" /><trkpt lat="22.35718258961759" lon="114.29434223223613" /><trkpt lat="22.357206539544805" lon="114.2943031285323" /><trkpt lat="22.357240246228912" lon="114.29434191518311" /><trkpt lat="22.357229535817872" lon="114.29438296496275" /><trkpt lat="22.35724778125" lon="114.29439879638672" /><trkpt lat="22.35726678125" lon="114.29441879638672" /><trkpt lat="22.35727578125" lon="114.29443479638672" /><trkpt lat="22.35728178125" lon="114.29445179638672" /><trkpt lat="22.35728878125" lon="114.29448879638672" /><trkpt lat="22.35728978125" lon="114.29450079638671" /><trkpt lat="22.35728878125" lon="114.29451779638671" /><trkpt lat="22.35729078125" lon="114.29454379638672" /><trkpt lat="22.35729178125" lon="114.29456079638672" /><trkpt lat="22.35729778125" lon="114.29459079638671" /><trkpt lat="22.35731078125" lon="114.29463479638672" /><trkpt lat="22.35733078125" lon="114.29471479638671" /><trkpt lat="22.35734378125" lon="114.29476779638672" /><trkpt lat="22.35735378125" lon="114.29482079638672" /><trkpt lat="22.35736178125" lon="114.29487779638671" /><trkpt lat="22.35736178125" lon="114.29490079638671" /><trkpt lat="22.35735878125" lon="114.29492379638671" /><trkpt lat="22.35735178125" lon="114.29494679638672" /><trkpt lat="22.35722378125" lon="114.29511979638671" /><trkpt lat="22.35721378125" lon="114.29514279638671" /><trkpt lat="22.35720578125" lon="114.29520979638671" /><trkpt lat="22.35720978125" lon="114.29534579638671" /><trkpt lat="22.35722578125" lon="114.29542179638672" /><trkpt lat="22.35722878125" lon="114.29546979638671" /><trkpt lat="22.35721778125" lon="114.29551079638672" /><trkpt lat="22.35720878125" lon="114.29555179638672" /><trkpt lat="22.35720078125" lon="114.29560079638672" /><trkpt lat="22.35719478125" lon="114.29575679638671" /><trkpt lat="22.35714278125" lon="114.29586779638672" /><trkpt lat="22.35708778125" lon="114.29593879638672" /><trkpt lat="22.35703278125" lon="114.29598179638671" /><trkpt lat="22.35680178125" lon="114.29614679638672" /><trkpt lat="22.35670278125" lon="114.29618079638672" /><trkpt lat="22.35628178125" lon="114.29630879638673" /><trkpt lat="22.35641578125" lon="114.29647279638672" /><trkpt lat="22.35647578125" lon="114.29651479638672" /><trkpt lat="22.35654878125" lon="114.29658379638671" /><trkpt lat="22.35667278125" lon="114.29657679638672" /><trkpt lat="22.35681378125" lon="114.29659379638672" /><trkpt lat="22.35697178125" lon="114.29649279638672" /><trkpt lat="22.35704778125" lon="114.29646779638672" /><trkpt lat="22.35712478125" lon="114.29651179638672" /><trkpt lat="22.35718678125" lon="114.29651179638672" /><trkpt lat="22.35721878125" lon="114.29647679638671" /><trkpt lat="22.35725378125" lon="114.29639879638673" /><trkpt lat="22.35726978125" lon="114.29637879638672" /><trkpt lat="22.35730978125" lon="114.29635879638671" /><trkpt lat="22.35738078125" lon="114.29631679638672" /><trkpt lat="22.35741078125" lon="114.29628779638672" /><trkpt lat="22.35747878125" lon="114.29612979638672" /><trkpt lat="22.35750078125" lon="114.29607379638672" /><trkpt lat="22.35751978125" lon="114.29602279638672" /><trkpt lat="22.35753278125" lon="114.29591379638671" /><trkpt lat="22.35756478125" lon="114.29584479638672" /><trkpt lat="22.35764078125" lon="114.29576079638672" /><trkpt lat="22.35765778125" lon="114.29572179638672" /><trkpt lat="22.35767278125" lon="114.29572379638672" /><trkpt lat="22.35766878125" lon="114.29565179638672" /><trkpt lat="22.35766978125" lon="114.29564279638672" /><trkpt lat="22.35767378125" lon="114.29563479638672" /><trkpt lat="22.35767878125" lon="114.29562779638673" /><trkpt lat="22.35782278125" lon="114.29547179638672" /><trkpt lat="22.35799278125" lon="114.29537379638671" /><trkpt lat="22.35808378125" lon="114.29531479638672" /><trkpt lat="22.35809578125" lon="114.29530879638672" /><trkpt lat="22.35810478125" lon="114.29530379638672" /><trkpt lat="22.35811078125" lon="114.29530179638672" /><trkpt lat="22.35811678125" lon="114.29530079638671" /><trkpt lat="22.35813978125" lon="114.29530179638672" /><trkpt lat="22.35817978125" lon="114.29531179638671" /><trkpt lat="22.35821078125" lon="114.29532379638673" /><trkpt lat="22.35823278125" lon="114.29533979638671" /><trkpt lat="22.35825078125" lon="114.29535879638672" /><trkpt lat="22.35827378125" lon="114.29537379638671" /><trkpt lat="22.35828778125" lon="114.29538079638672" /><trkpt lat="22.35830078125" lon="114.29538379638672" /><trkpt lat="22.35831978125" lon="114.29538679638672" /><trkpt lat="22.35832678125" lon="114.29538779638672" /><trkpt lat="22.35833378125" lon="114.29539179638672" /><trkpt lat="22.35833978125" lon="114.29539779638672" /><trkpt lat="22.35834678125" lon="114.29541079638672" /><trkpt lat="22.35835078125" lon="114.29541679638672" /><trkpt lat="22.35835778125" lon="114.29542179638672" /><trkpt lat="22.35836578125" lon="114.29542379638671" /><trkpt lat="22.35837878125" lon="114.29542479638671" /><trkpt lat="22.35838578125" lon="114.29542579638672" /><trkpt lat="22.35839378125" lon="114.29542979638671" /><trkpt lat="22.35840278125" lon="114.29543079638673" /><trkpt lat="22.35845178125" lon="114.29542979638671" /><trkpt lat="22.35847178125" lon="114.29543279638672" /><trkpt lat="22.35849478125" lon="114.29544279638672" /><trkpt lat="22.35850078125" lon="114.29544379638672" /><trkpt lat="22.35850978125" lon="114.29543979638672" /><trkpt lat="22.35852178125" lon="114.29543879638672" /><trkpt lat="22.35853878125" lon="114.29543779638672" /><trkpt lat="22.35857878125" lon="114.29544379638672" /><trkpt lat="22.35859678125" lon="114.29544379638672" /><trkpt lat="22.35862278125" lon="114.29544179638673" /><trkpt lat="22.35864278125" lon="114.29544079638671" /><trkpt lat="22.35867078125" lon="114.29544379638672" /><trkpt lat="22.35869378125" lon="114.29544279638672" /><trkpt lat="22.35871278125" lon="114.29543879638672" /><trkpt lat="22.35873278125" lon="114.29543379638672" /><trkpt lat="22.35874778125" lon="114.29542579638672" /><trkpt lat="22.35881378125" lon="114.29537279638672" /><trkpt lat="22.35884078125" lon="114.29535379638672" /><trkpt lat="22.35886078125" lon="114.29534579638671" /><trkpt lat="22.35886478125" lon="114.29534579638671" /><trkpt lat="22.35886878125" lon="114.29534779638672" /><trkpt lat="22.35887378125" lon="114.29535279638672" /><trkpt lat="22.35887778125" lon="114.29535479638672" /><trkpt lat="22.35888478125" lon="114.29535479638672" /><trkpt lat="22.35888978125" lon="114.29535579638672" /><trkpt lat="22.35889378125" lon="114.29535879638672" /><trkpt lat="22.35889878125" lon="114.29536579638672" /><trkpt lat="22.35890278125" lon="114.29536979638672" /><trkpt lat="22.35891978125" lon="114.29538079638672" /><trkpt lat="22.35892978125" lon="114.29538479638671" /><trkpt lat="22.35894378125" lon="114.29538579638673" /><trkpt lat="22.35895978125" lon="114.29538279638672" /><trkpt lat="22.35897478125" lon="114.29538179638672" /><trkpt lat="22.35898678125" lon="114.29538279638672" /><trkpt lat="22.35899278125" lon="114.29538579638673" /><trkpt lat="22.35899878125" lon="114.29538979638671" /><trkpt lat="22.35900978125" lon="114.29539879638672" /><trkpt lat="22.35901578125" lon="114.29540279638672" /><trkpt lat="22.35902478125" lon="114.29540379638672" /><trkpt lat="22.35903278125" lon="114.29540279638672" /><trkpt lat="22.35903978125" lon="114.29539879638672" /><trkpt lat="22.35904678125" lon="114.29539379638672" /><trkpt lat="22.35905378125" lon="114.29538679638672" /><trkpt lat="22.35908378125" lon="114.29534379638672" /><trkpt lat="22.35910478125" lon="114.29531879638672" /><trkpt lat="22.35913278125" lon="114.29529379638672" /><trkpt lat="22.35914478125" lon="114.29528079638672" /><trkpt lat="22.359154781249998" lon="114.29526679638671" /><trkpt lat="22.35916478125" lon="114.29524879638672" /><trkpt lat="22.35916878125" lon="114.29524079638672" /><trkpt lat="22.35917578125" lon="114.29523679638672" /><trkpt lat="22.35930278125" lon="114.29519079638672" /><trkpt lat="22.35931978125" lon="114.29518579638672" /><trkpt lat="22.35935278125" lon="114.29518179638671" /><trkpt lat="22.35936578125" lon="114.29517779638672" /><trkpt lat="22.35937978125" lon="114.29517079638671" /><trkpt lat="22.35939878125" lon="114.29515879638672" /><trkpt lat="22.35941778125" lon="114.29514779638671" /><trkpt lat="22.35943778125" lon="114.29513879638672" /><trkpt lat="22.35945278125" lon="114.29513079638672" /><trkpt lat="22.35946578125" lon="114.29512079638671" /><trkpt lat="22.35949878125" lon="114.29508679638671" /><trkpt lat="22.35953578125" lon="114.29505279638671" /><trkpt lat="22.35957978125" lon="114.29501579638672" /><trkpt lat="22.35958978125" lon="114.29500679638672" /><trkpt lat="22.35959278125" lon="114.29500079638672" /><trkpt lat="22.35959478125" lon="114.29499479638672" /><trkpt lat="22.35959678125" lon="114.29498579638671" /><trkpt lat="22.35960178125" lon="114.29497279638672" /><trkpt lat="22.35960878125" lon="114.29496079638672" /><trkpt lat="22.35961578125" lon="114.29495079638671" /><trkpt lat="22.35962578125" lon="114.29493979638671" /><trkpt lat="22.35963778125" lon="114.29493179638672" /><trkpt lat="22.35965078125" lon="114.29492379638671" /><trkpt lat="22.35965778125" lon="114.29491879638672" /><trkpt lat="22.35966178125" lon="114.29491179638671" /><trkpt lat="22.35966378125" lon="114.29490379638672" /><trkpt lat="22.35966078125" lon="114.29488379638671" /><trkpt lat="22.35966078125" lon="114.29487779638671" /><trkpt lat="22.35966278125" lon="114.29487379638672" /><trkpt lat="22.35966578125" lon="114.29487079638672" /><trkpt lat="22.35967278125" lon="114.29486679638671" /><trkpt lat="22.35967578125" lon="114.29486379638672" /><trkpt lat="22.35967678125" lon="114.29485879638672" /><trkpt lat="22.35967778125" lon="114.29485379638672" /><trkpt lat="22.35967678125" lon="114.29483579638672" /><trkpt lat="22.35967778125" lon="114.29483079638672" /><trkpt lat="22.35967978125" lon="114.29482679638672" /><trkpt lat="22.35968178125" lon="114.29482179638671" /><trkpt lat="22.35968678125" lon="114.29481779638672" /><trkpt lat="22.35969478125" lon="114.29481479638672" /><trkpt lat="22.35970678125" lon="114.29481279638672" /><trkpt lat="22.35973278125" lon="114.29480979638672" /><trkpt lat="22.35974678125" lon="114.29480679638672" /><trkpt lat="22.35975778125" lon="114.29480179638672" /><trkpt lat="22.35976478125" lon="114.29479579638672" /><trkpt lat="22.35977378125" lon="114.29478679638672" /><trkpt lat="22.35978178125" lon="114.29477679638671" /><trkpt lat="22.35980578125" lon="114.29474379638671" /><trkpt lat="22.35981678125" lon="114.29473079638672" /><trkpt lat="22.35982878125" lon="114.29471879638672" /><trkpt lat="22.35983978125" lon="114.29471279638672" /><trkpt lat="22.35984978125" lon="114.29470879638671" /><trkpt lat="22.35986478125" lon="114.29470479638672" /><trkpt lat="22.35990178125" lon="114.29469879638673" /><trkpt lat="22.35991678125" lon="114.29469579638672" /><trkpt lat="22.35993078125" lon="114.29469079638672" /><trkpt lat="22.35994278125" lon="114.29468379638672" /><trkpt lat="22.35995078125" lon="114.29467579638671" /><trkpt lat="22.35996378125" lon="114.29465879638671" /><trkpt lat="22.35996878125" lon="114.29465279638671" /><trkpt lat="22.35997378125" lon="114.29464879638672" /><trkpt lat="22.35997878125" lon="114.29464779638671" /><trkpt lat="22.35998478125" lon="114.29464779638671" /><trkpt lat="22.36000678125" lon="114.29465179638672" /><trkpt lat="22.36001778125" lon="114.29465179638672" /><trkpt lat="22.36002778125" lon="114.29465079638672" /><trkpt lat="22.36003578125" lon="114.29464979638672" /><trkpt lat="22.36004278125" lon="114.29464579638672" /><trkpt lat="22.36005078125" lon="114.29463979638672" /><trkpt lat="22.36005478125" lon="114.29463679638671" /><trkpt lat="22.36005978125" lon="114.29463579638671" /><trkpt lat="22.36006478125" lon="114.29463579638671" /><trkpt lat="22.36007078125" lon="114.29463679638671" /><trkpt lat="22.36007778125" lon="114.29464079638672" /><trkpt lat="22.36009278125" lon="114.29464979638672" /><trkpt lat="22.36010378125" lon="114.29465579638672" /><trkpt lat="22.36011578125" lon="114.29465879638671" /><trkpt lat="22.36012778125" lon="114.29466079638672" /><trkpt lat="22.36014078125" lon="114.29466079638672" /><trkpt lat="22.36015578125" lon="114.29465579638672" /><trkpt lat="22.36017078125" lon="114.29464979638672" /><trkpt lat="22.36018978125" lon="114.29463979638672" /><trkpt lat="22.36024378125" lon="114.29460579638672" /><trkpt lat="22.36026078125" lon="114.29459779638673" /><trkpt lat="22.36027378125" lon="114.29459479638672" /><trkpt lat="22.36028878125" lon="114.29459279638672" /><trkpt lat="22.36032278125" lon="114.29458979638672" /><trkpt lat="22.36033078125" lon="114.29458879638672" /><trkpt lat="22.36033778125" lon="114.29458479638672" /><trkpt lat="22.36034378125" lon="114.29458079638673" /><trkpt lat="22.36034978125" lon="114.29457579638672" /><trkpt lat="22.36036378125" lon="114.29455679638671" /><trkpt lat="22.36037178125" lon="114.29454979638672" /><trkpt lat="22.36037978125" lon="114.29454479638672" /><trkpt lat="22.36038978125" lon="114.29454079638671" /><trkpt lat="22.36040578125" lon="114.29453779638672" /><trkpt lat="22.36041978125" lon="114.29453679638672" /><trkpt lat="22.36044178125" lon="114.29453879638672" /><trkpt lat="22.36046478125" lon="114.29454279638672" /><trkpt lat="22.36047178125" lon="114.29454279638672" /><trkpt lat="22.36047878125" lon="114.29454279638672" /><trkpt lat="22.36048678125" lon="114.29454079638671" /><trkpt lat="22.36049578125" lon="114.29453679638672" /><trkpt lat="22.36051178125" lon="114.29452979638671" /><trkpt lat="22.36052378125" lon="114.29452579638672" /><trkpt lat="22.36053378125" lon="114.29452379638671" /><trkpt lat="22.36059678125" lon="114.29452779638672" /><trkpt lat="22.36061078125" lon="114.29452979638671" /><trkpt lat="22.36062178125" lon="114.29453279638672" /><trkpt lat="22.36063278125" lon="114.29453779638672" /><trkpt lat="22.36064178125" lon="114.29454279638672" /><trkpt lat="22.36065978125" lon="114.29455879638672" /><trkpt lat="22.36066578125" lon="114.29456279638671" /><trkpt lat="22.36067778125" lon="114.29456779638672" /><trkpt lat="22.36073978125" lon="114.29458279638672" /><trkpt lat="22.36075178125" lon="114.29458479638672" /><trkpt lat="22.36076278125" lon="114.29458579638671" /><trkpt lat="22.36077278125" lon="114.29458279638672" /><trkpt lat="22.36078378125" lon="114.29457779638672" /><trkpt lat="22.36082878125" lon="114.29454279638672" /><trkpt lat="22.36083678125" lon="114.29453779638672" /><trkpt lat="22.36084478125" lon="114.29453479638671" /><trkpt lat="22.36085278125" lon="114.29453379638672" /><trkpt lat="22.36086778125" lon="114.29453379638672" /><trkpt lat="22.36087678125" lon="114.29453279638672" /><trkpt lat="22.36088578125" lon="114.29453079638672" /><trkpt lat="22.36094678125" lon="114.29451279638671" /><trkpt lat="22.36096378125" lon="114.29450979638672" /><trkpt lat="22.36098978125" lon="114.29450779638672" /><trkpt lat="22.36099778125" lon="114.29450579638672" /><trkpt lat="22.36100178125" lon="114.29450279638672" /><trkpt lat="22.36100578125" lon="114.29449879638672" /><trkpt lat="22.36101178125" lon="114.29448979638671" /><trkpt lat="22.36101878125" lon="114.29448179638672" /><trkpt lat="22.36103778125" lon="114.29446279638672" /><trkpt lat="22.36105578125" lon="114.29444879638672" /><trkpt lat="22.36108178125" lon="114.29442979638672" /><trkpt lat="22.36109178125" lon="114.29442479638672" /><trkpt lat="22.36110978125" lon="114.29441679638671" /><trkpt lat="22.36111878125" lon="114.29441279638672" /><trkpt lat="22.36117178125" lon="114.29437179638671" /><trkpt lat="22.36118178125" lon="114.29436279638672" /><trkpt lat="22.36118578125" lon="114.29435779638672" /><trkpt lat="22.36118778125" lon="114.29435279638672" /><trkpt lat="22.36119078125" lon="114.29434379638671" /><trkpt lat="22.36119278125" lon="114.29433979638672" /><trkpt lat="22.36119778125" lon="114.29433479638672" /><trkpt lat="22.36120478125" lon="114.29433079638672" /><trkpt lat="22.36121078125" lon="114.29432779638672" /><trkpt lat="22.36122078125" lon="114.29432679638671" /><trkpt lat="22.36124378125" lon="114.29432779638672" /><trkpt lat="22.36124878125" lon="114.29432779638672" /><trkpt lat="22.36125378125" lon="114.29432579638672" /><trkpt lat="22.36126078125" lon="114.29432279638672" /><trkpt lat="22.36127378125" lon="114.29431179638672" /><trkpt lat="22.36128278125" lon="114.29430679638672" /><trkpt lat="22.36129278125" lon="114.29430479638673" /><trkpt lat="22.36130478125" lon="114.29430579638672" /><trkpt lat="22.36135678125" lon="114.29431279638672" /><trkpt lat="22.36137478125" lon="114.29431379638672" /><trkpt lat="22.36138778125" lon="114.29431279638672" /><trkpt lat="22.36140078125" lon="114.29430979638671" /><trkpt lat="22.36140878125" lon="114.29430379638671" /><trkpt lat="22.36142478125" lon="114.29428679638671" /><trkpt lat="22.36143478125" lon="114.29427679638673" /><trkpt lat="22.36145178125" lon="114.29426279638672" /><trkpt lat="22.36146278125" lon="114.29425579638672" /><trkpt lat="22.36148178125" lon="114.29424679638672" /><trkpt lat="22.36149078125" lon="114.29424079638672" /><trkpt lat="22.36149978125" lon="114.29423379638672" /><trkpt lat="22.36152378125" lon="114.29420779638671" /><trkpt lat="22.36153278125" lon="114.29420179638672" /><trkpt lat="22.36154078125" lon="114.29419779638671" /><trkpt lat="22.36156978125" lon="114.29418879638672" /><trkpt lat="22.36158378125" lon="114.29418379638672" /><trkpt lat="22.36161178125" lon="114.29416979638673" /><trkpt lat="22.36162478125" lon="114.29416479638672" /><trkpt lat="22.36165478125" lon="114.29415279638673" /><trkpt lat="22.36166378125" lon="114.29414779638672" /><trkpt lat="22.36167178125" lon="114.29414079638671" /><trkpt lat="22.36170978125" lon="114.29409879638672" /><trkpt lat="22.36171578125" lon="114.29408879638672" /><trkpt lat="22.36171878125" lon="114.29408079638672" /><trkpt lat="22.36172078125" lon="114.29407279638671" /><trkpt lat="22.36172278125" lon="114.29405379638672" /><trkpt lat="22.36172678125" lon="114.29403779638672" /><trkpt lat="22.36173178125" lon="114.29402479638672" /><trkpt lat="22.36174378125" lon="114.29399979638671" /><trkpt lat="22.36175978125" lon="114.29396979638672" /><trkpt lat="22.36177978125" lon="114.29393579638672" /><trkpt lat="22.36179278125" lon="114.29391579638671" /><trkpt lat="22.36181178125" lon="114.29389379638671" /><trkpt lat="22.36181678125" lon="114.29388479638672" /><trkpt lat="22.36181978125" lon="114.29387379638672" /><trkpt lat="22.36182078125" lon="114.29386179638672" /><trkpt lat="22.36182078125" lon="114.29385179638672" /><trkpt lat="22.36181878125" lon="114.29384379638672" /><trkpt lat="22.36181078125" lon="114.29381979638671" /><trkpt lat="22.36180778125" lon="114.29380179638672" /><trkpt lat="22.36180578125" lon="114.29378479638672" /><trkpt lat="22.36180778125" lon="114.29377279638672" /><trkpt lat="22.36181078125" lon="114.29376179638672" /><trkpt lat="22.36182378125" lon="114.29373179638672" /><trkpt lat="22.36185478125" lon="114.29366779638671" /><trkpt lat="22.36187278125" lon="114.29362179638672" /><trkpt lat="22.36187578125" lon="114.29360879638672" /><trkpt lat="22.36188578125" lon="114.29356179638671" /><trkpt lat="22.36189078125" lon="114.29354479638671" /><trkpt lat="22.36189578125" lon="114.29353179638672" /><trkpt lat="22.36190978125" lon="114.29350479638671" /><trkpt lat="22.36192378125" lon="114.29348279638671" /><trkpt lat="22.36194178125" lon="114.29346079638673" /><trkpt lat="22.36194778125" lon="114.29345679638672" /><trkpt lat="22.36195478125" lon="114.29345379638671" /><trkpt lat="22.36199278125" lon="114.29344579638672" /><trkpt lat="22.36206478125" lon="114.29343479638672" /><trkpt lat="22.36207578125" lon="114.29343179638671" /><trkpt lat="22.36208578125" lon="114.29342779638672" /><trkpt lat="22.36214378125" lon="114.29339979638672" /><trkpt lat="22.36215078125" lon="114.29339679638672" /><trkpt lat="22.36215778125" lon="114.29339579638672" /><trkpt lat="22.36216578125" lon="114.29339579638672" /><trkpt lat="22.36217878125" lon="114.29339979638672" /><trkpt lat="22.36219778125" lon="114.29340579638672" /><trkpt lat="22.36221278125" lon="114.29341279638672" /><trkpt lat="22.36228078125" lon="114.29344979638672" /><trkpt lat="22.36228478125" lon="114.29345179638672" /><trkpt lat="22.36229078125" lon="114.29345279638672" /><trkpt lat="22.36229678125" lon="114.29345379638671" /><trkpt lat="22.36231178125" lon="114.29345379638671" /><trkpt lat="22.36232078125" lon="114.29345479638671" /><trkpt lat="22.36232978125" lon="114.29345779638672" /><trkpt lat="22.36236978125" lon="114.29347479638672" /><trkpt lat="22.36237778125" lon="114.29347679638671" /><trkpt lat="22.36238578125" lon="114.29347879638672" /><trkpt lat="22.36241478125" lon="114.29347979638672" /><trkpt lat="22.36242478125" lon="114.29347979638672" /><trkpt lat="22.36243578125" lon="114.29347779638672" /><trkpt lat="22.36249078125" lon="114.29346279638672" /><trkpt lat="22.36250678125" lon="114.29345979638671" /><trkpt lat="22.36252878125" lon="114.29345779638672" /><trkpt lat="22.36253678125" lon="114.29345579638672" /><trkpt lat="22.36254178125" lon="114.29345379638671" /><trkpt lat="22.36255278125" lon="114.29344779638672" /><trkpt lat="22.36261178125" lon="114.29344779638672" /><trkpt lat="22.36262578125" lon="114.29344679638672" /><trkpt lat="22.36264178125" lon="114.29344279638671" /><trkpt lat="22.36264878125" lon="114.29343879638672" /><trkpt lat="22.36265478125" lon="114.29343479638672" /><trkpt lat="22.36265878125" lon="114.29343079638672" /><trkpt lat="22.36266078125" lon="114.29342579638671" /><trkpt lat="22.36265978125" lon="114.29342079638671" /><trkpt lat="22.36265278125" lon="114.29341279638672" /><trkpt lat="22.36267778125" lon="114.29339379638672" /><trkpt lat="22.36268478125" lon="114.29338979638672" /><trkpt lat="22.36269678125" lon="114.29338379638672" /><trkpt lat="22.36270378125" lon="114.29337979638672" /><trkpt lat="22.36271078125" lon="114.29337479638671" /><trkpt lat="22.36274378125" lon="114.29334679638671" /><trkpt lat="22.36282478125" lon="114.29332779638672" /><trkpt lat="22.36286278125" lon="114.29335279638671" /><trkpt lat="22.36287378125" lon="114.29335779638672" /><trkpt lat="22.36289578125" lon="114.29336179638672" /><trkpt lat="22.36290478125" lon="114.29336479638673" /><trkpt lat="22.36291278125" lon="114.29336879638672" /><trkpt lat="22.36294278125" lon="114.29338679638671" /><trkpt lat="22.36295078125" lon="114.29338979638672" /><trkpt lat="22.36296078125" lon="114.29339079638672" /><trkpt lat="22.36297078125" lon="114.29338979638672" /><trkpt lat="22.36299478125" lon="114.29338279638672" /><trkpt lat="22.36300978125" lon="114.29338079638671" /><trkpt lat="22.36303678125" lon="114.29338079638671" /><trkpt lat="22.36305778125" lon="114.29337879638672" /><trkpt lat="22.36311678125" lon="114.29337179638672" /><trkpt lat="22.36312278125" lon="114.29336679638672" /><trkpt lat="22.36312778125" lon="114.29335779638672" /><trkpt lat="22.36313078125" lon="114.29334679638671" /><trkpt lat="22.36314178125" lon="114.29332979638671" /><trkpt lat="22.36315678125" lon="114.29331179638672" /><trkpt lat="22.36316378125" lon="114.29330679638672" /><trkpt lat="22.36317278125" lon="114.29330179638671" /><trkpt lat="22.36320578125" lon="114.29328979638672" /><trkpt lat="22.36322178125" lon="114.29328079638672" /><trkpt lat="22.36325278125" lon="114.29325979638672" /><trkpt lat="22.36327578125" lon="114.29324579638671" /><trkpt lat="22.36331278125" lon="114.29322579638672" /><trkpt lat="22.36332378125" lon="114.29321579638672" /><trkpt lat="22.36335478125" lon="114.29316979638672" /><trkpt lat="22.36336178125" lon="114.29315579638671" /><trkpt lat="22.36338978125" lon="114.29305779638672" /><trkpt lat="22.36339178125" lon="114.29305279638672" /><trkpt lat="22.36339378125" lon="114.29304879638671" /><trkpt lat="22.36339578125" lon="114.29304479638672" /><trkpt lat="22.36339978125" lon="114.29304179638672" /><trkpt lat="22.36343178125" lon="114.29302179638672" /><trkpt lat="22.36346778125" lon="114.29298679638671" /><trkpt lat="22.36349378125" lon="114.29295279638671" /><trkpt lat="22.36349978125" lon="114.29294179638671" /><trkpt lat="22.36351878125" lon="114.29288479638672" /><trkpt lat="22.36352578125" lon="114.29286579638672" /><trkpt lat="22.36355578125" lon="114.29280579638672" /><trkpt lat="22.36357478125" lon="114.29279179638672" /><trkpt lat="22.36358878125" lon="114.29278679638672" /><trkpt lat="22.36360578125" lon="114.29278579638672" /><trkpt lat="22.36362678125" lon="114.29278879638672" /><trkpt lat="22.36366078125" lon="114.29275179638672" /><trkpt lat="22.36371778125" lon="114.29273679638672" /><trkpt lat="22.36372878125" lon="114.29273179638672" /><trkpt lat="22.36377578125" lon="114.29270479638672" /><trkpt lat="22.36378878125" lon="114.29269979638671" /><trkpt lat="22.36383378125" lon="114.29268579638672" /><trkpt lat="22.36384278125" lon="114.29268079638672" /><trkpt lat="22.36387678125" lon="114.29266279638672" /><trkpt lat="22.36389578125" lon="114.29264779638672" /><trkpt lat="22.36392278125" lon="114.29262279638672" /><trkpt lat="22.36393378125" lon="114.29257979638672" /><trkpt lat="22.36394178125" lon="114.29251779638672" /><trkpt lat="22.36397778125" lon="114.29247979638671" /><trkpt lat="22.36400078125" lon="114.29243679638672" /><trkpt lat="22.36401278125" lon="114.29239579638671" /><trkpt lat="22.36401678125" lon="114.29238579638672" /><trkpt lat="22.36402278125" lon="114.29237279638672" /><trkpt lat="22.36402578125" lon="114.29236479638672" /><trkpt lat="22.36402578125" lon="114.29235479638672" /><trkpt lat="22.36402478125" lon="114.29234879638672" /><trkpt lat="22.36402278125" lon="114.29234079638672" /><trkpt lat="22.36400978125" lon="114.29230979638672" /><trkpt lat="22.36400878125" lon="114.29230479638672" /><trkpt lat="22.36400878125" lon="114.29229979638671" /><trkpt lat="22.36400978125" lon="114.29229479638671" /><trkpt lat="22.36401178125" lon="114.29228979638673" /><trkpt lat="22.36404078125" lon="114.29225779638672" /><trkpt lat="22.36404678125" lon="114.29225279638672" /><trkpt lat="22.36405278125" lon="114.29225079638672" /><trkpt lat="22.36407778125" lon="114.29224879638672" /><trkpt lat="22.36408878125" lon="114.29224479638673" /><trkpt lat="22.36409378125" lon="114.29224279638672" /><trkpt lat="22.36409678125" lon="114.29223779638671" /><trkpt lat="22.36409878125" lon="114.29222479638672" /><trkpt lat="22.36414978125" lon="114.29215579638672" /><trkpt lat="22.36418178125" lon="114.29213379638672" /><trkpt lat="22.36419778125" lon="114.29212479638672" /><trkpt lat="22.36421778125" lon="114.29211679638672" /><trkpt lat="22.36423678125" lon="114.29211279638672" /><trkpt lat="22.36426478125" lon="114.29211079638672" /><trkpt lat="22.36430278125" lon="114.29207379638672" /><trkpt lat="22.36432478125" lon="114.29204379638672" /><trkpt lat="22.36436278125" lon="114.29201479638672" /><trkpt lat="22.36438078125" lon="114.29198479638671" /><trkpt lat="22.36440578125" lon="114.29195279638672" /><trkpt lat="22.36444478125" lon="114.29193379638672" /><trkpt lat="22.36446178125" lon="114.29192479638672" /><trkpt lat="22.36448978125" lon="114.29190779638672" /><trkpt lat="22.36452378125" lon="114.29190779638672" /><trkpt lat="22.36456878125" lon="114.29184079638672" /><trkpt lat="22.36461978125" lon="114.29179779638672" /><trkpt lat="22.36466478125" lon="114.29179979638671" /><trkpt lat="22.36468878125" lon="114.29179379638671" /><trkpt lat="22.36470378125" lon="114.29179079638672" /><trkpt lat="22.36475878125" lon="114.29178779638671" /><trkpt lat="22.36476978125" lon="114.29178779638671" /><trkpt lat="22.36481178125" lon="114.29179579638672" /><trkpt lat="22.36488278125" lon="114.29181979638672" /><trkpt lat="22.36489778125" lon="114.29182179638671" /><trkpt lat="22.36496278125" lon="114.29182179638671" /><trkpt lat="22.36500578125" lon="114.29179079638672" /><trkpt lat="22.36501478125" lon="114.29176979638672" /><trkpt lat="22.36503078125" lon="114.29174779638672" /><trkpt lat="22.36504178125" lon="114.29173679638672" /><trkpt lat="22.36505878125" lon="114.29172579638671" /><trkpt lat="22.36506478125" lon="114.29171779638672" /><trkpt lat="22.36507478125" lon="114.29170079638672" /><trkpt lat="22.36508378125" lon="114.29168879638672" /><trkpt lat="22.36510778125" lon="114.29166679638672" /><trkpt lat="22.36511578125" lon="114.29165679638672" /><trkpt lat="22.36512878125" lon="114.29163779638672" /><trkpt lat="22.36513678125" lon="114.29162779638672" /><trkpt lat="22.36514578125" lon="114.29161679638672" /><trkpt lat="22.36515278125" lon="114.29160979638672" /><trkpt lat="22.36516078125" lon="114.29159779638672" /><trkpt lat="22.36516378125" lon="114.29159279638672" /><trkpt lat="22.36516578125" lon="114.29158679638672" /><trkpt lat="22.36516878125" lon="114.29155879638672" /><trkpt lat="22.36516778125" lon="114.29155079638672" /><trkpt lat="22.36516678125" lon="114.29154279638672" /><trkpt lat="22.36515178125" lon="114.29149879638672" /><trkpt lat="22.36514978125" lon="114.29148879638672" /><trkpt lat="22.36514978125" lon="114.29147779638672" /><trkpt lat="22.36515678125" lon="114.29142279638671" /><trkpt lat="22.36515678125" lon="114.29141379638672" /><trkpt lat="22.36515578125" lon="114.29140479638671" /><trkpt lat="22.36514578125" lon="114.29135679638672" /><trkpt lat="22.36514378125" lon="114.29134179638672" /><trkpt lat="22.36514078125" lon="114.29127379638672" /><trkpt lat="22.36514078125" lon="114.29126679638672" /><trkpt lat="22.36514178125" lon="114.29125979638673" /><trkpt lat="22.36514778125" lon="114.29122879638672" /><trkpt lat="22.36514978125" lon="114.29122079638672" /><trkpt lat="22.36515378125" lon="114.29121379638671" /><trkpt lat="22.36517878125" lon="114.29117679638672" /><trkpt lat="22.36519578125" lon="114.29115479638672" /><trkpt lat="22.36521878125" lon="114.29112779638672" /><trkpt lat="22.36522878125" lon="114.29111879638671" /><trkpt lat="22.36524278125" lon="114.29110779638673" /><trkpt lat="22.36524878125" lon="114.29110179638671" /><trkpt lat="22.36525378125" lon="114.29109379638672" /><trkpt lat="22.36525678125" lon="114.29108479638671" /><trkpt lat="22.36527478125" lon="114.29099279638672" /><trkpt lat="22.36528378125" lon="114.29095879638672" /><trkpt lat="22.36529378125" lon="114.29092779638673" /><trkpt lat="22.36537678125" lon="114.29072979638671" /><trkpt lat="22.36543278125" lon="114.29058179638672" /><trkpt lat="22.36544678125" lon="114.29052679638671" /><trkpt lat="22.36545578125" lon="114.29050579638673" /><trkpt lat="22.36546778125" lon="114.29048679638672" /><trkpt lat="22.36548478125" lon="114.29047179638673" /><trkpt lat="22.36551478125" lon="114.29045079638672" /><trkpt lat="22.36558578125" lon="114.29042779638672" /><trkpt lat="22.36565878125" lon="114.29041279638672" /><trkpt lat="22.36567678125" lon="114.29041279638672" /><trkpt lat="22.36569178125" lon="114.29041479638671" /><trkpt lat="22.36570778125" lon="114.29041879638672" /><trkpt lat="22.36572478125" lon="114.29042579638671" /><trkpt lat="22.36573878125" lon="114.29043479638672" /><trkpt lat="22.36575178125" lon="114.29044479638672" /><trkpt lat="22.36582378125" lon="114.29052279638672" /><trkpt lat="22.36583978125" lon="114.29053479638672" /><trkpt lat="22.36585878125" lon="114.29054379638671" /><trkpt lat="22.36587778125" lon="114.29055279638672" /><trkpt lat="22.36589578125" lon="114.29055779638672" /><trkpt lat="22.36591278125" lon="114.29055979638672" /><trkpt lat="22.36593278125" lon="114.29055979638672" /><trkpt lat="22.36595178125" lon="114.29055679638672" /><trkpt lat="22.36596978125" lon="114.29054979638671" /><trkpt lat="22.36598878125" lon="114.29053879638671" /><trkpt lat="22.36619678125" lon="114.29040279638672" /><trkpt lat="22.36631078125" lon="114.29031779638672" /><trkpt lat="22.36635578125" lon="114.29026279638671" /><trkpt lat="22.36637178125" lon="114.29023079638672" /><trkpt lat="22.36637578125" lon="114.29021979638672" /><trkpt lat="22.36637878125" lon="114.29020779638672" /><trkpt lat="22.36637978125" lon="114.29019679638672" /><trkpt lat="22.36637578125" lon="114.29018779638672" /><trkpt lat="22.36637178125" lon="114.29018079638672" /><trkpt lat="22.36636478125" lon="114.29017379638672" /><trkpt lat="22.36627478125" lon="114.29015579638671" /><trkpt lat="22.36626778125" lon="114.29014779638672" /><trkpt lat="22.36626078125" lon="114.29013879638671" /><trkpt lat="22.36625678125" lon="114.29012779638671" /><trkpt lat="22.36625178125" lon="114.29007679638671" /><trkpt lat="22.36626178125" lon="114.28987879638672" /><trkpt lat="22.36626478125" lon="114.28969079638672" /><trkpt lat="22.36625078125" lon="114.28956879638672" /><trkpt lat="22.36620578125" lon="114.28944979638672" /><trkpt lat="22.36595878125" lon="114.28940879638672" /><trkpt lat="22.36595478125" lon="114.28932679638672" /><trkpt lat="22.36635078125" lon="114.28902279638672" /><trkpt lat="22.36644478125" lon="114.28890379638672" /><trkpt lat="22.366436781250002" lon="114.28889079638672" /><trkpt lat="22.36585478125" lon="114.28907979638672" /><trkpt lat="22.36594278125" lon="114.28891979638672" /><trkpt lat="22.36608878125" lon="114.28875379638671" /><trkpt lat="22.36610278125" lon="114.28879079638672" /><trkpt lat="22.36612878125" lon="114.28881779638672" /><trkpt lat="22.36617778125" lon="114.28882879638672" /><trkpt lat="22.36620978125" lon="114.28882879638672" /><trkpt lat="22.36626978125" lon="114.28880179638672" /><trkpt lat="22.36630578125" lon="114.28878179638671" /><trkpt lat="22.36640878125" lon="114.28872479638672" /><trkpt lat="22.36655478125" lon="114.28866679638672" /><trkpt lat="22.36663078125" lon="114.28864779638671" /><trkpt lat="22.36670278125" lon="114.28863979638672" /><trkpt lat="22.36673578125" lon="114.28862279638672" /><trkpt lat="22.36675278125" lon="114.28861079638672" /><trkpt lat="22.36680778125" lon="114.28857079638672" /><trkpt lat="22.36687478125" lon="114.28852179638672" /><trkpt lat="22.36691578125" lon="114.28845879638672" /><trkpt lat="22.36696178125" lon="114.28843079638672" /><trkpt lat="22.36701478125" lon="114.28841879638672" /><trkpt lat="22.36705378125" lon="114.28843079638672" /><trkpt lat="22.36704978125" lon="114.28841579638672" /><trkpt lat="22.36702478125" lon="114.28832279638672" /><trkpt lat="22.36702578125" lon="114.28823679638671" /><trkpt lat="22.36704478125" lon="114.28814479638672" /><trkpt lat="22.36705378125" lon="114.28809379638672" /><trkpt lat="22.36718678125" lon="114.28809479638672" /><trkpt lat="22.36734378125" lon="114.28796079638671" /><trkpt lat="22.36753578125" lon="114.28774179638671" /><trkpt lat="22.36755078125" lon="114.28801679638671" /><trkpt lat="22.36756678125" lon="114.28804579638673" /><trkpt lat="22.36773978125" lon="114.28834379638671" /><trkpt lat="22.36800478125" lon="114.28864979638672" /><trkpt lat="22.368474997120455" lon="114.28924523673592" /><trkpt lat="22.36842640659006" lon="114.28927397509347" /><trkpt lat="22.368390450257223" lon="114.28922115498727" /><trkpt lat="22.368398421226814" lon="114.28914826726634" /><trkpt lat="22.36800478125" lon="114.28864979638672" /><trkpt lat="22.36773978125" lon="114.28834379638671" /><trkpt lat="22.36756678125" lon="114.28804579638673" /><trkpt lat="22.36755078125" lon="114.28801679638671" /><trkpt lat="22.36753578125" lon="114.28774179638671" /><trkpt lat="22.36749778125" lon="114.28769679638671" /><trkpt lat="22.36743878125" lon="114.28764179638672" /><trkpt lat="22.36746378125" lon="114.28760879638672" /><trkpt lat="22.367567016509085" lon="114.28746186090243" /></trkseg></trk></gpx>