<?xml version='1.0' encoding='UTF-8' ?><gpx version="1.1" creator="HikingTrailHK" xsi:schemaLocation="http://www.topografix.com/GPX/1/1 http://www.topografix.com/GPX/1/1/gpx.xsd" xmlns="http://www.topografix.com/GPX/1/1" xmlns:xsi="http://www.w3.org/2001/XMLSchema-instance"><metadata><name>橫七古道 @ 2016-7-18</name><desc></desc></metadata><trk><trkseg><trkpt lat="22.47213423869148" lon="114.23304190784967" /><trkpt lat="22.47247678125" lon="114.23297679638672" /><trkpt lat="22.47254278125" lon="114.23302779638672" /><trkpt lat="22.47266878125" lon="114.23311679638672" /><trkpt lat="22.47270878125" lon="114.23310579638672" /><trkpt lat="22.47271778125" lon="114.23315079638672" /><trkpt lat="22.47277978125" lon="114.23314379638671" /><trkpt lat="22.47285578125" lon="114.23315379638672" /><trkpt lat="22.47290978125" lon="114.23314479638672" /><trkpt lat="22.47339978125" lon="114.23456979638672" /><trkpt lat="22.47365478125" lon="114.23536479638672" /><trkpt lat="22.47374078125" lon="114.23560379638671" /><trkpt lat="22.47377278125" lon="114.23569879638671" /><trkpt lat="22.47381878125" lon="114.23580279638672" /><trkpt lat="22.47395478125" lon="114.23603879638672" /><trkpt lat="22.47409578125" lon="114.23618079638672" /><trkpt lat="22.47426478125" lon="114.23630279638672" /><trkpt lat="22.47460278125" lon="114.23645379638671" /><trkpt lat="22.47519078125" lon="114.23671679638672" /><trkpt lat="22.47551978125" lon="114.23671479638672" /><trkpt lat="22.475652781249998" lon="114.23667679638672" /><trkpt lat="22.47579078125" lon="114.23661979638672" /><trkpt lat="22.47619478125" lon="114.23635079638672" /><trkpt lat="22.47626478125" lon="114.23632479638673" /><trkpt lat="22.47634578125" lon="114.23629579638671" /><trkpt lat="22.47638078125" lon="114.23622279638671" /><trkpt lat="22.47641878125" lon="114.23622579638672" /><trkpt lat="22.47645678125" lon="114.23623379638671" /><trkpt lat="22.47667778125" lon="114.23636579638672" /><trkpt lat="22.47682478125" lon="114.23639979638672" /><trkpt lat="22.47691678125" lon="114.23638379638672" /><trkpt lat="22.47698178125" lon="114.23632979638671" /><trkpt lat="22.47708678125" lon="114.23616479638672" /><trkpt lat="22.47722878125" lon="114.23616079638671" /><trkpt lat="22.47729178125" lon="114.23601979638671" /><trkpt lat="22.47733778125" lon="114.23593779638672" /><trkpt lat="22.47745378125" lon="114.23581479638672" /><trkpt lat="22.47753878125" lon="114.23577279638671" /><trkpt lat="22.47766278125" lon="114.23555879638671" /><trkpt lat="22.47790478125" lon="114.23528179638672" /><trkpt lat="22.47798478125" lon="114.23514479638672" /><trkpt lat="22.47801678125" lon="114.23501379638672" /><trkpt lat="22.47800578125" lon="114.23482279638672" /><trkpt lat="22.47801778125" lon="114.23474079638672" /><trkpt lat="22.47807478125" lon="114.23481579638671" /><trkpt lat="22.47815178125" lon="114.23487079638672" /><trkpt lat="22.47812478125" lon="114.23468779638672" /><trkpt lat="22.47814678125" lon="114.23463779638672" /><trkpt lat="22.47822278125" lon="114.23471279638672" /><trkpt lat="22.47827678125" lon="114.23479679638672" /><trkpt lat="22.47834278125" lon="114.23483179638671" /><trkpt lat="22.47849278125" lon="114.23490079638673" /><trkpt lat="22.47885378125" lon="114.23507079638672" /><trkpt lat="22.47904078125" lon="114.23513179638672" /><trkpt lat="22.47920878125" lon="114.23527979638672" /><trkpt lat="22.47940478125" lon="114.23571679638673" /><trkpt lat="22.47951678125" lon="114.23583679638672" /><trkpt lat="22.47962078125" lon="114.23584679638672" /><trkpt lat="22.47989278125" lon="114.23579779638672" /><trkpt lat="22.48013378125" lon="114.23594879638672" /><trkpt lat="22.48033478125" lon="114.23602579638671" /><trkpt lat="22.48038178125" lon="114.23613079638672" /><trkpt lat="22.48024978125" lon="114.23662379638672" /><trkpt lat="22.48056178125" lon="114.23701479638672" /><trkpt lat="22.48070978125" lon="114.23705779638672" /><trkpt lat="22.48084878125" lon="114.23702579638672" /><trkpt lat="22.48106378125" lon="114.23711479638672" /><trkpt lat="22.48121078125" lon="114.23715379638672" /><trkpt lat="22.48146278125" lon="114.23718379638672" /><trkpt lat="22.48183278125" lon="114.23738579638672" /><trkpt lat="22.48195178125" lon="114.23751679638671" /><trkpt lat="22.48200678125" lon="114.23764379638672" /><trkpt lat="22.48203878125" lon="114.23785679638672" /><trkpt lat="22.48242578125" lon="114.23805179638671" /><trkpt lat="22.48274378125" lon="114.23813079638671" /><trkpt lat="22.48288178125" lon="114.23814579638672" /><trkpt lat="22.48296578125" lon="114.23818679638671" /><trkpt lat="22.48303178125" lon="114.23818779638673" /><trkpt lat="22.48321978125" lon="114.23800979638672" /><trkpt lat="22.48471678125" lon="114.23732379638672" /><trkpt lat="22.48495778125" lon="114.23721779638672" /><trkpt lat="22.48513378125" lon="114.23735579638672" /><trkpt lat="22.48527278125" lon="114.23745879638672" /><trkpt lat="22.48541978125" lon="114.23747379638672" /><trkpt lat="22.48555978125" lon="114.23742879638672" /><trkpt lat="22.48607178125" lon="114.23755979638672" /><trkpt lat="22.48642178125" lon="114.23772879638672" /><trkpt lat="22.48672578125" lon="114.23770379638673" /><trkpt lat="22.48702978125" lon="114.23753379638671" /><trkpt lat="22.48736278125" lon="114.23719679638671" /><trkpt lat="22.48785178125" lon="114.23685779638672" /><trkpt lat="22.48823278125" lon="114.23649679638672" /><trkpt lat="22.48842578125" lon="114.23641379638671" /><trkpt lat="22.48871978125" lon="114.23636379638671" /><trkpt lat="22.48897978125" lon="114.23617179638671" /><trkpt lat="22.48900978125" lon="114.23605379638671" /><trkpt lat="22.48915978125" lon="114.23577979638672" /><trkpt lat="22.48914078125" lon="114.23560379638671" /><trkpt lat="22.48891678125" lon="114.23537279638671" /><trkpt lat="22.48885978125" lon="114.23519379638672" /><trkpt lat="22.48891678125" lon="114.23509779638673" /><trkpt lat="22.48909678125" lon="114.23503579638673" /><trkpt lat="22.48932178125" lon="114.23500579638672" /><trkpt lat="22.48960678125" lon="114.23488979638672" /><trkpt lat="22.48962978125" lon="114.23475879638671" /><trkpt lat="22.48960278125" lon="114.23464479638672" /><trkpt lat="22.48933578125" lon="114.23429679638672" /><trkpt lat="22.48927678125" lon="114.23411279638673" /><trkpt lat="22.48934178125" lon="114.23404979638671" /><trkpt lat="22.48943878125" lon="114.23411179638671" /><trkpt lat="22.48955478125" lon="114.23422279638672" /><trkpt lat="22.48968778125" lon="114.23431179638672" /><trkpt lat="22.48988078125" lon="114.23428879638672" /><trkpt lat="22.48999878125" lon="114.23417479638672" /><trkpt lat="22.49040178125" lon="114.23365979638672" /><trkpt lat="22.49037278125" lon="114.23341979638671" /><trkpt lat="22.49039378125" lon="114.23324479638671" /><trkpt lat="22.49043678125" lon="114.23314179638672" /><trkpt lat="22.49067578125" lon="114.23299179638671" /><trkpt lat="22.49079078125" lon="114.23309579638672" /><trkpt lat="22.49098178125" lon="114.23311379638672" /><trkpt lat="22.49108478125" lon="114.23308979638672" /><trkpt lat="22.49118178125" lon="114.23303779638672" /><trkpt lat="22.49114478125" lon="114.23288179638672" /><trkpt lat="22.49115178125" lon="114.23277479638672" /><trkpt lat="22.49131478125" lon="114.23273479638672" /><trkpt lat="22.49145978125" lon="114.23268879638673" /><trkpt lat="22.49144678125" lon="114.23239179638672" /><trkpt lat="22.49184378125" lon="114.23241279638673" /><trkpt lat="22.49227878125" lon="114.23230279638672" /><trkpt lat="22.49236278125" lon="114.23216979638671" /><trkpt lat="22.49253378125" lon="114.23214979638672" /><trkpt lat="22.49270078125" lon="114.23202779638672" /><trkpt lat="22.49283078125" lon="114.23173679638671" /><trkpt lat="22.49280378125" lon="114.23155879638672" /><trkpt lat="22.49268778125" lon="114.23131079638672" /><trkpt lat="22.49291178125" lon="114.23126679638672" /><trkpt lat="22.49329778125" lon="114.23102779638671" /><trkpt lat="22.49334178125" lon="114.23056379638672" /><trkpt lat="22.49340778125" lon="114.23033279638672" /><trkpt lat="22.49338478125" lon="114.22980979638672" /><trkpt lat="22.49354378125" lon="114.22979179638672" /><trkpt lat="22.49398878125" lon="114.22995779638671" /><trkpt lat="22.49420178125" lon="114.22997079638672" /><trkpt lat="22.49448078125" lon="114.22990279638672" /><trkpt lat="22.49467578125" lon="114.23000479638672" /><trkpt lat="22.49514578125" lon="114.23014079638672" /><trkpt lat="22.49536878125" lon="114.23009679638672" /><trkpt lat="22.49555578125" lon="114.23010179638672" /><trkpt lat="22.49561978125" lon="114.23002679638672" /><trkpt lat="22.49584578125" lon="114.22988579638672" /><trkpt lat="22.49595078125" lon="114.22985379638672" /><trkpt lat="22.49593378125" lon="114.22965379638671" /><trkpt lat="22.49581678125" lon="114.22917279638672" /><trkpt lat="22.49562478125" lon="114.22896879638672" /><trkpt lat="22.49558078125" lon="114.22879079638672" /><trkpt lat="22.49556378125" lon="114.22859379638672" /><trkpt lat="22.49555478125" lon="114.22818579638673" /><trkpt lat="22.49550678125" lon="114.22806679638671" /><trkpt lat="22.49546178125" lon="114.22779079638671" /><trkpt lat="22.49547578125" lon="114.22763979638673" /><trkpt lat="22.49558078125" lon="114.22747479638672" /><trkpt lat="22.49561878125" lon="114.22740579638672" /><trkpt lat="22.49590078125" lon="114.22692779638672" /><trkpt lat="22.49609478125" lon="114.22681779638671" /><trkpt lat="22.496157781249998" lon="114.22667679638671" /><trkpt lat="22.49614678125" lon="114.22641679638672" /><trkpt lat="22.49609278125" lon="114.22625079638672" /><trkpt lat="22.49580978125" lon="114.22579379638672" /><trkpt lat="22.49583678125" lon="114.22574679638672" /><trkpt lat="22.49591278125" lon="114.22558279638672" /><trkpt lat="22.49601378125" lon="114.22537079638671" /><trkpt lat="22.49611478125" lon="114.22514879638672" /><trkpt lat="22.49621778125" lon="114.22445679638672" /><trkpt lat="22.49609678125" lon="114.22418479638672" /><trkpt lat="22.49610378125" lon="114.22403279638672" /><trkpt lat="22.49617878125" lon="114.22397079638672" /><trkpt lat="22.49639778125" lon="114.22371279638672" /><trkpt lat="22.49659878125" lon="114.22356279638672" /><trkpt lat="22.49672678125" lon="114.22344979638672" /><trkpt lat="22.49696478125" lon="114.22354379638672" /><trkpt lat="22.49717178125" lon="114.22359079638672" /><trkpt lat="22.49734578125" lon="114.22373979638672" /><trkpt lat="22.49752978125" lon="114.22413779638671" /><trkpt lat="22.49781478125" lon="114.22460279638672" /><trkpt lat="22.49790378125" lon="114.22468879638672" /><trkpt lat="22.49800178125" lon="114.22494879638671" /><trkpt lat="22.49807578125" lon="114.22540779638672" /><trkpt lat="22.49817378125" lon="114.22547379638672" /><trkpt lat="22.49827778125" lon="114.22546979638672" /><trkpt lat="22.49831078125" lon="114.22554779638672" /><trkpt lat="22.49823378125" lon="114.22586579638671" /><trkpt lat="22.49823978125" lon="114.22608779638672" /><trkpt lat="22.49839778125" lon="114.22615279638671" /><trkpt lat="22.49850378125" lon="114.22651779638672" /><trkpt lat="22.49867878125" lon="114.22657579638673" /><trkpt lat="22.49886978125" lon="114.22661779638672" /><trkpt lat="22.49911978125" lon="114.22656779638672" /><trkpt lat="22.49922878125" lon="114.22626879638672" /><trkpt lat="22.49930278125" lon="114.22616479638671" /><trkpt lat="22.49947478125" lon="114.22601579638672" /><trkpt lat="22.49951278125" lon="114.22587779638671" /><trkpt lat="22.49968978125" lon="114.22565479638672" /><trkpt lat="22.49980878125" lon="114.22561179638672" /><trkpt lat="22.50005978125" lon="114.22564779638672" /><trkpt lat="22.50034278125" lon="114.22547379638672" /><trkpt lat="22.50049178125" lon="114.22539579638672" /><trkpt lat="22.50078978125" lon="114.22509579638673" /><trkpt lat="22.50105678125" lon="114.22508179638672" /><trkpt lat="22.50130578125" lon="114.22493579638672" /><trkpt lat="22.50174978125" lon="114.22467979638672" /><trkpt lat="22.50197078125" lon="114.22451879638672" /><trkpt lat="22.50216378125" lon="114.22430179638671" /><trkpt lat="22.50221478125" lon="114.22424879638672" /><trkpt lat="22.50238478125" lon="114.22400579638672" /><trkpt lat="22.50252178125" lon="114.22396679638672" /><trkpt lat="22.50262878125" lon="114.22391279638671" /><trkpt lat="22.50283078125" lon="114.22373779638671" /><trkpt lat="22.50293078125" lon="114.22354979638672" /><trkpt lat="22.50304878125" lon="114.22352679638672" /><trkpt lat="22.50323378125" lon="114.22337579638672" /><trkpt lat="22.50338478125" lon="114.22319379638672" /><trkpt lat="22.50346778125" lon="114.22312879638672" /><trkpt lat="22.50353978125" lon="114.22298579638672" /><trkpt lat="22.50364178125" lon="114.22284679638672" /><trkpt lat="22.50364978125" lon="114.22260079638671" /><trkpt lat="22.50348778125" lon="114.22225979638672" /><trkpt lat="22.50345078125" lon="114.22209079638672" /><trkpt lat="22.50348178125" lon="114.22139079638671" /><trkpt lat="22.50380078125" lon="114.22089979638672" /><trkpt lat="22.50382578125" lon="114.22074079638672" /><trkpt lat="22.50392578125" lon="114.22043579638672" /><trkpt lat="22.50388178125" lon="114.22027279638672" /><trkpt lat="22.50392878125" lon="114.22011879638671" /><trkpt lat="22.50394178125" lon="114.21991779638672" /><trkpt lat="22.50402078125" lon="114.21981379638672" /><trkpt lat="22.50418778125" lon="114.21967479638671" /><trkpt lat="22.50432478125" lon="114.21945079638672" /><trkpt lat="22.50451978125" lon="114.21927179638672" /><trkpt lat="22.50495478125" lon="114.21891279638672" /><trkpt lat="22.50513778125" lon="114.21889379638672" /><trkpt lat="22.50570278125" lon="114.21868079638672" /><trkpt lat="22.50603678125" lon="114.21851379638672" /><trkpt lat="22.50626078125" lon="114.21831079638672" /><trkpt lat="22.50643278125" lon="114.21802379638672" /><trkpt lat="22.50675178125" lon="114.21777979638672" /><trkpt lat="22.50708478125" lon="114.21733879638671" /><trkpt lat="22.50742478125" lon="114.21698879638672" /><trkpt lat="22.50769778125" lon="114.21685779638672" /><trkpt lat="22.50780378125" lon="114.21674379638672" /><trkpt lat="22.50799178125" lon="114.21665479638672" /><trkpt lat="22.50835278125" lon="114.21657979638672" /><trkpt lat="22.50855778125" lon="114.21646979638672" /><trkpt lat="22.50868978125" lon="114.21636179638672" /><trkpt lat="22.50908378125" lon="114.21631879638672" /><trkpt lat="22.50943878125" lon="114.21620979638672" /><trkpt lat="22.50966178125" lon="114.21591979638671" /><trkpt lat="22.50984878125" lon="114.21584079638671" /><trkpt lat="22.51000978125" lon="114.21568979638671" /><trkpt lat="22.51009378125" lon="114.21552279638672" /><trkpt lat="22.51040078125" lon="114.21523679638672" /><trkpt lat="22.51053778125" lon="114.21520579638671" /><trkpt lat="22.51065378125" lon="114.21521079638671" /><trkpt lat="22.51092978125" lon="114.21512479638672" /><trkpt lat="22.51122578125" lon="114.21511879638672" /><trkpt lat="22.51142578125" lon="114.21508179638671" /><trkpt lat="22.51131978125" lon="114.21476579638671" /><trkpt lat="22.51128178125" lon="114.21462379638672" /><trkpt lat="22.51130078125" lon="114.21457179638672" /><trkpt lat="22.51136578125" lon="114.21448179638672" /><trkpt lat="22.51135278125" lon="114.21432779638671" /><trkpt lat="22.51135278125" lon="114.21415579638672" /><trkpt lat="22.51153778125" lon="114.21380279638672" /><trkpt lat="22.51163878125" lon="114.21368679638672" /><trkpt lat="22.51175478125" lon="114.21350079638673" /><trkpt lat="22.511762682423626" lon="114.21333075162315" /><trkpt lat="22.51192139434069" lon="114.21357705367791" /><trkpt lat="22.51194626150817" lon="114.21359701013807" /><trkpt lat="22.511970701585383" lon="114.21361047127812" /><trkpt lat="22.511990205974982" lon="114.21362919664625" /><trkpt lat="22.512005207209185" lon="114.21363456106428" /><trkpt lat="22.512012777998393" lon="114.21363456106428" /><trkpt lat="22.512012777998393" lon="114.21362919664625" /><trkpt lat="22.512007822352786" lon="114.21362919664625" /><trkpt lat="22.512046972174186" lon="114.2135874177905" /><trkpt lat="22.51200178125" lon="114.21353779638672" /><trkpt lat="22.51193078125" lon="114.21349679638672" /><trkpt lat="22.51184178125" lon="114.21346279638672" /><trkpt lat="22.51175478125" lon="114.21350079638673" /><trkpt lat="22.51163878125" lon="114.21368679638672" /><trkpt lat="22.51153778125" lon="114.21380279638672" /><trkpt lat="22.51142578125" lon="114.21382979638672" /><trkpt lat="22.51133078125" lon="114.21387579638672" /><trkpt lat="22.51135978125" lon="114.21365079638672" /><trkpt lat="22.51140978125" lon="114.21361779638671" /><trkpt lat="22.51149878125" lon="114.21336679638672" /><trkpt lat="22.51152778125" lon="114.21321079638672" /><trkpt lat="22.51153078125" lon="114.21300379638672" /><trkpt lat="22.51139678125" lon="114.21316679638672" /><trkpt lat="22.51131378125" lon="114.21332279638672" /><trkpt lat="22.51118978125" lon="114.21342679638671" /><trkpt lat="22.51104178125" lon="114.21348879638671" /><trkpt lat="22.51077078125" lon="114.21322979638671" /><trkpt lat="22.51095978125" lon="114.21296679638672" /><trkpt lat="22.51096778125" lon="114.21283279638672" /><trkpt lat="22.51103178125" lon="114.21270879638672" /><trkpt lat="22.51104378125" lon="114.21250879638671" /><trkpt lat="22.51088778125" lon="114.21238179638672" /><trkpt lat="22.51078778125" lon="114.21232479638672" /><trkpt lat="22.51074778125" lon="114.21226579638672" /><trkpt lat="22.51075778125" lon="114.21211679638672" /><trkpt lat="22.51085078125" lon="114.21193779638672" /><trkpt lat="22.51084078125" lon="114.21171579638671" /><trkpt lat="22.51093278125" lon="114.21160679638672" /><trkpt lat="22.51110678125" lon="114.21161479638671" /><trkpt lat="22.51122678125" lon="114.21149679638673" /><trkpt lat="22.51152178125" lon="114.21127179638673" /><trkpt lat="22.51165678125" lon="114.21130379638672" /><trkpt lat="22.51195678125" lon="114.21138879638671" /><trkpt lat="22.51200478125" lon="114.21138579638672" /><trkpt lat="22.51202778125" lon="114.21137279638671" /><trkpt lat="22.51203078125" lon="114.21129979638673" /><trkpt lat="22.51195878125" lon="114.21106679638672" /><trkpt lat="22.51197678125" lon="114.21098079638672" /><trkpt lat="22.51214578125" lon="114.21088779638671" /><trkpt lat="22.51224078125" lon="114.21084279638671" /><trkpt lat="22.51240178125" lon="114.21070579638672" /><trkpt lat="22.51239178125" lon="114.21062879638671" /><trkpt lat="22.51228878125" lon="114.21052279638671" /><trkpt lat="22.51223378125" lon="114.21047579638672" /><trkpt lat="22.51222178125" lon="114.21036479638671" /><trkpt lat="22.51228378125" lon="114.21014379638672" /><trkpt lat="22.51221178125" lon="114.20993279638672" /><trkpt lat="22.51222578125" lon="114.20981079638672" /><trkpt lat="22.51226278125" lon="114.20977379638671" /><trkpt lat="22.51235378125" lon="114.20981679638672" /><trkpt lat="22.51247178125" lon="114.20996279638672" /><trkpt lat="22.51255778125" lon="114.21015079638671" /><trkpt lat="22.51260278125" lon="114.21022379638671" /><trkpt lat="22.51263478125" lon="114.21024479638672" /><trkpt lat="22.51267878125" lon="114.21024079638671" /><trkpt lat="22.51279178125" lon="114.21015779638672" /><trkpt lat="22.51284878125" lon="114.21013079638672" /><trkpt lat="22.51291578125" lon="114.21013179638672" /><trkpt lat="22.51298378125" lon="114.21014879638672" /><trkpt lat="22.51307078125" lon="114.21020679638671" /><trkpt lat="22.51313078125" lon="114.21029279638672" /><trkpt lat="22.51317378125" lon="114.21043879638673" /><trkpt lat="22.51324078125" lon="114.21060879638672" /><trkpt lat="22.51333478125" lon="114.21087679638671" /><trkpt lat="22.51338678125" lon="114.21101379638672" /><trkpt lat="22.51341078125" lon="114.21103479638671" /><trkpt lat="22.51344578125" lon="114.21104279638672" /><trkpt lat="22.51347578125" lon="114.21103479638671" /><trkpt lat="22.51349778125" lon="114.21100979638672" /><trkpt lat="22.51351478125" lon="114.21084179638672" /><trkpt lat="22.51353778125" lon="114.21075679638672" /><trkpt lat="22.51360278125" lon="114.21062579638672" /><trkpt lat="22.51367978125" lon="114.21054579638673" /><trkpt lat="22.51378878125" lon="114.21046779638672" /><trkpt lat="22.51383578125" lon="114.21040879638672" /><trkpt lat="22.51387178125" lon="114.21026879638671" /><trkpt lat="22.51388978125" lon="114.21012879638671" /><trkpt lat="22.51393378125" lon="114.20992179638672" /><trkpt lat="22.51389678125" lon="114.20970779638672" /><trkpt lat="22.51379378125" lon="114.20960879638672" /><trkpt lat="22.51375778125" lon="114.20952879638672" /><trkpt lat="22.51375978125" lon="114.20938579638671" /><trkpt lat="22.51380478125" lon="114.20923979638673" /><trkpt lat="22.51391478125" lon="114.20914479638672" /><trkpt lat="22.51407978125" lon="114.20904879638672" /><trkpt lat="22.51406778125" lon="114.20890379638672" /><trkpt lat="22.51389078125" lon="114.20875979638672" /><trkpt lat="22.51375678125" lon="114.20860779638672" /><trkpt lat="22.51373378125" lon="114.20846279638671" /><trkpt lat="22.51379878125" lon="114.20836079638671" /><trkpt lat="22.51417378125" lon="114.20815879638671" /><trkpt lat="22.51439078125" lon="114.20813679638673" /><trkpt lat="22.51451378125" lon="114.20813279638672" /><trkpt lat="22.51462078125" lon="114.20801879638672" /><trkpt lat="22.51458778125" lon="114.20784979638672" /><trkpt lat="22.51454678125" lon="114.20775079638672" /><trkpt lat="22.51425578125" lon="114.20736079638672" /><trkpt lat="22.51419978125" lon="114.20721179638672" /><trkpt lat="22.51451078125" lon="114.20701979638672" /><trkpt lat="22.51465478125" lon="114.20699579638672" /><trkpt lat="22.51485378125" lon="114.20686979638671" /><trkpt lat="22.51508178125" lon="114.20676979638672" /><trkpt lat="22.51523178125" lon="114.20672579638672" /><trkpt lat="22.51541278125" lon="114.20674379638672" /><trkpt lat="22.51573378125" lon="114.20693279638672" /><trkpt lat="22.51595978125" lon="114.20703779638671" /><trkpt lat="22.51617178125" lon="114.20709979638671" /><trkpt lat="22.51642778125" lon="114.20725079638672" /><trkpt lat="22.51693678125" lon="114.20750979638672" /><trkpt lat="22.51713178125" lon="114.20761279638671" /><trkpt lat="22.51731178125" lon="114.20764579638671" /><trkpt lat="22.51743378125" lon="114.20768779638672" /><trkpt lat="22.51760078125" lon="114.20769279638672" /><trkpt lat="22.51780778125" lon="114.20767279638672" /><trkpt lat="22.51829378125" lon="114.20764379638672" /><trkpt lat="22.51901378125" lon="114.20757679638672" /><trkpt lat="22.51925778125" lon="114.20761279638671" /><trkpt lat="22.51957778125" lon="114.20765779638671" /><trkpt lat="22.51966178125" lon="114.20766979638672" /><trkpt lat="22.52007778125" lon="114.20772879638672" /><trkpt lat="22.52064478125" lon="114.20780879638671" /><trkpt lat="22.52072678125" lon="114.20781979638672" /><trkpt lat="22.52267978125" lon="114.20810879638672" /><trkpt lat="22.52300878125" lon="114.20814979638672" /><trkpt lat="22.52314878125" lon="114.20823479638672" /><trkpt lat="22.52337678125" lon="114.20837679638672" /><trkpt lat="22.52366078125" lon="114.20835879638672" /><trkpt lat="22.52400778125" lon="114.20834379638671" /><trkpt lat="22.52436378125" lon="114.20831779638672" /><trkpt lat="22.52458278125" lon="114.20827879638672" /><trkpt lat="22.52450678125" lon="114.20839879638672" /><trkpt lat="22.52447378125" lon="114.20850779638671" /><trkpt lat="22.52439078125" lon="114.20876079638671" /><trkpt lat="22.52431878125" lon="114.20901179638672" /><trkpt lat="22.52420478125" lon="114.20940479638672" /><trkpt lat="22.52416778125" lon="114.20973179638672" /><trkpt lat="22.52415778125" lon="114.21011779638673" /><trkpt lat="22.52416278125" lon="114.21029779638671" /><trkpt lat="22.52428078125" lon="114.21048479638672" /><trkpt lat="22.52438078125" lon="114.21052579638672" /><trkpt lat="22.52462278125" lon="114.21050379638672" /><trkpt lat="22.52491078125" lon="114.21043379638672" /><trkpt lat="22.52525578125" lon="114.21021479638672" /><trkpt lat="22.52536678125" lon="114.21021379638672" /><trkpt lat="22.52546778125" lon="114.21026179638672" /><trkpt lat="22.52555478125" lon="114.21036479638671" /><trkpt lat="22.52560178125" lon="114.21050679638672" /><trkpt lat="22.52561478125" lon="114.21076079638672" /><trkpt lat="22.52561478125" lon="114.21093279638671" /><trkpt lat="22.52561178125" lon="114.21127079638671" /><trkpt lat="22.52557478125" lon="114.21150179638671" /><trkpt lat="22.52547078125" lon="114.21213679638672" /><trkpt lat="22.52537878125" lon="114.21267679638672" /><trkpt lat="22.52529278125" lon="114.21312979638672" /><trkpt lat="22.52526778125" lon="114.21342479638672" /><trkpt lat="22.52525778125" lon="114.21357979638672" /><trkpt lat="22.52527978125" lon="114.21367679638672" /><trkpt lat="22.52530478125" lon="114.21383479638672" /><trkpt lat="22.52538178125" lon="114.21416279638672" /><trkpt lat="22.52546578125" lon="114.21438779638672" /><trkpt lat="22.52553478125" lon="114.21475779638672" /><trkpt lat="22.52562378125" lon="114.21495079638672" /><trkpt lat="22.52568378125" lon="114.21523579638672" /><trkpt lat="22.52567378125" lon="114.21546579638672" /><trkpt lat="22.52556478125" lon="114.21563779638672" /><trkpt lat="22.52544078125" lon="114.21579879638672" /><trkpt lat="22.52525778125" lon="114.21588479638672" /><trkpt lat="22.52506378125" lon="114.21589479638672" /><trkpt lat="22.52483178125" lon="114.21581979638673" /><trkpt lat="22.52465778125" lon="114.21569179638672" /><trkpt lat="22.52446078125" lon="114.21549779638671" /><trkpt lat="22.52431278125" lon="114.21546679638672" /><trkpt lat="22.52407778125" lon="114.21547079638673" /><trkpt lat="22.52399378125" lon="114.21551779638672" /><trkpt lat="22.52396837644635" lon="114.21552879249931" /></trkseg></trk></gpx>