<?xml version='1.0' encoding='UTF-8' ?><gpx version="1.1" creator="HikingTrailHK" xsi:schemaLocation="http://www.topografix.com/GPX/1/1 http://www.topografix.com/GPX/1/1/gpx.xsd https://hikingtrailhk.appspot.com/xml/gpxextensions/v1 https://hikingtrailhk.appspot.com/xml/gpxextensions/v1/gpxextensions.xsd" xmlns="http://www.topografix.com/GPX/1/1" xmlns:h="https://hikingtrailhk.appspot.com/xml/gpxextensions/v1" xmlns:xsi="http://www.w3.org/2001/XMLSchema-instance"><metadata><name>橫涌直闖 @ 2017-7-29 11:30</name><desc></desc><extensions><h:categoryid>stream</h:categoryid></extensions></metadata><trk><trkseg><trkpt lat="22.50763478125" lon="114.24299979638671" /><trkpt lat="22.50754678125" lon="114.24299779638672" /><trkpt lat="22.50744878125" lon="114.24295879638672" /><trkpt lat="22.50735778125" lon="114.24289379638672" /><trkpt lat="22.50729378125" lon="114.24290079638672" /><trkpt lat="22.50720978125" lon="114.24289679638672" /><trkpt lat="22.50715378125" lon="114.24288879638672" /><trkpt lat="22.50709578125" lon="114.24281079638672" /><trkpt lat="22.50703378125" lon="114.24275979638672" /><trkpt lat="22.50703978125" lon="114.24291579638673" /><trkpt lat="22.50682178125" lon="114.24293279638673" /><trkpt lat="22.50679078125" lon="114.24294879638671" /><trkpt lat="22.506667781250002" lon="114.24295979638671" /><trkpt lat="22.50665778125" lon="114.24296279638672" /><trkpt lat="22.50660178125" lon="114.24298679638672" /><trkpt lat="22.50655278125" lon="114.24302779638671" /><trkpt lat="22.50650578125" lon="114.24299879638671" /><trkpt lat="22.50649378125" lon="114.24296979638672" /><trkpt lat="22.50647578125" lon="114.24292079638671" /><trkpt lat="22.50647178125" lon="114.24290879638671" /><trkpt lat="22.50631878125" lon="114.24293979638672" /><trkpt lat="22.50628678125" lon="114.24294479638672" /><trkpt lat="22.50626678125" lon="114.24286179638672" /><trkpt lat="22.50623078125" lon="114.24279479638672" /><trkpt lat="22.50616278125" lon="114.24275579638672" /><trkpt lat="22.50610578125" lon="114.24278579638671" /><trkpt lat="22.50603078125" lon="114.24279579638672" /><trkpt lat="22.50599178125" lon="114.24279579638672" /><trkpt lat="22.50581578125" lon="114.24273279638672" /><trkpt lat="22.50573778125" lon="114.24277479638671" /><trkpt lat="22.50565878125" lon="114.24275179638671" /><trkpt lat="22.50559778125" lon="114.24266779638671" /><trkpt lat="22.50555778125" lon="114.24255579638672" /><trkpt lat="22.50557178125" lon="114.24247279638672" /><trkpt lat="22.50556678125" lon="114.24243379638672" /><trkpt lat="22.50550078125" lon="114.24236979638673" /><trkpt lat="22.50546578125" lon="114.24228279638672" /><trkpt lat="22.50544778125" lon="114.24214179638672" /><trkpt lat="22.50544778125" lon="114.24209479638672" /><trkpt lat="22.50538378125" lon="114.24204179638672" /><trkpt lat="22.50523478125" lon="114.24196679638672" /><trkpt lat="22.50513178125" lon="114.24189179638672" /><trkpt lat="22.50480078125" lon="114.24181179638671" /><trkpt lat="22.50474678125" lon="114.24172579638672" /><trkpt lat="22.50467178125" lon="114.24169679638672" /><trkpt lat="22.50460578125" lon="114.24165779638672" /><trkpt lat="22.50447678125" lon="114.24162779638672" /><trkpt lat="22.50443478125" lon="114.24142379638671" /><trkpt lat="22.50447678125" lon="114.24132579638672" /><trkpt lat="22.50428578125" lon="114.24120179638672" /><trkpt lat="22.50424278125" lon="114.24128579638672" /><trkpt lat="22.50409478125" lon="114.24136479638672" /><trkpt lat="22.504185598176704" lon="114.2415258190614" /><trkpt lat="22.50416305308208" lon="114.24154673448822" /><trkpt lat="22.504168326921373" lon="114.24152733467974" /><trkpt lat="22.504162132012908" lon="114.2414957388338" /><trkpt lat="22.5041540786315" lon="114.24147424993419" /><trkpt lat="22.50413871931732" lon="114.24143705009624" /><trkpt lat="22.50409478125" lon="114.24136479638672" /><trkpt lat="22.50400278125" lon="114.24121479638671" /><trkpt lat="22.50385478125" lon="114.24082879638672" /><trkpt lat="22.50377378125" lon="114.24054579638671" /><trkpt lat="22.50363678125" lon="114.24028479638672" /><trkpt lat="22.50357478125" lon="114.23991579638673" /><trkpt lat="22.50339678125" lon="114.23951879638672" /><trkpt lat="22.50336478125" lon="114.23955879638672" /><trkpt lat="22.50332478125" lon="114.23960679638672" /><trkpt lat="22.50328878125" lon="114.23964779638672" /><trkpt lat="22.50323678125" lon="114.23979379638672" /><trkpt lat="22.50290578125" lon="114.23971579638672" /><trkpt lat="22.50300678125" lon="114.23983379638672" /><trkpt lat="22.50293078125" lon="114.23987479638672" /><trkpt lat="22.50299278125" lon="114.23993779638671" /><trkpt lat="22.50288778125" lon="114.24003579638672" /><trkpt lat="22.50293478125" lon="114.24008879638671" /><trkpt lat="22.50285578125" lon="114.24016779638671" /><trkpt lat="22.50290578125" lon="114.24021779638672" /><trkpt lat="22.50284178125" lon="114.24032079638671" /><trkpt lat="22.50209078125" lon="114.24033979638672" /><trkpt lat="22.50165578125" lon="114.24079379638673" /><trkpt lat="22.50059278125" lon="114.24059879638672" /><trkpt lat="22.50015678125" lon="114.24060479638672" /><trkpt lat="22.50007378125" lon="114.24047779638671" /><trkpt lat="22.49995078125" lon="114.24034879638671" /><trkpt lat="22.49988278125" lon="114.24022179638672" /><trkpt lat="22.50000178125" lon="114.24005479638672" /><trkpt lat="22.50024178125" lon="114.24008479638672" /><trkpt lat="22.50040278125" lon="114.23982479638671" /><trkpt lat="22.50048978125" lon="114.23981079638672" /><trkpt lat="22.50063078125" lon="114.23985679638672" /><trkpt lat="22.50071078125" lon="114.23978379638672" /><trkpt lat="22.50072978125" lon="114.23962879638673" /><trkpt lat="22.50082178125" lon="114.23956979638672" /><trkpt lat="22.50085178125" lon="114.23948679638671" /><trkpt lat="22.50080978125" lon="114.23941379638671" /><trkpt lat="22.50072778125" lon="114.23941379638671" /><trkpt lat="22.50063878125" lon="114.23937379638672" /><trkpt lat="22.50056178125" lon="114.23941979638671" /><trkpt lat="22.50048778125" lon="114.23938179638672" /><trkpt lat="22.50036578125" lon="114.23925079638671" /><trkpt lat="22.50036578125" lon="114.23916979638672" /><trkpt lat="22.50031878125" lon="114.23912979638672" /><trkpt lat="22.50031478125" lon="114.23908479638672" /><trkpt lat="22.50020678125" lon="114.23909379638671" /><trkpt lat="22.50017578125" lon="114.23898579638671" /><trkpt lat="22.50010978125" lon="114.23891879638671" /><trkpt lat="22.50008478125" lon="114.23893679638672" /><trkpt lat="22.50006478125" lon="114.23891879638671" /><trkpt lat="22.50004978125" lon="114.23888879638672" /><trkpt lat="22.49998578125" lon="114.23880879638672" /><trkpt lat="22.49985578125" lon="114.23875379638672" /><trkpt lat="22.49969478125" lon="114.23870779638672" /><trkpt lat="22.49960078125" lon="114.23866979638672" /><trkpt lat="22.49946578125" lon="114.23856179638672" /><trkpt lat="22.49931578125" lon="114.23853079638671" /><trkpt lat="22.49924578125" lon="114.23849679638671" /><trkpt lat="22.49903378125" lon="114.23851079638672" /><trkpt lat="22.49883378125" lon="114.23847579638672" /><trkpt lat="22.49841178125" lon="114.23825679638672" /><trkpt lat="22.49840878125" lon="114.23821179638672" /><trkpt lat="22.49820778125" lon="114.23809179638671" /><trkpt lat="22.49807478125" lon="114.23802879638671" /><trkpt lat="22.49801078125" lon="114.23800979638672" /><trkpt lat="22.49796778125" lon="114.23783679638672" /><trkpt lat="22.49789578125" lon="114.23778079638672" /><trkpt lat="22.49783778125" lon="114.23784979638671" /><trkpt lat="22.49777778125" lon="114.23784679638672" /><trkpt lat="22.49768878125" lon="114.23783779638671" /><trkpt lat="22.49764978125" lon="114.23785379638672" /><trkpt lat="22.49759478125" lon="114.23788079638672" /><trkpt lat="22.49748978125" lon="114.23795279638672" /><trkpt lat="22.49741378125" lon="114.23796879638672" /><trkpt lat="22.49725878125" lon="114.23800779638673" /><trkpt lat="22.49720378125" lon="114.23793179638672" /><trkpt lat="22.49715078125" lon="114.23787579638672" /><trkpt lat="22.49712478125" lon="114.23781679638672" /><trkpt lat="22.49709478125" lon="114.23767779638672" /><trkpt lat="22.497104781250002" lon="114.23746679638671" /><trkpt lat="22.49713678125" lon="114.23743879638671" /><trkpt lat="22.49719878125" lon="114.23736679638672" /><trkpt lat="22.49727178125" lon="114.23726079638672" /><trkpt lat="22.49735178125" lon="114.23723179638672" /><trkpt lat="22.49741978125" lon="114.23721379638671" /><trkpt lat="22.49741478125" lon="114.23706579638672" /><trkpt lat="22.49742778125" lon="114.23693879638672" /><trkpt lat="22.49736778125" lon="114.23667079638672" /><trkpt lat="22.49734178125" lon="114.23652579638672" /><trkpt lat="22.49720578125" lon="114.23626479638672" /><trkpt lat="22.49695378125" lon="114.23612579638672" /><trkpt lat="22.49681778125" lon="114.23609479638672" /><trkpt lat="22.49666078125" lon="114.23606479638671" /><trkpt lat="22.49653378125" lon="114.23602779638672" /><trkpt lat="22.49632878125" lon="114.23604479638672" /><trkpt lat="22.49603578125" lon="114.23607979638672" /><trkpt lat="22.49590678125" lon="114.23611979638672" /><trkpt lat="22.49585378125" lon="114.23611279638672" /><trkpt lat="22.49580478125" lon="114.23602279638672" /><trkpt lat="22.49575278125" lon="114.23592079638672" /><trkpt lat="22.49566778125" lon="114.23573079638672" /><trkpt lat="22.49552678125" lon="114.23556679638672" /><trkpt lat="22.49545978125" lon="114.23533579638672" /><trkpt lat="22.49534578125" lon="114.23518579638672" /><trkpt lat="22.49541878125" lon="114.23496179638671" /><trkpt lat="22.49550578125" lon="114.23482579638672" /><trkpt lat="22.49568078125" lon="114.23472779638672" /><trkpt lat="22.49593878125" lon="114.23482079638671" /><trkpt lat="22.49600078125" lon="114.23479479638672" /><trkpt lat="22.49610478125" lon="114.23467679638672" /><trkpt lat="22.49607378125" lon="114.23446979638672" /><trkpt lat="22.49603978125" lon="114.23431179638672" /><trkpt lat="22.49597278125" lon="114.23411079638672" /><trkpt lat="22.49595078125" lon="114.23401879638672" /><trkpt lat="22.49592978125" lon="114.23385279638671" /><trkpt lat="22.49598678125" lon="114.23363179638672" /><trkpt lat="22.49606978125" lon="114.23349179638672" /><trkpt lat="22.49618078125" lon="114.23335879638672" /><trkpt lat="22.49630978125" lon="114.23327479638672" /><trkpt lat="22.49649178125" lon="114.23320479638672" /><trkpt lat="22.49666178125" lon="114.23314679638672" /><trkpt lat="22.49673578125" lon="114.23300379638673" /><trkpt lat="22.49680578125" lon="114.23292079638672" /><trkpt lat="22.49688878125" lon="114.23283179638672" /><trkpt lat="22.49721078125" lon="114.23274079638672" /><trkpt lat="22.49737078125" lon="114.23275979638672" /><trkpt lat="22.49747578125" lon="114.23276979638672" /><trkpt lat="22.49760878125" lon="114.23278679638672" /><trkpt lat="22.49773978125" lon="114.23271679638673" /><trkpt lat="22.49777178125" lon="114.23261679638672" /><trkpt lat="22.49771778125" lon="114.23249679638671" /><trkpt lat="22.49758478125" lon="114.23229879638671" /><trkpt lat="22.49754478125" lon="114.23199379638672" /><trkpt lat="22.49755178125" lon="114.23183079638672" /><trkpt lat="22.49772378125" lon="114.23176379638672" /><trkpt lat="22.49799178125" lon="114.23189679638672" /><trkpt lat="22.49811978125" lon="114.23213679638671" /><trkpt lat="22.49833578125" lon="114.23211279638672" /><trkpt lat="22.49851978125" lon="114.23189279638672" /><trkpt lat="22.498606535871442" lon="114.23174521828234" /><trkpt lat="22.49863778125" lon="114.23177379638672" /><trkpt lat="22.49885378125" lon="114.23152779638671" /><trkpt lat="22.49889278125" lon="114.23156579638672" /><trkpt lat="22.49909778125" lon="114.23137779638672" /><trkpt lat="22.49913778125" lon="114.23134179638672" /><trkpt lat="22.49924078125" lon="114.23132979638672" /><trkpt lat="22.49937278125" lon="114.23137179638672" /><trkpt lat="22.49948378125" lon="114.23138679638672" /><trkpt lat="22.49969578125" lon="114.23143079638672" /><trkpt lat="22.49989178125" lon="114.23144979638671" /><trkpt lat="22.50004178125" lon="114.23143279638671" /><trkpt lat="22.50016478125" lon="114.23147979638672" /><trkpt lat="22.50035778125" lon="114.23148379638671" /><trkpt lat="22.50055478125" lon="114.23145679638672" /><trkpt lat="22.50072478125" lon="114.23153479638673" /><trkpt lat="22.50086778125" lon="114.23171979638671" /><trkpt lat="22.50092478125" lon="114.23183979638672" /><trkpt lat="22.50096078125" lon="114.23200179638673" /><trkpt lat="22.50099078125" lon="114.23221779638672" /><trkpt lat="22.50098278125" lon="114.23236879638672" /><trkpt lat="22.50097278125" lon="114.23249979638672" /><trkpt lat="22.50100578125" lon="114.23264979638672" /><trkpt lat="22.50102278125" lon="114.23271979638672" /><trkpt lat="22.50105878125" lon="114.23312179638671" /><trkpt lat="22.50106978125" lon="114.23331679638672" /><trkpt lat="22.50106778125" lon="114.23347679638673" /><trkpt lat="22.50112778125" lon="114.23377979638671" /><trkpt lat="22.50115678125" lon="114.23408279638672" /><trkpt lat="22.50110178125" lon="114.23435379638671" /><trkpt lat="22.50117678125" lon="114.23454479638671" /><trkpt lat="22.50130378125" lon="114.23472879638672" /><trkpt lat="22.50147278125" lon="114.23489479638671" /><trkpt lat="22.50157378125" lon="114.23496079638672" /><trkpt lat="22.50172178125" lon="114.23520379638671" /><trkpt lat="22.50182778125" lon="114.23533879638671" /><trkpt lat="22.50202078125" lon="114.23544779638672" /><trkpt lat="22.50219678125" lon="114.23549479638672" /><trkpt lat="22.50229378125" lon="114.23539679638672" /><trkpt lat="22.50239178125" lon="114.23533479638672" /><trkpt lat="22.50245778125" lon="114.23535579638671" /><trkpt lat="22.50258878125" lon="114.23545879638672" /><trkpt lat="22.50270778125" lon="114.23557179638672" /><trkpt lat="22.50277078125" lon="114.23570379638672" /><trkpt lat="22.50280778125" lon="114.23586379638672" /><trkpt lat="22.50295778125" lon="114.23600579638672" /><trkpt lat="22.503083781249998" lon="114.23628879638672" /><trkpt lat="22.50312978125" lon="114.23641779638672" /><trkpt lat="22.50317778125" lon="114.23651079638672" /><trkpt lat="22.50326778125" lon="114.23644079638672" /><trkpt lat="22.50336078125" lon="114.23636979638673" /><trkpt lat="22.503477781249998" lon="114.23655679638672" /><trkpt lat="22.50349378125" lon="114.23671579638672" /><trkpt lat="22.50348678125" lon="114.23689279638671" /><trkpt lat="22.50347978125" lon="114.23707979638672" /><trkpt lat="22.50324378125" lon="114.23745179638672" /><trkpt lat="22.50319278125" lon="114.23777279638672" /><trkpt lat="22.50311178125" lon="114.23790479638672" /><trkpt lat="22.50296278125" lon="114.23787579638672" /><trkpt lat="22.50285378125" lon="114.23775979638671" /><trkpt lat="22.503174847369678" lon="114.23713769161407" /><trkpt lat="22.503212062908545" lon="114.23709389222051" /><trkpt lat="22.503178053023262" lon="114.23708703428485" /><trkpt lat="22.50316694740556" lon="114.23708758332407" /><trkpt lat="22.503147246175033" lon="114.23709589886369" /><trkpt lat="22.50314132357346" lon="114.23710476563213" /><trkpt lat="22.50314132357346" lon="114.23711900229262" /><trkpt lat="22.50314978125" lon="114.23717579638672" /><trkpt lat="22.50285378125" lon="114.23775979638671" /><trkpt lat="22.50296278125" lon="114.23787579638672" /><trkpt lat="22.50311178125" lon="114.23790479638672" /><trkpt lat="22.50319278125" lon="114.23777279638672" /><trkpt lat="22.50339778125" lon="114.23825579638672" /><trkpt lat="22.50360878125" lon="114.23864479638672" /><trkpt lat="22.50369478125" lon="114.23887179638672" /><trkpt lat="22.50361878125" lon="114.23908779638671" /><trkpt lat="22.50361878125" lon="114.23937779638672" /><trkpt lat="22.50339678125" lon="114.23951879638672" /><trkpt lat="22.50357478125" lon="114.23991579638673" /><trkpt lat="22.50363678125" lon="114.24028479638672" /><trkpt lat="22.50377378125" lon="114.24054579638671" /><trkpt lat="22.50385478125" lon="114.24082879638672" /><trkpt lat="22.50400278125" lon="114.24121479638671" /><trkpt lat="22.50409478125" lon="114.24136479638672" /><trkpt lat="22.50424278125" lon="114.24128579638672" /><trkpt lat="22.50428578125" lon="114.24120179638672" /><trkpt lat="22.50447678125" lon="114.24132579638672" /><trkpt lat="22.50443478125" lon="114.24142379638671" /><trkpt lat="22.50447678125" lon="114.24162779638672" /><trkpt lat="22.50460578125" lon="114.24165779638672" /><trkpt lat="22.50467178125" lon="114.24169679638672" /><trkpt lat="22.50474678125" lon="114.24172579638672" /><trkpt lat="22.50480078125" lon="114.24181179638671" /><trkpt lat="22.50513178125" lon="114.24189179638672" /><trkpt lat="22.50523478125" lon="114.24196679638672" /><trkpt lat="22.50538378125" lon="114.24204179638672" /><trkpt lat="22.50544778125" lon="114.24209479638672" /><trkpt lat="22.50544778125" lon="114.24214179638672" /><trkpt lat="22.50546578125" lon="114.24228279638672" /><trkpt lat="22.50547078125" lon="114.24228979638671" /><trkpt lat="22.50550078125" lon="114.24236979638673" /><trkpt lat="22.50556678125" lon="114.24243379638672" /><trkpt lat="22.50557178125" lon="114.24247279638672" /><trkpt lat="22.50555778125" lon="114.24255579638672" /><trkpt lat="22.50559778125" lon="114.24266779638671" /><trkpt lat="22.50565878125" lon="114.24275179638671" /><trkpt lat="22.50573778125" lon="114.24277479638671" /><trkpt lat="22.50581578125" lon="114.24273279638672" /><trkpt lat="22.50599178125" lon="114.24279579638672" /><trkpt lat="22.50603078125" lon="114.24279579638672" /><trkpt lat="22.50604278125" lon="114.24279579638672" /><trkpt lat="22.50610578125" lon="114.24278579638671" /><trkpt lat="22.50616278125" lon="114.24275579638672" /><trkpt lat="22.50623078125" lon="114.24279479638672" /><trkpt lat="22.50626678125" lon="114.24286179638672" /><trkpt lat="22.50628678125" lon="114.24294479638672" /><trkpt lat="22.50631878125" lon="114.24293979638672" /><trkpt lat="22.50647578125" lon="114.24292079638671" /><trkpt lat="22.50649378125" lon="114.24296979638672" /><trkpt lat="22.50650578125" lon="114.24299879638671" /><trkpt lat="22.50655278125" lon="114.24302779638671" /><trkpt lat="22.50660178125" lon="114.24298679638672" /><trkpt lat="22.506667781250002" lon="114.24295979638671" /><trkpt lat="22.50679078125" lon="114.24294879638671" /><trkpt lat="22.50682178125" lon="114.24293279638673" /><trkpt lat="22.50703978125" lon="114.24291579638673" /><trkpt lat="22.50703378125" lon="114.24275979638672" /><trkpt lat="22.50709578125" lon="114.24281079638672" /><trkpt lat="22.50715378125" lon="114.24288879638672" /><trkpt lat="22.50720978125" lon="114.24289679638672" /><trkpt lat="22.50729378125" lon="114.24290079638672" /><trkpt lat="22.50735778125" lon="114.24289379638672" /><trkpt lat="22.50744878125" lon="114.24295879638672" /><trkpt lat="22.50754678125" lon="114.24299779638672" /><trkpt lat="22.50763478125" lon="114.24299979638671" /></trkseg></trk></gpx>