<?xml version='1.0' encoding='UTF-8' ?><gpx version="1.1" creator="HikingTrailHK" xsi:schemaLocation="http://www.topografix.com/GPX/1/1 http://www.topografix.com/GPX/1/1/gpx.xsd" xmlns="http://www.topografix.com/GPX/1/1" xmlns:xsi="http://www.w3.org/2001/XMLSchema-instance"><metadata><name>水口至石壁 @ 2016-7-31</name><desc></desc></metadata><trk><trkseg><trkpt lat="22.22103670347587" lon="113.91439314856828" /><trkpt lat="22.22110478125" lon="113.91450479638672" /><trkpt lat="22.22106478125" lon="113.91453679638671" /><trkpt lat="22.22077678125" lon="113.91487979638671" /><trkpt lat="22.22088578125" lon="113.91534079638672" /><trkpt lat="22.22038178125" lon="113.91580879638671" /><trkpt lat="22.22041178125" lon="113.91603579638672" /><trkpt lat="22.22022078125" lon="113.91647879638671" /><trkpt lat="22.22003178125" lon="113.91662879638672" /><trkpt lat="22.22003178125" lon="113.91701479638672" /><trkpt lat="22.21990278125" lon="113.91717579638672" /><trkpt lat="22.22051878125" lon="113.91779779638672" /><trkpt lat="22.22023678125" lon="113.91850979638672" /><trkpt lat="22.22040274240223" lon="113.91857178498321" /><trkpt lat="22.22052868030866" lon="113.91868036026062" /><trkpt lat="22.22038342930253" lon="113.91870315707274" /><trkpt lat="22.220259516600052" lon="113.91875277990403" /><trkpt lat="22.219979771027838" lon="113.9187313222319" /><trkpt lat="22.219910890409594" lon="113.91867175391235" /><trkpt lat="22.219890545476773" lon="113.91857038641683" /><trkpt lat="22.219918774441567" lon="113.91854370773581" /><trkpt lat="22.219989923483297" lon="113.91852477625798" /><trkpt lat="22.220250703576426" lon="113.91852479213776" /><trkpt lat="22.220270446494453" lon="113.91843968897228" /><trkpt lat="22.220275412533823" lon="113.91831446235665" /><trkpt lat="22.22034493706657" lon="113.91812972357366" /><trkpt lat="22.220350573566733" lon="113.9181029610736" /><trkpt lat="22.220354869139868" lon="113.91809295648636" /><trkpt lat="22.220347420084963" lon="113.91809295648636" /><trkpt lat="22.220393452385437" lon="113.9181142308673" /><trkpt lat="22.22051878125" lon="113.91779779638672" /><trkpt lat="22.21990278125" lon="113.91717579638672" /><trkpt lat="22.22003178125" lon="113.91701479638672" /><trkpt lat="22.22003178125" lon="113.91662879638672" /><trkpt lat="22.22022078125" lon="113.91647879638671" /><trkpt lat="22.22041178125" lon="113.91603579638672" /><trkpt lat="22.22038178125" lon="113.91580879638671" /><trkpt lat="22.22088578125" lon="113.91534079638672" /><trkpt lat="22.22077678125" lon="113.91487979638671" /><trkpt lat="22.22106478125" lon="113.91453679638671" /><trkpt lat="22.22110478125" lon="113.91450479638672" /><trkpt lat="22.22087978125" lon="113.91413579638672" /><trkpt lat="22.22077578125" lon="113.91395879638672" /><trkpt lat="22.22068782749614" lon="113.91370836490451" /><trkpt lat="22.22043478125" lon="113.91369579638672" /><trkpt lat="22.22028678125" lon="113.91372779638672" /><trkpt lat="22.22003978125" lon="113.91382179638671" /><trkpt lat="22.21985478125" lon="113.91389779638672" /><trkpt lat="22.21960778125" lon="113.91400879638672" /><trkpt lat="22.21941678125" lon="113.91416479638671" /><trkpt lat="22.21925378125" lon="113.91422479638672" /><trkpt lat="22.21907578125" lon="113.91419179638672" /><trkpt lat="22.21897778125" lon="113.91412379638672" /><trkpt lat="22.21888678125" lon="113.91411679638672" /><trkpt lat="22.21880878125" lon="113.91417579638671" /><trkpt lat="22.21867178125" lon="113.91435279638672" /><trkpt lat="22.21826878125" lon="113.91498179638671" /><trkpt lat="22.21813778125" lon="113.91517079638672" /><trkpt lat="22.21796578125" lon="113.91521979638672" /><trkpt lat="22.21782678125" lon="113.91520679638671" /><trkpt lat="22.21767878125" lon="113.91524479638672" /><trkpt lat="22.21757378125" lon="113.91531379638671" /><trkpt lat="22.21745278125" lon="113.91550179638672" /><trkpt lat="22.21732878125" lon="113.91570879638672" /><trkpt lat="22.21726278125" lon="113.91582879638672" /><trkpt lat="22.21714378125" lon="113.91586979638672" /><trkpt lat="22.21704278125" lon="113.91589279638671" /><trkpt lat="22.21664178125" lon="113.91588479638672" /><trkpt lat="22.21652678125" lon="113.91591779638672" /><trkpt lat="22.21641178125" lon="113.91597279638673" /><trkpt lat="22.21629478125" lon="113.91603479638673" /><trkpt lat="22.21618178125" lon="113.91604579638671" /><trkpt lat="22.21592478125" lon="113.91604179638672" /><trkpt lat="22.21581578125" lon="113.91594479638673" /><trkpt lat="22.21568378125" lon="113.91581779638672" /><trkpt lat="22.21561978125" lon="113.91581179638672" /><trkpt lat="22.21552278125" lon="113.91581479638671" /><trkpt lat="22.21505578125" lon="113.91592279638672" /><trkpt lat="22.21452478125" lon="113.91607979638673" /><trkpt lat="22.21389578125" lon="113.91643979638671" /><trkpt lat="22.21376678125" lon="113.91643079638672" /><trkpt lat="22.21361078125" lon="113.91649279638672" /><trkpt lat="22.21336178125" lon="113.91666579638672" /><trkpt lat="22.21317178125" lon="113.91656479638672" /><trkpt lat="22.21296778125" lon="113.91647879638671" /><trkpt lat="22.21252878125" lon="113.91640379638672" /><trkpt lat="22.21243078125" lon="113.91637379638672" /><trkpt lat="22.21202578125" lon="113.91647179638672" /><trkpt lat="22.21194778125" lon="113.91644079638672" /><trkpt lat="22.21188178125" lon="113.91645579638671" /><trkpt lat="22.21182378125" lon="113.91625179638672" /><trkpt lat="22.21186378125" lon="113.91604079638672" /><trkpt lat="22.21203578125" lon="113.91574979638672" /><trkpt lat="22.21207078125" lon="113.91556879638672" /><trkpt lat="22.21210178125" lon="113.91545379638671" /><trkpt lat="22.21211078125" lon="113.91524879638672" /><trkpt lat="22.21233678125" lon="113.91487479638671" /><trkpt lat="22.21242078125" lon="113.91442979638671" /><trkpt lat="22.21260878125" lon="113.91436079638672" /><trkpt lat="22.21273878125" lon="113.91388679638672" /><trkpt lat="22.21271878125" lon="113.91372779638672" /><trkpt lat="22.21264278125" lon="113.91355379638672" /><trkpt lat="22.21253778125" lon="113.91350979638672" /><trkpt lat="22.21224678125" lon="113.91322279638672" /><trkpt lat="22.21217278125" lon="113.91287279638672" /><trkpt lat="22.21182878125" lon="113.91267179638672" /><trkpt lat="22.21170978125" lon="113.91259879638672" /><trkpt lat="22.21128178125" lon="113.91260579638671" /><trkpt lat="22.21073878125" lon="113.91228879638672" /><trkpt lat="22.21064378125" lon="113.91221779638671" /><trkpt lat="22.21048278125" lon="113.91222279638671" /><trkpt lat="22.21022278125" lon="113.91219779638672" /><trkpt lat="22.21010478125" lon="113.91216879638672" /><trkpt lat="22.21000978125" lon="113.91220679638671" /><trkpt lat="22.20996578125" lon="113.91216579638672" /><trkpt lat="22.20986578125" lon="113.91195179638672" /><trkpt lat="22.20974878125" lon="113.91199379638672" /><trkpt lat="22.20953078125" lon="113.91198879638672" /><trkpt lat="22.20915678125" lon="113.91182679638672" /><trkpt lat="22.20883878125" lon="113.91153079638671" /><trkpt lat="22.20798078125" lon="113.91111179638672" /><trkpt lat="22.20791778125" lon="113.91103979638672" /><trkpt lat="22.20783178125" lon="113.91089779638672" /><trkpt lat="22.20778778125" lon="113.91048979638671" /><trkpt lat="22.20785678125" lon="113.91037579638672" /><trkpt lat="22.20810978125" lon="113.91008579638672" /><trkpt lat="22.20822078125" lon="113.91003979638671" /><trkpt lat="22.20835078125" lon="113.90992479638672" /><trkpt lat="22.20841978125" lon="113.90951179638672" /><trkpt lat="22.20849878125" lon="113.90938879638672" /><trkpt lat="22.20863978125" lon="113.90931079638672" /><trkpt lat="22.20883178125" lon="113.90917679638672" /><trkpt lat="22.20902078125" lon="113.90916779638673" /><trkpt lat="22.20914578125" lon="113.90921579638672" /><trkpt lat="22.20927478125" lon="113.90920179638672" /><trkpt lat="22.20956578125" lon="113.90904979638673" /><trkpt lat="22.20966978125" lon="113.90874379638672" /><trkpt lat="22.20975278125" lon="113.90859179638672" /><trkpt lat="22.20978478125" lon="113.90835079638671" /><trkpt lat="22.20994478125" lon="113.90793879638672" /><trkpt lat="22.21000778125" lon="113.90783579638672" /><trkpt lat="22.21017178125" lon="113.90767879638672" /><trkpt lat="22.21031878125" lon="113.90741479638672" /><trkpt lat="22.21039678125" lon="113.90732579638671" /><trkpt lat="22.21061278125" lon="113.90724079638672" /><trkpt lat="22.21084678125" lon="113.90709279638672" /><trkpt lat="22.21107478125" lon="113.90675479638672" /><trkpt lat="22.21113378125" lon="113.90660479638672" /><trkpt lat="22.21146578125" lon="113.90625979638672" /><trkpt lat="22.21155478125" lon="113.90612579638672" /><trkpt lat="22.21152978125" lon="113.90590679638672" /><trkpt lat="22.21157478125" lon="113.90572979638672" /><trkpt lat="22.21164078125" lon="113.90563479638672" /><trkpt lat="22.21177278125" lon="113.90556979638671" /><trkpt lat="22.21197078125" lon="113.90554079638672" /><trkpt lat="22.21206878125" lon="113.90542979638671" /><trkpt lat="22.21212278125" lon="113.90523179638672" /><trkpt lat="22.21228878125" lon="113.90507579638673" /><trkpt lat="22.21244278125" lon="113.90482879638672" /><trkpt lat="22.21256978125" lon="113.90466279638672" /><trkpt lat="22.21275878125" lon="113.90457279638672" /><trkpt lat="22.21297178125" lon="113.90454379638672" /><trkpt lat="22.21311278125" lon="113.90457079638672" /><trkpt lat="22.21332678125" lon="113.90475179638672" /><trkpt lat="22.21350978125" lon="113.90491779638671" /><trkpt lat="22.21364978125" lon="113.90507279638672" /><trkpt lat="22.21390978125" lon="113.90524179638672" /><trkpt lat="22.21418378125" lon="113.90531679638671" /><trkpt lat="22.21419878125" lon="113.90502579638672" /><trkpt lat="22.21446178125" lon="113.90496579638672" /><trkpt lat="22.21456778125" lon="113.90468579638672" /><trkpt lat="22.21467178125" lon="113.90450979638672" /><trkpt lat="22.21474778125" lon="113.90428279638672" /><trkpt lat="22.21483978125" lon="113.90418379638672" /><trkpt lat="22.21493078125" lon="113.90415179638671" /><trkpt lat="22.21507078125" lon="113.90420579638672" /><trkpt lat="22.21516778125" lon="113.90421679638672" /><trkpt lat="22.21534678125" lon="113.90406979638672" /><trkpt lat="22.21552378125" lon="113.90384579638672" /><trkpt lat="22.21533878125" lon="113.90374079638671" /><trkpt lat="22.21527278125" lon="113.90341879638672" /><trkpt lat="22.21531078125" lon="113.90327379638671" /><trkpt lat="22.21546078125" lon="113.90313279638671" /><trkpt lat="22.21578678125" lon="113.90294079638672" /><trkpt lat="22.21577878125" lon="113.90279379638672" /><trkpt lat="22.21580778125" lon="113.90266679638673" /><trkpt lat="22.21577378125" lon="113.90242479638673" /><trkpt lat="22.21603278125" lon="113.90194879638672" /><trkpt lat="22.21604778125" lon="113.90163379638672" /><trkpt lat="22.21603178125" lon="113.90149279638672" /><trkpt lat="22.21616478125" lon="113.90132779638672" /><trkpt lat="22.21627578125" lon="113.90099879638672" /><trkpt lat="22.21629078125" lon="113.90080379638673" /><trkpt lat="22.21633078125" lon="113.90072879638672" /><trkpt lat="22.21676878125" lon="113.90061879638672" /><trkpt lat="22.21707678125" lon="113.90048079638672" /><trkpt lat="22.21742278125" lon="113.90020379638672" /><trkpt lat="22.217506781250002" lon="113.90012679638672" /><trkpt lat="22.21771278125" lon="113.89989279638672" /><trkpt lat="22.21784578125" lon="113.89980879638672" /><trkpt lat="22.21801078125" lon="113.89968079638672" /><trkpt lat="22.21826778125" lon="113.89944179638672" /><trkpt lat="22.21846878125" lon="113.89923479638672" /><trkpt lat="22.21861478125" lon="113.89907079638672" /><trkpt lat="22.21891278125" lon="113.89879779638672" /><trkpt lat="22.21908478125" lon="113.89881379638672" /><trkpt lat="22.21924278125" lon="113.89897079638672" /><trkpt lat="22.21932578125" lon="113.89896979638672" /><trkpt lat="22.21954778125" lon="113.89893679638672" /><trkpt lat="22.21977578125" lon="113.89888379638671" /><trkpt lat="22.21999078125" lon="113.89868779638672" /><trkpt lat="22.22011678125" lon="113.89874979638672" /><trkpt lat="22.22026678125" lon="113.89885379638672" /><trkpt lat="22.22056278125" lon="113.89933379638671" /><trkpt lat="22.22071478125" lon="113.89953479638672" /><trkpt lat="22.22100878125" lon="113.89960579638672" /><trkpt lat="22.22152478125" lon="113.89939379638672" /><trkpt lat="22.22177678125" lon="113.89923979638672" /><trkpt lat="22.22201878125" lon="113.89914879638673" /><trkpt lat="22.22226178125" lon="113.89892879638671" /><trkpt lat="22.22250278125" lon="113.89879479638672" /><trkpt lat="22.22256478125" lon="113.89864379638672" /><trkpt lat="22.22264078125" lon="113.89838979638672" /><trkpt lat="22.22270578125" lon="113.89823879638672" /><trkpt lat="22.22294978125" lon="113.89805179638672" /><trkpt lat="22.22307978125" lon="113.89791079638672" /><trkpt lat="22.22345478125" lon="113.89789679638672" /><trkpt lat="22.22394478125" lon="113.89779879638672" /><trkpt lat="22.22421878125" lon="113.89772279638672" /><trkpt lat="22.22465578125" lon="113.89778079638671" /><trkpt lat="22.22497578125" lon="113.89774779638672" /><trkpt lat="22.22509778125" lon="113.89777079638672" /><trkpt lat="22.22518978125" lon="113.89778979638672" /><trkpt lat="22.22531278125" lon="113.89785379638671" /><trkpt lat="22.22537078125" lon="113.89786879638672" /><trkpt lat="22.22541978125" lon="113.89787179638672" /><trkpt lat="22.22560978125" lon="113.89787179638672" /><trkpt lat="22.22569978125" lon="113.89788679638671" /><trkpt lat="22.22577978125" lon="113.89791079638672" /><trkpt lat="22.22595978125" lon="113.89798079638672" /><trkpt lat="22.22599178125" lon="113.89788079638672" /><trkpt lat="22.22601904652588" lon="113.89782342572663" /></trkseg></trk></gpx>