<?xml version='1.0' encoding='UTF-8' ?><gpx version="1.1" creator="HikingTrailHK" xsi:schemaLocation="http://www.topografix.com/GPX/1/1 http://www.topografix.com/GPX/1/1/gpx.xsd https://hikingtrailhk.appspot.com/xml/gpxextensions/v1 https://hikingtrailhk.appspot.com/xml/gpxextensions/v1/gpxextensions.xsd" xmlns="http://www.topografix.com/GPX/1/1" xmlns:h="https://hikingtrailhk.appspot.com/xml/gpxextensions/v1" xmlns:xsi="http://www.w3.org/2001/XMLSchema-instance"><metadata><name>水泉澳 @ 2017-4-8 9:30</name><desc></desc><extensions><h:categoryid>scenery_route</h:categoryid></extensions></metadata><trk><trkseg><trkpt lat="22.377126424728342" lon="114.19545678439108" /><trkpt lat="22.37716278125" lon="114.19550579638671" /><trkpt lat="22.37737078125" lon="114.19578479638672" /><trkpt lat="22.37756778125" lon="114.19605079638671" /><trkpt lat="22.37741878125" lon="114.19614379638672" /><trkpt lat="22.37720378125" lon="114.19620479638672" /><trkpt lat="22.37692078125" lon="114.19621779638672" /><trkpt lat="22.37621978125" lon="114.19625079638672" /><trkpt lat="22.37573878125" lon="114.19623579638672" /><trkpt lat="22.37556078125" lon="114.19623379638672" /><trkpt lat="22.37544378125" lon="114.19619379638672" /><trkpt lat="22.37518378125" lon="114.19600879638672" /><trkpt lat="22.37503678125" lon="114.19589979638671" /><trkpt lat="22.37486478125" lon="114.19581579638673" /><trkpt lat="22.37468278125" lon="114.19577679638672" /><trkpt lat="22.37399678125" lon="114.19574679638671" /><trkpt lat="22.37382478125" lon="114.19572379638672" /><trkpt lat="22.37366278125" lon="114.19566779638672" /><trkpt lat="22.37350478125" lon="114.19562679638672" /><trkpt lat="22.37335878125" lon="114.19559579638671" /><trkpt lat="22.37321078125" lon="114.19558079638672" /><trkpt lat="22.37287178125" lon="114.19559479638671" /><trkpt lat="22.37271678125" lon="114.19563679638672" /><trkpt lat="22.37264778125" lon="114.19566879638671" /><trkpt lat="22.37258678125" lon="114.19573079638671" /><trkpt lat="22.37251578125" lon="114.19583079638672" /><trkpt lat="22.37246878125" lon="114.19598879638671" /><trkpt lat="22.37244478125" lon="114.19614379638672" /><trkpt lat="22.37244878125" lon="114.19628179638671" /><trkpt lat="22.37249378125" lon="114.19641879638672" /><trkpt lat="22.37257078125" lon="114.19655479638672" /><trkpt lat="22.37270578125" lon="114.19668379638672" /><trkpt lat="22.37307078125" lon="114.19685079638671" /><trkpt lat="22.37322278125" lon="114.19696279638671" /><trkpt lat="22.37333478125" lon="114.19711079638672" /><trkpt lat="22.37336778125" lon="114.19717179638671" /><trkpt lat="22.37342678125" lon="114.19728279638672" /><trkpt lat="22.37348978125" lon="114.19749179638671" /><trkpt lat="22.37350678125" lon="114.19770479638672" /><trkpt lat="22.37346878125" lon="114.19791379638671" /><trkpt lat="22.37341478125" lon="114.19810879638672" /><trkpt lat="22.37334278125" lon="114.19829679638671" /><trkpt lat="22.37322778125" lon="114.19845879638672" /><trkpt lat="22.37319778125" lon="114.19848079638672" /><trkpt lat="22.37307778125" lon="114.19857079638672" /><trkpt lat="22.37300378125" lon="114.19858979638671" /><trkpt lat="22.37288278125" lon="114.19861979638672" /><trkpt lat="22.37274078125" lon="114.19862779638672" /><trkpt lat="22.37272178125" lon="114.19881479638671" /><trkpt lat="22.37267478125" lon="114.19896579638672" /><trkpt lat="22.37259378125" lon="114.19907679638672" /><trkpt lat="22.37248378125" lon="114.19919779638671" /><trkpt lat="22.37231878125" lon="114.19932279638672" /><trkpt lat="22.37195478125" lon="114.19953279638672" /><trkpt lat="22.371860317927712" lon="114.19950928700104" /><trkpt lat="22.371794417412183" lon="114.19961308944187" /><trkpt lat="22.37140178125" lon="114.19985379638672" /><trkpt lat="22.37117878125" lon="114.20004679638672" /><trkpt lat="22.37115578125" lon="114.20031979638672" /><trkpt lat="22.37125378125" lon="114.20064379638671" /><trkpt lat="22.37128378125" lon="114.20094379638672" /><trkpt lat="22.37123978125" lon="114.20112179638672" /><trkpt lat="22.37109978125" lon="114.20120979638672" /><trkpt lat="22.37095578125" lon="114.20112379638672" /><trkpt lat="22.37079678125" lon="114.20126379638671" /><trkpt lat="22.37060878125" lon="114.20135479638672" /><trkpt lat="22.37047078125" lon="114.20149179638672" /><trkpt lat="22.37031078125" lon="114.20182679638671" /><trkpt lat="22.37029078125" lon="114.20200079638671" /><trkpt lat="22.37018478125" lon="114.20207679638672" /><trkpt lat="22.37020978125" lon="114.20211679638672" /><trkpt lat="22.37029678125" lon="114.20214379638672" /><trkpt lat="22.37028078125" lon="114.20221879638672" /><trkpt lat="22.37020178125" lon="114.20244379638672" /><trkpt lat="22.36984978125" lon="114.20247679638672" /><trkpt lat="22.36962078125" lon="114.20265379638671" /><trkpt lat="22.36945378125" lon="114.20254279638672" /><trkpt lat="22.36920978125" lon="114.20248679638672" /><trkpt lat="22.36913278125" lon="114.20226479638671" /><trkpt lat="22.36892678125" lon="114.20218179638672" /><trkpt lat="22.36870778125" lon="114.20218179638672" /><trkpt lat="22.36854078125" lon="114.20230679638672" /><trkpt lat="22.36811678125" lon="114.20259879638672" /><trkpt lat="22.36783378125" lon="114.20266779638672" /><trkpt lat="22.36764078125" lon="114.20266779638672" /><trkpt lat="22.36746078125" lon="114.20280679638672" /><trkpt lat="22.36734478125" lon="114.20273779638671" /><trkpt lat="22.36706178125" lon="114.20273779638671" /><trkpt lat="22.36692078125" lon="114.20282079638672" /><trkpt lat="22.36675378125" lon="114.20290479638672" /><trkpt lat="22.36652178125" lon="114.20291879638671" /><trkpt lat="22.36635478125" lon="114.20301579638672" /><trkpt lat="22.36620778125" lon="114.20307379638672" /><trkpt lat="22.36608478125" lon="114.20304379638672" /><trkpt lat="22.36576078125" lon="114.20311879638672" /><trkpt lat="22.36530578125" lon="114.20329579638671" /><trkpt lat="22.36499678125" lon="114.20361079638671" /><trkpt lat="22.36459678125" lon="114.20380779638671" /><trkpt lat="22.36437878125" lon="114.20406279638672" /><trkpt lat="22.36421478125" lon="114.20449579638672" /><trkpt lat="22.363996781250002" lon="114.20482979638672" /><trkpt lat="22.36379678125" lon="114.20492879638672" /><trkpt lat="22.36363278125" lon="114.20482979638672" /><trkpt lat="22.36348778125" lon="114.20496779638673" /><trkpt lat="22.36325078125" lon="114.20484979638672" /><trkpt lat="22.36290578125" lon="114.20481079638672" /><trkpt lat="22.36255978125" lon="114.20482979638672" /><trkpt lat="22.36221478125" lon="114.20500679638671" /><trkpt lat="22.36166878125" lon="114.20500679638671" /><trkpt lat="22.36125078125" lon="114.20528179638671" /><trkpt lat="22.36106978125" lon="114.20483279638673" /><trkpt lat="22.361134560518416" lon="114.20460794328616" /><trkpt lat="22.36096621902061" lon="114.20460034333786" /><trkpt lat="22.361021585629388" lon="114.20474280425964" /><trkpt lat="22.36105623781785" lon="114.20476664029678" /><trkpt lat="22.361071267490345" lon="114.20478273355087" /><trkpt lat="22.361109840896944" lon="114.20481141341128" /><trkpt lat="22.361108122822685" lon="114.20481492005905" /><trkpt lat="22.361108122822685" lon="114.20482028447708" /><trkpt lat="22.361074172279704" lon="114.20481755487454" /><trkpt lat="22.36106978125" lon="114.20483279638673" /><trkpt lat="22.36125078125" lon="114.20528179638671" /><trkpt lat="22.36107678125" lon="114.20540079638671" /><trkpt lat="22.36119978125" lon="114.20560279638671" /><trkpt lat="22.36128578125" lon="114.20577979638672" /><trkpt lat="22.36115378125" lon="114.20600579638672" /><trkpt lat="22.36083078125" lon="114.20621179638673" /><trkpt lat="22.36048078125" lon="114.20643279638672" /><trkpt lat="22.36030178125" lon="114.20666879638672" /><trkpt lat="22.36002878125" lon="114.20695079638672" /><trkpt lat="22.35980178125" lon="114.20701179638672" /><trkpt lat="22.35955178125" lon="114.20695079638672" /><trkpt lat="22.35926778125" lon="114.20683979638672" /><trkpt lat="22.35890878125" lon="114.20696679638672" /><trkpt lat="22.35869978125" lon="114.20740079638672" /><trkpt lat="22.35861578125" lon="114.20756979638672" /><trkpt lat="22.35854978125" lon="114.20766579638672" /><trkpt lat="22.35823178125" lon="114.20773079638671" /><trkpt lat="22.35788478125" lon="114.20797679638672" /><trkpt lat="22.35765678125" lon="114.20822379638672" /><trkpt lat="22.35725978125" lon="114.20828279638671" /><trkpt lat="22.35712578125" lon="114.20829679638672" /><trkpt lat="22.35697678125" lon="114.20825079638672" /><trkpt lat="22.35687478125" lon="114.20828279638671" /><trkpt lat="22.35681778125" lon="114.20837179638671" /><trkpt lat="22.35660778125" lon="114.20854279638672" /><trkpt lat="22.35637178125" lon="114.20870179638672" /><trkpt lat="22.35630678125" lon="114.20874979638671" /><trkpt lat="22.35615078125" lon="114.20884879638672" /><trkpt lat="22.35609278125" lon="114.20886379638672" /><trkpt lat="22.35601578125" lon="114.20890079638671" /><trkpt lat="22.35606678125" lon="114.20879979638671" /><trkpt lat="22.35589378125" lon="114.20844379638672" /><trkpt lat="22.35593378125" lon="114.20808979638672" /><trkpt lat="22.35589978125" lon="114.20800379638672" /><trkpt lat="22.35572578125" lon="114.20777379638672" /><trkpt lat="22.35568078125" lon="114.20758579638672" /><trkpt lat="22.35585978125" lon="114.20708679638672" /><trkpt lat="22.35596378125" lon="114.20687179638672" /><trkpt lat="22.356218964365027" lon="114.20678343204298" /><trkpt lat="22.356172705649342" lon="114.20685428834162" /><trkpt lat="22.356109295950773" lon="114.20682140786319" /><trkpt lat="22.35596378125" lon="114.20687179638672" /><trkpt lat="22.35585978125" lon="114.20708679638672" /><trkpt lat="22.35568078125" lon="114.20758579638672" /><trkpt lat="22.35572578125" lon="114.20777379638672" /><trkpt lat="22.35589978125" lon="114.20800379638672" /><trkpt lat="22.35593378125" lon="114.20808979638672" /><trkpt lat="22.35589378125" lon="114.20844379638672" /><trkpt lat="22.35606678125" lon="114.20879979638671" /><trkpt lat="22.35601578125" lon="114.20890079638671" /><trkpt lat="22.35596078125" lon="114.20886079638672" /><trkpt lat="22.35581278125" lon="114.20884779638672" /><trkpt lat="22.35571978125" lon="114.20882879638671" /><trkpt lat="22.35587078125" lon="114.20895279638673" /><trkpt lat="22.35591278125" lon="114.20902379638672" /><trkpt lat="22.35592278125" lon="114.20911179638672" /><trkpt lat="22.35593178125" lon="114.20919579638672" /><trkpt lat="22.35592378125" lon="114.20926379638672" /><trkpt lat="22.35591878125" lon="114.20934079638671" /><trkpt lat="22.35585678125" lon="114.20952979638672" /><trkpt lat="22.35575678125" lon="114.20971179638671" /><trkpt lat="22.35568178125" lon="114.20977379638671" /><trkpt lat="22.35556578125" lon="114.20990479638672" /><trkpt lat="22.35544478125" lon="114.21008679638672" /><trkpt lat="22.35539578125" lon="114.21026679638672" /><trkpt lat="22.35538678125" lon="114.21049779638672" /><trkpt lat="22.35532578125" lon="114.21066279638671" /><trkpt lat="22.35522478125" lon="114.21082179638672" /><trkpt lat="22.35517978125" lon="114.21091679638671" /><trkpt lat="22.35518978125" lon="114.21110779638671" /><trkpt lat="22.35527278125" lon="114.21133579638672" /><trkpt lat="22.35534078125" lon="114.21162779638672" /><trkpt lat="22.35538978125" lon="114.21193279638672" /><trkpt lat="22.35545378125" lon="114.21221979638672" /><trkpt lat="22.35550378125" lon="114.21240179638671" /><trkpt lat="22.35559278125" lon="114.21253579638672" /><trkpt lat="22.35565478125" lon="114.21272979638672" /><trkpt lat="22.35573978125" lon="114.21308279638671" /><trkpt lat="22.35579078125" lon="114.21341579638671" /><trkpt lat="22.35578878125" lon="114.21386679638672" /><trkpt lat="22.35577778125" lon="114.21403679638672" /><trkpt lat="22.35576378125" lon="114.21437379638672" /><trkpt lat="22.35575678125" lon="114.21454779638673" /><trkpt lat="22.35575678125" lon="114.21472479638672" /><trkpt lat="22.35577678125" lon="114.21484279638672" /><trkpt lat="22.35583378125" lon="114.21497079638672" /><trkpt lat="22.35578178125" lon="114.21515379638672" /><trkpt lat="22.35572378125" lon="114.21528579638672" /><trkpt lat="22.35572178125" lon="114.21542779638672" /><trkpt lat="22.35578178125" lon="114.21554079638672" /><trkpt lat="22.35587778125" lon="114.21559979638671" /><trkpt lat="22.35595478125" lon="114.21565579638671" /><trkpt lat="22.35611778125" lon="114.21585079638672" /><trkpt lat="22.35625778125" lon="114.21608779638672" /><trkpt lat="22.35633178125" lon="114.21622679638672" /><trkpt lat="22.35638378125" lon="114.21637179638672" /><trkpt lat="22.35639678125" lon="114.21654579638673" /><trkpt lat="22.35632978125" lon="114.21676879638672" /><trkpt lat="22.35631678125" lon="114.21687579638672" /><trkpt lat="22.35636978125" lon="114.21703779638672" /><trkpt lat="22.35653378125" lon="114.21715679638672" /><trkpt lat="22.35669978125" lon="114.21720979638671" /><trkpt lat="22.35686078125" lon="114.21728379638672" /><trkpt lat="22.35697178125" lon="114.21740479638672" /><trkpt lat="22.35698678125" lon="114.21750379638672" /><trkpt lat="22.35698178125" lon="114.21764579638672" /><trkpt lat="22.35696678125" lon="114.21794879638672" /><trkpt lat="22.35694478125" lon="114.21820879638672" /><trkpt lat="22.35690278125" lon="114.21837079638672" /><trkpt lat="22.35684278125" lon="114.21849279638671" /><trkpt lat="22.35681578125" lon="114.21856379638672" /><trkpt lat="22.35692878125" lon="114.21860579638673" /><trkpt lat="22.35703878125" lon="114.21858979638672" /><trkpt lat="22.35717978125" lon="114.21860179638672" /><trkpt lat="22.35726478125" lon="114.21840579638672" /><trkpt lat="22.35738878125" lon="114.21816279638672" /><trkpt lat="22.35755078125" lon="114.21799379638672" /><trkpt lat="22.35776878125" lon="114.21781379638672" /><trkpt lat="22.357768678119285" lon="114.21800281889858" /><trkpt lat="22.357647204836653" lon="114.21790860024444" /><trkpt lat="22.35755078125" lon="114.21799379638672" /><trkpt lat="22.35738878125" lon="114.21816279638672" /><trkpt lat="22.35726478125" lon="114.21840579638672" /><trkpt lat="22.35717978125" lon="114.21860179638672" /><trkpt lat="22.35712578125" lon="114.21872779638672" /><trkpt lat="22.35696178125" lon="114.21902779638671" /><trkpt lat="22.35677878125" lon="114.21910879638672" /><trkpt lat="22.35666478125" lon="114.21921579638672" /><trkpt lat="22.35648078125" lon="114.21935479638672" /><trkpt lat="22.35638178125" lon="114.21942979638672" /><trkpt lat="22.35624278125" lon="114.21952179638672" /><trkpt lat="22.35619778125" lon="114.21949479638671" /><trkpt lat="22.35618778125" lon="114.21966679638672" /><trkpt lat="22.35619878125" lon="114.21971379638671" /><trkpt lat="22.35619078125" lon="114.21975779638672" /><trkpt lat="22.35614478125" lon="114.21984379638671" /><trkpt lat="22.35586478125" lon="114.22007779638672" /><trkpt lat="22.35592178125" lon="114.22015379638673" /><trkpt lat="22.35601078125" lon="114.22017079638672" /><trkpt lat="22.35610478125" lon="114.22079779638672" /><trkpt lat="22.35627378125" lon="114.22118979638672" /><trkpt lat="22.35634578125" lon="114.22151679638672" /><trkpt lat="22.35635578125" lon="114.22166179638671" /><trkpt lat="22.35648478125" lon="114.22169479638671" /><trkpt lat="22.35658678125" lon="114.22174879638672" /><trkpt lat="22.35660878125" lon="114.22178479638671" /><trkpt lat="22.35660878125" lon="114.22185479638672" /><trkpt lat="22.35658578125" lon="114.22189479638672" /><trkpt lat="22.35655278125" lon="114.22191779638672" /><trkpt lat="22.35651178125" lon="114.22192079638671" /><trkpt lat="22.35643478125" lon="114.22188979638672" /><trkpt lat="22.35644978125" lon="114.22200679638672" /><trkpt lat="22.35659778125" lon="114.22203379638673" /><trkpt lat="22.35676878125" lon="114.22204979638671" /><trkpt lat="22.35684078125" lon="114.22225679638672" /><trkpt lat="22.35690978125" lon="114.22238579638672" /><trkpt lat="22.35696978125" lon="114.22248179638672" /><trkpt lat="22.35707878125" lon="114.22261079638672" /><trkpt lat="22.35721778125" lon="114.22274479638672" /><trkpt lat="22.35723278125" lon="114.22285179638672" /><trkpt lat="22.35740078125" lon="114.22310979638672" /><trkpt lat="22.35758978125" lon="114.22322779638672" /><trkpt lat="22.35781678125" lon="114.22339079638672" /><trkpt lat="22.35792178125" lon="114.22351179638672" /><trkpt lat="22.35811778125" lon="114.22380179638672" /><trkpt lat="22.35831278125" lon="114.22394479638672" /><trkpt lat="22.35841178125" lon="114.22406479638671" /><trkpt lat="22.35848978125" lon="114.22430779638673" /><trkpt lat="22.35861478125" lon="114.22429079638673" /><trkpt lat="22.358439226093058" lon="114.22452060594966" /><trkpt lat="22.358314675006" lon="114.22443302309233" /><trkpt lat="22.358408294034803" lon="114.22430126088415" /><trkpt lat="22.358422428300102" lon="114.22429053204809" /><trkpt lat="22.358425991692343" lon="114.22429315335734" /><trkpt lat="22.358425991692343" lon="114.22429589646612" /><trkpt lat="22.35847951400599" lon="114.22427580989257" /><trkpt lat="22.35841178125" lon="114.22406479638671" /><trkpt lat="22.35831278125" lon="114.22394479638672" /><trkpt lat="22.35811778125" lon="114.22380179638672" /><trkpt lat="22.35792178125" lon="114.22351179638672" /><trkpt lat="22.35781678125" lon="114.22339079638672" /><trkpt lat="22.35758978125" lon="114.22322779638672" /><trkpt lat="22.35740078125" lon="114.22310979638672" /><trkpt lat="22.35723278125" lon="114.22285179638672" /><trkpt lat="22.35721778125" lon="114.22274479638672" /><trkpt lat="22.35707878125" lon="114.22261079638672" /><trkpt lat="22.35696978125" lon="114.22248179638672" /><trkpt lat="22.35690978125" lon="114.22238579638672" /><trkpt lat="22.35684078125" lon="114.22225679638672" /><trkpt lat="22.35676878125" lon="114.22204979638671" /><trkpt lat="22.35659778125" lon="114.22203379638673" /><trkpt lat="22.35644978125" lon="114.22200679638672" /><trkpt lat="22.35643478125" lon="114.22188979638672" /><trkpt lat="22.35651178125" lon="114.22192079638671" /><trkpt lat="22.35655278125" lon="114.22191779638672" /><trkpt lat="22.35658578125" lon="114.22189479638672" /><trkpt lat="22.35660878125" lon="114.22185479638672" /><trkpt lat="22.35660878125" lon="114.22178479638671" /><trkpt lat="22.35658678125" lon="114.22174879638672" /><trkpt lat="22.35648478125" lon="114.22169479638671" /><trkpt lat="22.35635578125" lon="114.22166179638671" /><trkpt lat="22.35622678125" lon="114.22165079638673" /><trkpt lat="22.35612478125" lon="114.22166279638672" /><trkpt lat="22.35602778125" lon="114.22171879638672" /><trkpt lat="22.35593878125" lon="114.22180579638672" /><trkpt lat="22.35585278125" lon="114.22184679638671" /><trkpt lat="22.35577478125" lon="114.22183479638672" /><trkpt lat="22.35566578125" lon="114.22179079638671" /><trkpt lat="22.35557978125" lon="114.22174879638672" /><trkpt lat="22.35546978125" lon="114.22173979638671" /><trkpt lat="22.35535178125" lon="114.22177979638671" /><trkpt lat="22.35529078125" lon="114.22179279638672" /><trkpt lat="22.35522478125" lon="114.22179679638671" /><trkpt lat="22.35513878125" lon="114.22174979638672" /><trkpt lat="22.35505478125" lon="114.22163979638673" /><trkpt lat="22.35497978125" lon="114.22153279638673" /><trkpt lat="22.35490778125" lon="114.22145979638672" /><trkpt lat="22.35483278125" lon="114.22139979638672" /><trkpt lat="22.35467978125" lon="114.22130679638671" /><trkpt lat="22.35457278125" lon="114.22127279638671" /><trkpt lat="22.35440778125" lon="114.22128979638671" /><trkpt lat="22.35431478125" lon="114.22134279638672" /><trkpt lat="22.35422278125" lon="114.22140779638671" /><trkpt lat="22.35407878125" lon="114.22143879638672" /><trkpt lat="22.35391678125" lon="114.22141879638671" /><trkpt lat="22.35362178125" lon="114.22138279638672" /><trkpt lat="22.35347478125" lon="114.22135879638672" /><trkpt lat="22.35336378125" lon="114.22129979638672" /><trkpt lat="22.353289781249998" lon="114.22124179638672" /><trkpt lat="22.35322878125" lon="114.22115979638671" /><trkpt lat="22.35318678125" lon="114.22106879638672" /><trkpt lat="22.35318178125" lon="114.22096579638672" /><trkpt lat="22.35320878125" lon="114.22086079638672" /><trkpt lat="22.35324878125" lon="114.22074979638671" /><trkpt lat="22.35333178125" lon="114.22062179638672" /><trkpt lat="22.35345078125" lon="114.22053479638672" /><trkpt lat="22.35369578125" lon="114.22047879638671" /><trkpt lat="22.35390278125" lon="114.22043779638672" /><trkpt lat="22.35398878125" lon="114.22039779638672" /><trkpt lat="22.35406078125" lon="114.22033679638672" /><trkpt lat="22.35420078125" lon="114.22016179638672" /><trkpt lat="22.35449178125" lon="114.21965479638672" /><trkpt lat="22.35461778125" lon="114.21946679638671" /><trkpt lat="22.35480478125" lon="114.21937579638671" /><trkpt lat="22.35485278125" lon="114.21938079638672" /><trkpt lat="22.35493578125" lon="114.21938779638671" /><trkpt lat="22.35504478125" lon="114.21944579638672" /><trkpt lat="22.35512078125" lon="114.21951179638671" /><trkpt lat="22.35518578125" lon="114.21956879638672" /><trkpt lat="22.35530778125" lon="114.21962279638672" /><trkpt lat="22.35540778125" lon="114.21962379638671" /><trkpt lat="22.35547578125" lon="114.21959879638672" /><trkpt lat="22.35564478125" lon="114.21939179638672" /><trkpt lat="22.35576878125" lon="114.21928179638672" /><trkpt lat="22.35587578125" lon="114.21924979638672" /><trkpt lat="22.35597978125" lon="114.21923879638672" /><trkpt lat="22.35612078125" lon="114.21925279638671" /><trkpt lat="22.35625978125" lon="114.21925779638671" /><trkpt lat="22.35639378125" lon="114.21922879638672" /><trkpt lat="22.35652078125" lon="114.21916979638672" /><trkpt lat="22.35666678125" lon="114.21900879638672" /><trkpt lat="22.35676278125" lon="114.21876479638672" /><trkpt lat="22.35681578125" lon="114.21856379638672" /><trkpt lat="22.35684278125" lon="114.21849279638671" /><trkpt lat="22.35690278125" lon="114.21837079638672" /><trkpt lat="22.35694478125" lon="114.21820879638672" /><trkpt lat="22.35696678125" lon="114.21794879638672" /><trkpt lat="22.35698178125" lon="114.21764579638672" /><trkpt lat="22.35698678125" lon="114.21750379638672" /><trkpt lat="22.35697178125" lon="114.21740479638672" /><trkpt lat="22.35686078125" lon="114.21728379638672" /><trkpt lat="22.35669978125" lon="114.21720979638671" /><trkpt lat="22.35653378125" lon="114.21715679638672" /><trkpt lat="22.35636978125" lon="114.21703779638672" /><trkpt lat="22.35631678125" lon="114.21687579638672" /><trkpt lat="22.35632978125" lon="114.21676879638672" /><trkpt lat="22.35639678125" lon="114.21654579638673" /><trkpt lat="22.35638378125" lon="114.21637179638672" /><trkpt lat="22.35633178125" lon="114.21622679638672" /><trkpt lat="22.35625778125" lon="114.21608779638672" /><trkpt lat="22.35611778125" lon="114.21585079638672" /><trkpt lat="22.35595478125" lon="114.21565579638671" /><trkpt lat="22.35587778125" lon="114.21559979638671" /><trkpt lat="22.35578178125" lon="114.21554079638672" /><trkpt lat="22.35572178125" lon="114.21542779638672" /><trkpt lat="22.35572378125" lon="114.21528579638672" /><trkpt lat="22.35578178125" lon="114.21515379638672" /><trkpt lat="22.35583378125" lon="114.21497079638672" /><trkpt lat="22.35577678125" lon="114.21484279638672" /><trkpt lat="22.35575678125" lon="114.21472479638672" /><trkpt lat="22.35575678125" lon="114.21454779638673" /><trkpt lat="22.35576378125" lon="114.21437379638672" /><trkpt lat="22.35568278125" lon="114.21435479638671" /><trkpt lat="22.35558978125" lon="114.21430279638672" /><trkpt lat="22.35544978125" lon="114.21469679638672" /><trkpt lat="22.35545078125" lon="114.21490679638671" /><trkpt lat="22.35542178125" lon="114.21506479638671" /><trkpt lat="22.35535878125" lon="114.21517779638671" /><trkpt lat="22.35516178125" lon="114.21535179638671" /><trkpt lat="22.35509078125" lon="114.21561279638672" /><trkpt lat="22.35509278125" lon="114.21593579638672" /><trkpt lat="22.35514578125" lon="114.21601879638672" /><trkpt lat="22.35524378125" lon="114.21611479638672" /><trkpt lat="22.35527278125" lon="114.21627379638672" /><trkpt lat="22.35523078125" lon="114.21638379638672" /><trkpt lat="22.35510378125" lon="114.21656179638671" /><trkpt lat="22.35509578125" lon="114.21685979638671" /><trkpt lat="22.35502978125" lon="114.21700579638672" /><trkpt lat="22.35493878125" lon="114.21707979638671" /><trkpt lat="22.35475078125" lon="114.21713979638672" /><trkpt lat="22.35445578125" lon="114.21713879638672" /><trkpt lat="22.35429578125" lon="114.21701379638672" /><trkpt lat="22.35381378125" lon="114.21708179638672" /><trkpt lat="22.35286278125" lon="114.21729079638672" /><trkpt lat="22.35278678125" lon="114.21735579638671" /><trkpt lat="22.35272278125" lon="114.21747879638671" /><trkpt lat="22.35267878125" lon="114.21758479638672" /><trkpt lat="22.35249378125" lon="114.21776479638672" /><trkpt lat="22.35231478125" lon="114.21789579638671" /><trkpt lat="22.35219078125" lon="114.21793879638672" /><trkpt lat="22.35195578125" lon="114.21794779638672" /><trkpt lat="22.35185278125" lon="114.21794179638673" /><trkpt lat="22.35176778125" lon="114.21788479638671" /><trkpt lat="22.35132578125" lon="114.21769379638671" /><trkpt lat="22.35119178125" lon="114.21753479638672" /><trkpt lat="22.35109178125" lon="114.21723879638672" /><trkpt lat="22.35100078125" lon="114.21716779638672" /><trkpt lat="22.35090378125" lon="114.21715879638671" /><trkpt lat="22.35074678125" lon="114.21722979638672" /><trkpt lat="22.35057278125" lon="114.21748179638672" /><trkpt lat="22.35050878125" lon="114.21760879638671" /><trkpt lat="22.35040978125" lon="114.21770379638671" /><trkpt lat="22.35016278125" lon="114.21786479638672" /><trkpt lat="22.35007478125" lon="114.21802779638672" /><trkpt lat="22.34997978125" lon="114.21827379638673" /><trkpt lat="22.34988378125" lon="114.21838579638671" /><trkpt lat="22.34969178125" lon="114.21848679638671" /><trkpt lat="22.34953078125" lon="114.21852479638672" /><trkpt lat="22.34938878125" lon="114.21851079638672" /><trkpt lat="22.34930078125" lon="114.21843779638672" /><trkpt lat="22.34923278125" lon="114.21826579638672" /><trkpt lat="22.34907778125" lon="114.21779879638672" /><trkpt lat="22.34899378125" lon="114.21771579638671" /><trkpt lat="22.34882078125" lon="114.21765479638673" /><trkpt lat="22.34869278125" lon="114.21763779638673" /><trkpt lat="22.34852878125" lon="114.21762779638672" /><trkpt lat="22.34835178125" lon="114.21752179638672" /><trkpt lat="22.34820478125" lon="114.21730179638672" /><trkpt lat="22.34804678125" lon="114.21712279638672" /><trkpt lat="22.34788778125" lon="114.21707579638672" /><trkpt lat="22.34750478125" lon="114.21703379638672" /><trkpt lat="22.34705778125" lon="114.21698779638672" /><trkpt lat="22.34689878125" lon="114.21692679638672" /><trkpt lat="22.34681378125" lon="114.21684079638672" /><trkpt lat="22.34651378125" lon="114.21607079638672" /><trkpt lat="22.34649178125" lon="114.21595979638671" /><trkpt lat="22.34640578125" lon="114.21567079638672" /><trkpt lat="22.34631078125" lon="114.21550579638672" /><trkpt lat="22.34585278125" lon="114.21518879638671" /><trkpt lat="22.34563878125" lon="114.21515379638672" /><trkpt lat="22.34549278125" lon="114.21519779638672" /><trkpt lat="22.34533578125" lon="114.21533579638673" /><trkpt lat="22.34526178125" lon="114.21547779638672" /><trkpt lat="22.34524778125" lon="114.21576579638672" /><trkpt lat="22.34517078125" lon="114.21591779638672" /><trkpt lat="22.34508178125" lon="114.21599779638672" /><trkpt lat="22.34492778125" lon="114.21606479638672" /><trkpt lat="22.34472678125" lon="114.21607879638673" /><trkpt lat="22.34448978125" lon="114.21598479638672" /><trkpt lat="22.34433878125" lon="114.21596079638672" /><trkpt lat="22.34423778125" lon="114.21596779638672" /><trkpt lat="22.34407878125" lon="114.21602579638672" /><trkpt lat="22.34391378125" lon="114.21605079638672" /><trkpt lat="22.34351278125" lon="114.21602579638672" /><trkpt lat="22.34335878125" lon="114.21603279638671" /><trkpt lat="22.34324078125" lon="114.21606679638671" /><trkpt lat="22.34296578125" lon="114.21631079638672" /><trkpt lat="22.34278578125" lon="114.21637779638672" /><trkpt lat="22.34210278125" lon="114.21637879638672" /><trkpt lat="22.34201678125" lon="114.21631779638672" /><trkpt lat="22.34195678125" lon="114.21619779638672" /><trkpt lat="22.34189078125" lon="114.21586279638672" /><trkpt lat="22.34182978125" lon="114.21560879638672" /><trkpt lat="22.34169278125" lon="114.21541779638672" /><trkpt lat="22.34161078125" lon="114.21538479638672" /><trkpt lat="22.34168878125" lon="114.21504679638672" /><trkpt lat="22.34177178125" lon="114.21471879638672" /><trkpt lat="22.34166978125" lon="114.21441779638671" /><trkpt lat="22.34122478125" lon="114.21394279638672" /><trkpt lat="22.34082478125" lon="114.21334079638672" /><trkpt lat="22.34042378125" lon="114.21289379638672" /><trkpt lat="22.34016178125" lon="114.21249879638673" /><trkpt lat="22.33990278125" lon="114.21233479638671" /><trkpt lat="22.33948278125" lon="114.21191679638672" /><trkpt lat="22.33923678125" lon="114.21184179638672" /><trkpt lat="22.33910478125" lon="114.21178479638672" /><trkpt lat="22.33900178125" lon="114.21143979638671" /><trkpt lat="22.338994554439452" lon="114.21117642342409" /><trkpt lat="22.338895317900622" lon="114.2110463385788" /><trkpt lat="22.338895317900622" lon="114.21075540271971" /><trkpt lat="22.338969900465244" lon="114.21093753814137" /><trkpt lat="22.33897078125" lon="114.21109079638671" /><trkpt lat="22.33898178125" lon="114.21129779638672" /><trkpt lat="22.33900178125" lon="114.21143979638671" /><trkpt lat="22.33910478125" lon="114.21178479638672" /><trkpt lat="22.33923678125" lon="114.21184179638672" /><trkpt lat="22.33948278125" lon="114.21191679638672" /><trkpt lat="22.33990278125" lon="114.21233479638671" /><trkpt lat="22.33969078125" lon="114.21239579638672" /><trkpt lat="22.33959078125" lon="114.21256579638671" /><trkpt lat="22.33952978125" lon="114.21265979638672" /><trkpt lat="22.33964978125" lon="114.21291179638672" /><trkpt lat="22.33962778125" lon="114.21303079638672" /><trkpt lat="22.33959378125" lon="114.21299279638671" /><trkpt lat="22.33943478125" lon="114.21271979638672" /><trkpt lat="22.33926078125" lon="114.21258279638671" /><trkpt lat="22.33914878125" lon="114.21255579638672" /><trkpt lat="22.33908078125" lon="114.21256579638671" /><trkpt lat="22.33902778125" lon="114.21261179638672" /><trkpt lat="22.33902778125" lon="114.21269179638672" /><trkpt lat="22.33897278125" lon="114.21272379638671" /><trkpt lat="22.33900778125" lon="114.21279879638672" /><trkpt lat="22.33890278125" lon="114.21284579638672" /><trkpt lat="22.33877778125" lon="114.21283179638672" /><trkpt lat="22.33870178125" lon="114.21281979638673" /><trkpt lat="22.33859878125" lon="114.21282979638671" /><trkpt lat="22.33853378125" lon="114.21288079638671" /><trkpt lat="22.33850178125" lon="114.21295079638672" /><trkpt lat="22.33846678125" lon="114.21303279638671" /><trkpt lat="22.33840878125" lon="114.21309079638672" /><trkpt lat="22.33834578125" lon="114.21314679638672" /><trkpt lat="22.33830978125" lon="114.21321479638672" /><trkpt lat="22.33830578125" lon="114.21326979638673" /><trkpt lat="22.33831978125" lon="114.21333079638671" /><trkpt lat="22.33833078125" lon="114.21338979638672" /><trkpt lat="22.33830678125" lon="114.21342879638672" /><trkpt lat="22.33827278125" lon="114.21348479638672" /><trkpt lat="22.33822378125" lon="114.21350879638672" /><trkpt lat="22.33815978125" lon="114.21358279638672" /><trkpt lat="22.33808778125" lon="114.21361379638672" /><trkpt lat="22.33800178125" lon="114.21361279638671" /><trkpt lat="22.33796978125" lon="114.21361279638671" /><trkpt lat="22.33789278125" lon="114.21358079638672" /><trkpt lat="22.33785178125" lon="114.21352779638671" /><trkpt lat="22.33783778125" lon="114.21347979638672" /><trkpt lat="22.33760278125" lon="114.21339879638671" /><trkpt lat="22.33750778125" lon="114.21339679638672" /><trkpt lat="22.33744078125" lon="114.21343179638671" /><trkpt lat="22.33737178125" lon="114.21346479638672" /><trkpt lat="22.33734578125" lon="114.21343179638671" /><trkpt lat="22.33728778125" lon="114.21338779638671" /><trkpt lat="22.33723178125" lon="114.21337779638672" /><trkpt lat="22.33715778125" lon="114.21338979638672" /><trkpt lat="22.33704978125" lon="114.21344079638672" /><trkpt lat="22.33694178125" lon="114.21350379638672" /><trkpt lat="22.33684078125" lon="114.21353479638672" /><trkpt lat="22.33678478125" lon="114.21360679638671" /><trkpt lat="22.33678078125" lon="114.21367479638671" /><trkpt lat="22.33670478125" lon="114.21367679638672" /><trkpt lat="22.33648678125" lon="114.21366979638672" /><trkpt lat="22.33644978125" lon="114.21363879638672" /><trkpt lat="22.33637478125" lon="114.21365679638672" /><trkpt lat="22.33630978125" lon="114.21392879638672" /><trkpt lat="22.33626078125" lon="114.21380679638672" /><trkpt lat="22.33618078125" lon="114.21371779638672" /><trkpt lat="22.33611278125" lon="114.21367279638672" /><trkpt lat="22.33605178125" lon="114.21366379638673" /><trkpt lat="22.33602078125" lon="114.21368179638672" /><trkpt lat="22.33598078125" lon="114.21376879638672" /><trkpt lat="22.33597478125" lon="114.21386679638672" /><trkpt lat="22.33599178125" lon="114.21392779638671" /><trkpt lat="22.33600378125" lon="114.21396379638672" /><trkpt lat="22.33593978125" lon="114.21406279638671" /><trkpt lat="22.33580278125" lon="114.21424579638672" /><trkpt lat="22.33578978125" lon="114.21431779638672" /><trkpt lat="22.33573478125" lon="114.21431079638671" /><trkpt lat="22.33563778125" lon="114.21432779638671" /><trkpt lat="22.33561678125" lon="114.21421779638672" /><trkpt lat="22.33554078125" lon="114.21408279638672" /><trkpt lat="22.33534178125" lon="114.21376079638672" /><trkpt lat="22.33529278125" lon="114.21372779638672" /><trkpt lat="22.33515778125" lon="114.21366379638673" /><trkpt lat="22.33504878125" lon="114.21346079638671" /><trkpt lat="22.33510478125" lon="114.21343679638672" /><trkpt lat="22.33513478125" lon="114.21341079638673" /><trkpt lat="22.33516478125" lon="114.21337479638672" /><trkpt lat="22.33518078125" lon="114.21333879638672" /><trkpt lat="22.33519078125" lon="114.21328579638671" /><trkpt lat="22.33524278125" lon="114.21264579638672" /><trkpt lat="22.33526278125" lon="114.21238979638672" /><trkpt lat="22.33521278125" lon="114.21201179638672" /><trkpt lat="22.33515578125" lon="114.21178879638671" /><trkpt lat="22.33504278125" lon="114.21159279638673" /><trkpt lat="22.33500178125" lon="114.21151479638672" /><trkpt lat="22.33494678125" lon="114.21140879638672" /><trkpt lat="22.33495978125" lon="114.21130979638671" /><trkpt lat="22.33489378125" lon="114.21123979638672" /><trkpt lat="22.33485878125" lon="114.21122979638672" /><trkpt lat="22.33482778125" lon="114.21122979638672" /><trkpt lat="22.33447778125" lon="114.21117979638672" /><trkpt lat="22.33449478125" lon="114.21099679638672" /><trkpt lat="22.33450078125" lon="114.21089279638672" /><trkpt lat="22.33450078125" lon="114.21079479638672" /><trkpt lat="22.33449278125" lon="114.21068179638672" /><trkpt lat="22.33447778125" lon="114.21058879638672" /><trkpt lat="22.33442878125" lon="114.21032879638672" /><trkpt lat="22.33437478125" lon="114.21001979638672" /><trkpt lat="22.33430778125" lon="114.20970979638672" /><trkpt lat="22.33419478125" lon="114.20918579638672" /><trkpt lat="22.33417678125" lon="114.20904779638671" /><trkpt lat="22.33418578125" lon="114.20888879638672" /><trkpt lat="22.33420678125" lon="114.20878179638672" /><trkpt lat="22.33433778125" lon="114.20858779638672" /><trkpt lat="22.33452478125" lon="114.20837279638671" /><trkpt lat="22.33456378125" lon="114.20832479638672" /><trkpt lat="22.33460978125" lon="114.20828279638671" /></trkseg></trk></gpx>