<?xml version='1.0' encoding='UTF-8' ?><gpx version="1.1" creator="HikingTrailHK" xsi:schemaLocation="http://www.topografix.com/GPX/1/1 http://www.topografix.com/GPX/1/1/gpx.xsd" xmlns="http://www.topografix.com/GPX/1/1" xmlns:xsi="http://www.w3.org/2001/XMLSchema-instance"><metadata><name>永別亭 @ 2016-8-26</name><desc></desc></metadata><trk><trkseg><trkpt lat="22.305141897975084" lon="114.2527794479058" /><trkpt lat="22.30517978125" lon="114.25285279638672" /><trkpt lat="22.30528978125" lon="114.25276379638672" /><trkpt lat="22.30562278125" lon="114.25250779638672" /><trkpt lat="22.30577078125" lon="114.25238679638672" /><trkpt lat="22.30584678125" lon="114.25232979638672" /><trkpt lat="22.30594678125" lon="114.25226479638673" /><trkpt lat="22.30601978125" lon="114.25221879638671" /><trkpt lat="22.30609378125" lon="114.25217179638672" /><trkpt lat="22.30649978125" lon="114.25195579638672" /><trkpt lat="22.30665078125" lon="114.25190979638671" /><trkpt lat="22.30668778125" lon="114.25190679638672" /><trkpt lat="22.30686278125" lon="114.25189179638672" /><trkpt lat="22.30709078125" lon="114.25191479638671" /><trkpt lat="22.30732278125" lon="114.25198579638672" /><trkpt lat="22.30748178125" lon="114.25206779638673" /><trkpt lat="22.30756778125" lon="114.25211279638673" /><trkpt lat="22.30764578125" lon="114.25218979638672" /><trkpt lat="22.30778178125" lon="114.25232579638671" /><trkpt lat="22.30796478125" lon="114.25256579638672" /><trkpt lat="22.30818478125" lon="114.25291779638673" /><trkpt lat="22.30820548316626" lon="114.25295541675717" /><trkpt lat="22.308277739129526" lon="114.25301744041647" /><trkpt lat="22.30844378125" lon="114.25325379638672" /><trkpt lat="22.30885378125" lon="114.25386579638672" /><trkpt lat="22.30893178125" lon="114.25380579638671" /><trkpt lat="22.30908878125" lon="114.25392979638671" /><trkpt lat="22.30940978125" lon="114.25381979638672" /><trkpt lat="22.30944278125" lon="114.25381079638672" /><trkpt lat="22.30972478125" lon="114.25355679638672" /><trkpt lat="22.30954578125" lon="114.25296079638672" /><trkpt lat="22.30914778125" lon="114.25220279638671" /><trkpt lat="22.30889478125" lon="114.25175479638672" /><trkpt lat="22.30891678125" lon="114.25167879638671" /><trkpt lat="22.30900078125" lon="114.25182779638672" /><trkpt lat="22.30910978125" lon="114.25180179638672" /><trkpt lat="22.30919478125" lon="114.25178579638671" /><trkpt lat="22.30925878125" lon="114.25203479638672" /><trkpt lat="22.30959478125" lon="114.25270779638672" /><trkpt lat="22.30973578125" lon="114.25274079638672" /><trkpt lat="22.30985878125" lon="114.25258679638672" /><trkpt lat="22.31003078125" lon="114.25269879638672" /><trkpt lat="22.31008578125" lon="114.25263079638673" /><trkpt lat="22.31014178125" lon="114.25263279638672" /><trkpt lat="22.31020978125" lon="114.25260979638672" /><trkpt lat="22.31021078125" lon="114.25244179638672" /><trkpt lat="22.31023478125" lon="114.25228679638671" /><trkpt lat="22.31024778125" lon="114.25207779638671" /><trkpt lat="22.31039378125" lon="114.25221879638671" /><trkpt lat="22.31059578125" lon="114.25251079638672" /><trkpt lat="22.31065178125" lon="114.25256479638672" /><trkpt lat="22.31070078125" lon="114.25246779638672" /><trkpt lat="22.31078478125" lon="114.25258879638672" /><trkpt lat="22.31087278125" lon="114.25256379638672" /><trkpt lat="22.31096578125" lon="114.25248979638671" /><trkpt lat="22.31103978125" lon="114.25238279638671" /><trkpt lat="22.31113178125" lon="114.25232179638672" /><trkpt lat="22.31121878125" lon="114.25215879638672" /><trkpt lat="22.31132978125" lon="114.25211079638672" /><trkpt lat="22.31159378125" lon="114.25184279638673" /><trkpt lat="22.31167778125" lon="114.25178179638672" /><trkpt lat="22.31171078125" lon="114.25172379638671" /><trkpt lat="22.31178778125" lon="114.25164079638672" /><trkpt lat="22.31185178125" lon="114.25161779638672" /><trkpt lat="22.31196378125" lon="114.25162979638672" /><trkpt lat="22.31210978125" lon="114.25161579638672" /><trkpt lat="22.31216478125" lon="114.25147579638671" /><trkpt lat="22.31222378125" lon="114.25139179638671" /><trkpt lat="22.31245078125" lon="114.25121779638671" /><trkpt lat="22.31263478125" lon="114.25110179638672" /><trkpt lat="22.31272278125" lon="114.25105779638672" /><trkpt lat="22.31286878125" lon="114.25094679638671" /><trkpt lat="22.31298378125" lon="114.25081179638671" /><trkpt lat="22.31306778125" lon="114.25067479638672" /><trkpt lat="22.31312978125" lon="114.25046079638672" /><trkpt lat="22.31317478125" lon="114.25040479638672" /><trkpt lat="22.31323678125" lon="114.25028079638672" /><trkpt lat="22.31327778125" lon="114.25023079638672" /><trkpt lat="22.31330678125" lon="114.25019179638672" /><trkpt lat="22.31338178125" lon="114.25010379638672" /><trkpt lat="22.31352778125" lon="114.24997479638672" /><trkpt lat="22.31365378125" lon="114.24989979638671" /><trkpt lat="22.31376078125" lon="114.24982179638671" /><trkpt lat="22.31387278125" lon="114.24974979638672" /><trkpt lat="22.31396478125" lon="114.24966379638671" /><trkpt lat="22.31400478125" lon="114.24958179638672" /><trkpt lat="22.31404378125" lon="114.24952979638672" /><trkpt lat="22.31400978125" lon="114.24941879638672" /><trkpt lat="22.31395978125" lon="114.24933179638671" /><trkpt lat="22.31394578125" lon="114.24909879638672" /><trkpt lat="22.31392878125" lon="114.24876779638672" /><trkpt lat="22.31415178125" lon="114.24870179638671" /><trkpt lat="22.31433878125" lon="114.24872779638672" /><trkpt lat="22.31449178125" lon="114.24870579638672" /><trkpt lat="22.31467678125" lon="114.24850879638672" /><trkpt lat="22.31476778125" lon="114.24843279638672" /><trkpt lat="22.31488778125" lon="114.24824379638672" /><trkpt lat="22.31519978125" lon="114.24806679638672" /><trkpt lat="22.31540078125" lon="114.24791479638672" /><trkpt lat="22.31573178125" lon="114.24790879638672" /><trkpt lat="22.31581678125" lon="114.24794279638672" /><trkpt lat="22.31586978125" lon="114.24798179638672" /><trkpt lat="22.31591878125" lon="114.24799879638672" /><trkpt lat="22.31611678125" lon="114.24779479638671" /><trkpt lat="22.31640978125" lon="114.24775679638672" /><trkpt lat="22.31654178125" lon="114.24748979638672" /><trkpt lat="22.31670978125" lon="114.24744379638672" /><trkpt lat="22.31686178125" lon="114.24729879638672" /><trkpt lat="22.31690178125" lon="114.24711579638672" /><trkpt lat="22.31702378125" lon="114.24707079638672" /><trkpt lat="22.31710578125" lon="114.24695579638671" /><trkpt lat="22.31710578125" lon="114.24675779638672" /><trkpt lat="22.31726078125" lon="114.24638779638671" /><trkpt lat="22.31741978125" lon="114.24625979638672" /><trkpt lat="22.31781478125" lon="114.24623079638671" /><trkpt lat="22.31799678125" lon="114.24609679638672" /><trkpt lat="22.31786778125" lon="114.24582179638672" /><trkpt lat="22.31790778125" lon="114.24579579638672" /><trkpt lat="22.31784078125" lon="114.24561879638672" /><trkpt lat="22.31789378125" lon="114.24552679638671" /><trkpt lat="22.31783478125" lon="114.24545279638672" /><trkpt lat="22.31803878125" lon="114.24525779638672" /><trkpt lat="22.31817778125" lon="114.24509279638671" /><trkpt lat="22.31824278125" lon="114.24503979638672" /><trkpt lat="22.31830978125" lon="114.24500679638672" /><trkpt lat="22.31839278125" lon="114.24498879638672" /><trkpt lat="22.31847078125" lon="114.24500379638671" /><trkpt lat="22.31853378125" lon="114.24503579638672" /><trkpt lat="22.31858478125" lon="114.24508479638672" /><trkpt lat="22.31871278125" lon="114.24526479638672" /><trkpt lat="22.31874178125" lon="114.24528779638672" /><trkpt lat="22.31877278125" lon="114.24529779638672" /><trkpt lat="22.31880578125" lon="114.24529979638672" /><trkpt lat="22.31907878125" lon="114.24526379638672" /><trkpt lat="22.31912478125" lon="114.24524679638672" /><trkpt lat="22.31916478125" lon="114.24521979638672" /><trkpt lat="22.31928278125" lon="114.24512279638672" /><trkpt lat="22.31931678125" lon="114.24507979638672" /><trkpt lat="22.31941378125" lon="114.24493879638672" /><trkpt lat="22.31945778125" lon="114.24488779638672" /><trkpt lat="22.31950978125" lon="114.24486279638671" /><trkpt lat="22.31957078125" lon="114.24485179638671" /><trkpt lat="22.31962778125" lon="114.24485679638671" /><trkpt lat="22.31967878125" lon="114.24487679638672" /><trkpt lat="22.31971978125" lon="114.24491379638673" /><trkpt lat="22.31976978125" lon="114.24497479638671" /><trkpt lat="22.31984178125" lon="114.24502779638672" /><trkpt lat="22.31994178125" lon="114.24507779638672" /><trkpt lat="22.32003478125" lon="114.24512979638672" /><trkpt lat="22.32016978125" lon="114.24522279638671" /><trkpt lat="22.32033078125" lon="114.24531879638671" /><trkpt lat="22.32044278125" lon="114.24537079638672" /><trkpt lat="22.32058478125" lon="114.24541079638672" /><trkpt lat="22.32072878125" lon="114.24542479638671" /><trkpt lat="22.32087178125" lon="114.24542579638671" /><trkpt lat="22.32146078125" lon="114.24534879638672" /><trkpt lat="22.32159078125" lon="114.24534379638672" /><trkpt lat="22.32169578125" lon="114.24536279638671" /><trkpt lat="22.32177078125" lon="114.24539279638672" /><trkpt lat="22.32186378125" lon="114.24545279638672" /><trkpt lat="22.32195878125" lon="114.24553479638672" /><trkpt lat="22.32203078125" lon="114.24562679638672" /><trkpt lat="22.32207978125" lon="114.24572479638672" /><trkpt lat="22.32210078125" lon="114.24585779638672" /><trkpt lat="22.32226578125" lon="114.24581879638671" /><trkpt lat="22.32248278125" lon="114.24582379638672" /><trkpt lat="22.32278478125" lon="114.24588379638672" /><trkpt lat="22.32297178125" lon="114.24597579638672" /><trkpt lat="22.32313278125" lon="114.24605279638672" /><trkpt lat="22.32323678125" lon="114.24606679638671" /><trkpt lat="22.32332078125" lon="114.24601879638672" /><trkpt lat="22.32338278125" lon="114.24591879638672" /><trkpt lat="22.32323078125" lon="114.24571379638672" /><trkpt lat="22.32314378125" lon="114.24533979638672" /><trkpt lat="22.32273778125" lon="114.24496579638672" /><trkpt lat="22.322784256422036" lon="114.2447101837457" /><trkpt lat="22.322659703361865" lon="114.24456043399368" /><trkpt lat="22.322534912675508" lon="114.24429611444248" /><trkpt lat="22.32242396046982" lon="114.24413683961939" /><trkpt lat="22.32235931829517" lon="114.24407633537521" /><trkpt lat="22.322302531563082" lon="114.24403962779616" /><trkpt lat="22.32222761837066" lon="114.24396623776738" /><trkpt lat="22.32214847584038" lon="114.24394762855081" /><trkpt lat="22.321781212029904" lon="114.24361170413613" /><trkpt lat="22.32163347872715" lon="114.24340224487787" /><trkpt lat="22.321615685685174" lon="114.24334997347978" /><trkpt lat="22.32161215391197" lon="114.24320921386334" /><trkpt lat="22.321541129818588" lon="114.2430311047064" /><trkpt lat="22.32144778125" lon="114.24310279638672" /><trkpt lat="22.32138878125" lon="114.24316679638672" /><trkpt lat="22.32134778125" lon="114.24323479638672" /><trkpt lat="22.32131878125" lon="114.24330579638672" /><trkpt lat="22.32130978125" lon="114.24337379638672" /><trkpt lat="22.32132078125" lon="114.24345479638671" /><trkpt lat="22.32135178125" lon="114.24353379638671" /><trkpt lat="22.32147778125" lon="114.24379379638673" /><trkpt lat="22.32149178125" lon="114.24385579638673" /><trkpt lat="22.32149778125" lon="114.24391379638672" /><trkpt lat="22.32148678125" lon="114.24397179638672" /><trkpt lat="22.32145478125" lon="114.24401079638672" /><trkpt lat="22.32140778125" lon="114.24403479638671" /><trkpt lat="22.32134978125" lon="114.24403679638672" /><trkpt lat="22.32130978125" lon="114.24402279638672" /><trkpt lat="22.32128178125" lon="114.24398479638671" /><trkpt lat="22.32125978125" lon="114.24392579638672" /><trkpt lat="22.32119978125" lon="114.24364079638671" /><trkpt lat="22.32117778125" lon="114.24358279638672" /><trkpt lat="22.32114678125" lon="114.24354479638671" /><trkpt lat="22.32110978125" lon="114.24352179638672" /><trkpt lat="22.32098278125" lon="114.24348879638671" /><trkpt lat="22.32094678125" lon="114.24360779638671" /><trkpt lat="22.32089678125" lon="114.24372579638671" /><trkpt lat="22.32084178125" lon="114.24383079638672" /><trkpt lat="22.32075178125" lon="114.24397679638672" /><trkpt lat="22.32064978125" lon="114.24412079638672" /><trkpt lat="22.32033378125" lon="114.24454579638672" /><trkpt lat="22.320137499846517" lon="114.24481217895942" /></trkseg></trk></gpx>