<?xml version='1.0' encoding='UTF-8' ?><gpx version="1.1" creator="HikingTrailHK" xsi:schemaLocation="http://www.topografix.com/GPX/1/1 http://www.topografix.com/GPX/1/1/gpx.xsd" xmlns="http://www.topografix.com/GPX/1/1" xmlns:xsi="http://www.w3.org/2001/XMLSchema-instance"><metadata><name>沙灣 @ 2024-01-27</name><desc></desc></metadata><trk><trkseg><trkpt lat="22.272242901404937" lon="114.12077937608258" /><trkpt lat="22.27218678125" lon="114.12085579638672" /><trkpt lat="22.27214578125" lon="114.12097779638673" /><trkpt lat="22.27213178125" lon="114.12097379638672" /><trkpt lat="22.27211178125" lon="114.12096879638672" /><trkpt lat="22.27210978125" lon="114.12098579638672" /><trkpt lat="22.27208478125" lon="114.12119879638672" /><trkpt lat="22.27205778125" lon="114.12130079638672" /><trkpt lat="22.27201478125" lon="114.12132279638672" /><trkpt lat="22.27198778125" lon="114.12126879638672" /><trkpt lat="22.27194778125" lon="114.12122279638672" /><trkpt lat="22.27187578125" lon="114.12124179638671" /><trkpt lat="22.27185678125" lon="114.12130679638672" /><trkpt lat="22.27181178125" lon="114.12134379638672" /><trkpt lat="22.27176478125" lon="114.12130879638671" /><trkpt lat="22.27170278125" lon="114.12128479638672" /><trkpt lat="22.27146378125" lon="114.12125179638672" /><trkpt lat="22.27146878125" lon="114.12142679638671" /><trkpt lat="22.27146678125" lon="114.12154079638672" /><trkpt lat="22.27138178125" lon="114.12159479638672" /><trkpt lat="22.27131778125" lon="114.12171279638672" /><trkpt lat="22.27128778125" lon="114.12160579638672" /><trkpt lat="22.27124778125" lon="114.12143879638671" /><trkpt lat="22.27119278125" lon="114.12130079638672" /><trkpt lat="22.27119278125" lon="114.12127779638672" /><trkpt lat="22.27108278125" lon="114.12122279638672" /><trkpt lat="22.27107926241152" lon="114.12116245193567" /><trkpt lat="22.27111312642539" lon="114.12117773398677" /><trkpt lat="22.27112208251753" lon="114.1212424466494" /><trkpt lat="22.27119278125" lon="114.12127779638672" /><trkpt lat="22.27119278125" lon="114.12130079638672" /><trkpt lat="22.27124778125" lon="114.12143879638671" /><trkpt lat="22.27128778125" lon="114.12160579638672" /><trkpt lat="22.27131778125" lon="114.12171279638672" /><trkpt lat="22.27138178125" lon="114.12159479638672" /><trkpt lat="22.27146678125" lon="114.12154079638672" /><trkpt lat="22.27140578125" lon="114.12261579638673" /><trkpt lat="22.27152878125" lon="114.12274679638672" /><trkpt lat="22.27156978125" lon="114.12279279638672" /><trkpt lat="22.27160378125" lon="114.12286779638671" /><trkpt lat="22.27165278125" lon="114.12297879638672" /><trkpt lat="22.27167478125" lon="114.12310679638672" /><trkpt lat="22.27170278125" lon="114.12319779638672" /><trkpt lat="22.27175178125" lon="114.12328279638672" /><trkpt lat="22.27214478125" lon="114.12374779638672" /><trkpt lat="22.27230278125" lon="114.12401079638671" /><trkpt lat="22.27239178125" lon="114.12414779638672" /><trkpt lat="22.27249178125" lon="114.12442479638672" /><trkpt lat="22.27252978125" lon="114.12447179638671" /><trkpt lat="22.27256578125" lon="114.12450179638672" /><trkpt lat="22.27260678125" lon="114.12452379638673" /><trkpt lat="22.272634189488443" lon="114.12446147322835" /><trkpt lat="22.27262678125" lon="114.12444079638672" /><trkpt lat="22.27242078125" lon="114.12380979638672" /><trkpt lat="22.27238878125" lon="114.12369479638672" /><trkpt lat="22.27235778125" lon="114.12350379638671" /><trkpt lat="22.27235778125" lon="114.12330779638671" /><trkpt lat="22.27237478125" lon="114.12305379638671" /><trkpt lat="22.27239078125" lon="114.12300779638672" /><trkpt lat="22.27241078125" lon="114.12294679638671" /><trkpt lat="22.27240578125" lon="114.12287579638672" /><trkpt lat="22.27238578125" lon="114.12283679638672" /><trkpt lat="22.27231278125" lon="114.12269579638672" /><trkpt lat="22.27216778125" lon="114.12229079638672" /><trkpt lat="22.27210478125" lon="114.12208079638671" /><trkpt lat="22.27208878125" lon="114.12199279638672" /><trkpt lat="22.27208878125" lon="114.12186079638671" /><trkpt lat="22.27212278125" lon="114.12155479638672" /><trkpt lat="22.27218478125" lon="114.12149279638672" /><trkpt lat="22.27223678125" lon="114.12122879638672" /><trkpt lat="22.27220278125" lon="114.12114179638672" /><trkpt lat="22.27226178125" lon="114.12100979638672" /><trkpt lat="22.27233178125" lon="114.12087879638672" /><trkpt lat="22.27242178125" lon="114.12077779638672" /><trkpt lat="22.27283178125" lon="114.12037879638672" /><trkpt lat="22.27291678125" lon="114.12026879638672" /><trkpt lat="22.27298478125" lon="114.12015079638672" /><trkpt lat="22.27302078125" lon="114.12003479638672" /><trkpt lat="22.27316578125" lon="114.11946479638672" /><trkpt lat="22.27323378125" lon="114.11931179638673" /><trkpt lat="22.27334378125" lon="114.11916979638671" /><trkpt lat="22.27346078125" lon="114.11903279638672" /><trkpt lat="22.273949725914147" lon="114.1186456770056" /><trkpt lat="22.274038611975755" lon="114.11865103162762" /><trkpt lat="22.274122563460015" lon="114.11864300408102" /><trkpt lat="22.27416078125" lon="114.11860779638671" /><trkpt lat="22.27425078125" lon="114.11854679638672" /><trkpt lat="22.27436478125" lon="114.11847679638672" /><trkpt lat="22.27439078125" lon="114.11844979638671" /><trkpt lat="22.27440778125" lon="114.11843379638673" /><trkpt lat="22.27442778125" lon="114.11842579638672" /><trkpt lat="22.27446278125" lon="114.11841379638672" /><trkpt lat="22.27451078125" lon="114.11837279638672" /><trkpt lat="22.27454478125" lon="114.11831279638672" /><trkpt lat="22.27455978125" lon="114.11824279638672" /><trkpt lat="22.27457878125" lon="114.11819779638672" /><trkpt lat="22.27463678125" lon="114.11814279638672" /><trkpt lat="22.27478478125" lon="114.11802479638672" /><trkpt lat="22.27484178125" lon="114.11801979638672" /><trkpt lat="22.27490178125" lon="114.11801079638671" /><trkpt lat="22.27504678125" lon="114.11792079638671" /><trkpt lat="22.27511778125" lon="114.11782279638672" /><trkpt lat="22.27520018169673" lon="114.11778813967678" /><trkpt lat="22.27509978125" lon="114.11790579638672" /><trkpt lat="22.27504378125" lon="114.11796579638671" /><trkpt lat="22.27501978125" lon="114.11798679638672" /><trkpt lat="22.27499778125" lon="114.11800279638672" /><trkpt lat="22.27497278125" lon="114.11801879638672" /><trkpt lat="22.27484078125" lon="114.11809079638672" /><trkpt lat="22.27482078125" lon="114.11810279638672" /><trkpt lat="22.27480078125" lon="114.11811579638672" /><trkpt lat="22.27478278125" lon="114.11813079638672" /><trkpt lat="22.27476478125" lon="114.11814779638672" /><trkpt lat="22.27474978125" lon="114.11816679638672" /><trkpt lat="22.27469378125" lon="114.11825279638671" /><trkpt lat="22.27468378125" lon="114.11827179638672" /><trkpt lat="22.27467678125" lon="114.11829379638672" /><trkpt lat="22.27467278125" lon="114.11831779638672" /><trkpt lat="22.27467478125" lon="114.11838579638672" /><trkpt lat="22.27467278125" lon="114.11841179638672" /><trkpt lat="22.27466778125" lon="114.11843379638673" /><trkpt lat="22.27465478125" lon="114.11845579638671" /><trkpt lat="22.27463578125" lon="114.11847579638672" /><trkpt lat="22.27461278125" lon="114.11849379638672" /><trkpt lat="22.27458378125" lon="114.11851279638672" /><trkpt lat="22.27443478125" lon="114.11860379638672" /><trkpt lat="22.27441578125" lon="114.11861979638672" /><trkpt lat="22.27439578125" lon="114.11863979638672" /><trkpt lat="22.27437678125" lon="114.11866179638672" /><trkpt lat="22.27435778125" lon="114.11869079638672" /><trkpt lat="22.27428978125" lon="114.11881379638672" /><trkpt lat="22.27426878125" lon="114.11884679638672" /><trkpt lat="22.27414478125" lon="114.11899679638672" /><trkpt lat="22.27410578125" lon="114.11904579638671" /><trkpt lat="22.27406878125" lon="114.11909679638671" /><trkpt lat="22.27404778125" lon="114.11913179638672" /><trkpt lat="22.27402678125" lon="114.11916779638672" /><trkpt lat="22.27400978125" lon="114.11920079638672" /><trkpt lat="22.27399378125" lon="114.11923379638672" /><trkpt lat="22.27397978125" lon="114.11926579638671" /><trkpt lat="22.27396978125" lon="114.11929179638672" /><trkpt lat="22.27396078125" lon="114.11931879638672" /><trkpt lat="22.27394078125" lon="114.11940179638673" /><trkpt lat="22.27393478125" lon="114.11943479638671" /><trkpt lat="22.27393278125" lon="114.11945779638671" /><trkpt lat="22.27393078125" lon="114.11948179638672" /><trkpt lat="22.27392978125" lon="114.11950879638673" /><trkpt lat="22.27393178125" lon="114.11953779638672" /><trkpt lat="22.27393478125" lon="114.11956579638672" /><trkpt lat="22.27394078125" lon="114.11959279638671" /><trkpt lat="22.27395478125" lon="114.11964579638672" /><trkpt lat="22.27397478125" lon="114.11970079638672" /><trkpt lat="22.27399678125" lon="114.11974779638672" /><trkpt lat="22.27400878125" lon="114.11976779638672" /><trkpt lat="22.27404578125" lon="114.11982279638671" /><trkpt lat="22.27405078125" lon="114.11983279638672" /><trkpt lat="22.27405478125" lon="114.11984279638672" /><trkpt lat="22.27405678125" lon="114.11985579638672" /><trkpt lat="22.27405778125" lon="114.11986779638671" /><trkpt lat="22.27405478125" lon="114.11996079638672" /><trkpt lat="22.27405478125" lon="114.11997979638672" /><trkpt lat="22.27405978125" lon="114.12001279638672" /><trkpt lat="22.27410178125" lon="114.12015379638672" /><trkpt lat="22.27410478125" lon="114.12017079638672" /><trkpt lat="22.27410478125" lon="114.12018779638672" /><trkpt lat="22.27410478125" lon="114.12020179638672" /><trkpt lat="22.27410078125" lon="114.12021679638671" /><trkpt lat="22.27409478125" lon="114.12023379638671" /><trkpt lat="22.27405378125" lon="114.12032079638672" /><trkpt lat="22.27404578125" lon="114.12033879638672" /><trkpt lat="22.27403978125" lon="114.12036079638672" /><trkpt lat="22.27398078125" lon="114.12061479638672" /><trkpt lat="22.27398978125" lon="114.12072879638671" /><trkpt lat="22.27385978125" lon="114.12106279638672" /><trkpt lat="22.27374678125" lon="114.12123379638672" /><trkpt lat="22.27364878125" lon="114.12136579638671" /><trkpt lat="22.27358178125" lon="114.12141879638672" /><trkpt lat="22.27344978125" lon="114.12152579638672" /><trkpt lat="22.27339078125" lon="114.12169079638672" /><trkpt lat="22.27335878125" lon="114.12184679638672" /><trkpt lat="22.27343278125" lon="114.12204479638672" /><trkpt lat="22.27352478125" lon="114.12211679638672" /><trkpt lat="22.27359978125" lon="114.12213379638672" /><trkpt lat="22.27381178125" lon="114.12289679638671" /><trkpt lat="22.27369255141395" lon="114.1233690220774" /><trkpt lat="22.273802764249268" lon="114.1232745356362" /><trkpt lat="22.273835102664478" lon="114.12311402875986" /><trkpt lat="22.27380546960999" lon="114.12287408015062" /><trkpt lat="22.27359978125" lon="114.12213379638672" /><trkpt lat="22.27352478125" lon="114.12211679638672" /><trkpt lat="22.27343278125" lon="114.12204479638672" /><trkpt lat="22.27335878125" lon="114.12184679638672" /><trkpt lat="22.27339078125" lon="114.12169079638672" /><trkpt lat="22.27344978125" lon="114.12152579638672" /><trkpt lat="22.27358178125" lon="114.12141879638672" /><trkpt lat="22.27364878125" lon="114.12136579638671" /><trkpt lat="22.27374678125" lon="114.12123379638672" /><trkpt lat="22.27385978125" lon="114.12106279638672" /><trkpt lat="22.27398978125" lon="114.12072879638671" /><trkpt lat="22.27398078125" lon="114.12061479638672" /><trkpt lat="22.27403978125" lon="114.12036079638672" /><trkpt lat="22.27404578125" lon="114.12033879638672" /><trkpt lat="22.27405378125" lon="114.12032079638672" /><trkpt lat="22.27409478125" lon="114.12023379638671" /><trkpt lat="22.27410078125" lon="114.12021679638671" /><trkpt lat="22.27410478125" lon="114.12020179638672" /><trkpt lat="22.27410478125" lon="114.12018779638672" /><trkpt lat="22.27410478125" lon="114.12017079638672" /><trkpt lat="22.27410178125" lon="114.12015379638672" /><trkpt lat="22.27405978125" lon="114.12001279638672" /><trkpt lat="22.27410678125" lon="114.12000579638672" /><trkpt lat="22.27411978125" lon="114.12000279638671" /><trkpt lat="22.27412878125" lon="114.11999679638672" /><trkpt lat="22.27413478125" lon="114.11998779638672" /><trkpt lat="22.27414078125" lon="114.11997379638672" /><trkpt lat="22.27414578125" lon="114.11994979638672" /><trkpt lat="22.27414978125" lon="114.11992579638672" /><trkpt lat="22.27415078125" lon="114.11989679638671" /><trkpt lat="22.27415178125" lon="114.11986879638673" /><trkpt lat="22.27415078125" lon="114.11984479638672" /><trkpt lat="22.27414178125" lon="114.11978979638671" /><trkpt lat="22.27413778125" lon="114.11977279638671" /><trkpt lat="22.27412378125" lon="114.11972579638672" /><trkpt lat="22.27411878125" lon="114.11970879638672" /><trkpt lat="22.27411678125" lon="114.11969179638672" /><trkpt lat="22.27411478125" lon="114.11967479638672" /><trkpt lat="22.27411678125" lon="114.11965479638671" /><trkpt lat="22.27413778125" lon="114.11953779638672" /><trkpt lat="22.27414578125" lon="114.11951079638672" /><trkpt lat="22.27415778125" lon="114.11948179638672" /><trkpt lat="22.27417078125" lon="114.11945479638672" /><trkpt lat="22.27418678125" lon="114.11943079638672" /><trkpt lat="22.27431078125" lon="114.11929079638672" /><trkpt lat="22.27433578125" lon="114.11926979638672" /><trkpt lat="22.27458478125" lon="114.11908779638672" /><trkpt lat="22.27460578125" lon="114.11907579638672" /><trkpt lat="22.27462378125" lon="114.11906779638672" /><trkpt lat="22.27464378125" lon="114.11905979638672" /><trkpt lat="22.27466478125" lon="114.11905379638672" /><trkpt lat="22.27470578125" lon="114.11904379638672" /><trkpt lat="22.27474278125" lon="114.11903779638672" /><trkpt lat="22.27477478125" lon="114.11903479638671" /><trkpt lat="22.27493178125" lon="114.11903479638671" /><trkpt lat="22.27497578125" lon="114.11903179638672" /><trkpt lat="22.27499878125" lon="114.11902679638672" /><trkpt lat="22.27502178125" lon="114.11902079638672" /><trkpt lat="22.27506378125" lon="114.11900679638671" /><trkpt lat="22.27521878125" lon="114.11894379638672" /><trkpt lat="22.27532078125" lon="114.11890579638671" /><trkpt lat="22.27558378125" lon="114.11881779638672" /><trkpt lat="22.27559978125" lon="114.11881079638673" /><trkpt lat="22.27561878125" lon="114.11879979638672" /><trkpt lat="22.27563578125" lon="114.11878679638671" /><trkpt lat="22.27565078125" lon="114.11877279638672" /><trkpt lat="22.27566478125" lon="114.11875679638672" /><trkpt lat="22.27567678125" lon="114.11874179638671" /><trkpt lat="22.27568978125" lon="114.11872079638673" /><trkpt lat="22.27573178125" lon="114.11863979638672" /><trkpt lat="22.27574778125" lon="114.11861179638672" /><trkpt lat="22.27575978125" lon="114.11859479638672" /><trkpt lat="22.27577178125" lon="114.11858079638672" /><trkpt lat="22.27578578125" lon="114.11856979638672" /><trkpt lat="22.27580378125" lon="114.11855979638672" /><trkpt lat="22.27582478125" lon="114.11855479638672" /><trkpt lat="22.27584578125" lon="114.11855279638672" /><trkpt lat="22.27586978125" lon="114.11855479638672" /><trkpt lat="22.27589378125" lon="114.11855879638672" /><trkpt lat="22.27591578125" lon="114.11856579638672" /><trkpt lat="22.27593878125" lon="114.11857679638672" /><trkpt lat="22.27595778125" lon="114.11858979638671" /><trkpt lat="22.27598078125" lon="114.11860679638671" /><trkpt lat="22.27601478125" lon="114.11863779638672" /><trkpt lat="22.27602978125" lon="114.11864879638672" /><trkpt lat="22.27604478125" lon="114.11865879638673" /><trkpt lat="22.27607078125" lon="114.11867179638672" /><trkpt lat="22.27610078125" lon="114.11868379638672" /><trkpt lat="22.27613078125" lon="114.11869279638672" /><trkpt lat="22.27616578125" lon="114.11869979638672" /><trkpt lat="22.27619678125" lon="114.11870179638672" /><trkpt lat="22.27622178125" lon="114.11870179638672" /><trkpt lat="22.27624678125" lon="114.11869879638672" /><trkpt lat="22.27627178125" lon="114.11869179638671" /><trkpt lat="22.27629678125" lon="114.11868279638672" /><trkpt lat="22.27631578125" lon="114.11867379638672" /><trkpt lat="22.27633378125" lon="114.11866379638671" /><trkpt lat="22.27635078125" lon="114.11865279638671" /><trkpt lat="22.27639378125" lon="114.11861879638671" /><trkpt lat="22.27643478125" lon="114.11858179638672" /><trkpt lat="22.27655778125" lon="114.11846379638672" /><trkpt lat="22.27657678125" lon="114.11844579638672" /><trkpt lat="22.27659578125" lon="114.11843179638672" /><trkpt lat="22.27661278125" lon="114.11842179638671" /><trkpt lat="22.27662678125" lon="114.11841479638672" /><trkpt lat="22.27664178125" lon="114.11840979638671" /><trkpt lat="22.27665778125" lon="114.11840779638672" /><trkpt lat="22.27667278125" lon="114.11840779638672" /><trkpt lat="22.27668778125" lon="114.11840879638672" /><trkpt lat="22.27670378125" lon="114.11841379638672" /><trkpt lat="22.27671978125" lon="114.11842079638672" /><trkpt lat="22.27699778125" lon="114.11856979638672" /><trkpt lat="22.27702778125" lon="114.11858979638671" /><trkpt lat="22.27705078125" lon="114.11861179638672" /><trkpt lat="22.27706678125" lon="114.11863279638672" /><trkpt lat="22.27707978125" lon="114.11865379638672" /><trkpt lat="22.27709078125" lon="114.11867679638672" /><trkpt lat="22.27709878125" lon="114.11870179638672" /><trkpt lat="22.27710578125" lon="114.11873079638671" /><trkpt lat="22.27710878125" lon="114.11875779638672" /><trkpt lat="22.27710278125" lon="114.11884679638672" /><trkpt lat="22.27709778125" lon="114.11887479638672" /><trkpt lat="22.27708978125" lon="114.11890279638672" /><trkpt lat="22.27702478125" lon="114.11904479638672" /><trkpt lat="22.27702178125" lon="114.11905379638672" /><trkpt lat="22.27701478125" lon="114.11907679638672" /><trkpt lat="22.27701178125" lon="114.11908579638671" /><trkpt lat="22.27700678125" lon="114.11909379638672" /><trkpt lat="22.27700178125" lon="114.11910279638671" /><trkpt lat="22.27699078125" lon="114.11911479638673" /><trkpt lat="22.27694678125" lon="114.11915379638671" /><trkpt lat="22.27690378125" lon="114.11919079638672" /><trkpt lat="22.27688578125" lon="114.11920379638671" /><trkpt lat="22.27686878125" lon="114.11921479638671" /><trkpt lat="22.27672678125" lon="114.11929579638672" /><trkpt lat="22.27670678125" lon="114.11930979638672" /><trkpt lat="22.27668878125" lon="114.11932279638673" /><trkpt lat="22.27667378125" lon="114.11933779638672" /><trkpt lat="22.27665578125" lon="114.11937279638671" /><trkpt lat="22.27665278125" lon="114.11938879638672" /><trkpt lat="22.27665178125" lon="114.11940679638671" /><trkpt lat="22.27665378125" lon="114.11942179638672" /><trkpt lat="22.27665778125" lon="114.11943679638672" /><trkpt lat="22.27666578125" lon="114.11945479638672" /><trkpt lat="22.27667878125" lon="114.11947279638672" /><trkpt lat="22.27669378125" lon="114.11948579638671" /><trkpt lat="22.27671078125" lon="114.11949479638672" /><trkpt lat="22.27677778125" lon="114.11951779638672" /><trkpt lat="22.27679478125" lon="114.11952579638672" /><trkpt lat="22.27681278125" lon="114.11953979638672" /><trkpt lat="22.27682778125" lon="114.11955879638671" /><trkpt lat="22.27683978125" lon="114.11958179638673" /><trkpt lat="22.27688378125" lon="114.11974179638672" /><trkpt lat="22.27689678125" lon="114.11975779638672" /><trkpt lat="22.27691378125" lon="114.11977179638671" /><trkpt lat="22.27693878125" lon="114.11978379638671" /><trkpt lat="22.27696978125" lon="114.11979379638672" /><trkpt lat="22.27719978125" lon="114.11984879638672" /><trkpt lat="22.27722578125" lon="114.11985279638672" /><trkpt lat="22.27725278125" lon="114.11985579638672" /><trkpt lat="22.27727978125" lon="114.11985879638672" /><trkpt lat="22.27730678125" lon="114.11985979638672" /><trkpt lat="22.27749678125" lon="114.11983879638672" /><trkpt lat="22.27751378125" lon="114.11983379638671" /><trkpt lat="22.27752978125" lon="114.11982379638673" /><trkpt lat="22.27754878125" lon="114.11980679638671" /><trkpt lat="22.27756178125" lon="114.11978979638671" /><trkpt lat="22.27762278125" lon="114.11970179638672" /><trkpt lat="22.27764378125" lon="114.11967879638672" /><trkpt lat="22.27766678125" lon="114.11966079638673" /><trkpt lat="22.27769378125" lon="114.11964779638672" /><trkpt lat="22.27772078125" lon="114.11964179638672" /><trkpt lat="22.27774378125" lon="114.11964379638673" /><trkpt lat="22.27776678125" lon="114.11965579638672" /><trkpt lat="22.27778578125" lon="114.11967379638672" /><trkpt lat="22.27780378125" lon="114.11969879638671" /><trkpt lat="22.27781978125" lon="114.11972779638671" /><trkpt lat="22.27783378125" lon="114.11976679638671" /><trkpt lat="22.27784178125" lon="114.11980379638672" /><trkpt lat="22.27784378125" lon="114.11983679638672" /><trkpt lat="22.27784178125" lon="114.11986879638673" /><trkpt lat="22.27783678125" lon="114.11988879638672" /><trkpt lat="22.27782878125" lon="114.11990679638672" /><trkpt lat="22.27781578125" lon="114.11992379638671" /><trkpt lat="22.27779778125" lon="114.11993779638672" /><trkpt lat="22.27778178125" lon="114.11994779638673" /><trkpt lat="22.27774978125" lon="114.11996479638672" /><trkpt lat="22.27770078125" lon="114.11998879638672" /><trkpt lat="22.27749578125" lon="114.12008979638672" /><trkpt lat="22.27746978125" lon="114.12010679638672" /><trkpt lat="22.27744578125" lon="114.12012679638671" /><trkpt lat="22.27743478125" lon="114.12014079638672" /><trkpt lat="22.27742378125" lon="114.12015879638672" /><trkpt lat="22.27741378125" lon="114.12018079638672" /><trkpt lat="22.27740778125" lon="114.12020479638672" /><trkpt lat="22.27740078125" lon="114.12025179638673" /><trkpt lat="22.27739678125" lon="114.12026779638671" /><trkpt lat="22.27739078125" lon="114.12028479638671" /><trkpt lat="22.27738278125" lon="114.12030479638672" /><trkpt lat="22.277369781250002" lon="114.12032579638672" /><trkpt lat="22.27735478125" lon="114.12034479638672" /><trkpt lat="22.27733878125" lon="114.12036079638672" /><trkpt lat="22.27732078125" lon="114.12037379638672" /><trkpt lat="22.27730378125" lon="114.12038379638672" /><trkpt lat="22.27727578125" lon="114.12039679638671" /><trkpt lat="22.27723278125" lon="114.12041179638672" /><trkpt lat="22.27713078125" lon="114.12043879638672" /><trkpt lat="22.27710678125" lon="114.12044479638672" /><trkpt lat="22.27707678125" lon="114.12045079638672" /><trkpt lat="22.27704578125" lon="114.12045479638672" /><trkpt lat="22.27698378125" lon="114.12046179638672" /><trkpt lat="22.27694478125" lon="114.12046379638672" /><trkpt lat="22.27691178125" lon="114.12046279638672" /><trkpt lat="22.27688978125" lon="114.12045979638673" /><trkpt lat="22.27687278125" lon="114.12045679638672" /><trkpt lat="22.27686178125" lon="114.12045279638672" /><trkpt lat="22.27683078125" lon="114.12043779638672" /><trkpt lat="22.27678778125" lon="114.12041479638673" /><trkpt lat="22.27676678125" lon="114.12040479638672" /><trkpt lat="22.27674878125" lon="114.12039879638672" /><trkpt lat="22.27673178125" lon="114.12039279638672" /><trkpt lat="22.27671078125" lon="114.12038879638672" /><trkpt lat="22.27668978125" lon="114.12038679638673" /><trkpt lat="22.27667178125" lon="114.12038779638672" /><trkpt lat="22.27665978125" lon="114.12038979638672" /><trkpt lat="22.27664778125" lon="114.12039279638672" /><trkpt lat="22.27663278125" lon="114.12039879638672" /><trkpt lat="22.27661578125" lon="114.12040379638673" /><trkpt lat="22.27659178125" lon="114.12040679638672" /><trkpt lat="22.27656478125" lon="114.12040979638672" /><trkpt lat="22.27653978125" lon="114.12040779638671" /><trkpt lat="22.27651778125" lon="114.12039979638672" /><trkpt lat="22.27649578125" lon="114.12039079638672" /><trkpt lat="22.27637178125" lon="114.12031179638672" /><trkpt lat="22.27635778125" lon="114.12030579638672" /><trkpt lat="22.27634478125" lon="114.12030179638671" /><trkpt lat="22.27633178125" lon="114.12030079638672" /><trkpt lat="22.27631878125" lon="114.12030179638671" /><trkpt lat="22.27625478125" lon="114.12032179638672" /><trkpt lat="22.27622478125" lon="114.12033079638672" /><trkpt lat="22.27619478125" lon="114.12033679638672" /><trkpt lat="22.27613178125" lon="114.12034879638672" /><trkpt lat="22.27606878125" lon="114.12035679638672" /><trkpt lat="22.27597678125" lon="114.12036379638671" /><trkpt lat="22.27593578125" lon="114.12036579638672" /><trkpt lat="22.27590578125" lon="114.12036679638672" /><trkpt lat="22.27589278125" lon="114.12044979638672" /><trkpt lat="22.27603678125" lon="114.12059179638672" /><trkpt lat="22.27605278125" lon="114.12074279638672" /><trkpt lat="22.276102551062692" lon="114.12079271659154" /><trkpt lat="22.27601578125" lon="114.12077479638671" /><trkpt lat="22.27602178125" lon="114.12086079638672" /><trkpt lat="22.27608978125" lon="114.12088079638671" /><trkpt lat="22.27612578125" lon="114.12091179638672" /><trkpt lat="22.27627678125" lon="114.12097179638671" /><trkpt lat="22.27626078125" lon="114.12118779638672" /><trkpt lat="22.27627778125" lon="114.12135279638672" /><trkpt lat="22.27632378125" lon="114.12141279638672" /><trkpt lat="22.27639078125" lon="114.12147479638672" /><trkpt lat="22.27643278125" lon="114.12150179638672" /><trkpt lat="22.27661378125" lon="114.12186379638672" /><trkpt lat="22.27658578125" lon="114.12193979638671" /><trkpt lat="22.27658978125" lon="114.12216579638672" /><trkpt lat="22.27659878125" lon="114.12218879638672" /><trkpt lat="22.27661778125" lon="114.12224179638672" /><trkpt lat="22.27666278125" lon="114.12235779638672" /><trkpt lat="22.27665378125" lon="114.12246479638672" /><trkpt lat="22.27656278125" lon="114.12249379638672" /><trkpt lat="22.27661078125" lon="114.12269379638671" /><trkpt lat="22.27660578125" lon="114.12272979638672" /><trkpt lat="22.27661378125" lon="114.12274479638671" /><trkpt lat="22.27663678125" lon="114.12274279638672" /><trkpt lat="22.27665078125" lon="114.12275779638672" /><trkpt lat="22.27665778125" lon="114.12278879638671" /><trkpt lat="22.27668078125" lon="114.12281279638673" /><trkpt lat="22.27668778125" lon="114.12284679638672" /><trkpt lat="22.27671078125" lon="114.12286279638671" /><trkpt lat="22.27670078125" lon="114.12288979638672" /><trkpt lat="22.27666378125" lon="114.12292379638671" /><trkpt lat="22.27662778125" lon="114.12299979638672" /><trkpt lat="22.27662478125" lon="114.12304679638672" /><trkpt lat="22.27663378125" lon="114.12309179638672" /><trkpt lat="22.27669078125" lon="114.12323479638673" /><trkpt lat="22.27674978125" lon="114.12330679638671" /><trkpt lat="22.27680878125" lon="114.12333079638672" /><trkpt lat="22.27687078125" lon="114.12334579638672" /><trkpt lat="22.27692578125" lon="114.12335379638672" /><trkpt lat="22.27692378125" lon="114.12342879638672" /><trkpt lat="22.27692878125" lon="114.12346979638671" /><trkpt lat="22.27698478125" lon="114.12352579638672" /><trkpt lat="22.27700778125" lon="114.12359879638672" /><trkpt lat="22.27704178125" lon="114.12367579638672" /><trkpt lat="22.27700578125" lon="114.12381379638671" /><trkpt lat="22.27702578125" lon="114.12384279638673" /><trkpt lat="22.27699678125" lon="114.12391179638672" /><trkpt lat="22.27697478125" lon="114.12396079638673" /><trkpt lat="22.27695578125" lon="114.12398279638671" /><trkpt lat="22.27694078125" lon="114.12400179638672" /><trkpt lat="22.27691278125" lon="114.12398879638671" /><trkpt lat="22.27685978125" lon="114.12397679638671" /><trkpt lat="22.27681078125" lon="114.12398079638672" /><trkpt lat="22.27678578125" lon="114.12398979638672" /><trkpt lat="22.27674778125" lon="114.12400879638672" /><trkpt lat="22.27668978125" lon="114.12398879638671" /><trkpt lat="22.27669178125" lon="114.12389479638672" /><trkpt lat="22.27669378125" lon="114.12379979638672" /><trkpt lat="22.27672078125" lon="114.12371079638672" /><trkpt lat="22.27677178125" lon="114.12364479638671" /><trkpt lat="22.27680978125" lon="114.12354879638671" /><trkpt lat="22.27666778125" lon="114.12365979638672" /><trkpt lat="22.27652578125" lon="114.12371979638672" /><trkpt lat="22.27641478125" lon="114.12373779638672" /><trkpt lat="22.27631378125" lon="114.12377479638671" /><trkpt lat="22.27625578125" lon="114.12378079638673" /><trkpt lat="22.27615378125" lon="114.12379179638671" /><trkpt lat="22.27612478125" lon="114.12388279638672" /><trkpt lat="22.27610478125" lon="114.12399479638673" /><trkpt lat="22.27627078125" lon="114.12411679638672" /><trkpt lat="22.27635478125" lon="114.12422579638672" /><trkpt lat="22.27650478125" lon="114.12429779638671" /><trkpt lat="22.27664478125" lon="114.12423879638672" /><trkpt lat="22.27675878125" lon="114.12442079638672" /><trkpt lat="22.27681678125" lon="114.12445279638672" /><trkpt lat="22.27685578125" lon="114.12450679638673" /><trkpt lat="22.27695478125" lon="114.12470879638671" /><trkpt lat="22.27694678125" lon="114.12478479638672" /><trkpt lat="22.27695278125" lon="114.12485579638673" /><trkpt lat="22.27708578125" lon="114.12488779638672" /><trkpt lat="22.27720078125" lon="114.12506379638671" /><trkpt lat="22.27735078125" lon="114.12518479638672" /><trkpt lat="22.27738978125" lon="114.12527579638672" /><trkpt lat="22.27738478125" lon="114.12531079638671" /><trkpt lat="22.27738278125" lon="114.12538279638672" /><trkpt lat="22.27737478125" lon="114.12545579638672" /><trkpt lat="22.27736578125" lon="114.12548479638671" /><trkpt lat="22.277369781250002" lon="114.12550079638672" /><trkpt lat="22.27737878125" lon="114.12549979638672" /><trkpt lat="22.27739278125" lon="114.12548779638672" /><trkpt lat="22.27760378125" lon="114.12530679638672" /><trkpt lat="22.27773478125" lon="114.12527279638672" /><trkpt lat="22.27786378125" lon="114.12522379638672" /><trkpt lat="22.27780278125" lon="114.12530079638672" /><trkpt lat="22.27768678125" lon="114.12539079638672" /><trkpt lat="22.27767878125" lon="114.12547079638672" /><trkpt lat="22.27765378125" lon="114.12558079638671" /><trkpt lat="22.27760578125" lon="114.12572479638672" /><trkpt lat="22.27744678125" lon="114.12579179638672" /><trkpt lat="22.27730178125" lon="114.12590679638672" /><trkpt lat="22.27718778125" lon="114.12595879638671" /><trkpt lat="22.27708478125" lon="114.12602879638672" /><trkpt lat="22.27697078125" lon="114.12610679638672" /><trkpt lat="22.27686878125" lon="114.12616679638671" /><trkpt lat="22.27674278125" lon="114.12623679638672" /><trkpt lat="22.27672778125" lon="114.12626779638671" /><trkpt lat="22.27671478125" lon="114.12640779638672" /><trkpt lat="22.27668478125" lon="114.12645579638672" /><trkpt lat="22.27664878125" lon="114.12651679638672" /><trkpt lat="22.27659278125" lon="114.12662779638671" /><trkpt lat="22.27654778125" lon="114.12672079638672" /><trkpt lat="22.27653478125" lon="114.12681479638672" /><trkpt lat="22.27655578125" lon="114.12692279638672" /><trkpt lat="22.27667578125" lon="114.12684279638673" /><trkpt lat="22.27672078125" lon="114.12689379638672" /><trkpt lat="22.27685978125" lon="114.12679679638671" /><trkpt lat="22.27691778125" lon="114.12666579638672" /><trkpt lat="22.27698878125" lon="114.12665279638672" /><trkpt lat="22.27704578125" lon="114.12666679638671" /><trkpt lat="22.27712578125" lon="114.12670079638671" /><trkpt lat="22.27717778125" lon="114.12669679638672" /><trkpt lat="22.27726378125" lon="114.12666479638672" /><trkpt lat="22.27737978125" lon="114.12658979638672" /><trkpt lat="22.27747878125" lon="114.12650779638672" /><trkpt lat="22.27753078125" lon="114.12650879638672" /><trkpt lat="22.27759778125" lon="114.12657279638672" /><trkpt lat="22.27768478125" lon="114.12662079638672" /><trkpt lat="22.27776878125" lon="114.12664879638672" /><trkpt lat="22.27779978125" lon="114.12668279638672" /><trkpt lat="22.27784578125" lon="114.12667179638672" /><trkpt lat="22.27799478125" lon="114.12681279638672" /><trkpt lat="22.27806878125" lon="114.12687579638671" /><trkpt lat="22.27823478125" lon="114.12686779638672" /><trkpt lat="22.27831678125" lon="114.12688479638672" /><trkpt lat="22.27836978125" lon="114.12689779638671" /><trkpt lat="22.27841478125" lon="114.12693279638673" /><trkpt lat="22.27845478125" lon="114.12709479638671" /><trkpt lat="22.27850278125" lon="114.12719679638671" /><trkpt lat="22.27854478125" lon="114.12728579638672" /><trkpt lat="22.27860178125" lon="114.12740979638671" /><trkpt lat="22.27865178125" lon="114.12756379638672" /><trkpt lat="22.27886178125" lon="114.12724079638672" /><trkpt lat="22.27889978125" lon="114.12724279638672" /><trkpt lat="22.27896078125" lon="114.12702979638672" /><trkpt lat="22.27951678125" lon="114.12720479638672" /><trkpt lat="22.27946678125" lon="114.12751579638672" /><trkpt lat="22.27952278125" lon="114.12754979638672" /><trkpt lat="22.27949578125" lon="114.12761179638672" /><trkpt lat="22.27955778125" lon="114.12771079638672" /><trkpt lat="22.27957578125" lon="114.12774679638672" /><trkpt lat="22.27958478125" lon="114.12777779638672" /><trkpt lat="22.27958778125" lon="114.12781179638672" /><trkpt lat="22.27958378125" lon="114.12784979638671" /><trkpt lat="22.27956878125" lon="114.12790179638672" /><trkpt lat="22.27955278125" lon="114.12794179638672" /><trkpt lat="22.27953278125" lon="114.12797579638672" /><trkpt lat="22.27950978125" lon="114.12800179638671" /><trkpt lat="22.27947678125" lon="114.12803479638671" /><trkpt lat="22.27944378125" lon="114.12806379638671" /><trkpt lat="22.27940578125" lon="114.12808979638672" /><trkpt lat="22.27930078125" lon="114.12818779638671" /><trkpt lat="22.27940678125" lon="114.12837279638671" /><trkpt lat="22.27952278125" lon="114.12836479638672" /><trkpt lat="22.27979478125" lon="114.12865079638672" /><trkpt lat="22.27980478125" lon="114.12872479638672" /><trkpt lat="22.27982578125" lon="114.12875979638672" /><trkpt lat="22.27983078125" lon="114.12878079638672" /><trkpt lat="22.27983278125" lon="114.12880579638671" /><trkpt lat="22.27983078125" lon="114.12882579638672" /><trkpt lat="22.27982278125" lon="114.12884879638672" /><trkpt lat="22.27968978125" lon="114.12913079638672" /><trkpt lat="22.27968578125" lon="114.12914979638671" /><trkpt lat="22.27968478125" lon="114.12916979638672" /><trkpt lat="22.27968878125" lon="114.12918779638672" /><trkpt lat="22.27970078125" lon="114.12920579638671" /><trkpt lat="22.27971678125" lon="114.12921579638672" /><trkpt lat="22.27973378125" lon="114.12922179638672" /><trkpt lat="22.27976578125" lon="114.12922279638671" /><trkpt lat="22.27980678125" lon="114.12921979638672" /><trkpt lat="22.27993078125" lon="114.12919379638672" /><trkpt lat="22.28003778125" lon="114.12916979638672" /><trkpt lat="22.28008578125" lon="114.12929279638672" /><trkpt lat="22.28015078125" lon="114.12926179638671" /><trkpt lat="22.28056078125" lon="114.12905679638672" /><trkpt lat="22.28062478125" lon="114.12901479638671" /><trkpt lat="22.28067078125" lon="114.12897379638672" /><trkpt lat="22.28071678125" lon="114.12892279638672" /><trkpt lat="22.28074978125" lon="114.12887979638671" /><trkpt lat="22.28077778125" lon="114.12883579638672" /><trkpt lat="22.28080278125" lon="114.12878579638672" /><trkpt lat="22.28082678125" lon="114.12872579638672" /><trkpt lat="22.28084578125" lon="114.12864479638672" /><trkpt lat="22.28087978125" lon="114.12838479638671" /><trkpt lat="22.28090578125" lon="114.12832979638672" /><trkpt lat="22.28094078125" lon="114.12830479638671" /><trkpt lat="22.28105578125" lon="114.12824579638672" /><trkpt lat="22.28122178125" lon="114.12822879638672" /><trkpt lat="22.28126878125" lon="114.12823679638672" /><trkpt lat="22.28130878125" lon="114.12823579638672" /><trkpt lat="22.28133478125" lon="114.12822879638672" /><trkpt lat="22.28137378125" lon="114.12818779638671" /><trkpt lat="22.28142778125" lon="114.12823679638672" /><trkpt lat="22.28146178125" lon="114.12830879638672" /><trkpt lat="22.28148378125" lon="114.12835579638671" /><trkpt lat="22.28150869059723" lon="114.1283425640672" /></trkseg></trk></gpx>