<?xml version='1.0' encoding='UTF-8' ?><gpx version="1.1" creator="HikingTrailHK" xsi:schemaLocation="http://www.topografix.com/GPX/1/1 http://www.topografix.com/GPX/1/1/gpx.xsd" xmlns="http://www.topografix.com/GPX/1/1" xmlns:xsi="http://www.w3.org/2001/XMLSchema-instance"><metadata><name>油塘古蹟線 @ 2016-9-21</name><desc></desc></metadata><trk><trkseg><trkpt lat="22.307789863159023" lon="114.24957896203857" /><trkpt lat="22.30792278125" lon="114.24965779638671" /><trkpt lat="22.30810878125" lon="114.24990479638672" /><trkpt lat="22.30823678125" lon="114.25014779638671" /><trkpt lat="22.30834478125" lon="114.25047979638671" /><trkpt lat="22.30837178125" lon="114.25063779638671" /><trkpt lat="22.30837078125" lon="114.25072679638672" /><trkpt lat="22.30834978125" lon="114.25080579638671" /><trkpt lat="22.30833578125" lon="114.25083879638672" /><trkpt lat="22.30828078125" lon="114.25097279638672" /><trkpt lat="22.30814178125" lon="114.25130079638672" /><trkpt lat="22.30801178125" lon="114.25163379638671" /><trkpt lat="22.30789078125" lon="114.25193379638672" /><trkpt lat="22.30791678125" lon="114.25205879638672" /><trkpt lat="22.30810478125" lon="114.25226879638672" /><trkpt lat="22.30825878125" lon="114.25243979638672" /><trkpt lat="22.30826978125" lon="114.25245379638672" /><trkpt lat="22.30845578125" lon="114.25267979638672" /><trkpt lat="22.30848378125" lon="114.25271379638671" /><trkpt lat="22.30862678125" lon="114.25292479638672" /><trkpt lat="22.30871078125" lon="114.25305479638672" /><trkpt lat="22.30893578125" lon="114.25343279638672" /><trkpt lat="22.30914578125" lon="114.25364379638673" /><trkpt lat="22.30925678125" lon="114.25354679638671" /><trkpt lat="22.30942678125" lon="114.25376179638671" /><trkpt lat="22.30973078125" lon="114.25361179638672" /><trkpt lat="22.30946378125" lon="114.25288979638673" /><trkpt lat="22.30911878125" lon="114.25220079638672" /><trkpt lat="22.30885178125" lon="114.25174279638672" /><trkpt lat="22.30893078125" lon="114.25170979638672" /><trkpt lat="22.30896978125" lon="114.25173779638672" /><trkpt lat="22.30900478125" lon="114.25175979638672" /><trkpt lat="22.30904578125" lon="114.25176979638672" /><trkpt lat="22.30913278125" lon="114.25176879638671" /><trkpt lat="22.30926578125" lon="114.25172779638672" /><trkpt lat="22.30942178125" lon="114.25218279638672" /><trkpt lat="22.30949178125" lon="114.25239979638671" /><trkpt lat="22.30953478125" lon="114.25255479638672" /><trkpt lat="22.30958278125" lon="114.25270179638672" /><trkpt lat="22.30960878125" lon="114.25271579638672" /><trkpt lat="22.30968778125" lon="114.25273879638672" /><trkpt lat="22.30973178125" lon="114.25275479638672" /><trkpt lat="22.30974878125" lon="114.25276279638672" /><trkpt lat="22.30980478125" lon="114.25266179638672" /><trkpt lat="22.30981378125" lon="114.25260879638672" /><trkpt lat="22.30987978125" lon="114.25265679638672" /><trkpt lat="22.30991578125" lon="114.25265679638672" /><trkpt lat="22.30993778125" lon="114.25266979638671" /><trkpt lat="22.30999578125" lon="114.25271779638672" /><trkpt lat="22.31001578125" lon="114.25273179638671" /><trkpt lat="22.31007278125" lon="114.25273979638672" /><trkpt lat="22.31014178125" lon="114.25263279638672" /><trkpt lat="22.31020978125" lon="114.25260979638672" /><trkpt lat="22.31013878125" lon="114.25249579638673" /><trkpt lat="22.31022178125" lon="114.25233779638671" /><trkpt lat="22.31018478125" lon="114.25208779638672" /><trkpt lat="22.31031478125" lon="114.25226579638672" /><trkpt lat="22.31053878125" lon="114.25252779638672" /><trkpt lat="22.31065178125" lon="114.25264679638671" /><trkpt lat="22.31066278125" lon="114.25250879638672" /><trkpt lat="22.31078478125" lon="114.25258879638672" /><trkpt lat="22.31087278125" lon="114.25256379638672" /><trkpt lat="22.31096578125" lon="114.25248979638671" /><trkpt lat="22.31103978125" lon="114.25238279638671" /><trkpt lat="22.31113178125" lon="114.25232179638672" /><trkpt lat="22.31121878125" lon="114.25215879638672" /><trkpt lat="22.31132978125" lon="114.25211079638672" /><trkpt lat="22.31159378125" lon="114.25184279638673" /><trkpt lat="22.31167778125" lon="114.25178179638672" /><trkpt lat="22.31178778125" lon="114.25164079638672" /><trkpt lat="22.31185178125" lon="114.25161779638672" /><trkpt lat="22.31196378125" lon="114.25162979638672" /><trkpt lat="22.312067992269828" lon="114.25161980444581" /><trkpt lat="22.31210978125" lon="114.25161579638672" /><trkpt lat="22.31213578125" lon="114.25161679638671" /><trkpt lat="22.31224978125" lon="114.25161379638672" /><trkpt lat="22.31232978125" lon="114.25161179638671" /><trkpt lat="22.31245778125" lon="114.25160879638672" /><trkpt lat="22.31256678125" lon="114.25156879638672" /><trkpt lat="22.31265178125" lon="114.25151479638672" /><trkpt lat="22.31280078125" lon="114.25143479638672" /><trkpt lat="22.312717286103236" lon="114.25143961059672" /><trkpt lat="22.31259021467862" lon="114.25142619955164" /><trkpt lat="22.312599920873666" lon="114.25154774298792" /><trkpt lat="22.31256678125" lon="114.25156879638672" /><trkpt lat="22.31245778125" lon="114.25160879638672" /><trkpt lat="22.31232978125" lon="114.25161179638671" /><trkpt lat="22.31224978125" lon="114.25161379638672" /><trkpt lat="22.312113420655397" lon="114.25160653245858" /><trkpt lat="22.31216478125" lon="114.25147579638671" /><trkpt lat="22.31222378125" lon="114.25139179638671" /><trkpt lat="22.31245078125" lon="114.25121779638671" /><trkpt lat="22.31263478125" lon="114.25110179638672" /><trkpt lat="22.31272278125" lon="114.25105779638672" /><trkpt lat="22.31286878125" lon="114.25094679638671" /><trkpt lat="22.31298378125" lon="114.25081179638671" /><trkpt lat="22.31306778125" lon="114.25067479638672" /><trkpt lat="22.31312978125" lon="114.25046079638672" /><trkpt lat="22.31317478125" lon="114.25040479638672" /><trkpt lat="22.31323678125" lon="114.25028079638672" /><trkpt lat="22.31325778125" lon="114.25013179638673" /><trkpt lat="22.31327678125" lon="114.25005879638672" /><trkpt lat="22.31332078125" lon="114.24990679638672" /><trkpt lat="22.31341178125" lon="114.24962479638671" /><trkpt lat="22.31346478125" lon="114.24951879638672" /><trkpt lat="22.31351278125" lon="114.24943879638671" /><trkpt lat="22.31356178125" lon="114.24936679638672" /><trkpt lat="22.31361278125" lon="114.24931579638672" /><trkpt lat="22.31367478125" lon="114.24919379638672" /><trkpt lat="22.31366878125" lon="114.24907879638671" /><trkpt lat="22.31370978125" lon="114.24896579638671" /><trkpt lat="22.31374778125" lon="114.24892679638671" /><trkpt lat="22.31381078125" lon="114.24885779638672" /><trkpt lat="22.31384078125" lon="114.24873979638672" /><trkpt lat="22.31387278125" lon="114.24863879638671" /><trkpt lat="22.31385978125" lon="114.24858679638672" /><trkpt lat="22.31384878125" lon="114.24849179638672" /><trkpt lat="22.31378078125" lon="114.24838479638672" /><trkpt lat="22.31373078125" lon="114.24833379638672" /><trkpt lat="22.31362678125" lon="114.24822879638671" /><trkpt lat="22.31357178125" lon="114.24821579638672" /><trkpt lat="22.31353778125" lon="114.24815679638672" /><trkpt lat="22.31342578125" lon="114.24794179638671" /><trkpt lat="22.31335678125" lon="114.24774379638671" /><trkpt lat="22.31331378125" lon="114.24759379638672" /><trkpt lat="22.31327178125" lon="114.24745379638672" /><trkpt lat="22.31324678125" lon="114.24736579638672" /><trkpt lat="22.31323478125" lon="114.24733879638671" /><trkpt lat="22.31320278125" lon="114.24718579638672" /><trkpt lat="22.31314078125" lon="114.24706779638672" /><trkpt lat="22.31314378125" lon="114.24698079638672" /><trkpt lat="22.31316978125" lon="114.24690579638671" /><trkpt lat="22.31315378125" lon="114.24679679638672" /><trkpt lat="22.31319878125" lon="114.24678279638673" /><trkpt lat="22.31325178125" lon="114.24678079638672" /><trkpt lat="22.31329678125" lon="114.24678579638672" /><trkpt lat="22.31342578125" lon="114.24682479638672" /><trkpt lat="22.31366678125" lon="114.24678379638672" /><trkpt lat="22.31374478125" lon="114.24675479638672" /><trkpt lat="22.31377878125" lon="114.24664779638672" /><trkpt lat="22.31383678125" lon="114.24654679638672" /><trkpt lat="22.31386878125" lon="114.24634679638672" /><trkpt lat="22.31392778125" lon="114.24622379638672" /><trkpt lat="22.31414278125" lon="114.24614579638671" /><trkpt lat="22.31423978125" lon="114.24589379638672" /><trkpt lat="22.31433178125" lon="114.24577079638672" /><trkpt lat="22.31460178125" lon="114.24566879638672" /><trkpt lat="22.31468878125" lon="114.24563879638671" /><trkpt lat="22.31494878125" lon="114.24552579638672" /><trkpt lat="22.31490778125" lon="114.24540779638671" /><trkpt lat="22.31494578125" lon="114.24509679638672" /><trkpt lat="22.31481178125" lon="114.24506179638672" /><trkpt lat="22.31467378125" lon="114.24512079638671" /><trkpt lat="22.31457678125" lon="114.24523779638672" /><trkpt lat="22.31451178125" lon="114.24529479638672" /><trkpt lat="22.31442378125" lon="114.24530579638672" /><trkpt lat="22.31434278125" lon="114.24532679638672" /><trkpt lat="22.31426078125" lon="114.24535979638672" /><trkpt lat="22.31420578125" lon="114.24538779638672" /><trkpt lat="22.31416778125" lon="114.24541679638672" /><trkpt lat="22.31413678125" lon="114.24543579638672" /><trkpt lat="22.31410578125" lon="114.24545479638672" /><trkpt lat="22.31404678125" lon="114.24549379638673" /><trkpt lat="22.31399078125" lon="114.24552079638671" /><trkpt lat="22.31391778125" lon="114.24553879638673" /><trkpt lat="22.31388278125" lon="114.24554779638672" /><trkpt lat="22.31383878125" lon="114.24554279638672" /><trkpt lat="22.31380678125" lon="114.24553979638672" /><trkpt lat="22.31376078125" lon="114.24553379638672" /><trkpt lat="22.31371378125" lon="114.24554379638671" /><trkpt lat="22.31367078125" lon="114.24555079638672" /><trkpt lat="22.31363578125" lon="114.24556779638672" /><trkpt lat="22.31360478125" lon="114.24558079638672" /><trkpt lat="22.31357578125" lon="114.24555979638671" /><trkpt lat="22.31351778125" lon="114.24558379638673" /><trkpt lat="22.31347078125" lon="114.24562979638672" /><trkpt lat="22.31345078125" lon="114.24568279638672" /><trkpt lat="22.31342478125" lon="114.24574179638672" /><trkpt lat="22.31341678125" lon="114.24581279638672" /><trkpt lat="22.31339878125" lon="114.24587679638672" /><trkpt lat="22.31339778125" lon="114.24593679638672" /><trkpt lat="22.31335378125" lon="114.24603979638673" /><trkpt lat="22.31331178125" lon="114.24609379638672" /><trkpt lat="22.31327578125" lon="114.24613879638672" /><trkpt lat="22.31325078125" lon="114.24617979638671" /><trkpt lat="22.31323978125" lon="114.24622179638672" /><trkpt lat="22.31320378125" lon="114.24636079638672" /><trkpt lat="22.31319778125" lon="114.24643879638671" /><trkpt lat="22.31319278125" lon="114.24646179638673" /><trkpt lat="22.31319378125" lon="114.24648379638671" /><trkpt lat="22.31316378125" lon="114.24651279638672" /><trkpt lat="22.31315578125" lon="114.24653979638671" /><trkpt lat="22.31313778125" lon="114.24654779638672" /><trkpt lat="22.31315178125" lon="114.24666579638672" /><trkpt lat="22.31314478125" lon="114.24669979638672" /><trkpt lat="22.313144096823432" lon="114.24679202583914" /><trkpt lat="22.31308678125" lon="114.24676379638672" /><trkpt lat="22.31303378125" lon="114.24670879638671" /><trkpt lat="22.31300878125" lon="114.24669279638672" /><trkpt lat="22.31299278125" lon="114.24665179638671" /><trkpt lat="22.31295678125" lon="114.24657179638672" /><trkpt lat="22.31291878125" lon="114.24651979638672" /><trkpt lat="22.31290588827279" lon="114.24647596388624" /><trkpt lat="22.31289878125" lon="114.24645179638672" /><trkpt lat="22.31285878125" lon="114.24638079638672" /><trkpt lat="22.31282878125" lon="114.24629679638672" /><trkpt lat="22.31280578125" lon="114.24626379638671" /><trkpt lat="22.31273678125" lon="114.24608979638671" /><trkpt lat="22.31265078125" lon="114.24599979638671" /><trkpt lat="22.31259678125" lon="114.24598379638672" /><trkpt lat="22.31256578125" lon="114.24595679638672" /><trkpt lat="22.31250878125" lon="114.24592679638671" /><trkpt lat="22.31242678125" lon="114.24586179638672" /><trkpt lat="22.31236578125" lon="114.24583879638672" /><trkpt lat="22.31232778125" lon="114.24582479638671" /><trkpt lat="22.31226378125" lon="114.24576479638672" /><trkpt lat="22.31219378125" lon="114.24569279638672" /><trkpt lat="22.31215378125" lon="114.24564779638672" /><trkpt lat="22.31209478125" lon="114.24561779638672" /><trkpt lat="22.31203578125" lon="114.24557079638672" /><trkpt lat="22.31197678125" lon="114.24554579638672" /><trkpt lat="22.31191078125" lon="114.24550579638672" /><trkpt lat="22.31186478125" lon="114.24551679638672" /><trkpt lat="22.31183178125" lon="114.24551279638672" /><trkpt lat="22.31179178125" lon="114.24547779638672" /><trkpt lat="22.31174578125" lon="114.24545779638672" /><trkpt lat="22.31169878125" lon="114.24540679638672" /><trkpt lat="22.31151978125" lon="114.24532879638672" /><trkpt lat="22.31140878125" lon="114.24528379638672" /><trkpt lat="22.31131678125" lon="114.24526179638671" /><trkpt lat="22.31127978125" lon="114.24527279638671" /><trkpt lat="22.31119278125" lon="114.24520779638672" /><trkpt lat="22.31113078125" lon="114.24519779638672" /><trkpt lat="22.31107578125" lon="114.24524579638671" /><trkpt lat="22.31097678125" lon="114.24524579638671" /><trkpt lat="22.31090478125" lon="114.24518979638673" /><trkpt lat="22.31081578125" lon="114.24516779638672" /><trkpt lat="22.31069178125" lon="114.24516579638671" /><trkpt lat="22.31063078125" lon="114.24515379638672" /><trkpt lat="22.31060678125" lon="114.24514879638672" /><trkpt lat="22.31049578125" lon="114.24508479638672" /><trkpt lat="22.31036378125" lon="114.24499679638672" /><trkpt lat="22.31027678125" lon="114.24490479638672" /><trkpt lat="22.31013278125" lon="114.24481979638672" /><trkpt lat="22.30993978125" lon="114.24474979638671" /><trkpt lat="22.30973578125" lon="114.24469879638671" /><trkpt lat="22.30967878125" lon="114.24469079638672" /><trkpt lat="22.30954778125" lon="114.24459979638672" /><trkpt lat="22.30942078125" lon="114.24450279638671" /><trkpt lat="22.30923478125" lon="114.24440579638672" /><trkpt lat="22.30921478125" lon="114.24436379638672" /><trkpt lat="22.30903878125" lon="114.24422379638672" /><trkpt lat="22.30903078125" lon="114.24418379638672" /><trkpt lat="22.30894478125" lon="114.24414879638672" /><trkpt lat="22.30889678125" lon="114.24415979638673" /><trkpt lat="22.308854781249998" lon="114.24410879638671" /><trkpt lat="22.30877778125" lon="114.24405479638672" /><trkpt lat="22.30873078125" lon="114.24399579638671" /><trkpt lat="22.30867678125" lon="114.24394779638672" /><trkpt lat="22.30862478125" lon="114.24393979638671" /><trkpt lat="22.30861678125" lon="114.24388579638672" /><trkpt lat="22.30853278125" lon="114.24376779638672" /><trkpt lat="22.30845778125" lon="114.24373579638672" /><trkpt lat="22.30829178125" lon="114.24363679638672" /><trkpt lat="22.30810578125" lon="114.24348379638671" /><trkpt lat="22.30801878125" lon="114.24337079638671" /><trkpt lat="22.30787778125" lon="114.24333579638672" /><trkpt lat="22.30783778125" lon="114.24329879638672" /><trkpt lat="22.30769878125" lon="114.24323379638672" /><trkpt lat="22.30753278125" lon="114.24316479638672" /><trkpt lat="22.30744578125" lon="114.24308679638672" /><trkpt lat="22.30736878125" lon="114.24295479638671" /><trkpt lat="22.30727678125" lon="114.24281179638672" /><trkpt lat="22.30724178125" lon="114.24278879638672" /><trkpt lat="22.30721378125" lon="114.24277979638671" /><trkpt lat="22.30716178125" lon="114.24272179638672" /><trkpt lat="22.30713678125" lon="114.24265979638672" /><trkpt lat="22.30708778125" lon="114.24258279638671" /><trkpt lat="22.30705578125" lon="114.24253779638671" /><trkpt lat="22.30700378125" lon="114.24251779638672" /><trkpt lat="22.30695978125" lon="114.24249479638672" /><trkpt lat="22.30694578125" lon="114.24248579638672" /><trkpt lat="22.30693678125" lon="114.24247479638672" /><trkpt lat="22.30693678125" lon="114.24245879638671" /><trkpt lat="22.30692778125" lon="114.24243179638673" /><trkpt lat="22.30691378125" lon="114.24241479638673" /><trkpt lat="22.30690078125" lon="114.24240779638671" /><trkpt lat="22.30688078125" lon="114.24240979638672" /><trkpt lat="22.30687078125" lon="114.24240579638672" /><trkpt lat="22.30685478125" lon="114.24241579638672" /><trkpt lat="22.30684878125" lon="114.24241079638672" /><trkpt lat="22.30684878125" lon="114.24241379638671" /><trkpt lat="22.30684478125" lon="114.24241679638672" /><trkpt lat="22.30684478125" lon="114.24242379638672" /><trkpt lat="22.30683978125" lon="114.24242379638672" /><trkpt lat="22.30683378125" lon="114.24241879638672" /><trkpt lat="22.30682678125" lon="114.24242679638672" /><trkpt lat="22.30681978125" lon="114.24242679638672" /><trkpt lat="22.30681478125" lon="114.24242379638672" /><trkpt lat="22.30680678125" lon="114.24242379638672" /><trkpt lat="22.30680378125" lon="114.24242679638672" /><trkpt lat="22.30678478125" lon="114.24242179638672" /><trkpt lat="22.30677678125" lon="114.24242379638672" /><trkpt lat="22.30676978125" lon="114.24243179638673" /><trkpt lat="22.30676378125" lon="114.24243479638672" /><trkpt lat="22.30674678125" lon="114.24243079638671" /><trkpt lat="22.30673678125" lon="114.24241579638672" /><trkpt lat="22.30670478125" lon="114.24241179638672" /><trkpt lat="22.30667678125" lon="114.24241279638672" /><trkpt lat="22.30667178125" lon="114.24240379638672" /><trkpt lat="22.30666078125" lon="114.24239579638672" /><trkpt lat="22.30665178125" lon="114.24237779638672" /><trkpt lat="22.30662678125" lon="114.24236679638672" /><trkpt lat="22.30660278125" lon="114.24237279638672" /><trkpt lat="22.30657278125" lon="114.24232779638672" /><trkpt lat="22.30655378125" lon="114.24232879638672" /><trkpt lat="22.30653678125" lon="114.24234879638672" /><trkpt lat="22.30651478125" lon="114.24235679638672" /><trkpt lat="22.30650178125" lon="114.24235679638672" /><trkpt lat="22.30648478125" lon="114.24234279638672" /><trkpt lat="22.30647978125" lon="114.24232979638671" /><trkpt lat="22.30643978125" lon="114.24229379638672" /><trkpt lat="22.30643778125" lon="114.24227479638672" /><trkpt lat="22.30642278125" lon="114.24226679638672" /><trkpt lat="22.30638678125" lon="114.24220079638673" /><trkpt lat="22.30634978125" lon="114.24216779638672" /><trkpt lat="22.30627878125" lon="114.24218279638671" /><trkpt lat="22.30618978125" lon="114.24221179638671" /><trkpt lat="22.30607678125" lon="114.24225879638672" /><trkpt lat="22.30603978125" lon="114.24227179638672" /><trkpt lat="22.30601178125" lon="114.24225079638671" /><trkpt lat="22.30591978125" lon="114.24225079638671" /><trkpt lat="22.30584478125" lon="114.24228979638671" /><trkpt lat="22.30578378125" lon="114.24229879638672" /><trkpt lat="22.30572478125" lon="114.24232979638671" /><trkpt lat="22.30567478125" lon="114.24238279638672" /><trkpt lat="22.30559278125" lon="114.24240779638671" /><trkpt lat="22.30550778125" lon="114.24243279638672" /><trkpt lat="22.30549878125" lon="114.24245579638672" /><trkpt lat="22.30547378125" lon="114.24245779638672" /><trkpt lat="22.30529178125" lon="114.24258379638673" /><trkpt lat="22.30523078125" lon="114.24258379638673" /><trkpt lat="22.30515578125" lon="114.24261679638671" /><trkpt lat="22.30509278125" lon="114.24264179638672" /><trkpt lat="22.30503778125" lon="114.24267479638672" /><trkpt lat="22.30492078125" lon="114.24265979638672" /><trkpt lat="22.30488678125" lon="114.24269579638671" /><trkpt lat="22.30481578125" lon="114.24272179638672" /><trkpt lat="22.30473678125" lon="114.24273079638672" /><trkpt lat="22.30465478125" lon="114.24271779638671" /><trkpt lat="22.30463978125" lon="114.24274879638672" /><trkpt lat="22.30453478125" lon="114.24282379638672" /><trkpt lat="22.30439578125" lon="114.24303279638671" /><trkpt lat="22.30435978125" lon="114.24298079638672" /><trkpt lat="22.30429978125" lon="114.24299179638672" /><trkpt lat="22.30429778125" lon="114.24302779638671" /><trkpt lat="22.30421978125" lon="114.24305279638672" /><trkpt lat="22.30416378125" lon="114.24307879638671" /><trkpt lat="22.30403078125" lon="114.24308379638671" /><trkpt lat="22.30386278125" lon="114.24318379638672" /><trkpt lat="22.30375678125" lon="114.24324679638671" /><trkpt lat="22.30358278125" lon="114.24340779638672" /><trkpt lat="22.30349778125" lon="114.24344579638672" /><trkpt lat="22.30346678125" lon="114.24347079638672" /><trkpt lat="22.30341178125" lon="114.24345879638672" /><trkpt lat="22.30337478125" lon="114.24347179638671" /><trkpt lat="22.30329778125" lon="114.24346179638673" /><trkpt lat="22.30328078125" lon="114.24343579638672" /><trkpt lat="22.30323178125" lon="114.24345279638672" /><trkpt lat="22.30321778125" lon="114.24347579638672" /><trkpt lat="22.30318178125" lon="114.24348679638672" /><trkpt lat="22.30314678125" lon="114.24351579638672" /><trkpt lat="22.30311078125" lon="114.24352379638673" /><trkpt lat="22.30306378125" lon="114.24357279638672" /><trkpt lat="22.30300078125" lon="114.24357879638671" /><trkpt lat="22.30294378125" lon="114.24360179638671" /><trkpt lat="22.30286278125" lon="114.24374379638672" /><trkpt lat="22.30278378125" lon="114.24372179638672" /><trkpt lat="22.30278078125" lon="114.24375579638672" /><trkpt lat="22.30264778125" lon="114.24376879638672" /><trkpt lat="22.30269878125" lon="114.24387779638671" /><trkpt lat="22.30263178125" lon="114.24387579638672" /><trkpt lat="22.30239578125" lon="114.24392979638672" /><trkpt lat="22.30229678125" lon="114.24387479638672" /><trkpt lat="22.30215778125" lon="114.24387179638671" /><trkpt lat="22.30211378125" lon="114.24389879638672" /><trkpt lat="22.30207278125" lon="114.24403679638672" /><trkpt lat="22.30211478125" lon="114.24411079638672" /><trkpt lat="22.30207978125" lon="114.24414379638672" /><trkpt lat="22.30202078125" lon="114.24416879638672" /><trkpt lat="22.30193478125" lon="114.24425579638672" /><trkpt lat="22.30188578125" lon="114.24429579638672" /><trkpt lat="22.30188778125" lon="114.24435379638672" /><trkpt lat="22.30184478125" lon="114.24445679638671" /><trkpt lat="22.30182178125" lon="114.24468379638672" /><trkpt lat="22.30179078125" lon="114.24468279638671" /><trkpt lat="22.30177778125" lon="114.24486679638672" /><trkpt lat="22.30167178125" lon="114.24514079638672" /><trkpt lat="22.30165278125" lon="114.24519479638671" /><trkpt lat="22.301601697609893" lon="114.2452041770722" /><trkpt lat="22.30147478125" lon="114.24426479638672" /><trkpt lat="22.30147378125" lon="114.24408579638671" /><trkpt lat="22.301496781250002" lon="114.24393079638672" /><trkpt lat="22.30156078125" lon="114.24375579638672" /><trkpt lat="22.30138578125" lon="114.24363779638672" /><trkpt lat="22.30125978125" lon="114.24360879638672" /><trkpt lat="22.30119378125" lon="114.24379279638671" /><trkpt lat="22.30115178125" lon="114.24389079638672" /><trkpt lat="22.30115078125" lon="114.24394579638673" /><trkpt lat="22.30113678125" lon="114.24400979638672" /><trkpt lat="22.30109378125" lon="114.24407379638672" /><trkpt lat="22.30103978125" lon="114.24400879638672" /><trkpt lat="22.30090178125" lon="114.24389379638671" /><trkpt lat="22.30084778125" lon="114.24383879638673" /><trkpt lat="22.30083278125" lon="114.24382479638672" /><trkpt lat="22.30076578125" lon="114.24376079638672" /><trkpt lat="22.30072178125" lon="114.24373379638672" /><trkpt lat="22.30067378125" lon="114.24372379638672" /><trkpt lat="22.30060978125" lon="114.24371379638671" /><trkpt lat="22.30058678125" lon="114.24371079638672" /><trkpt lat="22.30054978125" lon="114.24370779638672" /><trkpt lat="22.30048378125" lon="114.24371079638672" /><trkpt lat="22.30045278125" lon="114.24371379638671" /><trkpt lat="22.30037578125" lon="114.24371879638672" /><trkpt lat="22.30024678125" lon="114.24368979638672" /><trkpt lat="22.30021778125" lon="114.24369379638672" /><trkpt lat="22.30018778125" lon="114.24370479638672" /><trkpt lat="22.30017478125" lon="114.24372579638671" /><trkpt lat="22.30015578125" lon="114.24379079638672" /><trkpt lat="22.30008978125" lon="114.24389679638672" /><trkpt lat="22.300070500319226" lon="114.24392445166329" /><trkpt lat="22.29999078125" lon="114.24403879638672" /><trkpt lat="22.29991378125" lon="114.24411679638672" /><trkpt lat="22.29976978125" lon="114.24426679638673" /><trkpt lat="22.29966578125" lon="114.24435279638672" /><trkpt lat="22.29961378125" lon="114.24445679638671" /><trkpt lat="22.29955478125" lon="114.24451579638672" /><trkpt lat="22.29947478125" lon="114.24451079638672" /><trkpt lat="22.29935078125" lon="114.24441979638672" /><trkpt lat="22.29929078125" lon="114.24439279638672" /><trkpt lat="22.29919178125" lon="114.24441479638672" /><trkpt lat="22.29907778125" lon="114.24447579638672" /><trkpt lat="22.29900578125" lon="114.24447079638672" /><trkpt lat="22.29878478125" lon="114.24456979638671" /><trkpt lat="22.29873078125" lon="114.24462579638671" /><trkpt lat="22.29864078125" lon="114.24467179638673" /><trkpt lat="22.29854178125" lon="114.24470379638672" /><trkpt lat="22.29845278125" lon="114.24478479638672" /><trkpt lat="22.29840078125" lon="114.24484879638672" /><trkpt lat="22.29834278125" lon="114.24484079638673" /><trkpt lat="22.29825878125" lon="114.24474379638671" /><trkpt lat="22.29818478125" lon="114.24472279638672" /><trkpt lat="22.29803078125" lon="114.24480879638672" /><trkpt lat="22.29799578125" lon="114.24487279638672" /><trkpt lat="22.29797378125" lon="114.24497779638672" /><trkpt lat="22.29792178125" lon="114.24509179638672" /><trkpt lat="22.29784478125" lon="114.24515979638672" /><trkpt lat="22.29768078125" lon="114.24519179638672" /><trkpt lat="22.29756178125" lon="114.24522179638672" /><trkpt lat="22.29752978125" lon="114.24526979638672" /><trkpt lat="22.29743778125" lon="114.24530479638672" /><trkpt lat="22.29733278125" lon="114.24533479638671" /><trkpt lat="22.29720678125" lon="114.24541179638672" /><trkpt lat="22.29709278125" lon="114.24542279638672" /><trkpt lat="22.29701278125" lon="114.24544679638672" /><trkpt lat="22.29688178125" lon="114.24548479638672" /><trkpt lat="22.29680678125" lon="114.24546279638672" /><trkpt lat="22.29669778125" lon="114.24546579638672" /><trkpt lat="22.29659878125" lon="114.24550579638672" /><trkpt lat="22.29651878125" lon="114.24550879638672" /><trkpt lat="22.29642478125" lon="114.24550079638672" /><trkpt lat="22.29638278125" lon="114.24546279638672" /><trkpt lat="22.29628378125" lon="114.24539579638672" /><trkpt lat="22.29623378125" lon="114.24529379638672" /><trkpt lat="22.29620378125" lon="114.24522179638672" /><trkpt lat="22.29610278125" lon="114.24506079638672" /><trkpt lat="22.29600778125" lon="114.24499379638672" /><trkpt lat="22.29591578125" lon="114.24495579638672" /><trkpt lat="22.29580178125" lon="114.24498279638672" /><trkpt lat="22.29574278125" lon="114.24507679638671" /><trkpt lat="22.29571478125" lon="114.24520279638672" /><trkpt lat="22.29561378125" lon="114.24521679638671" /><trkpt lat="22.29553378125" lon="114.24524879638672" /><trkpt lat="22.29546178125" lon="114.24525679638671" /><trkpt lat="22.29539978125" lon="114.24529679638673" /><trkpt lat="22.29534578125" lon="114.24539079638672" /><trkpt lat="22.29527378125" lon="114.24547679638673" /><trkpt lat="22.29510978125" lon="114.24547579638671" /><trkpt lat="22.29485678125" lon="114.24549779638672" /><trkpt lat="22.29478978125" lon="114.24552979638672" /><trkpt lat="22.29472978125" lon="114.24550579638672" /><trkpt lat="22.29464778125" lon="114.24542779638672" /><trkpt lat="22.29454678125" lon="114.24535279638671" /><trkpt lat="22.29447978125" lon="114.24525879638672" /><trkpt lat="22.29444678125" lon="114.24519979638671" /><trkpt lat="22.29440778125" lon="114.24513279638671" /><trkpt lat="22.29434578125" lon="114.24506679638672" /><trkpt lat="22.29427078125" lon="114.24498279638672" /><trkpt lat="22.29421878125" lon="114.24493179638672" /><trkpt lat="22.29409178125" lon="114.24493179638672" /><trkpt lat="22.29385378125" lon="114.24488379638672" /><trkpt lat="22.29375978125" lon="114.24483279638672" /><trkpt lat="22.29366978125" lon="114.24481379638672" /><trkpt lat="22.29354078125" lon="114.24480879638672" /><trkpt lat="22.29350878125" lon="114.24476079638671" /><trkpt lat="22.29347378125" lon="114.24464779638672" /><trkpt lat="22.29340978125" lon="114.24457279638672" /><trkpt lat="22.29336278125" lon="114.24449179638673" /><trkpt lat="22.29330578125" lon="114.24444879638672" /><trkpt lat="22.29319878125" lon="114.24443879638672" /><trkpt lat="22.29316878125" lon="114.24438779638672" /><trkpt lat="22.29317178125" lon="114.24425379638672" /><trkpt lat="22.29313678125" lon="114.24413579638671" /><trkpt lat="22.29304478125" lon="114.24399879638672" /><trkpt lat="22.29272178125" lon="114.24361079638672" /><trkpt lat="22.29258778125" lon="114.24337279638672" /><trkpt lat="22.29255378125" lon="114.24314979638672" /><trkpt lat="22.29249878125" lon="114.24310579638671" /><trkpt lat="22.29239078125" lon="114.24299179638672" /><trkpt lat="22.292286216266763" lon="114.24288325001707" /><trkpt lat="22.29223778125" lon="114.24285379638673" /><trkpt lat="22.29221878125" lon="114.24283379638672" /><trkpt lat="22.29215178125" lon="114.24276679638672" /><trkpt lat="22.29212578125" lon="114.24274779638672" /><trkpt lat="22.29208278125" lon="114.24264579638673" /><trkpt lat="22.29216278125" lon="114.24247279638672" /><trkpt lat="22.29224478125" lon="114.24250879638672" /><trkpt lat="22.29233778125" lon="114.24254979638673" /><trkpt lat="22.29242178125" lon="114.24254779638672" /><trkpt lat="22.29246078125" lon="114.24255279638672" /><trkpt lat="22.29252378125" lon="114.24258279638671" /><trkpt lat="22.29253978125" lon="114.24261279638672" /><trkpt lat="22.29256878125" lon="114.24265179638672" /><trkpt lat="22.29259878125" lon="114.24269579638671" /><trkpt lat="22.29263878125" lon="114.24274679638673" /><trkpt lat="22.29270678125" lon="114.24280179638671" /><trkpt lat="22.29276978125" lon="114.24283879638672" /><trkpt lat="22.29272878125" lon="114.24286879638672" /><trkpt lat="22.29267478125" lon="114.24288079638671" /><trkpt lat="22.29271478125" lon="114.24292079638671" /><trkpt lat="22.29274678125" lon="114.24293479638672" /><trkpt lat="22.29291778125" lon="114.24290379638671" /><trkpt lat="22.29296078125" lon="114.24294279638671" /><trkpt lat="22.29302378125" lon="114.24298279638671" /><trkpt lat="22.29312078125" lon="114.24305679638672" /><trkpt lat="22.29315078125" lon="114.24319279638672" /><trkpt lat="22.29315678125" lon="114.24325779638671" /><trkpt lat="22.29319478125" lon="114.24333179638671" /><trkpt lat="22.29323278125" lon="114.24340479638671" /><trkpt lat="22.29326378125" lon="114.24344379638671" /><trkpt lat="22.29319478125" lon="114.24351779638671" /><trkpt lat="22.29360378125" lon="114.24374079638672" /><trkpt lat="22.29365578125" lon="114.24378679638671" /><trkpt lat="22.29368178125" lon="114.24382979638672" /><trkpt lat="22.29377078125" lon="114.24388979638672" /><trkpt lat="22.2938122138332" lon="114.24389559730966" /><trkpt lat="22.293818411551285" lon="114.24395565996286" /><trkpt lat="22.293894781628637" lon="114.24397636460196" /><trkpt lat="22.29385317200247" lon="114.24390642241633" /><trkpt lat="22.29377078125" lon="114.24388979638672" /><trkpt lat="22.29368178125" lon="114.24382979638672" /><trkpt lat="22.29365578125" lon="114.24378679638671" /><trkpt lat="22.29360378125" lon="114.24374079638672" /><trkpt lat="22.29319478125" lon="114.24351779638671" /><trkpt lat="22.29327978125" lon="114.24346279638672" /><trkpt lat="22.29326378125" lon="114.24344379638671" /><trkpt lat="22.29323278125" lon="114.24340479638671" /><trkpt lat="22.29319478125" lon="114.24333179638671" /><trkpt lat="22.29315678125" lon="114.24325779638671" /><trkpt lat="22.29315078125" lon="114.24319279638672" /><trkpt lat="22.29312078125" lon="114.24305679638672" /><trkpt lat="22.29302378125" lon="114.24298279638671" /><trkpt lat="22.29296078125" lon="114.24294279638671" /><trkpt lat="22.29291778125" lon="114.24290379638671" /><trkpt lat="22.29274678125" lon="114.24293479638672" /><trkpt lat="22.29271478125" lon="114.24292079638671" /><trkpt lat="22.29267478125" lon="114.24288079638671" /><trkpt lat="22.29272878125" lon="114.24286879638672" /><trkpt lat="22.29276978125" lon="114.24283879638672" /><trkpt lat="22.29270678125" lon="114.24280179638671" /><trkpt lat="22.29263878125" lon="114.24274679638673" /><trkpt lat="22.29259878125" lon="114.24269579638671" /><trkpt lat="22.29256878125" lon="114.24265179638672" /><trkpt lat="22.29253978125" lon="114.24261279638672" /><trkpt lat="22.29252378125" lon="114.24258279638671" /><trkpt lat="22.29246078125" lon="114.24255279638672" /><trkpt lat="22.29242178125" lon="114.24254779638672" /><trkpt lat="22.29233778125" lon="114.24254979638673" /><trkpt lat="22.29224478125" lon="114.24250879638672" /><trkpt lat="22.29216278125" lon="114.24247279638672" /><trkpt lat="22.29218278125" lon="114.24239979638672" /><trkpt lat="22.29220478125" lon="114.24235479638672" /><trkpt lat="22.29225678125" lon="114.24228079638672" /><trkpt lat="22.29222578125" lon="114.24225279638672" /><trkpt lat="22.29205678125" lon="114.24216979638672" /><trkpt lat="22.29202078125" lon="114.24217379638672" /><trkpt lat="22.29187778125" lon="114.24222279638671" /><trkpt lat="22.29180878125" lon="114.24224179638672" /><trkpt lat="22.29173678125" lon="114.24225079638671" /><trkpt lat="22.29169578125" lon="114.24216579638671" /><trkpt lat="22.29165278125" lon="114.24219979638671" /><trkpt lat="22.29156978125" lon="114.24219479638671" /><trkpt lat="22.29160778125" lon="114.24225079638671" /><trkpt lat="22.29166778125" lon="114.24229879638672" /><trkpt lat="22.29175478125" lon="114.24235079638672" /><trkpt lat="22.29182878125" lon="114.24236979638673" /><trkpt lat="22.29189278125" lon="114.24243779638672" /><trkpt lat="22.29199278125" lon="114.24251079638672" /><trkpt lat="22.29202078125" lon="114.24257179638671" /><trkpt lat="22.29201478125" lon="114.24261779638672" /><trkpt lat="22.29208978125" lon="114.24272879638671" /><trkpt lat="22.29212578125" lon="114.24274779638672" /><trkpt lat="22.29208278125" lon="114.24264579638673" /><trkpt lat="22.29216278125" lon="114.24247279638672" /><trkpt lat="22.29218278125" lon="114.24239979638672" /><trkpt lat="22.29220478125" lon="114.24235479638672" /><trkpt lat="22.29225678125" lon="114.24228079638672" /><trkpt lat="22.29226578125" lon="114.24224279638672" /><trkpt lat="22.29226578125" lon="114.24220779638672" /><trkpt lat="22.29225478125" lon="114.24217979638672" /><trkpt lat="22.29216778125" lon="114.24212179638671" /><trkpt lat="22.29204678125" lon="114.24205879638671" /><trkpt lat="22.29195378125" lon="114.24204879638671" /><trkpt lat="22.29190678125" lon="114.24203179638671" /><trkpt lat="22.29187178125" lon="114.24195179638672" /><trkpt lat="22.29184878125" lon="114.24186179638671" /><trkpt lat="22.2918482005198" lon="114.24185834949766" /><trkpt lat="22.29179378125" lon="114.24178879638671" /><trkpt lat="22.2917577230693" lon="114.24172813733493" /><trkpt lat="22.29172678125" lon="114.24170779638672" /><trkpt lat="22.29155078125" lon="114.24163179638671" /><trkpt lat="22.29135778125" lon="114.24159079638672" /><trkpt lat="22.29126078125" lon="114.24163479638672" /><trkpt lat="22.29113978125" lon="114.24166379638672" /><trkpt lat="22.29105978125" lon="114.24159579638672" /><trkpt lat="22.29096778125" lon="114.24154279638672" /><trkpt lat="22.29083478125" lon="114.24148379638672" /><trkpt lat="22.29064878125" lon="114.24145079638672" /><trkpt lat="22.29059378125" lon="114.24126879638672" /><trkpt lat="22.29068178125" lon="114.24125179638672" /><trkpt lat="22.29074778125" lon="114.24126179638672" /><trkpt lat="22.29077478125" lon="114.24126979638672" /><trkpt lat="22.29085678125" lon="114.24130179638672" /><trkpt lat="22.290863784115817" lon="114.24130374142848" /><trkpt lat="22.29097678125" lon="114.24135079638671" /><trkpt lat="22.29114278125" lon="114.24130379638672" /><trkpt lat="22.29124978125" lon="114.24121279638672" /><trkpt lat="22.29134078125" lon="114.24111979638671" /><trkpt lat="22.29144978125" lon="114.24107079638672" /><trkpt lat="22.29158978125" lon="114.24103879638672" /><trkpt lat="22.29174978125" lon="114.24103379638672" /><trkpt lat="22.29200545611976" lon="114.24089151395494" /><trkpt lat="22.29201078125" lon="114.24088979638672" /><trkpt lat="22.29203778125" lon="114.24088279638671" /><trkpt lat="22.29206278125" lon="114.24088079638672" /><trkpt lat="22.29209678125" lon="114.24087979638672" /><trkpt lat="22.29213378125" lon="114.24088179638672" /><trkpt lat="22.29216578125" lon="114.24088479638672" /><trkpt lat="22.29219578125" lon="114.24088979638672" /><trkpt lat="22.29222578125" lon="114.24089679638672" /><trkpt lat="22.29225178125" lon="114.24090479638672" /><trkpt lat="22.29227678125" lon="114.24091579638672" /><trkpt lat="22.29229978125" lon="114.24092779638671" /><trkpt lat="22.29231978125" lon="114.24094279638672" /><trkpt lat="22.29234678125" lon="114.24096679638672" /><trkpt lat="22.29237078125" lon="114.24098979638671" /><trkpt lat="22.29242378125" lon="114.24104979638672" /><trkpt lat="22.29244578125" lon="114.24107179638672" /><trkpt lat="22.29246978125" lon="114.24109179638671" /><trkpt lat="22.29249278125" lon="114.24110879638671" /><trkpt lat="22.29252478125" lon="114.24112879638672" /><trkpt lat="22.29255678125" lon="114.24114579638672" /><trkpt lat="22.29259178125" lon="114.24115979638673" /><trkpt lat="22.29262978125" lon="114.24117079638673" /><trkpt lat="22.29266478125" lon="114.24117679638672" /><trkpt lat="22.29270178125" lon="114.24117979638672" /><trkpt lat="22.29273378125" lon="114.24118079638671" /><trkpt lat="22.29276678125" lon="114.24117779638672" /><trkpt lat="22.29279978125" lon="114.24116979638671" /><trkpt lat="22.29290978125" lon="114.24113979638672" /><trkpt lat="22.29294178125" lon="114.24113279638672" /><trkpt lat="22.29297078125" lon="114.24112979638672" /><trkpt lat="22.29299778125" lon="114.24113179638672" /><trkpt lat="22.29302478125" lon="114.24113979638672" /><trkpt lat="22.29305478125" lon="114.24115179638672" /><trkpt lat="22.29308878125" lon="114.24116879638672" /><trkpt lat="22.29311878125" lon="114.24118679638671" /><trkpt lat="22.29314478125" lon="114.24120479638673" /><trkpt lat="22.29316978125" lon="114.24122779638672" /><trkpt lat="22.29319678125" lon="114.24125979638671" /><trkpt lat="22.29321778125" lon="114.24128879638671" /><trkpt lat="22.29325478125" lon="114.24134579638672" /><trkpt lat="22.29327278125" lon="114.24137079638672" /><trkpt lat="22.29329578125" lon="114.24139679638672" /><trkpt lat="22.29331978125" lon="114.24141879638672" /><trkpt lat="22.29335078125" lon="114.24144179638672" /><trkpt lat="22.29338378125" lon="114.24146079638672" /><trkpt lat="22.29341978125" lon="114.24147779638672" /><trkpt lat="22.29346378125" lon="114.24149179638673" /><trkpt lat="22.29350478125" lon="114.24149979638672" /><trkpt lat="22.29355478125" lon="114.24150279638671" /><trkpt lat="22.29360178125" lon="114.24149979638672" /><trkpt lat="22.29364678125" lon="114.24149079638671" /><trkpt lat="22.29369178125" lon="114.24147579638672" /><trkpt lat="22.29373378125" lon="114.24145579638672" /><trkpt lat="22.29376378125" lon="114.24143679638672" /><trkpt lat="22.29379378125" lon="114.24141379638672" /><trkpt lat="22.29381878125" lon="114.24139079638672" /><trkpt lat="22.29388878125" lon="114.24132079638672" /><trkpt lat="22.29391878125" lon="114.24129579638672" /><trkpt lat="22.29394678125" lon="114.24127679638671" /><trkpt lat="22.29398178125" lon="114.24125879638672" /><trkpt lat="22.29401478125" lon="114.24124779638672" /><trkpt lat="22.29404278125" lon="114.24124079638672" /><trkpt lat="22.29406878125" lon="114.24123979638672" /><trkpt lat="22.29409478125" lon="114.24124279638671" /><trkpt lat="22.29412678125" lon="114.24125079638672" /><trkpt lat="22.29422278125" lon="114.24127879638672" /><trkpt lat="22.29424578125" lon="114.24128379638672" /><trkpt lat="22.29426778125" lon="114.24128479638672" /><trkpt lat="22.29429178125" lon="114.24128379638672" /><trkpt lat="22.29431678125" lon="114.24127779638673" /><trkpt lat="22.29436078125" lon="114.24126579638671" /><trkpt lat="22.29442478125" lon="114.24124779638672" /><trkpt lat="22.29444978125" lon="114.24123979638672" /><trkpt lat="22.29447278125" lon="114.24122979638672" /><trkpt lat="22.29455578125" lon="114.24119079638672" /><trkpt lat="22.29459078125" lon="114.24117779638672" /><trkpt lat="22.29467778125" lon="114.24114679638672" /><trkpt lat="22.29470678125" lon="114.24113879638672" /><trkpt lat="22.29473678125" lon="114.24113279638672" /><trkpt lat="22.29477078125" lon="114.24112879638672" /><trkpt lat="22.29480678125" lon="114.24112779638672" /><trkpt lat="22.29484378125" lon="114.24113079638671" /><trkpt lat="22.29488778125" lon="114.24113879638672" /><trkpt lat="22.29492778125" lon="114.24114979638672" /><trkpt lat="22.29496778125" lon="114.24116379638672" /><trkpt lat="22.29505278125" lon="114.24119879638671" /><trkpt lat="22.29509478125" lon="114.24121679638672" /><trkpt lat="22.29516778125" lon="114.24123079638672" /><trkpt lat="22.29523478125" lon="114.24121979638672" /><trkpt lat="22.29530278125" lon="114.24118379638672" /><trkpt lat="22.29536378125" lon="114.24110779638671" /><trkpt lat="22.29537778125" lon="114.24107979638671" /><trkpt lat="22.29538878125" lon="114.24103679638672" /><trkpt lat="22.29539078125" lon="114.24101779638671" /><trkpt lat="22.29539178125" lon="114.24098679638672" /><trkpt lat="22.29538778125" lon="114.24093479638672" /><trkpt lat="22.295379280989412" lon="114.24089937384299" /></trkseg></trk></gpx>