<?xml version='1.0' encoding='UTF-8' ?><gpx version="1.1" creator="HikingTrailHK" xsi:schemaLocation="http://www.topografix.com/GPX/1/1 http://www.topografix.com/GPX/1/1/gpx.xsd" xmlns="http://www.topografix.com/GPX/1/1" xmlns:xsi="http://www.w3.org/2001/XMLSchema-instance"><metadata><name>洪水坑</name><desc></desc></metadata><trk><trkseg><trkpt lat="22.39611473935746" lon="113.97371694056258" /><trkpt lat="22.39601678125" lon="113.97369179638672" /><trkpt lat="22.39593878125" lon="113.97402479638671" /><trkpt lat="22.39586178125" lon="113.97440879638673" /><trkpt lat="22.39584378125" lon="113.97449579638672" /><trkpt lat="22.39582878125" lon="113.97457479638672" /><trkpt lat="22.39579478125" lon="113.97472679638672" /><trkpt lat="22.39572778125" lon="113.97502679638671" /><trkpt lat="22.39615878125" lon="113.97513479638671" /><trkpt lat="22.39679778125" lon="113.97530479638672" /><trkpt lat="22.39710878125" lon="113.97538679638672" /><trkpt lat="22.39774078125" lon="113.97555479638672" /><trkpt lat="22.39769078125" lon="113.97577279638672" /><trkpt lat="22.39762478125" lon="113.97606879638671" /><trkpt lat="22.39777778125" lon="113.97609179638673" /><trkpt lat="22.39784278125" lon="113.97611379638671" /><trkpt lat="22.39784578125" lon="113.97606279638671" /><trkpt lat="22.39814278125" lon="113.97612679638672" /><trkpt lat="22.39809878125" lon="113.97640979638672" /><trkpt lat="22.39805478125" lon="113.97669779638672" /><trkpt lat="22.39799778125" lon="113.97706779638672" /><trkpt lat="22.39793278125" lon="113.97748679638671" /><trkpt lat="22.39792878125" lon="113.97751179638672" /><trkpt lat="22.39773978125" lon="113.97753479638672" /><trkpt lat="22.39768878125" lon="113.97754479638672" /><trkpt lat="22.39768278125" lon="113.97750279638672" /><trkpt lat="22.39757478125" lon="113.97752679638671" /><trkpt lat="22.39722078125" lon="113.97759179638672" /><trkpt lat="22.39717178125" lon="113.97758879638671" /><trkpt lat="22.39710278125" lon="113.97758279638671" /><trkpt lat="22.39669178125" lon="113.97764679638672" /><trkpt lat="22.39662978125" lon="113.97765679638673" /><trkpt lat="22.39608278125" lon="113.97776379638672" /><trkpt lat="22.39565878125" lon="113.97783779638672" /><trkpt lat="22.39520578125" lon="113.97790979638673" /><trkpt lat="22.39516578125" lon="113.97790679638672" /><trkpt lat="22.39512578125" lon="113.97789179638671" /><trkpt lat="22.39512978125" lon="113.97805579638671" /><trkpt lat="22.39513678125" lon="113.97817079638672" /><trkpt lat="22.39519078125" lon="113.97832679638672" /><trkpt lat="22.39529978125" lon="113.97846079638671" /><trkpt lat="22.39532678125" lon="113.97873679638671" /><trkpt lat="22.39536278125" lon="113.97898179638672" /><trkpt lat="22.39539878125" lon="113.97922879638672" /><trkpt lat="22.39515778125" lon="113.97946279638671" /><trkpt lat="22.39510778125" lon="113.97967079638671" /><trkpt lat="22.39503578125" lon="113.97986879638673" /><trkpt lat="22.39492978125" lon="113.98006379638672" /><trkpt lat="22.39473178125" lon="113.98020779638672" /><trkpt lat="22.39474078125" lon="113.98039179638671" /><trkpt lat="22.39461378125" lon="113.98059779638672" /><trkpt lat="22.39441878125" lon="113.98060079638672" /><trkpt lat="22.39440578125" lon="113.98069679638672" /><trkpt lat="22.39422278125" lon="113.98095679638672" /><trkpt lat="22.39419378125" lon="113.98102079638672" /><trkpt lat="22.39418078125" lon="113.98112179638672" /><trkpt lat="22.39420178125" lon="113.98117279638672" /><trkpt lat="22.39420978125" lon="113.98129879638672" /><trkpt lat="22.39419678125" lon="113.98140679638672" /><trkpt lat="22.39415678125" lon="113.98150379638672" /><trkpt lat="22.39412878125" lon="113.98151079638671" /><trkpt lat="22.39407078125" lon="113.98152779638671" /><trkpt lat="22.39401178125" lon="113.98157179638672" /><trkpt lat="22.39398878125" lon="113.98158879638672" /><trkpt lat="22.39402478125" lon="113.98164679638671" /><trkpt lat="22.39402878125" lon="113.98167779638672" /><trkpt lat="22.39403878125" lon="113.98169479638672" /><trkpt lat="22.39407278125" lon="113.98170179638672" /><trkpt lat="22.39409078125" lon="113.98173679638671" /><trkpt lat="22.39415378125" lon="113.98177979638672" /><trkpt lat="22.39417578125" lon="113.98184079638672" /><trkpt lat="22.39419678125" lon="113.98191379638672" /><trkpt lat="22.39420078125" lon="113.98196179638671" /><trkpt lat="22.39426178125" lon="113.98209079638671" /><trkpt lat="22.39434578125" lon="113.98211579638672" /><trkpt lat="22.39436978125" lon="113.98215579638672" /><trkpt lat="22.39437078125" lon="113.98225279638672" /><trkpt lat="22.39435878125" lon="113.98229579638672" /><trkpt lat="22.39436678125" lon="113.98231779638672" /><trkpt lat="22.39438978125" lon="113.98233779638672" /><trkpt lat="22.39444278125" lon="113.98243479638671" /><trkpt lat="22.39446878125" lon="113.98252079638672" /><trkpt lat="22.39443978125" lon="113.98255779638671" /><trkpt lat="22.39439478125" lon="113.98272479638672" /><trkpt lat="22.39468578125" lon="113.98273779638671" /><trkpt lat="22.39484778125" lon="113.98279479638671" /><trkpt lat="22.39491478125" lon="113.98280479638672" /><trkpt lat="22.39503678125" lon="113.98284279638672" /><trkpt lat="22.39503878125" lon="113.98294179638673" /><trkpt lat="22.395049781250002" lon="113.98296579638672" /><trkpt lat="22.39516378125" lon="113.98314179638672" /><trkpt lat="22.39519678125" lon="113.98315679638672" /><trkpt lat="22.39523478125" lon="113.98315679638672" /><trkpt lat="22.39520678125" lon="113.98341579638672" /><trkpt lat="22.39511878125" lon="113.98354279638671" /><trkpt lat="22.39509378125" lon="113.98363379638671" /><trkpt lat="22.39513878125" lon="113.98371979638672" /><trkpt lat="22.39520078125" lon="113.98378679638672" /><trkpt lat="22.39517778125" lon="113.98394279638671" /><trkpt lat="22.39520178125" lon="113.98402979638672" /><trkpt lat="22.39517578125" lon="113.98415379638672" /><trkpt lat="22.39519078125" lon="113.98425879638671" /><trkpt lat="22.39520378125" lon="113.98442879638672" /><trkpt lat="22.39525678125" lon="113.98454679638672" /><trkpt lat="22.39529778125" lon="113.98472579638671" /><trkpt lat="22.39536078125" lon="113.98481579638671" /><trkpt lat="22.39537678125" lon="113.98492079638672" /><trkpt lat="22.395284781249998" lon="113.98502779638672" /><trkpt lat="22.39526178125" lon="113.98510279638671" /><trkpt lat="22.39523978125" lon="113.98522379638672" /><trkpt lat="22.39523478125" lon="113.98531279638672" /><trkpt lat="22.39524178125" lon="113.98540879638672" /><trkpt lat="22.39525878125" lon="113.98552779638672" /><trkpt lat="22.39523878125" lon="113.98580579638671" /><trkpt lat="22.39521178125" lon="113.98594079638671" /><trkpt lat="22.39511278125" lon="113.98605179638672" /><trkpt lat="22.39512878125" lon="113.98612079638671" /><trkpt lat="22.39505978125" lon="113.98618279638671" /><trkpt lat="22.39498678125" lon="113.98625479638672" /><trkpt lat="22.39492278125" lon="113.98634679638671" /><trkpt lat="22.39484678125" lon="113.98652079638671" /><trkpt lat="22.39478578125" lon="113.98667879638671" /><trkpt lat="22.39480278125" lon="113.98678679638672" /><trkpt lat="22.39477578125" lon="113.98687979638672" /><trkpt lat="22.39471278125" lon="113.98693579638672" /><trkpt lat="22.39460878125" lon="113.98701479638672" /><trkpt lat="22.39454478125" lon="113.98713479638671" /><trkpt lat="22.39452878125" lon="113.98724379638672" /><trkpt lat="22.39443178125" lon="113.98738679638672" /><trkpt lat="22.39436878125" lon="113.98747579638672" /><trkpt lat="22.39432878125" lon="113.98759879638672" /><trkpt lat="22.39425578125" lon="113.98769179638671" /><trkpt lat="22.39427578125" lon="113.98778379638672" /><trkpt lat="22.39429578125" lon="113.98784079638672" /><trkpt lat="22.39432478125" lon="113.98791279638672" /><trkpt lat="22.39439578125" lon="113.98800179638671" /><trkpt lat="22.39449578125" lon="113.98812679638672" /><trkpt lat="22.39462978125" lon="113.98828579638672" /><trkpt lat="22.39468278125" lon="113.98831479638672" /><trkpt lat="22.39483178125" lon="113.98831679638671" /><trkpt lat="22.39482578125" lon="113.98841579638672" /><trkpt lat="22.39475578125" lon="113.98849379638672" /><trkpt lat="22.39471178125" lon="113.98862979638672" /><trkpt lat="22.39470978125" lon="113.98877079638672" /><trkpt lat="22.39473178125" lon="113.98887379638671" /><trkpt lat="22.39468878125" lon="113.98895279638671" /><trkpt lat="22.39468478125" lon="113.98904179638672" /><trkpt lat="22.39473078125" lon="113.98919979638671" /><trkpt lat="22.39469878125" lon="113.98931379638672" /><trkpt lat="22.39474778125" lon="113.98946779638672" /><trkpt lat="22.39471778125" lon="113.98950679638672" /><trkpt lat="22.39476278125" lon="113.98967079638672" /><trkpt lat="22.39462078125" lon="113.98989979638672" /><trkpt lat="22.39462778125" lon="113.99003179638672" /><trkpt lat="22.39456178125" lon="113.99006079638671" /><trkpt lat="22.39452478125" lon="113.99014879638672" /><trkpt lat="22.39445178125" lon="113.99029879638672" /><trkpt lat="22.39441078125" lon="113.99042579638672" /><trkpt lat="22.39425778125" lon="113.99051979638672" /><trkpt lat="22.39441578125" lon="113.99053079638672" /><trkpt lat="22.39455978125" lon="113.99072079638673" /><trkpt lat="22.39472678125" lon="113.99114679638672" /><trkpt lat="22.39474878125" lon="113.99131279638672" /><trkpt lat="22.39478078125" lon="113.99155179638672" /><trkpt lat="22.39483078125" lon="113.99157079638672" /><trkpt lat="22.39490778125" lon="113.99155679638672" /><trkpt lat="22.39502878125" lon="113.99139979638672" /><trkpt lat="22.39514178125" lon="113.99140179638673" /><trkpt lat="22.39529978125" lon="113.99163079638672" /><trkpt lat="22.39530778125" lon="113.99164279638671" /><trkpt lat="22.39532178125" lon="113.99176179638673" /><trkpt lat="22.39536278125" lon="113.99181479638672" /><trkpt lat="22.39515478125" lon="113.99207579638671" /><trkpt lat="22.39516178125" lon="113.99230979638672" /><trkpt lat="22.39535578125" lon="113.99269379638672" /><trkpt lat="22.39543978125" lon="113.99273179638672" /><trkpt lat="22.39572978125" lon="113.99260879638672" /><trkpt lat="22.39586578125" lon="113.99273579638673" /><trkpt lat="22.39589778125" lon="113.99293079638672" /><trkpt lat="22.39601778125" lon="113.99308679638672" /><trkpt lat="22.39620178125" lon="113.99311779638671" /><trkpt lat="22.39633178125" lon="113.99325279638671" /><trkpt lat="22.39651978125" lon="113.99381179638672" /><trkpt lat="22.39668878125" lon="113.99387779638671" /><trkpt lat="22.39685078125" lon="113.99375879638671" /><trkpt lat="22.39703278125" lon="113.99389579638672" /><trkpt lat="22.39701778125" lon="113.99413279638672" /><trkpt lat="22.39717378125" lon="113.99475879638672" /><trkpt lat="22.39737378125" lon="113.99477279638671" /><trkpt lat="22.39756278125" lon="113.99477579638672" /><trkpt lat="22.39768978125" lon="113.99492179638672" /><trkpt lat="22.39800178125" lon="113.99516479638672" /><trkpt lat="22.39813778125" lon="113.99555079638672" /><trkpt lat="22.39827378125" lon="113.99572079638672" /><trkpt lat="22.39824978125" lon="113.99596579638671" /><trkpt lat="22.39839778125" lon="113.99608379638671" /><trkpt lat="22.39823678125" lon="113.99643479638672" /><trkpt lat="22.39818978125" lon="113.99683279638671" /><trkpt lat="22.39808678125" lon="113.99699879638672" /><trkpt lat="22.39803278125" lon="113.99758679638671" /><trkpt lat="22.39760478125" lon="113.99778479638672" /><trkpt lat="22.39722378125" lon="113.99811079638671" /><trkpt lat="22.39717578125" lon="113.99815279638672" /><trkpt lat="22.39681678125" lon="113.99821979638672" /><trkpt lat="22.39628778125" lon="113.99812479638672" /><trkpt lat="22.39610878125" lon="113.99825379638672" /><trkpt lat="22.39590578125" lon="113.99842179638672" /><trkpt lat="22.39578278125" lon="113.99904179638672" /><trkpt lat="22.39567878125" lon="113.99944979638671" /><trkpt lat="22.39549878125" lon="113.99969179638671" /><trkpt lat="22.39551278125" lon="114.00028379638673" /><trkpt lat="22.39561378125" lon="114.00061679638672" /><trkpt lat="22.395837781250002" lon="114.00116279638672" /><trkpt lat="22.39592878125" lon="114.00153379638672" /><trkpt lat="22.39617878125" lon="114.00164779638672" /><trkpt lat="22.39626078125" lon="114.00186679638672" /><trkpt lat="22.39619978125" lon="114.00196679638672" /><trkpt lat="22.39591178125" lon="114.00221979638673" /><trkpt lat="22.39587178125" lon="114.00241379638672" /><trkpt lat="22.39602278125" lon="114.00240279638672" /><trkpt lat="22.39586578125" lon="114.00257579638672" /><trkpt lat="22.39594778125" lon="114.00273079638671" /><trkpt lat="22.39604778125" lon="114.00280179638672" /><trkpt lat="22.39630378125" lon="114.00295879638672" /><trkpt lat="22.39630178125" lon="114.00300479638672" /><trkpt lat="22.39651178125" lon="114.00323179638671" /><trkpt lat="22.39654678125" lon="114.00326979638672" /><trkpt lat="22.39678878125" lon="114.00329079638672" /><trkpt lat="22.39712178125" lon="114.00335179638672" /><trkpt lat="22.39726578125" lon="114.00347079638672" /><trkpt lat="22.39735378125" lon="114.00356279638672" /><trkpt lat="22.39743378125" lon="114.00361579638673" /><trkpt lat="22.39746478125" lon="114.00378379638671" /><trkpt lat="22.39755378125" lon="114.00385279638672" /><trkpt lat="22.39764178125" lon="114.00390579638672" /><trkpt lat="22.39770678125" lon="114.00400479638672" /><trkpt lat="22.39774078125" lon="114.00411979638672" /><trkpt lat="22.39774078125" lon="114.00424979638672" /><trkpt lat="22.39778078125" lon="114.00433279638672" /><trkpt lat="22.39784578125" lon="114.00443979638672" /><trkpt lat="22.39788978125" lon="114.00448579638672" /><trkpt lat="22.39800978125" lon="114.00472979638671" /><trkpt lat="22.39806878125" lon="114.00485979638673" /><trkpt lat="22.39807278125" lon="114.00502779638671" /><trkpt lat="22.39807278125" lon="114.00519579638672" /><trkpt lat="22.39808778125" lon="114.00537879638672" /><trkpt lat="22.39811278125" lon="114.00558479638671" /><trkpt lat="22.398101282391888" lon="114.00577116352068" /><trkpt lat="22.39824278125" lon="114.00587479638672" /><trkpt lat="22.39835678125" lon="114.00598079638672" /><trkpt lat="22.39849978125" lon="114.00604179638673" /><trkpt lat="22.39863578125" lon="114.00604179638673" /><trkpt lat="22.39881678125" lon="114.00603479638671" /><trkpt lat="22.39888778125" lon="114.00591979638672" /><trkpt lat="22.39891178125" lon="114.00571379638671" /><trkpt lat="22.39899278125" lon="114.00552379638673" /><trkpt lat="22.39920378125" lon="114.00541679638673" /><trkpt lat="22.39932778125" lon="114.00531779638672" /><trkpt lat="22.39945178125" lon="114.00524879638672" /><trkpt lat="22.39961178125" lon="114.00533279638672" /><trkpt lat="22.39972078125" lon="114.00537079638671" /><trkpt lat="22.39989078125" lon="114.00530179638672" /><trkpt lat="22.40004278125" lon="114.00529479638672" /><trkpt lat="22.40018278125" lon="114.00522579638672" /><trkpt lat="22.40031978125" lon="114.00520279638671" /><trkpt lat="22.40038678125" lon="114.00512679638672" /><trkpt lat="22.40047978125" lon="114.00498179638672" /><trkpt lat="22.40051078125" lon="114.00485979638673" /><trkpt lat="22.40056278125" lon="114.00480679638672" /><trkpt lat="22.40060778125" lon="114.00476079638672" /><trkpt lat="22.40079078125" lon="114.00470679638671" /><trkpt lat="22.40094578125" lon="114.00463879638671" /><trkpt lat="22.40107878125" lon="114.00453179638671" /><trkpt lat="22.40117778125" lon="114.00437179638672" /><trkpt lat="22.40124878125" lon="114.00420379638672" /><trkpt lat="22.40134778125" lon="114.00404379638672" /><trkpt lat="22.40157078125" lon="114.00393679638672" /><trkpt lat="22.40172978125" lon="114.00385279638672" /><trkpt lat="22.40187778125" lon="114.00379879638672" /><trkpt lat="22.40203678125" lon="114.00367679638671" /><trkpt lat="22.40224478125" lon="114.00365379638671" /><trkpt lat="22.40243278125" lon="114.00353979638672" /><trkpt lat="22.40261278125" lon="114.00353179638672" /><trkpt lat="22.40282578125" lon="114.00346379638673" /><trkpt lat="22.40301878125" lon="114.00344779638672" /><trkpt lat="22.40316378125" lon="114.00340279638672" /><trkpt lat="22.40332178125" lon="114.00336479638672" /><trkpt lat="22.40348378125" lon="114.00332579638672" /><trkpt lat="22.40366378125" lon="114.00328079638672" /><trkpt lat="22.40379678125" lon="114.00324179638672" /><trkpt lat="22.40396678125" lon="114.00320379638671" /><trkpt lat="22.40409478125" lon="114.00318879638672" /><trkpt lat="22.40422778125" lon="114.00311279638672" /><trkpt lat="22.40447578125" lon="114.00302879638672" /><trkpt lat="22.40471978125" lon="114.00308179638672" /><trkpt lat="22.40497178125" lon="114.00305879638672" /><trkpt lat="22.40518578125" lon="114.00299079638671" /><trkpt lat="22.40530578125" lon="114.00284579638672" /><trkpt lat="22.40573678125" lon="114.00274679638672" /><trkpt lat="22.40590078125" lon="114.00265479638672" /><trkpt lat="22.40602478125" lon="114.00251779638671" /><trkpt lat="22.40611778125" lon="114.00233479638672" /><trkpt lat="22.40628178125" lon="114.00226579638672" /><trkpt lat="22.40636278125" lon="114.00217379638671" /><trkpt lat="22.40644578125" lon="114.00203679638672" /><trkpt lat="22.40651478125" lon="114.00189979638672" /><trkpt lat="22.40660078125" lon="114.00175479638672" /><trkpt lat="22.40660478125" lon="114.00154079638672" /><trkpt lat="22.40671278125" lon="114.00138879638672" /><trkpt lat="22.40676878125" lon="114.00122079638672" /><trkpt lat="22.40691778125" lon="114.00099879638672" /><trkpt lat="22.40702978125" lon="114.00084679638672" /><trkpt lat="22.40712478125" lon="114.00073979638672" /><trkpt lat="22.40730478125" lon="114.00064079638672" /><trkpt lat="22.40748778125" lon="114.00058679638671" /><trkpt lat="22.40763078125" lon="114.00065579638672" /><trkpt lat="22.40773978125" lon="114.00065579638672" /><trkpt lat="22.40781978125" lon="114.00048779638672" /><trkpt lat="22.40790878125" lon="114.00040379638672" /><trkpt lat="22.40803678125" lon="114.00034279638672" /><trkpt lat="22.40816678125" lon="114.00033579638672" /><trkpt lat="22.40833678125" lon="114.00029779638672" /><trkpt lat="22.40852878125" lon="114.00027479638672" /><trkpt lat="22.40858478125" lon="114.00044979638672" /><trkpt lat="22.40857878125" lon="114.00071679638671" /><trkpt lat="22.40859378125" lon="114.00089979638672" /><trkpt lat="22.40860678125" lon="114.00103779638673" /><trkpt lat="22.40879578125" lon="114.00096079638672" /><trkpt lat="22.40888578125" lon="114.00080079638671" /><trkpt lat="22.40899478125" lon="114.00075479638672" /><trkpt lat="22.40913378125" lon="114.00083179638672" /><trkpt lat="22.40922678125" lon="114.00093079638673" /><trkpt lat="22.40936278125" lon="114.00096079638672" /><trkpt lat="22.40949078125" lon="114.00084679638672" /><trkpt lat="22.40961478125" lon="114.00070979638672" /><trkpt lat="22.40973878125" lon="114.00055679638672" /><trkpt lat="22.40988278125" lon="114.00048079638673" /><trkpt lat="22.41007578125" lon="114.00053379638672" /><trkpt lat="22.41019078125" lon="114.00059479638672" /><trkpt lat="22.41030878125" lon="114.00063279638672" /><trkpt lat="22.41046278125" lon="114.00064779638672" /><trkpt lat="22.41062178125" lon="114.00064779638672" /><trkpt lat="22.41076978125" lon="114.00056479638671" /><trkpt lat="22.41096278125" lon="114.00063279638672" /><trkpt lat="22.41098978125" lon="114.00074779638672" /><trkpt lat="22.41103678125" lon="114.00088479638671" /><trkpt lat="22.41116678125" lon="114.00101479638671" /><trkpt lat="22.41134078125" lon="114.00105979638671" /><trkpt lat="22.41146478125" lon="114.00109079638672" /><trkpt lat="22.41161078125" lon="114.00109679638672" /><trkpt lat="22.41174878125" lon="114.00110579638672" /><trkpt lat="22.41183178125" lon="114.00097579638671" /><trkpt lat="22.41202678125" lon="114.00090579638672" /><trkpt lat="22.41220478125" lon="114.00105979638671" /><trkpt lat="22.41228278125" lon="114.00123579638672" /><trkpt lat="22.41242778125" lon="114.00122779638671" /><trkpt lat="22.41245578125" lon="114.00121279638672" /><trkpt lat="22.41262378125" lon="114.00112179638671" /><trkpt lat="22.41270378125" lon="114.00099879638672" /><trkpt lat="22.41281878125" lon="114.00090779638671" /><trkpt lat="22.41301878125" lon="114.00082279638671" /><trkpt lat="22.41312578125" lon="114.00086979638672" /><trkpt lat="22.41327078125" lon="114.00097679638672" /><trkpt lat="22.41342578125" lon="114.00109479638672" /><trkpt lat="22.41345478125" lon="114.00106979638672" /><trkpt lat="22.41358378125" lon="114.00097679638672" /><trkpt lat="22.41372678125" lon="114.00084679638672" /><trkpt lat="22.41386378125" lon="114.00070979638672" /><trkpt lat="22.41392378125" lon="114.00063379638672" /><trkpt lat="22.41385478125" lon="114.00047579638672" /><trkpt lat="22.41390678125" lon="114.00015979638673" /><trkpt lat="22.41400578125" lon="113.99999079638673" /><trkpt lat="22.41387478125" lon="113.99975679638672" /><trkpt lat="22.41383078125" lon="113.99957579638672" /><trkpt lat="22.41369878125" lon="113.99937679638671" /><trkpt lat="22.41365778125" lon="113.99929779638671" /><trkpt lat="22.41362478125" lon="113.99924579638672" /><trkpt lat="22.41354978125" lon="113.99916179638672" /><trkpt lat="22.41350278125" lon="113.99917079638672" /><trkpt lat="22.41340278125" lon="113.99902279638673" /><trkpt lat="22.41329678125" lon="113.99877679638672" /><trkpt lat="22.41317678125" lon="113.99868279638672" /><trkpt lat="22.41307878125" lon="113.99861779638672" /><trkpt lat="22.41298978125" lon="113.99852079638671" /><trkpt lat="22.41303378125" lon="113.99842379638672" /><trkpt lat="22.41305178125" lon="113.99836479638672" /><trkpt lat="22.41312578125" lon="113.99832879638672" /><trkpt lat="22.41330378125" lon="113.99829279638672" /><trkpt lat="22.41337378125" lon="113.99829079638671" /><trkpt lat="22.41350578125" lon="113.99842879638672" /><trkpt lat="22.41358478125" lon="113.99845679638672" /><trkpt lat="22.41373778125" lon="113.99839179638671" /><trkpt lat="22.41388078125" lon="113.99845079638672" /><trkpt lat="22.41385478125" lon="113.99804979638672" /><trkpt lat="22.41383578125" lon="113.99776979638672" /><trkpt lat="22.41397478125" lon="113.99777779638671" /><trkpt lat="22.41419478125" lon="113.99770279638672" /><trkpt lat="22.41428378125" lon="113.99768279638671" /><trkpt lat="22.41437378125" lon="113.99764479638672" /><trkpt lat="22.41443578125" lon="113.99764479638672" /><trkpt lat="22.41450478125" lon="113.99769979638671" /><trkpt lat="22.41465578125" lon="113.99772979638672" /><trkpt lat="22.41470578125" lon="113.99776279638672" /><trkpt lat="22.41479978125" lon="113.99777479638672" /><trkpt lat="22.41488178125" lon="113.99781479638672" /><trkpt lat="22.41492878125" lon="113.99785679638671" /><trkpt lat="22.41508478125" lon="113.99782579638672" /><trkpt lat="22.41528578125" lon="113.99778179638672" /><trkpt lat="22.41543978125" lon="113.99780179638672" /><trkpt lat="22.41558578125" lon="113.99785779638673" /><trkpt lat="22.41587078125" lon="113.99786079638672" /><trkpt lat="22.41601278125" lon="113.99789979638672" /><trkpt lat="22.41613678125" lon="113.99789879638672" /><trkpt lat="22.41621378125" lon="113.99789079638671" /><trkpt lat="22.41630778125" lon="113.99782879638671" /><trkpt lat="22.41642878125" lon="113.99775479638672" /><trkpt lat="22.41665678125" lon="113.99773179638672" /><trkpt lat="22.41679378125" lon="113.99771079638671" /><trkpt lat="22.41698178125" lon="113.99769279638672" /><trkpt lat="22.41723978125" lon="113.99768779638671" /><trkpt lat="22.41744278125" lon="113.99773779638672" /><trkpt lat="22.41767878125" lon="113.99776579638672" /><trkpt lat="22.41789678125" lon="113.99777779638671" /><trkpt lat="22.41804578125" lon="113.99781479638672" /><trkpt lat="22.41820678125" lon="113.99788179638672" /><trkpt lat="22.41836778125" lon="113.99791479638672" /><trkpt lat="22.41852678125" lon="113.99788079638672" /><trkpt lat="22.41861378125" lon="113.99788479638671" /><trkpt lat="22.41870078125" lon="113.99785279638672" /><trkpt lat="22.41879978125" lon="113.99789579638671" /><trkpt lat="22.41890378125" lon="113.99796779638672" /><trkpt lat="22.41901978125" lon="113.99798379638672" /><trkpt lat="22.41911978125" lon="113.99795479638672" /><trkpt lat="22.41931278125" lon="113.99793579638671" /><trkpt lat="22.41958778125" lon="113.99787379638671" /><trkpt lat="22.41978678125" lon="113.99782879638671" /><trkpt lat="22.41994978125" lon="113.99776679638671" /><trkpt lat="22.42006878125" lon="113.99771879638672" /><trkpt lat="22.42011378125" lon="113.99770479638671" /><trkpt lat="22.42018578125" lon="113.99773579638672" /><trkpt lat="22.42023978125" lon="113.99776679638671" /><trkpt lat="22.42035178125" lon="113.99768679638672" /><trkpt lat="22.42044378125" lon="113.99756079638672" /><trkpt lat="22.42040378125" lon="113.99749579638672" /><trkpt lat="22.42052078125" lon="113.99735379638672" /><trkpt lat="22.42057478125" lon="113.99717579638671" /><trkpt lat="22.42063878125" lon="113.99710579638672" /><trkpt lat="22.42071878125" lon="113.99711679638672" /><trkpt lat="22.42079078125" lon="113.99710679638672" /><trkpt lat="22.42084778125" lon="113.99702979638671" /><trkpt lat="22.42096878125" lon="113.99699279638672" /><trkpt lat="22.42103578125" lon="113.99694879638672" /><trkpt lat="22.42110578125" lon="113.99697079638672" /><trkpt lat="22.42119478125" lon="113.99702679638672" /><trkpt lat="22.42137078125" lon="113.99701079638672" /><trkpt lat="22.42147478125" lon="113.99708279638672" /><trkpt lat="22.42168578125" lon="113.99699679638672" /><trkpt lat="22.42183178125" lon="113.99699979638672" /><trkpt lat="22.42187678125" lon="113.99691479638672" /><trkpt lat="22.42203778125" lon="113.99692279638671" /><trkpt lat="22.42218778125" lon="113.99692979638672" /><trkpt lat="22.42219378125" lon="113.99699679638672" /><trkpt lat="22.42240178125" lon="113.99704579638671" /><trkpt lat="22.42245078125" lon="113.99701479638672" /><trkpt lat="22.42304978125" lon="113.99651179638671" /><trkpt lat="22.42312078125" lon="113.99639379638671" /><trkpt lat="22.423465781250002" lon="113.99633179638671" /><trkpt lat="22.42371778125" lon="113.99619479638672" /><trkpt lat="22.42395678125" lon="113.99604779638672" /><trkpt lat="22.42414178125" lon="113.99603879638671" /><trkpt lat="22.42444278125" lon="113.99589079638672" /><trkpt lat="22.42448678125" lon="113.99583979638672" /><trkpt lat="22.42465478125" lon="113.99555979638671" /><trkpt lat="22.42537378125" lon="113.99427279638672" /><trkpt lat="22.42552378125" lon="113.99393279638672" /><trkpt lat="22.42556378125" lon="113.99384279638672" /><trkpt lat="22.42574878125" lon="113.99372279638672" /><trkpt lat="22.42591278125" lon="113.99361679638672" /><trkpt lat="22.42599478125" lon="113.99356279638671" /><trkpt lat="22.42621378125" lon="113.99354779638672" /><trkpt lat="22.42639478125" lon="113.99353479638673" /><trkpt lat="22.42677178125" lon="113.99350179638672" /><trkpt lat="22.42704178125" lon="113.99351179638671" /><trkpt lat="22.42718078125" lon="113.99351679638671" /><trkpt lat="22.42735578125" lon="113.99354679638672" /><trkpt lat="22.42751978125" lon="113.99353179638672" /><trkpt lat="22.42755778125" lon="113.99321079638672" /><trkpt lat="22.42773178125" lon="113.99304379638671" /><trkpt lat="22.42772578125" lon="113.99294879638671" /><trkpt lat="22.42798678125" lon="113.99266779638671" /><trkpt lat="22.42816278125" lon="113.99253679638672" /><trkpt lat="22.42824578125" lon="113.99247379638672" /><trkpt lat="22.42853778125" lon="113.99224479638671" /><trkpt lat="22.42887578125" lon="113.99209779638672" /><trkpt lat="22.42891878125" lon="113.99207879638672" /><trkpt lat="22.42897878125" lon="113.99224479638671" /><trkpt lat="22.42900378125" lon="113.99231479638672" /><trkpt lat="22.42914378125" lon="113.99270179638673" /><trkpt lat="22.42933278125" lon="113.99260479638671" /><trkpt lat="22.42938878125" lon="113.99257979638672" /><trkpt lat="22.42942678125" lon="113.99256279638672" /><trkpt lat="22.42954378125" lon="113.99270079638671" /><trkpt lat="22.42993678125" lon="113.99232779638672" /><trkpt lat="22.42994578125" lon="113.99233979638672" /><trkpt lat="22.429959661543265" lon="113.99235774247381" /></trkseg></trk></gpx>