<?xml version='1.0' encoding='UTF-8' ?><gpx version="1.1" creator="HikingTrailHK" xsi:schemaLocation="http://www.topografix.com/GPX/1/1 http://www.topografix.com/GPX/1/1/gpx.xsd" xmlns="http://www.topografix.com/GPX/1/1" xmlns:xsi="http://www.w3.org/2001/XMLSchema-instance"><metadata><name>洪水坑 @ 2016-9-3</name><desc></desc></metadata><trk><trkseg><trkpt lat="22.394109744184846" lon="113.97365905631844" /><trkpt lat="22.39410078125" lon="113.97372179638671" /><trkpt lat="22.39409578125" lon="113.97379679638672" /><trkpt lat="22.39409678125" lon="113.97389279638672" /><trkpt lat="22.39410678125" lon="113.97403279638672" /><trkpt lat="22.39416078125" lon="113.97425179638672" /><trkpt lat="22.39425378125" lon="113.97457779638673" /><trkpt lat="22.39428778125" lon="113.97470779638672" /><trkpt lat="22.39431578125" lon="113.97480979638672" /><trkpt lat="22.39436078125" lon="113.97497579638672" /><trkpt lat="22.39449478125" lon="113.97542279638672" /><trkpt lat="22.39469578125" lon="113.97605179638671" /><trkpt lat="22.39477578125" lon="113.97632579638672" /><trkpt lat="22.39495278125" lon="113.97682279638671" /><trkpt lat="22.395049781250002" lon="113.97711879638672" /><trkpt lat="22.39516778125" lon="113.97752979638672" /><trkpt lat="22.39519578125" lon="113.97763479638672" /><trkpt lat="22.39521478125" lon="113.97772079638672" /><trkpt lat="22.39511078125" lon="113.97774079638671" /><trkpt lat="22.39512578125" lon="113.97789179638671" /><trkpt lat="22.39512978125" lon="113.97805579638671" /><trkpt lat="22.39513678125" lon="113.97817079638672" /><trkpt lat="22.39519078125" lon="113.97832679638672" /><trkpt lat="22.39529978125" lon="113.97846079638671" /><trkpt lat="22.39532678125" lon="113.97873679638671" /><trkpt lat="22.39536278125" lon="113.97898179638672" /><trkpt lat="22.39539878125" lon="113.97922879638672" /><trkpt lat="22.39515778125" lon="113.97946279638671" /><trkpt lat="22.39510778125" lon="113.97967079638671" /><trkpt lat="22.39503578125" lon="113.97986879638673" /><trkpt lat="22.39492978125" lon="113.98006379638672" /><trkpt lat="22.39473178125" lon="113.98020779638672" /><trkpt lat="22.39474078125" lon="113.98039179638671" /><trkpt lat="22.39463978125" lon="113.98057279638672" /><trkpt lat="22.39445178125" lon="113.98060879638672" /><trkpt lat="22.39422078125" lon="113.98093279638672" /><trkpt lat="22.39419178125" lon="113.98112079638672" /><trkpt lat="22.39420878125" lon="113.98121579638672" /><trkpt lat="22.39420378125" lon="113.98132679638672" /><trkpt lat="22.39416978125" lon="113.98144779638672" /><trkpt lat="22.39409878125" lon="113.98151179638671" /><trkpt lat="22.39402478125" lon="113.98160179638671" /><trkpt lat="22.39405478125" lon="113.98169279638672" /><trkpt lat="22.39417178125" lon="113.98178779638671" /><trkpt lat="22.39422378125" lon="113.98189779638672" /><trkpt lat="22.39420178125" lon="113.98197379638673" /><trkpt lat="22.39425178125" lon="113.98207579638672" /><trkpt lat="22.39435578125" lon="113.98213179638672" /><trkpt lat="22.39438678125" lon="113.98219279638671" /><trkpt lat="22.39438178125" lon="113.98231979638672" /><trkpt lat="22.39446678125" lon="113.98245879638672" /><trkpt lat="22.39448978125" lon="113.98254379638672" /><trkpt lat="22.39462578125" lon="113.98243779638672" /><trkpt lat="22.39496478125" lon="113.98244679638672" /><trkpt lat="22.39507178125" lon="113.98260679638672" /><trkpt lat="22.39506778125" lon="113.98282479638672" /><trkpt lat="22.39506978125" lon="113.98288179638672" /><trkpt lat="22.39509378125" lon="113.98301079638672" /><trkpt lat="22.39516178125" lon="113.98312079638671" /><trkpt lat="22.39523978125" lon="113.98316279638672" /><trkpt lat="22.39520678125" lon="113.98341579638672" /><trkpt lat="22.39511878125" lon="113.98354279638671" /><trkpt lat="22.39509378125" lon="113.98363379638671" /><trkpt lat="22.39513878125" lon="113.98371979638672" /><trkpt lat="22.39520078125" lon="113.98378679638672" /><trkpt lat="22.39517778125" lon="113.98394279638671" /><trkpt lat="22.39520178125" lon="113.98402979638672" /><trkpt lat="22.39517578125" lon="113.98415379638672" /><trkpt lat="22.39519078125" lon="113.98425879638671" /><trkpt lat="22.39520378125" lon="113.98442879638672" /><trkpt lat="22.39525678125" lon="113.98454679638672" /><trkpt lat="22.39529778125" lon="113.98472579638671" /><trkpt lat="22.39536078125" lon="113.98481579638671" /><trkpt lat="22.39537678125" lon="113.98492079638672" /><trkpt lat="22.395284781249998" lon="113.98502779638672" /><trkpt lat="22.39526178125" lon="113.98510279638671" /><trkpt lat="22.39523978125" lon="113.98522379638672" /><trkpt lat="22.39523478125" lon="113.98531279638672" /><trkpt lat="22.39524178125" lon="113.98540879638672" /><trkpt lat="22.39525878125" lon="113.98552779638672" /><trkpt lat="22.39523878125" lon="113.98580579638671" /><trkpt lat="22.39521178125" lon="113.98594079638671" /><trkpt lat="22.39511278125" lon="113.98605179638672" /><trkpt lat="22.39512878125" lon="113.98612079638671" /><trkpt lat="22.39505978125" lon="113.98618279638671" /><trkpt lat="22.39498678125" lon="113.98625479638672" /><trkpt lat="22.39492278125" lon="113.98634679638671" /><trkpt lat="22.39484678125" lon="113.98652079638671" /><trkpt lat="22.39478578125" lon="113.98667879638671" /><trkpt lat="22.39480278125" lon="113.98678679638672" /><trkpt lat="22.39477578125" lon="113.98687979638672" /><trkpt lat="22.39471278125" lon="113.98693579638672" /><trkpt lat="22.39460878125" lon="113.98701479638672" /><trkpt lat="22.39454478125" lon="113.98713479638671" /><trkpt lat="22.39452878125" lon="113.98724379638672" /><trkpt lat="22.39443178125" lon="113.98738679638672" /><trkpt lat="22.39436878125" lon="113.98747579638672" /><trkpt lat="22.39432878125" lon="113.98759879638672" /><trkpt lat="22.39425578125" lon="113.98769179638671" /><trkpt lat="22.39427578125" lon="113.98778379638672" /><trkpt lat="22.39429578125" lon="113.98784079638672" /><trkpt lat="22.39432478125" lon="113.98791279638672" /><trkpt lat="22.39439578125" lon="113.98800179638671" /><trkpt lat="22.39449578125" lon="113.98812679638672" /><trkpt lat="22.39462978125" lon="113.98828579638672" /><trkpt lat="22.39468278125" lon="113.98831479638672" /><trkpt lat="22.39483178125" lon="113.98831679638671" /><trkpt lat="22.39482578125" lon="113.98841579638672" /><trkpt lat="22.39475578125" lon="113.98849379638672" /><trkpt lat="22.39471178125" lon="113.98862979638672" /><trkpt lat="22.39470978125" lon="113.98877079638672" /><trkpt lat="22.39473178125" lon="113.98887379638671" /><trkpt lat="22.39468878125" lon="113.98895279638671" /><trkpt lat="22.39468478125" lon="113.98904179638672" /><trkpt lat="22.39473078125" lon="113.98919979638671" /><trkpt lat="22.39469878125" lon="113.98931379638672" /><trkpt lat="22.39474778125" lon="113.98946779638672" /><trkpt lat="22.39471778125" lon="113.98950679638672" /><trkpt lat="22.39476278125" lon="113.98967079638672" /><trkpt lat="22.39462878125" lon="113.98989979638672" /><trkpt lat="22.39466478125" lon="113.99004979638671" /><trkpt lat="22.39461178125" lon="113.99003779638672" /><trkpt lat="22.39460278125" lon="113.99013779638672" /><trkpt lat="22.39448278125" lon="113.99023779638672" /><trkpt lat="22.39447378125" lon="113.99035179638672" /><trkpt lat="22.39429678125" lon="113.99048979638673" /><trkpt lat="22.39450278125" lon="113.99054879638672" /><trkpt lat="22.39463978125" lon="113.99078279638672" /><trkpt lat="22.39474978125" lon="113.99152679638672" /><trkpt lat="22.39482178125" lon="113.99160579638672" /><trkpt lat="22.39503778125" lon="113.99142679638672" /><trkpt lat="22.39517678125" lon="113.99144379638672" /><trkpt lat="22.39528878125" lon="113.99154879638672" /><trkpt lat="22.39534178125" lon="113.99183079638672" /><trkpt lat="22.39515478125" lon="113.99207579638671" /><trkpt lat="22.39516178125" lon="113.99230979638672" /><trkpt lat="22.39535578125" lon="113.99269379638672" /><trkpt lat="22.39543978125" lon="113.99273179638672" /><trkpt lat="22.39572978125" lon="113.99260879638672" /><trkpt lat="22.39586578125" lon="113.99273579638673" /><trkpt lat="22.39589778125" lon="113.99293079638672" /><trkpt lat="22.39601778125" lon="113.99308679638672" /><trkpt lat="22.39620178125" lon="113.99311779638671" /><trkpt lat="22.39633178125" lon="113.99325279638671" /><trkpt lat="22.39651978125" lon="113.99381179638672" /><trkpt lat="22.39668878125" lon="113.99387779638671" /><trkpt lat="22.39685078125" lon="113.99375879638671" /><trkpt lat="22.39703278125" lon="113.99389579638672" /><trkpt lat="22.39701778125" lon="113.99413279638672" /><trkpt lat="22.39717378125" lon="113.99475879638672" /><trkpt lat="22.39737378125" lon="113.99477279638671" /><trkpt lat="22.39756278125" lon="113.99477579638672" /><trkpt lat="22.39768978125" lon="113.99492179638672" /><trkpt lat="22.39800178125" lon="113.99516479638672" /><trkpt lat="22.39813778125" lon="113.99555079638672" /><trkpt lat="22.39827378125" lon="113.99572079638672" /><trkpt lat="22.39824978125" lon="113.99596579638671" /><trkpt lat="22.39839778125" lon="113.99608379638671" /><trkpt lat="22.39823678125" lon="113.99643479638672" /><trkpt lat="22.39818978125" lon="113.99683279638671" /><trkpt lat="22.39808678125" lon="113.99699879638672" /><trkpt lat="22.39803278125" lon="113.99758679638671" /><trkpt lat="22.39760478125" lon="113.99778479638672" /><trkpt lat="22.39717578125" lon="113.99815279638672" /><trkpt lat="22.39681678125" lon="113.99821979638672" /><trkpt lat="22.39628778125" lon="113.99812479638672" /><trkpt lat="22.39610878125" lon="113.99825379638672" /><trkpt lat="22.39590578125" lon="113.99842179638672" /><trkpt lat="22.39578278125" lon="113.99904179638672" /><trkpt lat="22.39567878125" lon="113.99944979638671" /><trkpt lat="22.39549878125" lon="113.99969179638671" /><trkpt lat="22.39551278125" lon="114.00028379638673" /><trkpt lat="22.39561378125" lon="114.00061679638672" /><trkpt lat="22.395837781250002" lon="114.00116279638672" /><trkpt lat="22.39592878125" lon="114.00153379638672" /><trkpt lat="22.39617878125" lon="114.00164779638672" /><trkpt lat="22.39626078125" lon="114.00186679638672" /><trkpt lat="22.39619978125" lon="114.00196679638672" /><trkpt lat="22.39591178125" lon="114.00221979638673" /><trkpt lat="22.39584578125" lon="114.00253679638672" /><trkpt lat="22.39594778125" lon="114.00273079638671" /><trkpt lat="22.39604778125" lon="114.00280179638672" /><trkpt lat="22.39630378125" lon="114.00295879638672" /><trkpt lat="22.39630178125" lon="114.00300479638672" /><trkpt lat="22.39651178125" lon="114.00323179638671" /><trkpt lat="22.39654678125" lon="114.00326979638672" /><trkpt lat="22.39678878125" lon="114.00329079638672" /><trkpt lat="22.39712178125" lon="114.00335179638672" /><trkpt lat="22.397268641017856" lon="114.00347378614137" /><trkpt lat="22.39735378125" lon="114.00356279638672" /><trkpt lat="22.39743378125" lon="114.00361579638673" /><trkpt lat="22.39746478125" lon="114.00378379638671" /><trkpt lat="22.39755378125" lon="114.00385279638672" /><trkpt lat="22.39764178125" lon="114.00390579638672" /><trkpt lat="22.39770678125" lon="114.00400479638672" /><trkpt lat="22.39774078125" lon="114.00411979638672" /><trkpt lat="22.39774078125" lon="114.00424979638672" /><trkpt lat="22.39778078125" lon="114.00433279638672" /><trkpt lat="22.39784578125" lon="114.00443979638672" /><trkpt lat="22.39788978125" lon="114.00448579638672" /><trkpt lat="22.39800978125" lon="114.00472979638671" /><trkpt lat="22.39806878125" lon="114.00485979638673" /><trkpt lat="22.39807278125" lon="114.00502779638671" /><trkpt lat="22.39807278125" lon="114.00519579638672" /><trkpt lat="22.39808778125" lon="114.00537879638672" /><trkpt lat="22.39811278125" lon="114.00558479638671" /><trkpt lat="22.398101282435213" lon="114.00577116345147" /><trkpt lat="22.39824278125" lon="114.00587479638672" /><trkpt lat="22.39835678125" lon="114.00598079638672" /><trkpt lat="22.39849978125" lon="114.00604179638673" /><trkpt lat="22.39863578125" lon="114.00604179638673" /><trkpt lat="22.39881678125" lon="114.00603479638671" /><trkpt lat="22.39888778125" lon="114.00591979638672" /><trkpt lat="22.39891178125" lon="114.00571379638671" /><trkpt lat="22.39899278125" lon="114.00552379638673" /><trkpt lat="22.39920378125" lon="114.00541679638673" /><trkpt lat="22.39932778125" lon="114.00531779638672" /><trkpt lat="22.39945178125" lon="114.00524879638672" /><trkpt lat="22.39961178125" lon="114.00533279638672" /><trkpt lat="22.39972078125" lon="114.00537079638671" /><trkpt lat="22.39989078125" lon="114.00530179638672" /><trkpt lat="22.40004278125" lon="114.00529479638672" /><trkpt lat="22.40018278125" lon="114.00522579638672" /><trkpt lat="22.40031978125" lon="114.00520279638671" /><trkpt lat="22.40038678125" lon="114.00512679638672" /><trkpt lat="22.40047978125" lon="114.00498179638672" /><trkpt lat="22.40051078125" lon="114.00485979638673" /><trkpt lat="22.40056278125" lon="114.00480679638672" /><trkpt lat="22.40060778125" lon="114.00476079638672" /><trkpt lat="22.40079078125" lon="114.00470679638671" /><trkpt lat="22.40094578125" lon="114.00463879638671" /><trkpt lat="22.40107878125" lon="114.00453179638671" /><trkpt lat="22.40117778125" lon="114.00437179638672" /><trkpt lat="22.40124878125" lon="114.00420379638672" /><trkpt lat="22.40134778125" lon="114.00404379638672" /><trkpt lat="22.40157078125" lon="114.00393679638672" /><trkpt lat="22.40172978125" lon="114.00385279638672" /><trkpt lat="22.40187778125" lon="114.00379879638672" /><trkpt lat="22.40203678125" lon="114.00367679638671" /><trkpt lat="22.40224478125" lon="114.00365379638671" /><trkpt lat="22.40243278125" lon="114.00353979638672" /><trkpt lat="22.40261278125" lon="114.00353179638672" /><trkpt lat="22.40282578125" lon="114.00346379638673" /><trkpt lat="22.40301878125" lon="114.00344779638672" /><trkpt lat="22.40316378125" lon="114.00340279638672" /><trkpt lat="22.40332178125" lon="114.00336479638672" /><trkpt lat="22.40348378125" lon="114.00332579638672" /><trkpt lat="22.40366378125" lon="114.00328079638672" /><trkpt lat="22.40379678125" lon="114.00324179638672" /><trkpt lat="22.40396678125" lon="114.00320379638671" /><trkpt lat="22.40409478125" lon="114.00318879638672" /><trkpt lat="22.40422778125" lon="114.00311279638672" /><trkpt lat="22.40447578125" lon="114.00302879638672" /><trkpt lat="22.40471978125" lon="114.00308179638672" /><trkpt lat="22.40497178125" lon="114.00305879638672" /><trkpt lat="22.40518578125" lon="114.00299079638671" /><trkpt lat="22.40530578125" lon="114.00284579638672" /><trkpt lat="22.40573678125" lon="114.00274679638672" /><trkpt lat="22.40590078125" lon="114.00265479638672" /><trkpt lat="22.40602478125" lon="114.00251779638671" /><trkpt lat="22.40611778125" lon="114.00233479638672" /><trkpt lat="22.40628178125" lon="114.00226579638672" /><trkpt lat="22.40636278125" lon="114.00217379638671" /><trkpt lat="22.40644578125" lon="114.00203679638672" /><trkpt lat="22.40651478125" lon="114.00189979638672" /><trkpt lat="22.40660078125" lon="114.00175479638672" /><trkpt lat="22.40660478125" lon="114.00154079638672" /><trkpt lat="22.40671278125" lon="114.00138879638672" /><trkpt lat="22.40676878125" lon="114.00122079638672" /><trkpt lat="22.40691778125" lon="114.00099879638672" /><trkpt lat="22.40702978125" lon="114.00084679638672" /><trkpt lat="22.40712478125" lon="114.00073979638672" /><trkpt lat="22.40730478125" lon="114.00064079638672" /><trkpt lat="22.40748778125" lon="114.00058679638671" /><trkpt lat="22.40763078125" lon="114.00065579638672" /><trkpt lat="22.40773978125" lon="114.00065579638672" /><trkpt lat="22.40781978125" lon="114.00048779638672" /><trkpt lat="22.40790878125" lon="114.00040379638672" /><trkpt lat="22.40803678125" lon="114.00034279638672" /><trkpt lat="22.40816678125" lon="114.00033579638672" /><trkpt lat="22.40833678125" lon="114.00029779638672" /><trkpt lat="22.40852878125" lon="114.00027479638672" /><trkpt lat="22.40858478125" lon="114.00044979638672" /><trkpt lat="22.40857878125" lon="114.00071679638671" /><trkpt lat="22.40859378125" lon="114.00089979638672" /><trkpt lat="22.40860678125" lon="114.00103779638673" /><trkpt lat="22.40879578125" lon="114.00096079638672" /><trkpt lat="22.40888578125" lon="114.00080079638671" /><trkpt lat="22.40899478125" lon="114.00075479638672" /><trkpt lat="22.40913378125" lon="114.00083179638672" /><trkpt lat="22.40922678125" lon="114.00093079638673" /><trkpt lat="22.40936278125" lon="114.00096079638672" /><trkpt lat="22.40949078125" lon="114.00084679638672" /><trkpt lat="22.40961478125" lon="114.00070979638672" /><trkpt lat="22.40973878125" lon="114.00055679638672" /><trkpt lat="22.40988278125" lon="114.00048079638673" /><trkpt lat="22.41007578125" lon="114.00053379638672" /><trkpt lat="22.41019078125" lon="114.00059479638672" /><trkpt lat="22.41030878125" lon="114.00063279638672" /><trkpt lat="22.41046278125" lon="114.00064779638672" /><trkpt lat="22.41062178125" lon="114.00064779638672" /><trkpt lat="22.41076978125" lon="114.00056479638671" /><trkpt lat="22.41096278125" lon="114.00063279638672" /><trkpt lat="22.41098978125" lon="114.00074779638672" /><trkpt lat="22.41103678125" lon="114.00088479638671" /><trkpt lat="22.41116678125" lon="114.00101479638671" /><trkpt lat="22.41134078125" lon="114.00105979638671" /><trkpt lat="22.41146478125" lon="114.00109079638672" /><trkpt lat="22.41161078125" lon="114.00109679638672" /><trkpt lat="22.41174878125" lon="114.00110579638672" /><trkpt lat="22.41187678125" lon="114.00109079638672" /><trkpt lat="22.41201578125" lon="114.00107579638671" /><trkpt lat="22.41220478125" lon="114.00105979638671" /><trkpt lat="22.41228278125" lon="114.00123579638672" /><trkpt lat="22.41242778125" lon="114.00122779638671" /><trkpt lat="22.41262378125" lon="114.00112179638671" /><trkpt lat="22.41270378125" lon="114.00099879638672" /><trkpt lat="22.41281878125" lon="114.00090779638671" /><trkpt lat="22.41300178125" lon="114.00081579638672" /><trkpt lat="22.41303378125" lon="114.00082979638672" /><trkpt lat="22.41312578125" lon="114.00086979638672" /><trkpt lat="22.41327078125" lon="114.00097679638672" /><trkpt lat="22.41342578125" lon="114.00109479638672" /><trkpt lat="22.41345478125" lon="114.00106979638672" /><trkpt lat="22.41358378125" lon="114.00097679638672" /><trkpt lat="22.41372678125" lon="114.00084679638672" /><trkpt lat="22.41386378125" lon="114.00070979638672" /><trkpt lat="22.41399878125" lon="114.00063379638672" /><trkpt lat="22.41394178125" lon="114.00044979638672" /><trkpt lat="22.41397078125" lon="114.00018279638672" /><trkpt lat="22.41405478125" lon="113.99999079638673" /><trkpt lat="22.41391478125" lon="113.99973579638672" /><trkpt lat="22.41386878125" lon="113.99955279638672" /><trkpt lat="22.41369878125" lon="113.99937679638671" /><trkpt lat="22.41365778125" lon="113.99929779638671" /><trkpt lat="22.41362478125" lon="113.99924579638672" /><trkpt lat="22.41354978125" lon="113.99916179638672" /><trkpt lat="22.41350278125" lon="113.99917079638672" /><trkpt lat="22.41340278125" lon="113.99902279638673" /><trkpt lat="22.41329678125" lon="113.99877679638672" /><trkpt lat="22.41317678125" lon="113.99868279638672" /><trkpt lat="22.41307878125" lon="113.99861779638672" /><trkpt lat="22.41298978125" lon="113.99852079638671" /><trkpt lat="22.41303378125" lon="113.99842379638672" /><trkpt lat="22.41305178125" lon="113.99836479638672" /><trkpt lat="22.41312578125" lon="113.99832879638672" /><trkpt lat="22.41330378125" lon="113.99829279638672" /><trkpt lat="22.41337378125" lon="113.99829079638671" /><trkpt lat="22.41350578125" lon="113.99842879638672" /><trkpt lat="22.41358478125" lon="113.99845679638672" /><trkpt lat="22.41373778125" lon="113.99839179638671" /><trkpt lat="22.41388078125" lon="113.99845079638672" /><trkpt lat="22.41385478125" lon="113.99804979638672" /><trkpt lat="22.41385478125" lon="113.99778679638672" /><trkpt lat="22.41397478125" lon="113.99777779638671" /><trkpt lat="22.41419478125" lon="113.99770279638672" /><trkpt lat="22.41428378125" lon="113.99768279638671" /><trkpt lat="22.41437378125" lon="113.99764479638672" /><trkpt lat="22.41443578125" lon="113.99764479638672" /><trkpt lat="22.41450478125" lon="113.99769979638671" /><trkpt lat="22.41465578125" lon="113.99772979638672" /><trkpt lat="22.41470578125" lon="113.99776279638672" /><trkpt lat="22.41479978125" lon="113.99777479638672" /><trkpt lat="22.41488178125" lon="113.99781479638672" /><trkpt lat="22.41492878125" lon="113.99785679638671" /><trkpt lat="22.41508478125" lon="113.99782579638672" /><trkpt lat="22.41528578125" lon="113.99778179638672" /><trkpt lat="22.41543978125" lon="113.99780179638672" /><trkpt lat="22.41558578125" lon="113.99785779638673" /><trkpt lat="22.41587078125" lon="113.99786079638672" /><trkpt lat="22.41601278125" lon="113.99789979638672" /><trkpt lat="22.41613678125" lon="113.99789879638672" /><trkpt lat="22.41621378125" lon="113.99789079638671" /><trkpt lat="22.41630778125" lon="113.99782879638671" /><trkpt lat="22.41642878125" lon="113.99775479638672" /><trkpt lat="22.41665678125" lon="113.99773179638672" /><trkpt lat="22.41679378125" lon="113.99771079638671" /><trkpt lat="22.41698178125" lon="113.99769279638672" /><trkpt lat="22.41723978125" lon="113.99768779638671" /><trkpt lat="22.41744278125" lon="113.99773779638672" /><trkpt lat="22.41767878125" lon="113.99776579638672" /><trkpt lat="22.41789678125" lon="113.99777779638671" /><trkpt lat="22.41804578125" lon="113.99781479638672" /><trkpt lat="22.41820678125" lon="113.99788179638672" /><trkpt lat="22.41836778125" lon="113.99791479638672" /><trkpt lat="22.41852678125" lon="113.99788079638672" /><trkpt lat="22.41861378125" lon="113.99788479638671" /><trkpt lat="22.41870078125" lon="113.99785279638672" /><trkpt lat="22.41879978125" lon="113.99789579638671" /><trkpt lat="22.41890378125" lon="113.99796779638672" /><trkpt lat="22.41901978125" lon="113.99798379638672" /><trkpt lat="22.41911978125" lon="113.99795479638672" /><trkpt lat="22.41931278125" lon="113.99793579638671" /><trkpt lat="22.41958778125" lon="113.99787379638671" /><trkpt lat="22.41978678125" lon="113.99782879638671" /><trkpt lat="22.41994978125" lon="113.99776679638671" /><trkpt lat="22.42006878125" lon="113.99771879638672" /><trkpt lat="22.42011378125" lon="113.99770479638671" /><trkpt lat="22.42018578125" lon="113.99773579638672" /><trkpt lat="22.42023978125" lon="113.99776679638671" /><trkpt lat="22.42035178125" lon="113.99768679638672" /><trkpt lat="22.42044378125" lon="113.99756079638672" /><trkpt lat="22.42040378125" lon="113.99749579638672" /><trkpt lat="22.42052078125" lon="113.99735379638672" /><trkpt lat="22.42057478125" lon="113.99717579638671" /><trkpt lat="22.42063878125" lon="113.99710579638672" /><trkpt lat="22.42071878125" lon="113.99711679638672" /><trkpt lat="22.42079078125" lon="113.99710679638672" /><trkpt lat="22.42084778125" lon="113.99702979638671" /><trkpt lat="22.42096878125" lon="113.99699279638672" /><trkpt lat="22.42103578125" lon="113.99694879638672" /><trkpt lat="22.42110578125" lon="113.99697079638672" /><trkpt lat="22.42119478125" lon="113.99702679638672" /><trkpt lat="22.42137078125" lon="113.99701079638672" /><trkpt lat="22.42147478125" lon="113.99708279638672" /><trkpt lat="22.42168578125" lon="113.99699679638672" /><trkpt lat="22.42183178125" lon="113.99699979638672" /><trkpt lat="22.42187678125" lon="113.99691479638672" /><trkpt lat="22.42203778125" lon="113.99692279638671" /><trkpt lat="22.42218778125" lon="113.99692979638672" /><trkpt lat="22.42219378125" lon="113.99699679638672" /><trkpt lat="22.42240178125" lon="113.99704579638671" /><trkpt lat="22.42245078125" lon="113.99701479638672" /><trkpt lat="22.42304978125" lon="113.99651179638671" /><trkpt lat="22.42312078125" lon="113.99639379638671" /><trkpt lat="22.423465781250002" lon="113.99633179638671" /><trkpt lat="22.42379778125" lon="113.99614379638672" /><trkpt lat="22.42395678125" lon="113.99604779638672" /><trkpt lat="22.42405178125" lon="113.99608279638672" /><trkpt lat="22.42414178125" lon="113.99603879638671" /><trkpt lat="22.42444278125" lon="113.99589079638672" /><trkpt lat="22.42448678125" lon="113.99583979638672" /><trkpt lat="22.42465478125" lon="113.99555979638671" /><trkpt lat="22.42537378125" lon="113.99427279638672" /><trkpt lat="22.42552378125" lon="113.99393279638672" /><trkpt lat="22.42556378125" lon="113.99384279638672" /><trkpt lat="22.42599478125" lon="113.99356279638671" /><trkpt lat="22.42639478125" lon="113.99350479638672" /><trkpt lat="22.42677178125" lon="113.99345079638672" /><trkpt lat="22.42707478125" lon="113.99344079638672" /><trkpt lat="22.42751178125" lon="113.99345379638672" /><trkpt lat="22.42759478125" lon="113.99332379638672" /><trkpt lat="22.42760178125" lon="113.99306379638672" /><trkpt lat="22.42773678125" lon="113.99298179638672" /><trkpt lat="22.42793978125" lon="113.99259979638671" /><trkpt lat="22.42812078125" lon="113.99252679638671" /><trkpt lat="22.42812078125" lon="113.99242879638672" /><trkpt lat="22.42823278125" lon="113.99241279638672" /><trkpt lat="22.428345781250002" lon="113.99277879638672" /><trkpt lat="22.42856378125" lon="113.99299879638671" /><trkpt lat="22.42914378125" lon="113.99270179638673" /><trkpt lat="22.42933278125" lon="113.99260479638671" /><trkpt lat="22.42944578125" lon="113.99254679638672" /><trkpt lat="22.42955878125" lon="113.99268879638672" /><trkpt lat="22.429835967541656" lon="113.99242407641239" /></trkseg></trk></gpx>