<?xml version='1.0' encoding='UTF-8' ?><gpx version="1.1" creator="HikingTrailHK" xsi:schemaLocation="http://www.topografix.com/GPX/1/1 http://www.topografix.com/GPX/1/1/gpx.xsd" xmlns="http://www.topografix.com/GPX/1/1" xmlns:xsi="http://www.w3.org/2001/XMLSchema-instance"><metadata><name>淋坑山 @ 2020-06-07 13:01:52</name><desc></desc></metadata><trk><trkseg><trkpt lat="22.46852357913392" lon="113.99948999202967" /><trkpt lat="22.46895678125" lon="113.99889579638672" /><trkpt lat="22.46894978125" lon="113.99882479638671" /><trkpt lat="22.46896078125" lon="113.99875379638672" /><trkpt lat="22.46900178125" lon="113.99867779638672" /><trkpt lat="22.46907178125" lon="113.99861779638672" /><trkpt lat="22.46916778125" lon="113.99856979638672" /><trkpt lat="22.46923878125" lon="113.99846179638672" /><trkpt lat="22.46944378125" lon="113.99812779638673" /><trkpt lat="22.46955278125" lon="113.99802779638672" /><trkpt lat="22.470114199839117" lon="113.99721236653659" /><trkpt lat="22.47012885254088" lon="113.99714463745477" /><trkpt lat="22.47012736938744" lon="113.99706331092443" /><trkpt lat="22.470100124771477" lon="113.99702839245163" /><trkpt lat="22.470060989622667" lon="113.99700703834037" /><trkpt lat="22.470010861299883" lon="113.99700444051956" /><trkpt lat="22.469970646279037" lon="113.99699281867271" /><trkpt lat="22.469689382307706" lon="113.99681818182779" /><trkpt lat="22.469668927028167" lon="113.99677731805644" /><trkpt lat="22.469675257801" lon="113.99673225891621" /><trkpt lat="22.469701372038372" lon="113.99668277502235" /><trkpt lat="22.46973357224313" lon="113.99663902769191" /><trkpt lat="22.469752396207856" lon="113.99659722710906" /><trkpt lat="22.46979078125" lon="113.99650079638671" /><trkpt lat="22.46984378125" lon="113.99637879638672" /><trkpt lat="22.46997378125" lon="113.99617279638672" /><trkpt lat="22.47027878125" lon="113.99575279638672" /><trkpt lat="22.47039778125" lon="113.99555779638672" /><trkpt lat="22.47050378125" lon="113.99544979638672" /><trkpt lat="22.47055578125" lon="113.99537579638672" /><trkpt lat="22.47060278125" lon="113.99525579638672" /><trkpt lat="22.47060078125" lon="113.99529479638672" /><trkpt lat="22.47061978125" lon="113.99539279638672" /><trkpt lat="22.47079378125" lon="113.99564879638672" /><trkpt lat="22.47097078125" lon="113.99579779638673" /><trkpt lat="22.47102578125" lon="113.99584379638672" /><trkpt lat="22.47131778125" lon="113.99606579638672" /><trkpt lat="22.47163778125" lon="113.99624679638671" /><trkpt lat="22.47169678125" lon="113.99619279638672" /><trkpt lat="22.47176378125" lon="113.99614479638672" /><trkpt lat="22.47180578125" lon="113.99606179638671" /><trkpt lat="22.47184878125" lon="113.99597779638673" /><trkpt lat="22.47190578125" lon="113.99592979638672" /><trkpt lat="22.47194178125" lon="113.99586179638672" /><trkpt lat="22.47209378125" lon="113.99580379638672" /><trkpt lat="22.47220778125" lon="113.99572279638672" /><trkpt lat="22.47213778125" lon="113.99564279638672" /><trkpt lat="22.47208678125" lon="113.99548879638672" /><trkpt lat="22.47200678125" lon="113.99540979638672" /><trkpt lat="22.47196378125" lon="113.99534079638671" /><trkpt lat="22.47194078125" lon="113.99520379638672" /><trkpt lat="22.47186178125" lon="113.99497979638672" /><trkpt lat="22.47186178125" lon="113.99494679638671" /><trkpt lat="22.471858984061548" lon="113.99489700632438" /></trkseg></trk></gpx>