<?xml version='1.0' encoding='UTF-8' ?><gpx version="1.1" creator="HikingTrailHK" xsi:schemaLocation="http://www.topografix.com/GPX/1/1 http://www.topografix.com/GPX/1/1/gpx.xsd" xmlns="http://www.topografix.com/GPX/1/1" xmlns:xsi="http://www.w3.org/2001/XMLSchema-instance"><metadata><name>澳背村 天后廟 @ 2025-12-22 09:54:10</name><desc></desc></metadata><wpt lat="22.31224166666667" lon="114.27456500000001"><ele>69.30000000000001</ele><time>2025-12-22T01:57:14Z</time><name>行山人士橋</name></wpt><wpt lat="22.31104833333333" lon="114.27278666666668"><ele>103.5</ele><time>2025-12-22T02:08:38Z</time><name>小石橋</name></wpt><wpt lat="22.31281" lon="114.27057500000001"><ele>100.4</ele><time>2025-12-22T02:22:45Z</time><name>開揚位</name></wpt><wpt lat="22.313153333333336" lon="114.27034666666665"><ele>99.80000000000001</ele><time>2025-12-22T02:28:26Z</time><name>大石堆，景觀正</name></wpt><wpt lat="22.31360833333333" lon="114.26944"><ele>51.5</ele><time>2025-12-22T03:02:52Z</time><name>繩</name></wpt><wpt lat="22.31031345868243" lon="114.27637040277637"><name>山中小屋</name></wpt><wpt lat="22.312391462791922" lon="114.27457354815408"><name>伯公小壇</name></wpt><wpt lat="22.314299554446322" lon="114.2692428739951"><name>坑口天后廟</name></wpt><trk><trkseg><trkpt lat="22.307603578511458" lon="114.26115857555187" /><trkpt lat="22.30762878125" lon="114.26114979638672" /><trkpt lat="22.30765978125" lon="114.26119479638672" /><trkpt lat="22.30767578125" lon="114.26126079638672" /><trkpt lat="22.30770278125" lon="114.26137179638671" /><trkpt lat="22.30772678125" lon="114.26147079638672" /><trkpt lat="22.30773478125" lon="114.26152579638672" /><trkpt lat="22.30774778125" lon="114.26159679638671" /><trkpt lat="22.30792278125" lon="114.26212779638672" /><trkpt lat="22.30800078125" lon="114.26234379638672" /><trkpt lat="22.30804778125" lon="114.26249579638672" /><trkpt lat="22.30809078125" lon="114.26262679638671" /><trkpt lat="22.30816178125" lon="114.26281779638671" /><trkpt lat="22.30823978125" lon="114.26301979638671" /><trkpt lat="22.30828178125" lon="114.26309679638672" /><trkpt lat="22.30839778125" lon="114.26325679638671" /><trkpt lat="22.30847078125" lon="114.26331679638672" /><trkpt lat="22.30856178125" lon="114.26337479638671" /><trkpt lat="22.30861378125" lon="114.26339479638672" /><trkpt lat="22.30869278125" lon="114.26341279638672" /><trkpt lat="22.30878078125" lon="114.26342079638673" /><trkpt lat="22.30895478125" lon="114.26342079638673" /><trkpt lat="22.30904378125" lon="114.26340779638672" /><trkpt lat="22.30909878125" lon="114.26339279638673" /><trkpt lat="22.30950178125" lon="114.26322179638672" /><trkpt lat="22.30979378125" lon="114.26309979638671" /><trkpt lat="22.30985478125" lon="114.26307479638672" /><trkpt lat="22.30984178125" lon="114.26300679638672" /><trkpt lat="22.30983178125" lon="114.26297879638672" /><trkpt lat="22.30975178125" lon="114.26300879638671" /><trkpt lat="22.30966978125" lon="114.26303979638672" /><trkpt lat="22.30968478125" lon="114.26307479638672" /><trkpt lat="22.30978178125" lon="114.26303279638672" /><trkpt lat="22.30992478125" lon="114.26342579638671" /><trkpt lat="22.30996578125" lon="114.26340979638672" /><trkpt lat="22.30994378125" lon="114.26335779638671" /><trkpt lat="22.30956478125" lon="114.26353479638672" /><trkpt lat="22.30927778125" lon="114.26366679638672" /><trkpt lat="22.30912778125" lon="114.26376379638671" /><trkpt lat="22.30909978125" lon="114.26379379638672" /><trkpt lat="22.30907578125" lon="114.26382979638672" /><trkpt lat="22.30905878125" lon="114.26386779638672" /><trkpt lat="22.30904778125" lon="114.26390979638671" /><trkpt lat="22.30904378125" lon="114.26395279638672" /><trkpt lat="22.30904678125" lon="114.26399579638672" /><trkpt lat="22.30905078125" lon="114.26401679638671" /><trkpt lat="22.30901078125" lon="114.26402379638672" /><trkpt lat="22.30888278125" lon="114.26405879638672" /><trkpt lat="22.30854578125" lon="114.26426679638672" /><trkpt lat="22.30851578125" lon="114.26428579638672" /><trkpt lat="22.30859378125" lon="114.26441779638672" /><trkpt lat="22.30863978125" lon="114.26440379638672" /><trkpt lat="22.30879878125" lon="114.26445679638672" /><trkpt lat="22.30908978125" lon="114.26464379638672" /><trkpt lat="22.30923578125" lon="114.26475879638672" /><trkpt lat="22.30922178125" lon="114.26485879638672" /><trkpt lat="22.30899378125" lon="114.26497079638672" /><trkpt lat="22.30894378125" lon="114.26506079638672" /><trkpt lat="22.30874978125" lon="114.26511979638671" /><trkpt lat="22.30869278125" lon="114.26520779638672" /><trkpt lat="22.30850878125" lon="114.26534079638672" /><trkpt lat="22.30845778125" lon="114.26535179638672" /><trkpt lat="22.30832178125" lon="114.26545379638672" /><trkpt lat="22.30835278125" lon="114.26550779638671" /><trkpt lat="22.30832278125" lon="114.26554279638673" /><trkpt lat="22.30827878125" lon="114.26553279638672" /><trkpt lat="22.30824778125" lon="114.26557179638672" /><trkpt lat="22.30826878125" lon="114.26561479638671" /><trkpt lat="22.30822678125" lon="114.26571179638673" /><trkpt lat="22.30817478125" lon="114.26579079638672" /><trkpt lat="22.30813078125" lon="114.26583379638672" /><trkpt lat="22.30805578125" lon="114.26584379638672" /><trkpt lat="22.30800178125" lon="114.26586279638671" /><trkpt lat="22.30792278125" lon="114.26590379638672" /><trkpt lat="22.30785278125" lon="114.26594579638672" /><trkpt lat="22.30772378125" lon="114.26609579638672" /><trkpt lat="22.30752678125" lon="114.26637179638672" /><trkpt lat="22.30680778125" lon="114.26636879638671" /><trkpt lat="22.30630178125" lon="114.26620479638672" /><trkpt lat="22.30618278125" lon="114.26620479638672" /><trkpt lat="22.30608578125" lon="114.26629079638671" /><trkpt lat="22.30604378125" lon="114.26641679638672" /><trkpt lat="22.30603078125" lon="114.26658079638672" /><trkpt lat="22.30606478125" lon="114.26671079638672" /><trkpt lat="22.30611778125" lon="114.26681579638672" /><trkpt lat="22.30615478125" lon="114.26688779638671" /><trkpt lat="22.30621078125" lon="114.26694579638672" /><trkpt lat="22.30628678125" lon="114.26697679638671" /><trkpt lat="22.30669178125" lon="114.26708179638672" /><trkpt lat="22.30709078125" lon="114.26718479638672" /><trkpt lat="22.30736578125" lon="114.26724579638672" /><trkpt lat="22.30751978125" lon="114.26723679638671" /><trkpt lat="22.30764978125" lon="114.26722779638672" /><trkpt lat="22.30770678125" lon="114.26722179638672" /><trkpt lat="22.30777378125" lon="114.26720779638671" /><trkpt lat="22.307850308347902" lon="114.2671869857651" /><trkpt lat="22.30766978125" lon="114.26726079638672" /><trkpt lat="22.30758478125" lon="114.26727379638672" /><trkpt lat="22.30750678125" lon="114.26727579638671" /><trkpt lat="22.30737078125" lon="114.26727179638672" /><trkpt lat="22.30696878125" lon="114.26717179638672" /><trkpt lat="22.30686378125" lon="114.26714279638672" /><trkpt lat="22.30679878125" lon="114.26712679638672" /><trkpt lat="22.30671178125" lon="114.26710179638673" /><trkpt lat="22.30653378125" lon="114.26705979638672" /><trkpt lat="22.30633978125" lon="114.26700579638671" /><trkpt lat="22.30633178125" lon="114.26703779638672" /><trkpt lat="22.30631678125" lon="114.26710579638672" /><trkpt lat="22.30653978125" lon="114.26717779638672" /><trkpt lat="22.30656278125" lon="114.26718879638672" /><trkpt lat="22.30657978125" lon="114.26720079638672" /><trkpt lat="22.30659578125" lon="114.26721779638672" /><trkpt lat="22.30661378125" lon="114.26724779638671" /><trkpt lat="22.30662878125" lon="114.26727379638672" /><trkpt lat="22.30663478125" lon="114.26730279638672" /><trkpt lat="22.30664078125" lon="114.26746279638672" /><trkpt lat="22.30665378125" lon="114.26753379638672" /><trkpt lat="22.30669578125" lon="114.26764479638672" /><trkpt lat="22.30687878125" lon="114.26800779638671" /><trkpt lat="22.30689278125" lon="114.26808679638673" /><trkpt lat="22.30691978125" lon="114.26812979638672" /><trkpt lat="22.30695278125" lon="114.26818379638672" /><trkpt lat="22.30695878125" lon="114.26821379638672" /><trkpt lat="22.30696378125" lon="114.26824679638672" /><trkpt lat="22.30695678125" lon="114.26830079638673" /><trkpt lat="22.30694778125" lon="114.26831979638672" /><trkpt lat="22.30693478125" lon="114.26833579638672" /><trkpt lat="22.30691278125" lon="114.26835479638672" /><trkpt lat="22.30682478125" lon="114.26842579638672" /><trkpt lat="22.30673078125" lon="114.26850579638672" /><trkpt lat="22.30662178125" lon="114.26860279638672" /><trkpt lat="22.30651678125" lon="114.26869879638672" /><trkpt lat="22.30634078125" lon="114.26887579638672" /><trkpt lat="22.30620678125" lon="114.26904179638672" /><trkpt lat="22.30603378125" lon="114.26926479638672" /><trkpt lat="22.30582278125" lon="114.26951479638672" /><trkpt lat="22.30577478125" lon="114.26956879638672" /><trkpt lat="22.30552078125" lon="114.26986279638672" /><trkpt lat="22.30535778125" lon="114.27001279638672" /><trkpt lat="22.30508078125" lon="114.27021079638672" /><trkpt lat="22.30446478125" lon="114.27057279638672" /><trkpt lat="22.30428878125" lon="114.27066979638671" /><trkpt lat="22.30401678125" lon="114.27085179638672" /><trkpt lat="22.30372778125" lon="114.27109979638672" /><trkpt lat="22.30348078125" lon="114.27135479638672" /><trkpt lat="22.30344978125" lon="114.27138579638672" /><trkpt lat="22.30341078125" lon="114.27142479638673" /><trkpt lat="22.30336678125" lon="114.27147079638672" /><trkpt lat="22.30316578125" lon="114.27175279638672" /><trkpt lat="22.30302378125" lon="114.27191179638672" /><trkpt lat="22.30283378125" lon="114.27206879638672" /><trkpt lat="22.30268178125" lon="114.27215779638672" /><trkpt lat="22.30270478125" lon="114.27219979638672" /><trkpt lat="22.30273478125" lon="114.27227979638671" /><trkpt lat="22.30277978125" lon="114.27236779638672" /><trkpt lat="22.30283478125" lon="114.27237679638672" /><trkpt lat="22.30288378125" lon="114.27234779638673" /><trkpt lat="22.30296078125" lon="114.27230179638671" /><trkpt lat="22.30298278125" lon="114.27224979638672" /><trkpt lat="22.30304078125" lon="114.27225579638672" /><trkpt lat="22.30307778125" lon="114.27226879638673" /><trkpt lat="22.30307078125" lon="114.27236779638672" /><trkpt lat="22.30308578125" lon="114.27245679638672" /><trkpt lat="22.30348278125" lon="114.27329779638671" /><trkpt lat="22.30364478125" lon="114.27354779638672" /><trkpt lat="22.30383178125" lon="114.27378079638672" /><trkpt lat="22.30393878125" lon="114.27389279638672" /><trkpt lat="22.30403378125" lon="114.27399779638672" /><trkpt lat="22.30419678125" lon="114.27412279638672" /><trkpt lat="22.30430978125" lon="114.27420579638672" /><trkpt lat="22.30448378125" lon="114.27430679638672" /><trkpt lat="22.30466678125" lon="114.27438579638672" /><trkpt lat="22.30483278125" lon="114.27443779638672" /><trkpt lat="22.30507578125" lon="114.27450379638672" /><trkpt lat="22.30524478125" lon="114.27452879638672" /><trkpt lat="22.30534678125" lon="114.27454279638673" /><trkpt lat="22.30551678125" lon="114.27454879638672" /><trkpt lat="22.30555478125" lon="114.27453479638672" /><trkpt lat="22.30558878125" lon="114.27450179638672" /><trkpt lat="22.30562878125" lon="114.27446779638672" /><trkpt lat="22.30566678125" lon="114.27445279638673" /><trkpt lat="22.30570778125" lon="114.27444879638672" /><trkpt lat="22.30573778125" lon="114.27445379638672" /><trkpt lat="22.30576678125" lon="114.27446479638672" /><trkpt lat="22.30579678125" lon="114.27448679638673" /><trkpt lat="22.30582078125" lon="114.27451479638673" /><trkpt lat="22.30583978125" lon="114.27454879638672" /><trkpt lat="22.30584878125" lon="114.27458679638671" /><trkpt lat="22.30616578125" lon="114.27458679638671" /><trkpt lat="22.30766478125" lon="114.27455179638672" /><trkpt lat="22.30816578125" lon="114.27457679638673" /><trkpt lat="22.309317718218693" lon="114.27466006888187" /><trkpt lat="22.309351104193425" lon="114.2746352873026" /><trkpt lat="22.30938581602983" lon="114.27463352412997" /><trkpt lat="22.30947790904439" lon="114.27468503415281" /><trkpt lat="22.3095019418527" lon="114.27470850512145" /><trkpt lat="22.30953578125" lon="114.27472379638672" /><trkpt lat="22.31030378125" lon="114.27553879638671" /><trkpt lat="22.31031178125" lon="114.27553579638672" /><trkpt lat="22.31031278125" lon="114.27553879638671" /><trkpt lat="22.31030878125" lon="114.27554379638671" /><trkpt lat="22.31031478125" lon="114.27554779638672" /><trkpt lat="22.310584210628274" lon="114.27520651982326" /><trkpt lat="22.310606159321637" lon="114.27522760966775" /><trkpt lat="22.310610490282258" lon="114.27522680163582" /><trkpt lat="22.310655348842488" lon="114.2752892607163" /><trkpt lat="22.310685332115895" lon="114.275399473172" /><trkpt lat="22.31068389107709" lon="114.2754642998554" /><trkpt lat="22.31053286780687" lon="114.27609839792376" /><trkpt lat="22.310503659585933" lon="114.27615183582049" /><trkpt lat="22.310339811959864" lon="114.27635989347891" /><trkpt lat="22.310347058640474" lon="114.2764217096123" /><trkpt lat="22.31038334891585" lon="114.27647639898021" /><trkpt lat="22.310434759961765" lon="114.27632271338985" /><trkpt lat="22.31044878125" lon="114.27622379638672" /><trkpt lat="22.31050078125" lon="114.27614179638672" /><trkpt lat="22.31053278125" lon="114.27606079638672" /><trkpt lat="22.31056378125" lon="114.27601079638671" /><trkpt lat="22.31059978125" lon="114.27591079638673" /><trkpt lat="22.31065678125" lon="114.27574079638671" /><trkpt lat="22.31064578125" lon="114.27557379638672" /><trkpt lat="22.31069878125" lon="114.27549579638672" /><trkpt lat="22.31081478125" lon="114.27535679638672" /><trkpt lat="22.311051721995824" lon="114.27528305107049" /><trkpt lat="22.311070000000004" lon="114.27535166666667"><ele>76.7</ele><time>2025-12-22T01:54:10Z</time></trkpt><trkpt lat="22.311089999999997" lon="114.27534333333332"><ele>76.2</ele><time>2025-12-22T01:54:12Z</time></trkpt><trkpt lat="22.31111" lon="114.275335"><ele>75.80000000000001</ele><time>2025-12-22T01:54:14Z</time></trkpt><trkpt lat="22.311128333333333" lon="114.27532833333335"><ele>75.5</ele><time>2025-12-22T01:54:16Z</time></trkpt><trkpt lat="22.311146666666666" lon="114.27532000000001"><ele>75.30000000000001</ele><time>2025-12-22T01:54:18Z</time></trkpt><trkpt lat="22.31116833333333" lon="114.27531333333333"><ele>75.30000000000001</ele><time>2025-12-22T01:54:20Z</time></trkpt><trkpt lat="22.311188333333334" lon="114.27530833333334"><ele>75.4</ele><time>2025-12-22T01:54:22Z</time></trkpt><trkpt lat="22.31121" lon="114.27530333333334"><ele>75.2</ele><time>2025-12-22T01:54:24Z</time></trkpt><trkpt lat="22.311230000000002" lon="114.275295"><ele>75.5</ele><time>2025-12-22T01:54:26Z</time></trkpt><trkpt lat="22.31124833333333" lon="114.27528666666667"><ele>75.4</ele><time>2025-12-22T01:54:28Z</time></trkpt><trkpt lat="22.311265000000002" lon="114.27527833333333"><ele>75.30000000000001</ele><time>2025-12-22T01:54:30Z</time></trkpt><trkpt lat="22.311284999999998" lon="114.27527"><ele>75.2</ele><time>2025-12-22T01:54:32Z</time></trkpt><trkpt lat="22.311305" lon="114.27526333333331"><ele>74.9</ele><time>2025-12-22T01:54:34Z</time></trkpt><trkpt lat="22.311323333333334" lon="114.27525333333332"><ele>74.5</ele><time>2025-12-22T01:54:36Z</time></trkpt><trkpt lat="22.311343333333337" lon="114.27524166666666"><ele>74.30000000000001</ele><time>2025-12-22T01:54:38Z</time></trkpt><trkpt lat="22.31136333333333" lon="114.27522666666667"><ele>74.5</ele><time>2025-12-22T01:54:40Z</time></trkpt><trkpt lat="22.31138" lon="114.27520666666666"><ele>74.7</ele><time>2025-12-22T01:54:42Z</time></trkpt><trkpt lat="22.311396666666663" lon="114.27518666666668"><ele>74.80000000000001</ele><time>2025-12-22T01:54:44Z</time></trkpt><trkpt lat="22.311416666666666" lon="114.27517000000002"><ele>74.9</ele><time>2025-12-22T01:54:46Z</time></trkpt><trkpt lat="22.311435" lon="114.27515166666666"><ele>74.9</ele><time>2025-12-22T01:54:48Z</time></trkpt><trkpt lat="22.311449999999997" lon="114.27513333333333"><ele>74.7</ele><time>2025-12-22T01:54:50Z</time></trkpt><trkpt lat="22.311465" lon="114.275115"><ele>74.5</ele><time>2025-12-22T01:54:52Z</time></trkpt><trkpt lat="22.311476666666668" lon="114.27509666666668"><ele>74.60000000000001</ele><time>2025-12-22T01:54:54Z</time></trkpt><trkpt lat="22.311490000000003" lon="114.27508166666667"><ele>74.30000000000001</ele><time>2025-12-22T01:54:56Z</time></trkpt><trkpt lat="22.311505000000004" lon="114.275065"><ele>74.10000000000001</ele><time>2025-12-22T01:54:58Z</time></trkpt><trkpt lat="22.311521666666668" lon="114.27504833333333"><ele>74.0</ele><time>2025-12-22T01:55:00Z</time></trkpt><trkpt lat="22.311533333333333" lon="114.27503"><ele>73.9</ele><time>2025-12-22T01:55:02Z</time></trkpt><trkpt lat="22.311545000000002" lon="114.27501166666667"><ele>73.9</ele><time>2025-12-22T01:55:04Z</time></trkpt><trkpt lat="22.31155833333333" lon="114.274995"><ele>73.80000000000001</ele><time>2025-12-22T01:55:06Z</time></trkpt><trkpt lat="22.31157333333333" lon="114.27498166666668"><ele>73.60000000000001</ele><time>2025-12-22T01:55:08Z</time></trkpt><trkpt lat="22.311593333333334" lon="114.27496166666667"><ele>73.4</ele><time>2025-12-22T01:55:11Z</time></trkpt><trkpt lat="22.311611666666668" lon="114.27496000000001"><ele>73.4</ele><time>2025-12-22T01:55:13Z</time></trkpt><trkpt lat="22.31163333333333" lon="114.27495666666667"><ele>73.2</ele><time>2025-12-22T01:55:15Z</time></trkpt><trkpt lat="22.311656666666668" lon="114.274935"><ele>73.5</ele><time>2025-12-22T01:55:19Z</time></trkpt><trkpt lat="22.311673333333335" lon="114.27491333333334"><ele>74.30000000000001</ele><time>2025-12-22T01:55:22Z</time></trkpt><trkpt lat="22.311696666666663" lon="114.27490833333334"><ele>74.80000000000001</ele><time>2025-12-22T01:55:29Z</time></trkpt><trkpt lat="22.311721666666667" lon="114.27490333333331"><ele>74.7</ele><time>2025-12-22T01:55:31Z</time></trkpt><trkpt lat="22.311741666666663" lon="114.27488999999998"><ele>74.5</ele><time>2025-12-22T01:55:33Z</time></trkpt><trkpt lat="22.311759999999996" lon="114.27487166666667"><ele>74.7</ele><time>2025-12-22T01:55:35Z</time></trkpt><trkpt lat="22.31178166666667" lon="114.27485666666668"><ele>75.9</ele><time>2025-12-22T01:55:37Z</time></trkpt><trkpt lat="22.3118" lon="114.27484166666666"><ele>76.80000000000001</ele><time>2025-12-22T01:55:39Z</time></trkpt><trkpt lat="22.311811666666667" lon="114.27482499999999"><ele>77.7</ele><time>2025-12-22T01:55:41Z</time></trkpt><trkpt lat="22.311825" lon="114.27481000000002"><ele>78.2</ele><time>2025-12-22T01:55:43Z</time></trkpt><trkpt lat="22.311838333333338" lon="114.27479666666667"><ele>77.4</ele><time>2025-12-22T01:55:49Z</time></trkpt><trkpt lat="22.311863333333335" lon="114.27478166666667"><ele>77.10000000000001</ele><time>2025-12-22T01:55:52Z</time></trkpt><trkpt lat="22.311881666666668" lon="114.27476833333334"><ele>77.0</ele><time>2025-12-22T01:55:54Z</time></trkpt><trkpt lat="22.311896666666666" lon="114.274755"><ele>77.0</ele><time>2025-12-22T01:55:56Z</time></trkpt><trkpt lat="22.311911666666667" lon="114.27474"><ele>77.2</ele><time>2025-12-22T01:55:58Z</time></trkpt><trkpt lat="22.31192666666667" lon="114.27472833333334"><ele>77.4</ele><time>2025-12-22T01:56:00Z</time></trkpt><trkpt lat="22.311941666666666" lon="114.27471166666668"><ele>77.4</ele><time>2025-12-22T01:56:02Z</time></trkpt><trkpt lat="22.311956666666667" lon="114.2747"><ele>77.2</ele><time>2025-12-22T01:56:04Z</time></trkpt><trkpt lat="22.311978333333332" lon="114.27468833333333"><ele>76.0</ele><time>2025-12-22T01:56:07Z</time></trkpt><trkpt lat="22.312001666666667" lon="114.27467833333334"><ele>74.9</ele><time>2025-12-22T01:56:10Z</time></trkpt><trkpt lat="22.31202166666667" lon="114.27467333333334"><ele>74.60000000000001</ele><time>2025-12-22T01:56:12Z</time></trkpt><trkpt lat="22.312043333333335" lon="114.27466666666666"><ele>74.10000000000001</ele><time>2025-12-22T01:56:14Z</time></trkpt><trkpt lat="22.31206666666667" lon="114.27465833333332"><ele>73.60000000000001</ele><time>2025-12-22T01:56:16Z</time></trkpt><trkpt lat="22.312088333333335" lon="114.27465166666667"><ele>72.7</ele><time>2025-12-22T01:56:18Z</time></trkpt><trkpt lat="22.312113333333333" lon="114.27464666666668"><ele>72.2</ele><time>2025-12-22T01:56:20Z</time></trkpt><trkpt lat="22.312131666666666" lon="114.274635"><ele>71.60000000000001</ele><time>2025-12-22T01:56:22Z</time></trkpt><trkpt lat="22.312149999999995" lon="114.27462500000001"><ele>71.30000000000001</ele><time>2025-12-22T01:56:24Z</time></trkpt><trkpt lat="22.312168333333336" lon="114.27461333333333"><ele>71.2</ele><time>2025-12-22T01:56:26Z</time></trkpt><trkpt lat="22.31218666666667" lon="114.27460333333332"><ele>71.2</ele><time>2025-12-22T01:56:28Z</time></trkpt><trkpt lat="22.31220166666667" lon="114.27458999999999"><ele>70.2</ele><time>2025-12-22T01:56:31Z</time></trkpt><trkpt lat="22.312209999999997" lon="114.27457166666666"><ele>69.60000000000001</ele><time>2025-12-22T01:56:35Z</time></trkpt><trkpt lat="22.312228333333337" lon="114.27456500000001"><ele>69.10000000000001</ele><time>2025-12-22T01:56:39Z</time></trkpt><trkpt lat="22.312235" lon="114.27454166666666"><ele>70.7</ele><time>2025-12-22T01:56:54Z</time></trkpt><trkpt lat="22.31224166666667" lon="114.27456"><ele>69.4</ele><time>2025-12-22T01:57:02Z</time></trkpt><trkpt lat="22.312253333333334" lon="114.274575"><ele>65.80000000000001</ele><time>2025-12-22T01:57:29Z</time></trkpt><trkpt lat="22.312271666666668" lon="114.27457000000001"><ele>64.7</ele><time>2025-12-22T01:57:31Z</time></trkpt><trkpt lat="22.31229" lon="114.27456500000001"><ele>63.6</ele><time>2025-12-22T01:57:33Z</time></trkpt><trkpt lat="22.312314999999998" lon="114.27456500000001"><ele>62.4</ele><time>2025-12-22T01:57:35Z</time></trkpt><trkpt lat="22.31233666666667" lon="114.27456833333332"><ele>61.5</ele><time>2025-12-22T01:57:37Z</time></trkpt><trkpt lat="22.312365" lon="114.27457666666666"><ele>60.8</ele><time>2025-12-22T01:57:39Z</time></trkpt><trkpt lat="22.312389999999997" lon="114.27458333333334"><ele>60.0</ele><time>2025-12-22T01:57:41Z</time></trkpt><trkpt lat="22.312391666666667" lon="114.27460333333332"><ele>61.0</ele><time>2025-12-22T01:57:51Z</time></trkpt><trkpt lat="22.31237" lon="114.27461"><ele>62.6</ele><time>2025-12-22T01:57:56Z</time></trkpt><trkpt lat="22.312338333333333" lon="114.27461166666666"><ele>66.30000000000001</ele><time>2025-12-22T01:58:08Z</time></trkpt><trkpt lat="22.312313333333336" lon="114.27460666666666"><ele>66.9</ele><time>2025-12-22T01:58:11Z</time></trkpt><trkpt lat="22.31228833333333" lon="114.27460166666667"><ele>67.2</ele><time>2025-12-22T01:58:13Z</time></trkpt><trkpt lat="22.31226333333333" lon="114.27459500000002"><ele>67.30000000000001</ele><time>2025-12-22T01:58:15Z</time></trkpt><trkpt lat="22.31224666666667" lon="114.27457833333334"><ele>67.9</ele><time>2025-12-22T01:58:17Z</time></trkpt><trkpt lat="22.31223" lon="114.27456166666667"><ele>69.4</ele><time>2025-12-22T01:58:20Z</time></trkpt><trkpt lat="22.312220000000003" lon="114.27454166666666"><ele>70.80000000000001</ele><time>2025-12-22T01:58:27Z</time></trkpt><trkpt lat="22.31223166666667" lon="114.274525"><ele>72.9</ele><time>2025-12-22T01:58:39Z</time></trkpt><trkpt lat="22.31220166666667" lon="114.27448833333334"><ele>73.30000000000001</ele><time>2025-12-22T01:59:01Z</time></trkpt><trkpt lat="22.312181666666667" lon="114.27449333333334"><ele>73.4</ele><time>2025-12-22T01:59:04Z</time></trkpt><trkpt lat="22.312163333333334" lon="114.27450166666668"><ele>74.2</ele><time>2025-12-22T01:59:07Z</time></trkpt><trkpt lat="22.312136666666667" lon="114.27449999999999"><ele>74.9</ele><time>2025-12-22T01:59:10Z</time></trkpt><trkpt lat="22.312119999999997" lon="114.27450833333333"><ele>75.60000000000001</ele><time>2025-12-22T01:59:14Z</time></trkpt><trkpt lat="22.312095" lon="114.27451"><ele>76.7</ele><time>2025-12-22T01:59:19Z</time></trkpt><trkpt lat="22.312076666666666" lon="114.27450833333333"><ele>77.0</ele><time>2025-12-22T01:59:22Z</time></trkpt><trkpt lat="22.31205333333333" lon="114.27451166666667"><ele>77.2</ele><time>2025-12-22T01:59:26Z</time></trkpt><trkpt lat="22.312033333333336" lon="114.27451666666666"><ele>77.7</ele><time>2025-12-22T01:59:29Z</time></trkpt><trkpt lat="22.312011666666663" lon="114.27451666666666"><ele>78.4</ele><time>2025-12-22T01:59:31Z</time></trkpt><trkpt lat="22.311999999999998" lon="114.27449666666668"><ele>79.4</ele><time>2025-12-22T01:59:35Z</time></trkpt><trkpt lat="22.311996666666666" lon="114.27447500000001"><ele>80.30000000000001</ele><time>2025-12-22T01:59:39Z</time></trkpt><trkpt lat="22.311989999999998" lon="114.274455"><ele>81.2</ele><time>2025-12-22T01:59:43Z</time></trkpt><trkpt lat="22.31197666666667" lon="114.27443833333334"><ele>81.7</ele><time>2025-12-22T01:59:46Z</time></trkpt><trkpt lat="22.31196166666667" lon="114.27442333333332"><ele>82.30000000000001</ele><time>2025-12-22T01:59:49Z</time></trkpt><trkpt lat="22.311941666666666" lon="114.27440833333334"><ele>82.7</ele><time>2025-12-22T01:59:52Z</time></trkpt><trkpt lat="22.31192" lon="114.2744"><ele>83.30000000000001</ele><time>2025-12-22T01:59:55Z</time></trkpt><trkpt lat="22.311901666666667" lon="114.27438"><ele>84.0</ele><time>2025-12-22T01:59:58Z</time></trkpt><trkpt lat="22.31188666666667" lon="114.27436833333334"><ele>84.5</ele><time>2025-12-22T02:00:00Z</time></trkpt><trkpt lat="22.311864999999997" lon="114.27436333333331"><ele>85.10000000000001</ele><time>2025-12-22T02:00:03Z</time></trkpt><trkpt lat="22.311848333333334" lon="114.27434999999998"><ele>85.60000000000001</ele><time>2025-12-22T02:00:06Z</time></trkpt><trkpt lat="22.311834999999995" lon="114.27433333333332"><ele>86.0</ele><time>2025-12-22T02:00:10Z</time></trkpt><trkpt lat="22.311818333333335" lon="114.27432166666668"><ele>86.60000000000001</ele><time>2025-12-22T02:00:14Z</time></trkpt><trkpt lat="22.311806666666666" lon="114.27429666666667"><ele>86.5</ele><time>2025-12-22T02:00:22Z</time></trkpt><trkpt lat="22.311791666666668" lon="114.27427000000002"><ele>85.5</ele><time>2025-12-22T02:00:33Z</time></trkpt><trkpt lat="22.311786666666663" lon="114.27423166666668"><ele>83.9</ele><time>2025-12-22T02:00:44Z</time></trkpt><trkpt lat="22.311785" lon="114.27421166666666"><ele>83.7</ele><time>2025-12-22T02:00:49Z</time></trkpt><trkpt lat="22.311786666666663" lon="114.27419"><ele>83.80000000000001</ele><time>2025-12-22T02:00:52Z</time></trkpt><trkpt lat="22.311798333333332" lon="114.27416666666667"><ele>83.80000000000001</ele><time>2025-12-22T02:00:55Z</time></trkpt><trkpt lat="22.3118" lon="114.27414333333333"><ele>84.2</ele><time>2025-12-22T02:00:59Z</time></trkpt><trkpt lat="22.311808333333335" lon="114.27411833333332"><ele>84.30000000000001</ele><time>2025-12-22T02:01:02Z</time></trkpt><trkpt lat="22.311806666666666" lon="114.274095"><ele>84.5</ele><time>2025-12-22T02:01:05Z</time></trkpt><trkpt lat="22.311801666666664" lon="114.27407"><ele>84.60000000000001</ele><time>2025-12-22T02:01:09Z</time></trkpt><trkpt lat="22.311804999999996" lon="114.27404333333334"><ele>84.7</ele><time>2025-12-22T02:01:12Z</time></trkpt><trkpt lat="22.311804999999996" lon="114.27402"><ele>84.9</ele><time>2025-12-22T02:01:15Z</time></trkpt><trkpt lat="22.311804999999996" lon="114.27400000000002"><ele>84.9</ele><time>2025-12-22T02:01:18Z</time></trkpt><trkpt lat="22.311816666666665" lon="114.27398166666666"><ele>85.0</ele><time>2025-12-22T02:01:21Z</time></trkpt><trkpt lat="22.31182666666667" lon="114.27396166666668"><ele>85.0</ele><time>2025-12-22T02:01:23Z</time></trkpt><trkpt lat="22.31184" lon="114.27394166666666"><ele>85.10000000000001</ele><time>2025-12-22T02:01:26Z</time></trkpt><trkpt lat="22.311849999999996" lon="114.27392333333334"><ele>85.30000000000001</ele><time>2025-12-22T02:01:29Z</time></trkpt><trkpt lat="22.311866666666667" lon="114.27391333333335"><ele>85.2</ele><time>2025-12-22T02:01:35Z</time></trkpt><trkpt lat="22.311866666666667" lon="114.27389166666666"><ele>85.10000000000001</ele><time>2025-12-22T02:01:39Z</time></trkpt><trkpt lat="22.311866666666667" lon="114.27386"><ele>84.9</ele><time>2025-12-22T02:01:42Z</time></trkpt><trkpt lat="22.311868333333337" lon="114.27383499999999"><ele>84.9</ele><time>2025-12-22T02:01:44Z</time></trkpt><trkpt lat="22.311866666666667" lon="114.27381333333332"><ele>84.7</ele><time>2025-12-22T02:01:47Z</time></trkpt><trkpt lat="22.311868333333337" lon="114.27379"><ele>84.60000000000001</ele><time>2025-12-22T02:01:50Z</time></trkpt><trkpt lat="22.311866666666667" lon="114.27377"><ele>84.4</ele><time>2025-12-22T02:01:53Z</time></trkpt><trkpt lat="22.311864999999997" lon="114.27374999999999"><ele>84.30000000000001</ele><time>2025-12-22T02:01:55Z</time></trkpt><trkpt lat="22.31187" lon="114.27372166666667"><ele>84.30000000000001</ele><time>2025-12-22T02:01:58Z</time></trkpt><trkpt lat="22.31187166666667" lon="114.27369666666667"><ele>84.2</ele><time>2025-12-22T02:02:01Z</time></trkpt><trkpt lat="22.311876666666663" lon="114.27367666666666"><ele>84.30000000000001</ele><time>2025-12-22T02:02:04Z</time></trkpt><trkpt lat="22.311876666666663" lon="114.27365333333334"><ele>84.2</ele><time>2025-12-22T02:02:07Z</time></trkpt><trkpt lat="22.311866666666667" lon="114.27363500000001"><ele>84.10000000000001</ele><time>2025-12-22T02:02:11Z</time></trkpt><trkpt lat="22.311866666666667" lon="114.27361333333334"><ele>84.0</ele><time>2025-12-22T02:02:15Z</time></trkpt><trkpt lat="22.31185833333333" lon="114.27359499999999"><ele>83.9</ele><time>2025-12-22T02:02:18Z</time></trkpt><trkpt lat="22.311849999999996" lon="114.27357666666667"><ele>83.7</ele><time>2025-12-22T02:02:24Z</time></trkpt><trkpt lat="22.311849999999996" lon="114.27355166666666"><ele>83.60000000000001</ele><time>2025-12-22T02:02:30Z</time></trkpt><trkpt lat="22.311849999999996" lon="114.27353166666666"><ele>83.5</ele><time>2025-12-22T02:02:33Z</time></trkpt><trkpt lat="22.311853333333335" lon="114.27350666666668"><ele>83.30000000000001</ele><time>2025-12-22T02:02:39Z</time></trkpt><trkpt lat="22.311864999999997" lon="114.27352333333334"><ele>84.0</ele><time>2025-12-22T02:02:49Z</time></trkpt><trkpt lat="22.311851666666666" lon="114.27353833333333"><ele>84.2</ele><time>2025-12-22T02:02:54Z</time></trkpt><trkpt lat="22.311836666666668" lon="114.27355833333334"><ele>84.80000000000001</ele><time>2025-12-22T02:02:59Z</time></trkpt><trkpt lat="22.311818333333335" lon="114.27357333333333"><ele>85.10000000000001</ele><time>2025-12-22T02:03:02Z</time></trkpt><trkpt lat="22.3118" lon="114.27358000000001"><ele>85.10000000000001</ele><time>2025-12-22T02:03:10Z</time></trkpt><trkpt lat="22.31178" lon="114.27359"><ele>85.10000000000001</ele><time>2025-12-22T02:03:15Z</time></trkpt><trkpt lat="22.311791666666668" lon="114.27356666666668"><ele>85.0</ele><time>2025-12-22T02:03:26Z</time></trkpt><trkpt lat="22.311773333333335" lon="114.27356499999999"><ele>84.5</ele><time>2025-12-22T02:03:48Z</time></trkpt><trkpt lat="22.31175166666667" lon="114.27356"><ele>84.60000000000001</ele><time>2025-12-22T02:03:52Z</time></trkpt><trkpt lat="22.311729999999997" lon="114.27355333333335"><ele>84.80000000000001</ele><time>2025-12-22T02:03:56Z</time></trkpt><trkpt lat="22.31171" lon="114.27355166666666"><ele>85.30000000000001</ele><time>2025-12-22T02:04:03Z</time></trkpt><trkpt lat="22.311695" lon="114.27353666666667"><ele>85.60000000000001</ele><time>2025-12-22T02:04:07Z</time></trkpt><trkpt lat="22.311676666666667" lon="114.273525"><ele>85.9</ele><time>2025-12-22T02:04:11Z</time></trkpt><trkpt lat="22.31166166666667" lon="114.27350999999999"><ele>86.2</ele><time>2025-12-22T02:04:16Z</time></trkpt><trkpt lat="22.311651666666663" lon="114.27349000000001"><ele>86.30000000000001</ele><time>2025-12-22T02:04:20Z</time></trkpt><trkpt lat="22.311635000000003" lon="114.27347499999999"><ele>86.5</ele><time>2025-12-22T02:04:26Z</time></trkpt><trkpt lat="22.311621666666664" lon="114.27346166666666"><ele>86.60000000000001</ele><time>2025-12-22T02:04:29Z</time></trkpt><trkpt lat="22.311608333333332" lon="114.27344166666666"><ele>86.4</ele><time>2025-12-22T02:04:33Z</time></trkpt><trkpt lat="22.311606666666663" lon="114.27342166666668"><ele>86.5</ele><time>2025-12-22T02:04:35Z</time></trkpt><trkpt lat="22.311606666666663" lon="114.27340166666666"><ele>86.7</ele><time>2025-12-22T02:04:37Z</time></trkpt><trkpt lat="22.311605" lon="114.27338"><ele>86.7</ele><time>2025-12-22T02:04:40Z</time></trkpt><trkpt lat="22.311598333333336" lon="114.27335999999998"><ele>86.9</ele><time>2025-12-22T02:04:44Z</time></trkpt><trkpt lat="22.311580000000003" lon="114.273345"><ele>87.10000000000001</ele><time>2025-12-22T02:04:49Z</time></trkpt><trkpt lat="22.31156" lon="114.27333333333333"><ele>87.30000000000001</ele><time>2025-12-22T02:04:53Z</time></trkpt><trkpt lat="22.311546666666665" lon="114.27331666666666"><ele>87.5</ele><time>2025-12-22T02:04:56Z</time></trkpt><trkpt lat="22.311536666666665" lon="114.27329499999999"><ele>87.9</ele><time>2025-12-22T02:05:00Z</time></trkpt><trkpt lat="22.311523333333337" lon="114.27327500000001"><ele>88.30000000000001</ele><time>2025-12-22T02:05:06Z</time></trkpt><trkpt lat="22.311505000000004" lon="114.27326"><ele>88.4</ele><time>2025-12-22T02:05:10Z</time></trkpt><trkpt lat="22.311486666666664" lon="114.27324666666667"><ele>88.60000000000001</ele><time>2025-12-22T02:05:13Z</time></trkpt><trkpt lat="22.311478333333337" lon="114.273225"><ele>89.10000000000001</ele><time>2025-12-22T02:05:17Z</time></trkpt><trkpt lat="22.311471666666662" lon="114.27320333333334"><ele>89.80000000000001</ele><time>2025-12-22T02:05:21Z</time></trkpt><trkpt lat="22.311458333333334" lon="114.27318500000001"><ele>90.4</ele><time>2025-12-22T02:05:25Z</time></trkpt><trkpt lat="22.311445000000003" lon="114.27317166666666"><ele>93.0</ele><time>2025-12-22T02:05:35Z</time></trkpt><trkpt lat="22.311426666666662" lon="114.273165"><ele>94.4</ele><time>2025-12-22T02:05:41Z</time></trkpt><trkpt lat="22.311415000000004" lon="114.27314499999999"><ele>95.2</ele><time>2025-12-22T02:05:46Z</time></trkpt><trkpt lat="22.311403333333335" lon="114.27312666666667"><ele>96.0</ele><time>2025-12-22T02:05:51Z</time></trkpt><trkpt lat="22.311383333333332" lon="114.27312666666667"><ele>96.7</ele><time>2025-12-22T02:05:56Z</time></trkpt><trkpt lat="22.311385000000005" lon="114.273105"><ele>97.4</ele><time>2025-12-22T02:06:04Z</time></trkpt><trkpt lat="22.311368333333334" lon="114.27311333333334"><ele>98.30000000000001</ele><time>2025-12-22T02:06:10Z</time></trkpt><trkpt lat="22.31135" lon="114.27311499999999"><ele>98.7</ele><time>2025-12-22T02:06:16Z</time></trkpt><trkpt lat="22.311328333333336" lon="114.27310666666666"><ele>98.9</ele><time>2025-12-22T02:06:21Z</time></trkpt><trkpt lat="22.311310000000002" lon="114.27310666666666"><ele>99.30000000000001</ele><time>2025-12-22T02:06:24Z</time></trkpt><trkpt lat="22.311291666666662" lon="114.27310666666666"><ele>99.80000000000001</ele><time>2025-12-22T02:06:27Z</time></trkpt><trkpt lat="22.311271666666666" lon="114.27311333333334"><ele>100.2</ele><time>2025-12-22T02:06:30Z</time></trkpt><trkpt lat="22.31125833333333" lon="114.27313000000001"><ele>100.4</ele><time>2025-12-22T02:06:34Z</time></trkpt><trkpt lat="22.311236666666666" lon="114.27312833333332"><ele>101.0</ele><time>2025-12-22T02:06:40Z</time></trkpt><trkpt lat="22.311215" lon="114.27311833333333"><ele>101.30000000000001</ele><time>2025-12-22T02:06:43Z</time></trkpt><trkpt lat="22.31119833333333" lon="114.27310333333335"><ele>101.60000000000001</ele><time>2025-12-22T02:06:46Z</time></trkpt><trkpt lat="22.311185000000002" lon="114.27308999999998"><ele>101.80000000000001</ele><time>2025-12-22T02:06:49Z</time></trkpt><trkpt lat="22.311165" lon="114.27307333333334"><ele>101.60000000000001</ele><time>2025-12-22T02:06:53Z</time></trkpt><trkpt lat="22.311148333333335" lon="114.27306166666668"><ele>101.80000000000001</ele><time>2025-12-22T02:06:59Z</time></trkpt><trkpt lat="22.311136666666666" lon="114.27304666666666"><ele>102.0</ele><time>2025-12-22T02:07:03Z</time></trkpt><trkpt lat="22.311130000000002" lon="114.27302666666668"><ele>102.30000000000001</ele><time>2025-12-22T02:07:07Z</time></trkpt><trkpt lat="22.31112166666667" lon="114.27300166666667"><ele>102.60000000000001</ele><time>2025-12-22T02:07:11Z</time></trkpt><trkpt lat="22.311104999999998" lon="114.27298666666665"><ele>102.80000000000001</ele><time>2025-12-22T02:07:14Z</time></trkpt><trkpt lat="22.311086666666665" lon="114.27296999999999"><ele>102.7</ele><time>2025-12-22T02:07:18Z</time></trkpt><trkpt lat="22.31106833333333" lon="114.27296499999999"><ele>102.5</ele><time>2025-12-22T02:07:21Z</time></trkpt><trkpt lat="22.31105166666667" lon="114.272955"><ele>102.4</ele><time>2025-12-22T02:07:24Z</time></trkpt><trkpt lat="22.311035" lon="114.272945"><ele>102.2</ele><time>2025-12-22T02:07:26Z</time></trkpt><trkpt lat="22.311016666666667" lon="114.27293499999999"><ele>102.30000000000001</ele><time>2025-12-22T02:07:30Z</time></trkpt><trkpt lat="22.31102166666667" lon="114.27291333333332"><ele>102.7</ele><time>2025-12-22T02:07:35Z</time></trkpt><trkpt lat="22.311025000000004" lon="114.27288666666666"><ele>102.7</ele><time>2025-12-22T02:07:40Z</time></trkpt><trkpt lat="22.311044999999996" lon="114.27289"><ele>102.2</ele><time>2025-12-22T02:07:52Z</time></trkpt><trkpt lat="22.311061666666667" lon="114.27286833333334"><ele>101.10000000000001</ele><time>2025-12-22T02:07:57Z</time></trkpt><trkpt lat="22.31106833333333" lon="114.27284666666668"><ele>100.10000000000001</ele><time>2025-12-22T02:08:01Z</time></trkpt><trkpt lat="22.311070000000004" lon="114.27282500000001"><ele>100.10000000000001</ele><time>2025-12-22T02:08:04Z</time></trkpt><trkpt lat="22.31106666666667" lon="114.272805"><ele>102.30000000000001</ele><time>2025-12-22T02:08:14Z</time></trkpt><trkpt lat="22.31105166666667" lon="114.27278666666668"><ele>102.9</ele><time>2025-12-22T02:08:19Z</time></trkpt><trkpt lat="22.31107833333333" lon="114.27276833333332"><ele>104.9</ele><time>2025-12-22T02:08:48Z</time></trkpt><trkpt lat="22.311104999999998" lon="114.27277333333335"><ele>105.10000000000001</ele><time>2025-12-22T02:08:50Z</time></trkpt><trkpt lat="22.311128333333333" lon="114.27278166666669"><ele>106.10000000000001</ele><time>2025-12-22T02:08:52Z</time></trkpt><trkpt lat="22.31113833333333" lon="114.27276333333333"><ele>107.4</ele><time>2025-12-22T02:08:55Z</time></trkpt><trkpt lat="22.311125" lon="114.27277666666666"><ele>108.60000000000001</ele><time>2025-12-22T02:09:02Z</time></trkpt><trkpt lat="22.311143333333334" lon="114.27277666666666"><ele>106.7</ele><time>2025-12-22T02:09:18Z</time></trkpt><trkpt lat="22.311148333333335" lon="114.27273500000001"><ele>106.10000000000001</ele><time>2025-12-22T02:09:24Z</time></trkpt><trkpt lat="22.31115833333333" lon="114.272715"><ele>106.30000000000001</ele><time>2025-12-22T02:09:26Z</time></trkpt><trkpt lat="22.311185000000002" lon="114.27271333333334"><ele>106.7</ele><time>2025-12-22T02:09:29Z</time></trkpt><trkpt lat="22.31121" lon="114.27270500000002"><ele>106.4</ele><time>2025-12-22T02:09:31Z</time></trkpt><trkpt lat="22.311226666666666" lon="114.27268666666666"><ele>106.4</ele><time>2025-12-22T02:09:34Z</time></trkpt><trkpt lat="22.311236666666666" lon="114.27266666666668"><ele>106.80000000000001</ele><time>2025-12-22T02:09:36Z</time></trkpt><trkpt lat="22.311255" lon="114.27266499999999"><ele>107.2</ele><time>2025-12-22T02:09:39Z</time></trkpt><trkpt lat="22.31125666666667" lon="114.27264500000001"><ele>107.60000000000001</ele><time>2025-12-22T02:09:43Z</time></trkpt><trkpt lat="22.311266666666665" lon="114.27262833333334"><ele>108.0</ele><time>2025-12-22T02:09:45Z</time></trkpt><trkpt lat="22.31127333333333" lon="114.2726"><ele>109.2</ele><time>2025-12-22T02:09:48Z</time></trkpt><trkpt lat="22.31129333333333" lon="114.27260333333334"><ele>109.9</ele><time>2025-12-22T02:09:52Z</time></trkpt><trkpt lat="22.311305" lon="114.27261833333333"><ele>109.9</ele><time>2025-12-22T02:09:54Z</time></trkpt><trkpt lat="22.311323333333334" lon="114.27260833333334"><ele>110.4</ele><time>2025-12-22T02:09:59Z</time></trkpt><trkpt lat="22.311331666666668" lon="114.27258666666667"><ele>110.5</ele><time>2025-12-22T02:10:03Z</time></trkpt><trkpt lat="22.31134833333333" lon="114.27257833333333"><ele>110.5</ele><time>2025-12-22T02:10:06Z</time></trkpt><trkpt lat="22.311366666666665" lon="114.27257166666668"><ele>110.60000000000001</ele><time>2025-12-22T02:10:09Z</time></trkpt><trkpt lat="22.311385000000005" lon="114.27257499999999"><ele>110.7</ele><time>2025-12-22T02:10:14Z</time></trkpt><trkpt lat="22.311400000000003" lon="114.27255833333332"><ele>110.80000000000001</ele><time>2025-12-22T02:10:22Z</time></trkpt><trkpt lat="22.311416666666666" lon="114.27253"><ele>110.7</ele><time>2025-12-22T02:10:29Z</time></trkpt><trkpt lat="22.311430000000005" lon="114.27251333333334"><ele>110.7</ele><time>2025-12-22T02:10:31Z</time></trkpt><trkpt lat="22.311443333333333" lon="114.27249333333333"><ele>110.60000000000001</ele><time>2025-12-22T02:10:35Z</time></trkpt><trkpt lat="22.311466666666668" lon="114.27249166666667"><ele>108.80000000000001</ele><time>2025-12-22T02:10:53Z</time></trkpt><trkpt lat="22.311476666666668" lon="114.27247333333335"><ele>108.7</ele><time>2025-12-22T02:10:55Z</time></trkpt><trkpt lat="22.311475000000005" lon="114.27245166666668"><ele>108.2</ele><time>2025-12-22T02:10:57Z</time></trkpt><trkpt lat="22.31148166666667" lon="114.27243333333332"><ele>107.4</ele><time>2025-12-22T02:11:01Z</time></trkpt><trkpt lat="22.311501666666665" lon="114.27243166666668"><ele>107.7</ele><time>2025-12-22T02:11:05Z</time></trkpt><trkpt lat="22.311505000000004" lon="114.27241166666666"><ele>107.80000000000001</ele><time>2025-12-22T02:11:08Z</time></trkpt><trkpt lat="22.311501666666665" lon="114.27238833333334"><ele>108.10000000000001</ele><time>2025-12-22T02:11:12Z</time></trkpt><trkpt lat="22.31151" lon="114.272365"><ele>108.80000000000001</ele><time>2025-12-22T02:11:16Z</time></trkpt><trkpt lat="22.311521666666668" lon="114.27234666666666"><ele>109.2</ele><time>2025-12-22T02:11:19Z</time></trkpt><trkpt lat="22.311525" lon="114.27232666666666"><ele>109.30000000000001</ele><time>2025-12-22T02:11:22Z</time></trkpt><trkpt lat="22.311523333333337" lon="114.27230499999999"><ele>109.80000000000001</ele><time>2025-12-22T02:11:27Z</time></trkpt><trkpt lat="22.31153" lon="114.27228333333332"><ele>110.0</ele><time>2025-12-22T02:11:30Z</time></trkpt><trkpt lat="22.31154333333333" lon="114.272265"><ele>110.30000000000001</ele><time>2025-12-22T02:11:33Z</time></trkpt><trkpt lat="22.311546666666665" lon="114.27224499999998"><ele>110.5</ele><time>2025-12-22T02:11:38Z</time></trkpt><trkpt lat="22.31155833333333" lon="114.27223000000001"><ele>110.7</ele><time>2025-12-22T02:11:41Z</time></trkpt><trkpt lat="22.31157166666667" lon="114.27221666666668"><ele>111.0</ele><time>2025-12-22T02:11:45Z</time></trkpt><trkpt lat="22.31158833333333" lon="114.27220833333334"><ele>110.5</ele><time>2025-12-22T02:11:51Z</time></trkpt><trkpt lat="22.311605" lon="114.27219666666666"><ele>110.4</ele><time>2025-12-22T02:11:57Z</time></trkpt><trkpt lat="22.31162" lon="114.272185"><ele>110.10000000000001</ele><time>2025-12-22T02:12:02Z</time></trkpt><trkpt lat="22.31163333333333" lon="114.27216833333333"><ele>110.10000000000001</ele><time>2025-12-22T02:12:08Z</time></trkpt><trkpt lat="22.31165" lon="114.27215333333334"><ele>109.80000000000001</ele><time>2025-12-22T02:12:14Z</time></trkpt><trkpt lat="22.31167833333333" lon="114.27216833333333"><ele>109.30000000000001</ele><time>2025-12-22T02:12:22Z</time></trkpt><trkpt lat="22.311696666666663" lon="114.27217166666667"><ele>109.10000000000001</ele><time>2025-12-22T02:12:25Z</time></trkpt><trkpt lat="22.311696666666663" lon="114.27215"><ele>108.60000000000001</ele><time>2025-12-22T02:12:29Z</time></trkpt><trkpt lat="22.311695" lon="114.27212833333333"><ele>108.5</ele><time>2025-12-22T02:12:33Z</time></trkpt><trkpt lat="22.31171" lon="114.27211166666666"><ele>108.2</ele><time>2025-12-22T02:12:37Z</time></trkpt><trkpt lat="22.311731666666667" lon="114.27210500000001"><ele>108.4</ele><time>2025-12-22T02:12:41Z</time></trkpt><trkpt lat="22.31175" lon="114.27209999999998"><ele>108.60000000000001</ele><time>2025-12-22T02:12:44Z</time></trkpt><trkpt lat="22.311763333333335" lon="114.27205666666666"><ele>109.0</ele><time>2025-12-22T02:13:05Z</time></trkpt><trkpt lat="22.31178" lon="114.27204333333333"><ele>108.4</ele><time>2025-12-22T02:13:11Z</time></trkpt><trkpt lat="22.311798333333332" lon="114.27205000000001"><ele>108.10000000000001</ele><time>2025-12-22T02:13:15Z</time></trkpt><trkpt lat="22.311816666666665" lon="114.272045"><ele>108.0</ele><time>2025-12-22T02:13:19Z</time></trkpt><trkpt lat="22.311831666666663" lon="114.27202333333335"><ele>107.7</ele><time>2025-12-22T02:13:25Z</time></trkpt><trkpt lat="22.31184166666667" lon="114.272005"><ele>107.9</ele><time>2025-12-22T02:13:29Z</time></trkpt><trkpt lat="22.311853333333335" lon="114.27198833333333"><ele>108.0</ele><time>2025-12-22T02:13:35Z</time></trkpt><trkpt lat="22.311899999999998" lon="114.27199"><ele>106.9</ele><time>2025-12-22T02:13:57Z</time></trkpt><trkpt lat="22.311915" lon="114.27196333333335"><ele>106.30000000000001</ele><time>2025-12-22T02:14:03Z</time></trkpt><trkpt lat="22.311913333333337" lon="114.27194333333334"><ele>106.4</ele><time>2025-12-22T02:14:05Z</time></trkpt><trkpt lat="22.311908333333335" lon="114.27192333333332"><ele>106.30000000000001</ele><time>2025-12-22T02:14:07Z</time></trkpt><trkpt lat="22.31190333333333" lon="114.27190333333334"><ele>106.4</ele><time>2025-12-22T02:14:10Z</time></trkpt><trkpt lat="22.311915" lon="114.27188333333334"><ele>107.0</ele><time>2025-12-22T02:14:14Z</time></trkpt><trkpt lat="22.311924999999995" lon="114.27186333333333"><ele>107.9</ele><time>2025-12-22T02:14:18Z</time></trkpt><trkpt lat="22.311938333333334" lon="114.27187666666666"><ele>107.60000000000001</ele><time>2025-12-22T02:14:25Z</time></trkpt><trkpt lat="22.311946666666667" lon="114.271905"><ele>107.30000000000001</ele><time>2025-12-22T02:14:28Z</time></trkpt><trkpt lat="22.311966666666663" lon="114.27190333333334"><ele>105.9</ele><time>2025-12-22T02:14:36Z</time></trkpt><trkpt lat="22.311981666666664" lon="114.27189166666668"><ele>105.30000000000001</ele><time>2025-12-22T02:14:40Z</time></trkpt><trkpt lat="22.311983333333334" lon="114.27186833333332"><ele>105.10000000000001</ele><time>2025-12-22T02:14:43Z</time></trkpt><trkpt lat="22.311983333333334" lon="114.27184666666666"><ele>104.9</ele><time>2025-12-22T02:14:46Z</time></trkpt><trkpt lat="22.311995000000003" lon="114.27182499999999"><ele>104.80000000000001</ele><time>2025-12-22T02:14:50Z</time></trkpt><trkpt lat="22.312011666666663" lon="114.27181166666666"><ele>104.80000000000001</ele><time>2025-12-22T02:14:55Z</time></trkpt><trkpt lat="22.312026666666664" lon="114.27179333333333"><ele>104.9</ele><time>2025-12-22T02:14:58Z</time></trkpt><trkpt lat="22.312036666666668" lon="114.27177666666667"><ele>105.0</ele><time>2025-12-22T02:15:00Z</time></trkpt><trkpt lat="22.312041666666666" lon="114.27175000000001"><ele>105.10000000000001</ele><time>2025-12-22T02:15:04Z</time></trkpt><trkpt lat="22.312055" lon="114.27173666666667"><ele>105.4</ele><time>2025-12-22T02:15:08Z</time></trkpt><trkpt lat="22.312071666666665" lon="114.27172833333334"><ele>105.9</ele><time>2025-12-22T02:15:13Z</time></trkpt><trkpt lat="22.312089999999998" lon="114.27172833333334"><ele>106.0</ele><time>2025-12-22T02:15:16Z</time></trkpt><trkpt lat="22.31210666666667" lon="114.27171833333333"><ele>106.2</ele><time>2025-12-22T02:15:21Z</time></trkpt><trkpt lat="22.312121666666666" lon="114.27170666666667"><ele>106.30000000000001</ele><time>2025-12-22T02:15:25Z</time></trkpt><trkpt lat="22.312138333333337" lon="114.271695"><ele>106.4</ele><time>2025-12-22T02:15:29Z</time></trkpt><trkpt lat="22.312149999999995" lon="114.27167833333333"><ele>106.7</ele><time>2025-12-22T02:15:35Z</time></trkpt><trkpt lat="22.312134999999998" lon="114.27166000000001"><ele>109.2</ele><time>2025-12-22T02:15:58Z</time></trkpt><trkpt lat="22.312145" lon="114.27162666666666"><ele>109.30000000000001</ele><time>2025-12-22T02:16:40Z</time></trkpt><trkpt lat="22.312158333333333" lon="114.27161"><ele>109.2</ele><time>2025-12-22T02:16:43Z</time></trkpt><trkpt lat="22.312171666666668" lon="114.27159666666667"><ele>109.10000000000001</ele><time>2025-12-22T02:16:47Z</time></trkpt><trkpt lat="22.31219" lon="114.27158166666668"><ele>109.30000000000001</ele><time>2025-12-22T02:16:51Z</time></trkpt><trkpt lat="22.312216666666668" lon="114.27156666666666"><ele>109.7</ele><time>2025-12-22T02:17:00Z</time></trkpt><trkpt lat="22.312235" lon="114.27156333333332"><ele>109.80000000000001</ele><time>2025-12-22T02:17:03Z</time></trkpt><trkpt lat="22.312268333333336" lon="114.27155833333333"><ele>110.2</ele><time>2025-12-22T02:17:14Z</time></trkpt><trkpt lat="22.312268333333336" lon="114.27153166666668"><ele>110.0</ele><time>2025-12-22T02:17:18Z</time></trkpt><trkpt lat="22.312261666666668" lon="114.27151166666665"><ele>109.80000000000001</ele><time>2025-12-22T02:17:21Z</time></trkpt><trkpt lat="22.312251666666665" lon="114.27149499999999"><ele>109.60000000000001</ele><time>2025-12-22T02:17:26Z</time></trkpt><trkpt lat="22.31224333333333" lon="114.27146166666668"><ele>109.2</ele><time>2025-12-22T02:17:32Z</time></trkpt><trkpt lat="22.312238333333333" lon="114.27144166666668"><ele>108.80000000000001</ele><time>2025-12-22T02:17:36Z</time></trkpt><trkpt lat="22.312254999999997" lon="114.27143333333333"><ele>108.4</ele><time>2025-12-22T02:17:41Z</time></trkpt><trkpt lat="22.312271666666668" lon="114.27142"><ele>107.80000000000001</ele><time>2025-12-22T02:17:45Z</time></trkpt><trkpt lat="22.31228" lon="114.2714"><ele>107.30000000000001</ele><time>2025-12-22T02:17:50Z</time></trkpt><trkpt lat="22.31228" lon="114.27136833333334"><ele>107.0</ele><time>2025-12-22T02:17:54Z</time></trkpt><trkpt lat="22.31227833333333" lon="114.27134499999998"><ele>106.80000000000001</ele><time>2025-12-22T02:17:57Z</time></trkpt><trkpt lat="22.31227833333333" lon="114.27132333333333"><ele>106.4</ele><time>2025-12-22T02:18:02Z</time></trkpt><trkpt lat="22.312284999999996" lon="114.271305"><ele>106.2</ele><time>2025-12-22T02:18:06Z</time></trkpt><trkpt lat="22.312281666666664" lon="114.27128166666668"><ele>106.30000000000001</ele><time>2025-12-22T02:18:09Z</time></trkpt><trkpt lat="22.312281666666664" lon="114.27126000000001"><ele>106.5</ele><time>2025-12-22T02:18:13Z</time></trkpt><trkpt lat="22.312281666666664" lon="114.27120833333332"><ele>106.30000000000001</ele><time>2025-12-22T02:18:24Z</time></trkpt><trkpt lat="22.31227833333333" lon="114.27118833333334"><ele>106.2</ele><time>2025-12-22T02:18:26Z</time></trkpt><trkpt lat="22.312271666666668" lon="114.27116666666667"><ele>106.0</ele><time>2025-12-22T02:18:30Z</time></trkpt><trkpt lat="22.312256666666666" lon="114.27114333333333"><ele>105.80000000000001</ele><time>2025-12-22T02:18:35Z</time></trkpt><trkpt lat="22.312250000000002" lon="114.27111500000001"><ele>105.80000000000001</ele><time>2025-12-22T02:18:39Z</time></trkpt><trkpt lat="22.312250000000002" lon="114.271095"><ele>106.10000000000001</ele><time>2025-12-22T02:18:42Z</time></trkpt><trkpt lat="22.31224666666667" lon="114.27107333333333"><ele>106.10000000000001</ele><time>2025-12-22T02:18:47Z</time></trkpt><trkpt lat="22.312253333333334" lon="114.271055"><ele>106.0</ele><time>2025-12-22T02:18:52Z</time></trkpt><trkpt lat="22.312254999999997" lon="114.27102833333332"><ele>105.60000000000001</ele><time>2025-12-22T02:18:57Z</time></trkpt><trkpt lat="22.312265000000004" lon="114.27100833333334"><ele>105.30000000000001</ele><time>2025-12-22T02:19:01Z</time></trkpt><trkpt lat="22.312269999999998" lon="114.27098499999998"><ele>105.2</ele><time>2025-12-22T02:19:05Z</time></trkpt><trkpt lat="22.31228666666667" lon="114.27097666666666"><ele>105.9</ele><time>2025-12-22T02:19:11Z</time></trkpt><trkpt lat="22.31227833333333" lon="114.27095666666668"><ele>106.2</ele><time>2025-12-22T02:19:22Z</time></trkpt><trkpt lat="22.312326666666664" lon="114.27090666666666"><ele>105.4</ele><time>2025-12-22T02:19:44Z</time></trkpt><trkpt lat="22.312351666666668" lon="114.27083833333333"><ele>104.2</ele><time>2025-12-22T02:20:16Z</time></trkpt><trkpt lat="22.312385000000003" lon="114.27084500000001"><ele>102.60000000000001</ele><time>2025-12-22T02:20:44Z</time></trkpt><trkpt lat="22.312401666666666" lon="114.27082999999999"><ele>102.60000000000001</ele><time>2025-12-22T02:20:46Z</time></trkpt><trkpt lat="22.312419999999996" lon="114.27081833333335"><ele>102.5</ele><time>2025-12-22T02:20:49Z</time></trkpt><trkpt lat="22.312433333333335" lon="114.27080499999998"><ele>102.60000000000001</ele><time>2025-12-22T02:20:53Z</time></trkpt><trkpt lat="22.31245" lon="114.270785"><ele>102.60000000000001</ele><time>2025-12-22T02:21:03Z</time></trkpt><trkpt lat="22.312463333333334" lon="114.27076666666666"><ele>102.10000000000001</ele><time>2025-12-22T02:21:10Z</time></trkpt><trkpt lat="22.312481666666667" lon="114.27074666666667"><ele>101.80000000000001</ele><time>2025-12-22T02:21:14Z</time></trkpt><trkpt lat="22.312496666666668" lon="114.27073"><ele>101.80000000000001</ele><time>2025-12-22T02:21:17Z</time></trkpt><trkpt lat="22.31251666666667" lon="114.27073"><ele>101.7</ele><time>2025-12-22T02:21:21Z</time></trkpt><trkpt lat="22.312536666666666" lon="114.27073833333334"><ele>101.2</ele><time>2025-12-22T02:21:27Z</time></trkpt><trkpt lat="22.31255833333333" lon="114.27073333333334"><ele>100.80000000000001</ele><time>2025-12-22T02:21:32Z</time></trkpt><trkpt lat="22.312575" lon="114.27072166666667"><ele>100.5</ele><time>2025-12-22T02:21:36Z</time></trkpt><trkpt lat="22.312595" lon="114.27072166666667"><ele>99.7</ele><time>2025-12-22T02:21:41Z</time></trkpt><trkpt lat="22.312613333333335" lon="114.27071"><ele>98.7</ele><time>2025-12-22T02:21:48Z</time></trkpt><trkpt lat="22.31263" lon="114.27069833333334"><ele>98.30000000000001</ele><time>2025-12-22T02:21:50Z</time></trkpt><trkpt lat="22.31265166666667" lon="114.27068166666668"><ele>98.0</ele><time>2025-12-22T02:21:52Z</time></trkpt><trkpt lat="22.312665" lon="114.27066666666666"><ele>97.60000000000001</ele><time>2025-12-22T02:21:55Z</time></trkpt><trkpt lat="22.312686666666664" lon="114.27065499999999"><ele>96.60000000000001</ele><time>2025-12-22T02:22:02Z</time></trkpt><trkpt lat="22.312704999999998" lon="114.27064999999999"><ele>96.4</ele><time>2025-12-22T02:22:08Z</time></trkpt><trkpt lat="22.31272666666667" lon="114.27064"><ele>96.4</ele><time>2025-12-22T02:22:12Z</time></trkpt><trkpt lat="22.312746666666666" lon="114.27063000000001"><ele>96.5</ele><time>2025-12-22T02:22:15Z</time></trkpt><trkpt lat="22.312761666666667" lon="114.27061166666665"><ele>97.0</ele><time>2025-12-22T02:22:20Z</time></trkpt><trkpt lat="22.312779999999997" lon="114.27060166666666"><ele>98.10000000000001</ele><time>2025-12-22T02:22:26Z</time></trkpt><trkpt lat="22.312796666666667" lon="114.27059"><ele>98.7</ele><time>2025-12-22T02:22:29Z</time></trkpt><trkpt lat="22.31281" lon="114.27057500000001"><ele>100.4</ele><time>2025-12-22T02:22:34Z</time></trkpt><trkpt lat="22.312821666666665" lon="114.27059166666668"><ele>104.7</ele><time>2025-12-22T02:22:57Z</time></trkpt><trkpt lat="22.31283" lon="114.27056666666667"><ele>104.30000000000001</ele><time>2025-12-22T02:23:01Z</time></trkpt><trkpt lat="22.312841666666667" lon="114.27055166666666"><ele>103.2</ele><time>2025-12-22T02:23:06Z</time></trkpt><trkpt lat="22.312855" lon="114.27053666666667"><ele>101.10000000000001</ele><time>2025-12-22T02:23:28Z</time></trkpt><trkpt lat="22.312869999999997" lon="114.27051833333334"><ele>103.0</ele><time>2025-12-22T02:23:45Z</time></trkpt><trkpt lat="22.312876666666664" lon="114.2705"><ele>102.9</ele><time>2025-12-22T02:23:47Z</time></trkpt><trkpt lat="22.312884999999998" lon="114.27048166666667"><ele>102.80000000000001</ele><time>2025-12-22T02:23:50Z</time></trkpt><trkpt lat="22.31290333333333" lon="114.27046833333334"><ele>102.30000000000001</ele><time>2025-12-22T02:23:54Z</time></trkpt><trkpt lat="22.312918333333332" lon="114.27045333333332"><ele>101.9</ele><time>2025-12-22T02:24:03Z</time></trkpt><trkpt lat="22.31293833333333" lon="114.27045166666667"><ele>101.10000000000001</ele><time>2025-12-22T02:24:08Z</time></trkpt><trkpt lat="22.312951666666663" lon="114.27043666666665"><ele>101.30000000000001</ele><time>2025-12-22T02:24:17Z</time></trkpt><trkpt lat="22.312965000000002" lon="114.27041666666668"><ele>103.4</ele><time>2025-12-22T02:24:37Z</time></trkpt><trkpt lat="22.312976666666668" lon="114.27040000000001"><ele>103.4</ele><time>2025-12-22T02:24:41Z</time></trkpt><trkpt lat="22.312986666666667" lon="114.27037999999999"><ele>103.2</ele><time>2025-12-22T02:24:44Z</time></trkpt><trkpt lat="22.31300666666667" lon="114.270375"><ele>102.2</ele><time>2025-12-22T02:24:51Z</time></trkpt><trkpt lat="22.313030000000005" lon="114.27038833333333"><ele>102.10000000000001</ele><time>2025-12-22T02:24:54Z</time></trkpt><trkpt lat="22.313049999999997" lon="114.27038666666667"><ele>101.60000000000001</ele><time>2025-12-22T02:24:59Z</time></trkpt><trkpt lat="22.313094999999997" lon="114.27039333333332"><ele>100.5</ele><time>2025-12-22T02:25:16Z</time></trkpt><trkpt lat="22.31311333333333" lon="114.27039833333335"><ele>100.7</ele><time>2025-12-22T02:25:21Z</time></trkpt><trkpt lat="22.313115" lon="114.27036666666666"><ele>101.80000000000001</ele><time>2025-12-22T02:25:35Z</time></trkpt><trkpt lat="22.313103333333334" lon="114.27034666666665"><ele>101.9</ele><time>2025-12-22T02:25:42Z</time></trkpt><trkpt lat="22.313076666666667" lon="114.270375"><ele>101.7</ele><time>2025-12-22T02:25:52Z</time></trkpt><trkpt lat="22.313061666666666" lon="114.27038666666667"><ele>101.30000000000001</ele><time>2025-12-22T02:25:54Z</time></trkpt><trkpt lat="22.313091666666665" lon="114.27038499999999"><ele>100.30000000000001</ele><time>2025-12-22T02:26:01Z</time></trkpt><trkpt lat="22.31311333333333" lon="114.27038833333333"><ele>100.10000000000001</ele><time>2025-12-22T02:26:05Z</time></trkpt><trkpt lat="22.313168333333337" lon="114.27039166666667"><ele>100.0</ele><time>2025-12-22T02:26:27Z</time></trkpt><trkpt lat="22.31315833333333" lon="114.27036833333335"><ele>99.7</ele><time>2025-12-22T02:26:28Z</time></trkpt><trkpt lat="22.313148333333334" lon="114.27035"><ele>99.2</ele><time>2025-12-22T02:26:30Z</time></trkpt><trkpt lat="22.313168333333337" lon="114.27035333333333"><ele>96.4</ele><time>2025-12-22T02:26:43Z</time></trkpt><trkpt lat="22.313139999999997" lon="114.27035"><ele>95.9</ele><time>2025-12-22T02:26:58Z</time></trkpt><trkpt lat="22.313175" lon="114.27036000000001"><ele>102.30000000000001</ele><time>2025-12-22T02:29:29Z</time></trkpt><trkpt lat="22.313151666666666" lon="114.270335"><ele>102.4</ele><time>2025-12-22T02:41:08Z</time></trkpt><trkpt lat="22.313150000000004" lon="114.270315"><ele>102.2</ele><time>2025-12-22T02:41:10Z</time></trkpt><trkpt lat="22.313146666666665" lon="114.27028999999999"><ele>101.80000000000001</ele><time>2025-12-22T02:41:12Z</time></trkpt><trkpt lat="22.313146666666665" lon="114.27027000000001"><ele>101.5</ele><time>2025-12-22T02:41:14Z</time></trkpt><trkpt lat="22.313155" lon="114.27024333333333"><ele>101.4</ele><time>2025-12-22T02:41:17Z</time></trkpt><trkpt lat="22.31317166666667" lon="114.27025499999999"><ele>101.60000000000001</ele><time>2025-12-22T02:41:25Z</time></trkpt><trkpt lat="22.313176666666664" lon="114.27027500000001"><ele>101.2</ele><time>2025-12-22T02:41:28Z</time></trkpt><trkpt lat="22.313195000000004" lon="114.27027500000001"><ele>101.9</ele><time>2025-12-22T02:41:34Z</time></trkpt><trkpt lat="22.31320333333333" lon="114.27025666666665"><ele>103.0</ele><time>2025-12-22T02:41:43Z</time></trkpt><trkpt lat="22.313183333333335" lon="114.27025333333334"><ele>102.4</ele><time>2025-12-22T02:41:45Z</time></trkpt><trkpt lat="22.31314166666667" lon="114.27025166666665"><ele>101.5</ele><time>2025-12-22T02:41:47Z</time></trkpt><trkpt lat="22.31316" lon="114.27024666666667"><ele>98.5</ele><time>2025-12-22T02:41:53Z</time></trkpt><trkpt lat="22.31317166666667" lon="114.27026499999998"><ele>98.5</ele><time>2025-12-22T02:41:55Z</time></trkpt><trkpt lat="22.313175" lon="114.27028833333334"><ele>98.4</ele><time>2025-12-22T02:41:58Z</time></trkpt><trkpt lat="22.313190000000002" lon="114.2703"><ele>99.60000000000001</ele><time>2025-12-22T02:42:04Z</time></trkpt><trkpt lat="22.31315833333333" lon="114.27026833333333"><ele>103.4</ele><time>2025-12-22T02:42:54Z</time></trkpt><trkpt lat="22.313175" lon="114.27028333333334"><ele>103.0</ele><time>2025-12-22T02:42:58Z</time></trkpt><trkpt lat="22.313168333333337" lon="114.27031000000001"><ele>102.30000000000001</ele><time>2025-12-22T02:43:01Z</time></trkpt><trkpt lat="22.313153333333336" lon="114.27032499999999"><ele>101.5</ele><time>2025-12-22T02:43:03Z</time></trkpt><trkpt lat="22.313135000000003" lon="114.27032833333332"><ele>101.2</ele><time>2025-12-22T02:43:05Z</time></trkpt><trkpt lat="22.31311333333333" lon="114.27032333333334"><ele>100.7</ele><time>2025-12-22T02:43:07Z</time></trkpt><trkpt lat="22.313105000000004" lon="114.27030500000001"><ele>100.0</ele><time>2025-12-22T02:43:09Z</time></trkpt><trkpt lat="22.313131666666663" lon="114.27029833333333"><ele>100.7</ele><time>2025-12-22T02:43:10Z</time></trkpt><trkpt lat="22.313145000000002" lon="114.270285"><ele>102.0</ele><time>2025-12-22T02:43:13Z</time></trkpt><trkpt lat="22.313163333333332" lon="114.27031166666666"><ele>101.0</ele><time>2025-12-22T02:43:27Z</time></trkpt><trkpt lat="22.313131666666663" lon="114.270315"><ele>100.10000000000001</ele><time>2025-12-22T02:43:39Z</time></trkpt><trkpt lat="22.313109999999998" lon="114.270315"><ele>99.0</ele><time>2025-12-22T02:43:42Z</time></trkpt><trkpt lat="22.31313" lon="114.27035333333333"><ele>97.30000000000001</ele><time>2025-12-22T02:44:28Z</time></trkpt><trkpt lat="22.313221666666664" lon="114.27035666666667"><ele>94.5</ele><time>2025-12-22T02:45:00Z</time></trkpt><trkpt lat="22.313223333333333" lon="114.27033666666667"><ele>94.2</ele><time>2025-12-22T02:45:03Z</time></trkpt><trkpt lat="22.313229999999997" lon="114.27035666666667"><ele>93.7</ele><time>2025-12-22T02:45:09Z</time></trkpt><trkpt lat="22.313221666666664" lon="114.270375"><ele>93.9</ele><time>2025-12-22T02:45:13Z</time></trkpt><trkpt lat="22.313211666666668" lon="114.27039500000001"><ele>94.30000000000001</ele><time>2025-12-22T02:45:15Z</time></trkpt><trkpt lat="22.313210000000005" lon="114.27041499999999"><ele>95.10000000000001</ele><time>2025-12-22T02:45:17Z</time></trkpt><trkpt lat="22.313205" lon="114.27043499999999"><ele>96.30000000000001</ele><time>2025-12-22T02:45:20Z</time></trkpt><trkpt lat="22.313211666666668" lon="114.27045666666666"><ele>97.5</ele><time>2025-12-22T02:45:26Z</time></trkpt><trkpt lat="22.313184999999997" lon="114.27042333333333"><ele>96.7</ele><time>2025-12-22T02:45:29Z</time></trkpt><trkpt lat="22.31317" lon="114.27041166666667"><ele>96.5</ele><time>2025-12-22T02:45:31Z</time></trkpt><trkpt lat="22.313178333333333" lon="114.27044333333333"><ele>95.60000000000001</ele><time>2025-12-22T02:45:46Z</time></trkpt><trkpt lat="22.313201666666668" lon="114.27042833333334"><ele>94.30000000000001</ele><time>2025-12-22T02:45:59Z</time></trkpt><trkpt lat="22.313221666666664" lon="114.27042000000002"><ele>94.10000000000001</ele><time>2025-12-22T02:46:06Z</time></trkpt><trkpt lat="22.31323166666667" lon="114.27040333333335"><ele>93.80000000000001</ele><time>2025-12-22T02:46:11Z</time></trkpt><trkpt lat="22.31329" lon="114.27032833333332"><ele>89.9</ele><time>2025-12-22T02:47:02Z</time></trkpt><trkpt lat="22.313299999999995" lon="114.27031000000001"><ele>89.60000000000001</ele><time>2025-12-22T02:47:05Z</time></trkpt><trkpt lat="22.313311666666664" lon="114.27029499999999"><ele>88.4</ele><time>2025-12-22T02:47:13Z</time></trkpt><trkpt lat="22.313329999999997" lon="114.27025666666665"><ele>85.60000000000001</ele><time>2025-12-22T02:48:54Z</time></trkpt><trkpt lat="22.313348333333337" lon="114.27026166666668"><ele>85.60000000000001</ele><time>2025-12-22T02:48:57Z</time></trkpt><trkpt lat="22.313331666666667" lon="114.27024333333333"><ele>84.80000000000001</ele><time>2025-12-22T02:49:12Z</time></trkpt><trkpt lat="22.313323333333333" lon="114.27022333333335"><ele>84.5</ele><time>2025-12-22T02:49:14Z</time></trkpt><trkpt lat="22.313313333333333" lon="114.27020166666668"><ele>84.4</ele><time>2025-12-22T02:49:16Z</time></trkpt><trkpt lat="22.313331666666667" lon="114.270195"><ele>84.9</ele><time>2025-12-22T02:49:24Z</time></trkpt><trkpt lat="22.313346666666668" lon="114.27018000000001"><ele>83.4</ele><time>2025-12-22T02:49:33Z</time></trkpt><trkpt lat="22.313348333333337" lon="114.27015833333334"><ele>83.30000000000001</ele><time>2025-12-22T02:49:41Z</time></trkpt><trkpt lat="22.313335" lon="114.27014"><ele>83.30000000000001</ele><time>2025-12-22T02:49:48Z</time></trkpt><trkpt lat="22.313344999999995" lon="114.27012166666667"><ele>82.9</ele><time>2025-12-22T02:49:59Z</time></trkpt><trkpt lat="22.313353333333332" lon="114.27010333333334"><ele>82.4</ele><time>2025-12-22T02:50:06Z</time></trkpt><trkpt lat="22.31335166666667" lon="114.27008166666668"><ele>82.2</ele><time>2025-12-22T02:50:10Z</time></trkpt><trkpt lat="22.313344999999995" lon="114.27006333333333"><ele>82.10000000000001</ele><time>2025-12-22T02:50:14Z</time></trkpt><trkpt lat="22.313364999999997" lon="114.270065"><ele>80.80000000000001</ele><time>2025-12-22T02:50:26Z</time></trkpt><trkpt lat="22.31338333333333" lon="114.27005499999999"><ele>80.30000000000001</ele><time>2025-12-22T02:50:29Z</time></trkpt><trkpt lat="22.313393333333337" lon="114.27003833333335"><ele>79.5</ele><time>2025-12-22T02:50:34Z</time></trkpt><trkpt lat="22.313395" lon="114.27001666666665"><ele>79.10000000000001</ele><time>2025-12-22T02:50:38Z</time></trkpt><trkpt lat="22.313419999999997" lon="114.26992"><ele>72.5</ele><time>2025-12-22T02:51:28Z</time></trkpt><trkpt lat="22.313434999999995" lon="114.26988166666666"><ele>70.60000000000001</ele><time>2025-12-22T02:51:41Z</time></trkpt><trkpt lat="22.313434999999995" lon="114.269855"><ele>70.60000000000001</ele><time>2025-12-22T02:51:44Z</time></trkpt><trkpt lat="22.31344166666667" lon="114.26974333333334"><ele>61.1</ele><time>2025-12-22T02:54:02Z</time></trkpt><trkpt lat="22.313464999999997" lon="114.26974333333334"><ele>60.9</ele><time>2025-12-22T02:59:55Z</time></trkpt><trkpt lat="22.313466666666667" lon="114.26972333333333"><ele>60.6</ele><time>2025-12-22T02:59:59Z</time></trkpt><trkpt lat="22.31347333333333" lon="114.26970166666666"><ele>60.6</ele><time>2025-12-22T03:00:04Z</time></trkpt><trkpt lat="22.313468333333336" lon="114.26968166666666"><ele>60.5</ele><time>2025-12-22T03:00:09Z</time></trkpt><trkpt lat="22.313483333333338" lon="114.26965833333334"><ele>58.8</ele><time>2025-12-22T03:00:31Z</time></trkpt><trkpt lat="22.31348666666667" lon="114.26963833333333"><ele>57.1</ele><time>2025-12-22T03:00:39Z</time></trkpt><trkpt lat="22.313505000000003" lon="114.26963499999998"><ele>56.3</ele><time>2025-12-22T03:00:44Z</time></trkpt><trkpt lat="22.313539999999996" lon="114.26960499999998"><ele>55.6</ele><time>2025-12-22T03:00:53Z</time></trkpt><trkpt lat="22.313538333333334" lon="114.269585"><ele>55.199999999999996</ele><time>2025-12-22T03:01:03Z</time></trkpt><trkpt lat="22.313539999999996" lon="114.26956"><ele>55.5</ele><time>2025-12-22T03:01:06Z</time></trkpt><trkpt lat="22.313536666666664" lon="114.26953999999999"><ele>55.8</ele><time>2025-12-22T03:01:11Z</time></trkpt><trkpt lat="22.313569999999995" lon="114.26950166666666"><ele>54.3</ele><time>2025-12-22T03:01:39Z</time></trkpt><trkpt lat="22.31358" lon="114.26948166666668"><ele>52.9</ele><time>2025-12-22T03:02:11Z</time></trkpt><trkpt lat="22.313593333333333" lon="114.26946166666667"><ele>53.6</ele><time>2025-12-22T03:02:17Z</time></trkpt><trkpt lat="22.313603333333337" lon="114.26944499999999"><ele>53.699999999999996</ele><time>2025-12-22T03:02:22Z</time></trkpt><trkpt lat="22.31360666666667" lon="114.26946833333335"><ele>48.0</ele><time>2025-12-22T03:03:06Z</time></trkpt><trkpt lat="22.313598333333335" lon="114.26944666666668"><ele>47.4</ele><time>2025-12-22T03:03:16Z</time></trkpt><trkpt lat="22.313633333333335" lon="114.26940166666667"><ele>47.1</ele><time>2025-12-22T03:03:40Z</time></trkpt><trkpt lat="22.31365166666667" lon="114.26939666666667"><ele>47.0</ele><time>2025-12-22T03:03:43Z</time></trkpt><trkpt lat="22.31366666666667" lon="114.26938"><ele>46.9</ele><time>2025-12-22T03:03:47Z</time></trkpt><trkpt lat="22.313659999999995" lon="114.26936166666668"><ele>46.9</ele><time>2025-12-22T03:03:51Z</time></trkpt><trkpt lat="22.31366166666667" lon="114.26931833333335"><ele>46.0</ele><time>2025-12-22T03:04:13Z</time></trkpt><trkpt lat="22.313673333333334" lon="114.26929833333334"><ele>46.1</ele><time>2025-12-22T03:04:17Z</time></trkpt><trkpt lat="22.31374333333333" lon="114.26921666666667"><ele>42.4</ele><time>2025-12-22T03:05:17Z</time></trkpt><trkpt lat="22.313791666666663" lon="114.26914333333335"><ele>38.699999999999996</ele><time>2025-12-22T03:05:42Z</time></trkpt><trkpt lat="22.31378666666667" lon="114.26917333333334"><ele>34.199999999999996</ele><time>2025-12-22T03:05:51Z</time></trkpt><trkpt lat="22.313793333333333" lon="114.26914333333335"><ele>33.1</ele><time>2025-12-22T03:05:54Z</time></trkpt><trkpt lat="22.31380166666667" lon="114.26912499999999"><ele>32.699999999999996</ele><time>2025-12-22T03:05:58Z</time></trkpt><trkpt lat="22.313814999999998" lon="114.26911166666666"><ele>32.9</ele><time>2025-12-22T03:06:03Z</time></trkpt><trkpt lat="22.31383333333333" lon="114.26910000000001"><ele>33.199999999999996</ele><time>2025-12-22T03:06:07Z</time></trkpt><trkpt lat="22.313850000000002" lon="114.26909166666668"><ele>33.4</ele><time>2025-12-22T03:06:11Z</time></trkpt><trkpt lat="22.313899999999997" lon="114.26906333333334"><ele>30.0</ele><time>2025-12-22T03:06:33Z</time></trkpt><trkpt lat="22.313905" lon="114.26904333333331"><ele>29.2</ele><time>2025-12-22T03:06:37Z</time></trkpt><trkpt lat="22.313913333333335" lon="114.269025"><ele>28.2</ele><time>2025-12-22T03:06:43Z</time></trkpt><trkpt lat="22.313925" lon="114.26901000000001"><ele>27.5</ele><time>2025-12-22T03:06:46Z</time></trkpt><trkpt lat="22.313938333333333" lon="114.26899666666668"><ele>26.799999999999997</ele><time>2025-12-22T03:06:50Z</time></trkpt><trkpt lat="22.313983333333333" lon="114.26900833333333"><ele>21.0</ele><time>2025-12-22T03:07:24Z</time></trkpt><trkpt lat="22.314003333333336" lon="114.26901000000001"><ele>19.0</ele><time>2025-12-22T03:07:27Z</time></trkpt><trkpt lat="22.314025" lon="114.26902999999999"><ele>17.0</ele><time>2025-12-22T03:07:29Z</time></trkpt><trkpt lat="22.31403833333333" lon="114.26905333333335"><ele>15.6</ele><time>2025-12-22T03:07:31Z</time></trkpt><trkpt lat="22.314063333333333" lon="114.26906833333332"><ele>14.0</ele><time>2025-12-22T03:07:33Z</time></trkpt><trkpt lat="22.314078333333335" lon="114.26908333333334"><ele>12.6</ele><time>2025-12-22T03:07:35Z</time></trkpt><trkpt lat="22.314085" lon="114.26910833333335"><ele>10.6</ele><time>2025-12-22T03:07:38Z</time></trkpt><trkpt lat="22.314091666666666" lon="114.26913333333331"><ele>9.4</ele><time>2025-12-22T03:07:41Z</time></trkpt><trkpt lat="22.314095" lon="114.26910666666666"><ele>8.4</ele><time>2025-12-22T03:07:47Z</time></trkpt><trkpt lat="22.3141" lon="114.26908666666668"><ele>8.3</ele><time>2025-12-22T03:07:49Z</time></trkpt><trkpt lat="22.314109999999996" lon="114.26907000000001"><ele>8.700000000000001</ele><time>2025-12-22T03:07:51Z</time></trkpt><trkpt lat="22.314120000000003" lon="114.26905166666666"><ele>8.700000000000001</ele><time>2025-12-22T03:07:53Z</time></trkpt><trkpt lat="22.314121666666665" lon="114.269025"><ele>8.3</ele><time>2025-12-22T03:07:55Z</time></trkpt><trkpt lat="22.31411166666667" lon="114.26900333333333"><ele>8.200000000000001</ele><time>2025-12-22T03:07:57Z</time></trkpt><trkpt lat="22.31410166666667" lon="114.26898166666666"><ele>8.3</ele><time>2025-12-22T03:07:59Z</time></trkpt><trkpt lat="22.314120000000003" lon="114.26896833333333"><ele>8.3</ele><time>2025-12-22T03:08:09Z</time></trkpt><trkpt lat="22.314133333333334" lon="114.26895333333331"><ele>8.200000000000001</ele><time>2025-12-22T03:08:11Z</time></trkpt><trkpt lat="22.31414666666667" lon="114.26893999999999"><ele>8.1</ele><time>2025-12-22T03:08:12Z</time></trkpt><trkpt lat="22.31416" lon="114.26892333333332"><ele>8.200000000000001</ele><time>2025-12-22T03:08:13Z</time></trkpt><trkpt lat="22.314176666666672" lon="114.26890833333333"><ele>8.4</ele><time>2025-12-22T03:08:14Z</time></trkpt><trkpt lat="22.314193333333332" lon="114.26889666666666"><ele>8.6</ele><time>2025-12-22T03:08:15Z</time></trkpt><trkpt lat="22.314211666666665" lon="114.26888833333332"><ele>8.9</ele><time>2025-12-22T03:08:16Z</time></trkpt><trkpt lat="22.31424833333333" lon="114.26888"><ele>9.3</ele><time>2025-12-22T03:08:18Z</time></trkpt><trkpt lat="22.31428" lon="114.26888166666667"><ele>10.0</ele><time>2025-12-22T03:08:20Z</time></trkpt><trkpt lat="22.31430833333333" lon="114.2689"><ele>11.0</ele><time>2025-12-22T03:08:22Z</time></trkpt><trkpt lat="22.314338333333332" lon="114.26891499999998"><ele>11.9</ele><time>2025-12-22T03:08:24Z</time></trkpt><trkpt lat="22.314355" lon="114.26892500000001"><ele>12.3</ele><time>2025-12-22T03:08:25Z</time></trkpt><trkpt lat="22.314365" lon="114.26895"><ele>12.9</ele><time>2025-12-22T03:08:27Z</time></trkpt><trkpt lat="22.314383333333332" lon="114.26895166666667"><ele>12.0</ele><time>2025-12-22T03:08:30Z</time></trkpt><trkpt lat="22.314396666666667" lon="114.268965"><ele>11.1</ele><time>2025-12-22T03:08:32Z</time></trkpt><trkpt lat="22.31441166666667" lon="114.26898000000001"><ele>10.5</ele><time>2025-12-22T03:08:34Z</time></trkpt><trkpt lat="22.314439999999998" lon="114.26900166666668"><ele>10.700000000000001</ele><time>2025-12-22T03:08:36Z</time></trkpt><trkpt lat="22.314455" lon="114.26901333333332"><ele>10.9</ele><time>2025-12-22T03:08:37Z</time></trkpt><trkpt lat="22.314466666666664" lon="114.26902833333334"><ele>10.8</ele><time>2025-12-22T03:08:38Z</time></trkpt><trkpt lat="22.314486666666667" lon="114.26904666666665"><ele>11.3</ele><time>2025-12-22T03:08:40Z</time></trkpt><trkpt lat="22.314496666666667" lon="114.26908166666665"><ele>11.8</ele><time>2025-12-22T03:08:42Z</time></trkpt><trkpt lat="22.31448833333333" lon="114.26910166666667"><ele>11.8</ele><time>2025-12-22T03:08:43Z</time></trkpt><trkpt lat="22.31447166666667" lon="114.26912499999999"><ele>11.5</ele><time>2025-12-22T03:08:45Z</time></trkpt><trkpt lat="22.31444666666666" lon="114.26913333333331"><ele>11.6</ele><time>2025-12-22T03:08:47Z</time></trkpt><trkpt lat="22.314428333333332" lon="114.26914166666666"><ele>11.3</ele><time>2025-12-22T03:08:50Z</time></trkpt><trkpt lat="22.3144" lon="114.26914000000001"><ele>9.8</ele><time>2025-12-22T03:08:58Z</time></trkpt><trkpt lat="22.31438166666667" lon="114.26914666666669"><ele>9.200000000000001</ele><time>2025-12-22T03:09:00Z</time></trkpt><trkpt lat="22.314361666666667" lon="114.26913166666667"><ele>8.3</ele><time>2025-12-22T03:09:02Z</time></trkpt><trkpt lat="22.31436666666667" lon="114.26915333333334"><ele>8.6</ele><time>2025-12-22T03:09:10Z</time></trkpt><trkpt lat="22.314383333333332" lon="114.26916833333334"><ele>8.700000000000001</ele><time>2025-12-22T03:09:13Z</time></trkpt><trkpt lat="22.314396666666667" lon="114.26918333333333"><ele>7.800000000000001</ele><time>2025-12-22T03:09:17Z</time></trkpt><trkpt lat="22.31440166666666" lon="114.26920333333334"><ele>7.5</ele><time>2025-12-22T03:09:22Z</time></trkpt><trkpt lat="22.31440166666666" lon="114.269235"><ele>8.5</ele><time>2025-12-22T03:09:37Z</time></trkpt><trkpt lat="22.314388333333333" lon="114.26920666666668"><ele>9.200000000000001</ele><time>2025-12-22T03:09:44Z</time></trkpt><trkpt lat="22.314383333333332" lon="114.26918499999998"><ele>9.3</ele><time>2025-12-22T03:09:46Z</time></trkpt><trkpt lat="22.314378333333334" lon="114.26916333333332"><ele>9.3</ele><time>2025-12-22T03:09:49Z</time></trkpt><trkpt lat="22.314349999999997" lon="114.26917499999999"><ele>10.4</ele><time>2025-12-22T03:10:05Z</time></trkpt><trkpt lat="22.31433" lon="114.26917833333333"><ele>10.8</ele><time>2025-12-22T03:10:11Z</time></trkpt><trkpt lat="22.314313333333335" lon="114.26919333333332"><ele>11.0</ele><time>2025-12-22T03:10:14Z</time></trkpt><trkpt lat="22.314295" lon="114.26919166666667"><ele>11.9</ele><time>2025-12-22T03:10:20Z</time></trkpt><trkpt lat="22.314355" lon="114.26913166666667"><ele>17.599999999999998</ele><time>2025-12-22T03:11:01Z</time></trkpt><trkpt lat="22.314424999999996" lon="114.2692"><ele>22.2</ele><time>2025-12-22T03:11:42Z</time></trkpt><trkpt lat="22.314406666666667" lon="114.26920333333334"><ele>22.299999999999997</ele><time>2025-12-22T03:11:44Z</time></trkpt><trkpt lat="22.31439833333333" lon="114.26918499999998"><ele>19.5</ele><time>2025-12-22T03:11:48Z</time></trkpt><trkpt lat="22.314386666666664" lon="114.26916833333334"><ele>15.6</ele><time>2025-12-22T03:11:54Z</time></trkpt><trkpt lat="22.314363333333336" lon="114.26916000000001"><ele>11.6</ele><time>2025-12-22T03:12:11Z</time></trkpt><trkpt lat="22.314345000000003" lon="114.26917666666668"><ele>11.9</ele><time>2025-12-22T03:12:17Z</time></trkpt><trkpt lat="22.314326666666663" lon="114.26919833333335"><ele>12.5</ele><time>2025-12-22T03:12:20Z</time></trkpt><trkpt lat="22.314313333333335" lon="114.26921833333333"><ele>12.9</ele><time>2025-12-22T03:12:23Z</time></trkpt><trkpt lat="22.314303333333335" lon="114.26923833333333"><ele>14.9</ele><time>2025-12-22T03:12:33Z</time></trkpt><trkpt lat="22.314289999999996" lon="114.26926166666665"><ele>15.4</ele><time>2025-12-22T03:12:36Z</time></trkpt><trkpt lat="22.31427833333333" lon="114.26928500000001"><ele>16.099999999999998</ele><time>2025-12-22T03:12:39Z</time></trkpt><trkpt lat="22.31427833333333" lon="114.26930666666667"><ele>16.9</ele><time>2025-12-22T03:12:41Z</time></trkpt><trkpt lat="22.314275" lon="114.26934166666666"><ele>18.2</ele><time>2025-12-22T03:12:43Z</time></trkpt><trkpt lat="22.31428" lon="114.26937833333335"><ele>23.099999999999998</ele><time>2025-12-22T03:12:49Z</time></trkpt><trkpt lat="22.31430833333333" lon="114.26936166666668"><ele>24.5</ele><time>2025-12-22T03:12:51Z</time></trkpt><trkpt lat="22.314295" lon="114.26937666666666"><ele>28.099999999999998</ele><time>2025-12-22T03:12:55Z</time></trkpt><trkpt lat="22.314271666666667" lon="114.26937000000001"><ele>30.0</ele><time>2025-12-22T03:12:57Z</time></trkpt><trkpt lat="22.314253333333333" lon="114.26935833333333"><ele>32.699999999999996</ele><time>2025-12-22T03:13:00Z</time></trkpt><trkpt lat="22.31424666666667" lon="114.26933666666667"><ele>34.4</ele><time>2025-12-22T03:13:02Z</time></trkpt><trkpt lat="22.314265" lon="114.26933166666667"><ele>38.699999999999996</ele><time>2025-12-22T03:13:07Z</time></trkpt><trkpt lat="22.31429166666667" lon="114.26931"><ele>39.8</ele><time>2025-12-22T03:13:09Z</time></trkpt><trkpt lat="22.314306666666667" lon="114.26929833333334"><ele>41.8</ele><time>2025-12-22T03:13:12Z</time></trkpt><trkpt lat="22.314328333333332" lon="114.26929166666666"><ele>43.3</ele><time>2025-12-22T03:13:14Z</time></trkpt><trkpt lat="22.314348333333335" lon="114.26929333333334"><ele>44.5</ele><time>2025-12-22T03:13:16Z</time></trkpt><trkpt lat="22.314373333333332" lon="114.26929666666668"><ele>45.9</ele><time>2025-12-22T03:13:18Z</time></trkpt><trkpt lat="22.314373333333332" lon="114.26931666666665"><ele>46.4</ele><time>2025-12-22T03:13:21Z</time></trkpt><trkpt lat="22.314376666666664" lon="114.269295"><ele>46.6</ele><time>2025-12-22T03:13:24Z</time></trkpt><trkpt lat="22.31436833333333" lon="114.26927333333333"><ele>45.3</ele><time>2025-12-22T03:13:27Z</time></trkpt><trkpt lat="22.314351666666667" lon="114.26926333333334"><ele>44.699999999999996</ele><time>2025-12-22T03:13:32Z</time></trkpt><trkpt lat="22.314338333333332" lon="114.26927833333333"><ele>47.8</ele><time>2025-12-22T03:13:45Z</time></trkpt><trkpt lat="22.314325" lon="114.26929166666666"><ele>48.3</ele><time>2025-12-22T03:13:47Z</time></trkpt><trkpt lat="22.314311666666672" lon="114.26930833333333"><ele>48.8</ele><time>2025-12-22T03:13:49Z</time></trkpt><trkpt lat="22.314295" lon="114.26931833333335"><ele>49.199999999999996</ele><time>2025-12-22T03:13:51Z</time></trkpt><trkpt lat="22.31428" lon="114.26933333333334"><ele>49.5</ele><time>2025-12-22T03:13:53Z</time></trkpt><trkpt lat="22.31428" lon="114.26935499999999"><ele>49.1</ele><time>2025-12-22T03:13:56Z</time></trkpt><trkpt lat="22.31428" lon="114.26937833333335"><ele>47.9</ele><time>2025-12-22T03:14:05Z</time></trkpt><trkpt lat="22.314283333333332" lon="114.26940166666667"><ele>48.1</ele><time>2025-12-22T03:14:09Z</time></trkpt><trkpt lat="22.31424833333333" lon="114.26940166666667"><ele>47.699999999999996</ele><time>2025-12-22T03:14:16Z</time></trkpt><trkpt lat="22.314265" lon="114.26939166666668"><ele>49.1</ele><time>2025-12-22T03:14:25Z</time></trkpt><trkpt lat="22.31428166666667" lon="114.26933499999998"><ele>49.199999999999996</ele><time>2025-12-22T03:14:31Z</time></trkpt><trkpt lat="22.314285" lon="114.26931333333332"><ele>49.3</ele><time>2025-12-22T03:14:33Z</time></trkpt><trkpt lat="22.31430833333333" lon="114.26928333333332"><ele>49.9</ele><time>2025-12-22T03:14:37Z</time></trkpt><trkpt lat="22.31432333333333" lon="114.26926833333333"><ele>50.4</ele><time>2025-12-22T03:14:39Z</time></trkpt><trkpt lat="22.314326666666663" lon="114.26924666666667"><ele>50.9</ele><time>2025-12-22T03:14:41Z</time></trkpt><trkpt lat="22.314348333333335" lon="114.26924"><ele>51.8</ele><time>2025-12-22T03:14:45Z</time></trkpt><trkpt lat="22.31436666666667" lon="114.26923666666669"><ele>52.5</ele><time>2025-12-22T03:14:49Z</time></trkpt><trkpt lat="22.314383333333332" lon="114.26921666666667"><ele>53.1</ele><time>2025-12-22T03:14:52Z</time></trkpt><trkpt lat="22.31434" lon="114.26926999999999"><ele>55.1</ele><time>2025-12-22T03:15:37Z</time></trkpt><trkpt lat="22.314316666666667" lon="114.26927833333333"><ele>55.0</ele><time>2025-12-22T03:15:41Z</time></trkpt><trkpt lat="22.314301666666665" lon="114.26929333333334"><ele>54.699999999999996</ele><time>2025-12-22T03:15:43Z</time></trkpt><trkpt lat="22.31429666666667" lon="114.26931333333332"><ele>54.5</ele><time>2025-12-22T03:15:47Z</time></trkpt><trkpt lat="22.31427833333333" lon="114.26933333333334"><ele>53.3</ele><time>2025-12-22T03:15:51Z</time></trkpt><trkpt lat="22.31429333333333" lon="114.26930333333333"><ele>51.9</ele><time>2025-12-22T03:15:54Z</time></trkpt><trkpt lat="22.31428" lon="114.26923833333333"><ele>46.9</ele><time>2025-12-22T03:16:28Z</time></trkpt><trkpt lat="22.314298333333333" lon="114.26923166666666"><ele>47.0</ele><time>2025-12-22T03:16:30Z</time></trkpt><trkpt lat="22.31428" lon="114.26924499999998"><ele>47.5</ele><time>2025-12-22T03:16:34Z</time></trkpt><trkpt lat="22.31429666666667" lon="114.26925833333334"><ele>48.9</ele><time>2025-12-22T03:16:42Z</time></trkpt><trkpt lat="22.314315000000004" lon="114.26925333333332"><ele>49.3</ele><time>2025-12-22T03:16:44Z</time></trkpt><trkpt lat="22.314298333333333" lon="114.26931"><ele>49.0</ele><time>2025-12-22T03:16:46Z</time></trkpt><trkpt lat="22.31429333333333" lon="114.26933499999998"><ele>49.199999999999996</ele><time>2025-12-22T03:16:47Z</time></trkpt><trkpt lat="22.314286666666664" lon="114.26936333333333"><ele>49.4</ele><time>2025-12-22T03:16:49Z</time></trkpt><trkpt lat="22.314306666666667" lon="114.26935833333333"><ele>52.0</ele><time>2025-12-22T03:16:57Z</time></trkpt><trkpt lat="22.314313333333335" lon="114.26933499999998"><ele>53.5</ele><time>2025-12-22T03:17:01Z</time></trkpt><trkpt lat="22.31432333333333" lon="114.26931833333335"><ele>54.1</ele><time>2025-12-22T03:17:03Z</time></trkpt><trkpt lat="22.314334999999996" lon="114.26929666666668"><ele>55.1</ele><time>2025-12-22T03:17:06Z</time></trkpt><trkpt lat="22.314345000000003" lon="114.26928000000001"><ele>55.4</ele><time>2025-12-22T03:17:08Z</time></trkpt><trkpt lat="22.314348333333335" lon="114.26924499999998"><ele>55.8</ele><time>2025-12-22T03:17:10Z</time></trkpt><trkpt lat="22.314333333333334" lon="114.26923333333335"><ele>56.9</ele><time>2025-12-22T03:17:15Z</time></trkpt><trkpt lat="22.314318333333336" lon="114.26924499999998"><ele>56.5</ele><time>2025-12-22T03:17:19Z</time></trkpt><trkpt lat="22.31430833333333" lon="114.26926999999999"><ele>54.8</ele><time>2025-12-22T03:17:23Z</time></trkpt><trkpt lat="22.314298333333333" lon="114.26929"><ele>54.4</ele><time>2025-12-22T03:17:25Z</time></trkpt><trkpt lat="22.31429333333333" lon="114.26931166666667"><ele>54.1</ele><time>2025-12-22T03:17:28Z</time></trkpt><trkpt lat="22.31429333333333" lon="114.26934166666666"><ele>53.199999999999996</ele><time>2025-12-22T03:17:31Z</time></trkpt><trkpt lat="22.314286666666664" lon="114.26936166666668"><ele>51.3</ele><time>2025-12-22T03:17:33Z</time></trkpt><trkpt lat="22.31428" lon="114.26938166666666"><ele>49.0</ele><time>2025-12-22T03:17:36Z</time></trkpt><trkpt lat="22.31429333333333" lon="114.26940166666667"><ele>48.5</ele><time>2025-12-22T03:17:42Z</time></trkpt><trkpt lat="22.31431" lon="114.26938999999999"><ele>48.8</ele><time>2025-12-22T03:17:46Z</time></trkpt><trkpt lat="22.314313333333335" lon="114.26936833333333"><ele>49.6</ele><time>2025-12-22T03:18:03Z</time></trkpt><trkpt lat="22.314326666666663" lon="114.26938999999999"><ele>50.5</ele><time>2025-12-22T03:18:09Z</time></trkpt><trkpt lat="22.314346666666665" lon="114.26937000000001"><ele>49.8</ele><time>2025-12-22T03:18:12Z</time></trkpt><trkpt lat="22.314358333333335" lon="114.26934833333334"><ele>50.199999999999996</ele><time>2025-12-22T03:18:14Z</time></trkpt><trkpt lat="22.314363333333336" lon="114.269325"><ele>50.5</ele><time>2025-12-22T03:18:16Z</time></trkpt><trkpt lat="22.31436666666667" lon="114.26930499999999"><ele>53.1</ele><time>2025-12-22T03:18:33Z</time></trkpt><trkpt lat="22.314373333333332" lon="114.26928166666667"><ele>54.3</ele><time>2025-12-22T03:18:40Z</time></trkpt><trkpt lat="22.314360000000004" lon="114.26926666666668"><ele>53.4</ele><time>2025-12-22T03:18:49Z</time></trkpt><trkpt lat="22.314378333333334" lon="114.26926833333333"><ele>53.5</ele><time>2025-12-22T03:18:53Z</time></trkpt><trkpt lat="22.314396666666667" lon="114.26926999999999"><ele>53.3</ele><time>2025-12-22T03:18:55Z</time></trkpt><trkpt lat="22.314418333333332" lon="114.26926666666668"><ele>55.199999999999996</ele><time>2025-12-22T03:19:04Z</time></trkpt><trkpt lat="22.31442666666667" lon="114.26929166666666"><ele>55.4</ele><time>2025-12-22T03:19:07Z</time></trkpt><trkpt lat="22.314421666666664" lon="114.26927166666668"><ele>53.199999999999996</ele><time>2025-12-22T03:19:14Z</time></trkpt><trkpt lat="22.314405000000004" lon="114.26925666666666"><ele>52.699999999999996</ele><time>2025-12-22T03:19:16Z</time></trkpt><trkpt lat="22.314390000000003" lon="114.26926833333333"><ele>50.699999999999996</ele><time>2025-12-22T03:19:21Z</time></trkpt><trkpt lat="22.314360000000004" lon="114.26925833333334"><ele>34.0</ele><time>2025-12-22T03:20:08Z</time></trkpt><trkpt lat="22.314375000000002" lon="114.26924499999998"><ele>35.1</ele><time>2025-12-22T03:20:12Z</time></trkpt><trkpt lat="22.31435333333333" lon="114.26924666666667"><ele>36.699999999999996</ele><time>2025-12-22T03:20:17Z</time></trkpt><trkpt lat="22.314351666666667" lon="114.269225"><ele>38.4</ele><time>2025-12-22T03:20:22Z</time></trkpt><trkpt lat="22.31436666666667" lon="114.26921166666668"><ele>38.9</ele><time>2025-12-22T03:20:24Z</time></trkpt><trkpt lat="22.314376666666664" lon="114.26919333333332"><ele>41.0</ele><time>2025-12-22T03:20:34Z</time></trkpt><trkpt lat="22.314358333333335" lon="114.26918499999998"><ele>41.699999999999996</ele><time>2025-12-22T03:20:37Z</time></trkpt><trkpt lat="22.314338333333332" lon="114.26917833333333"><ele>42.6</ele><time>2025-12-22T03:20:40Z</time></trkpt><trkpt lat="22.314328333333332" lon="114.26919500000001"><ele>44.1</ele><time>2025-12-22T03:20:45Z</time></trkpt><trkpt lat="22.314306666666667" lon="114.26919500000001"><ele>44.699999999999996</ele><time>2025-12-22T03:20:47Z</time></trkpt><trkpt lat="22.31429166666667" lon="114.26920833333334"><ele>46.5</ele><time>2025-12-22T03:20:51Z</time></trkpt><trkpt lat="22.314315000000004" lon="114.26920999999999"><ele>47.8</ele><time>2025-12-22T03:20:56Z</time></trkpt><trkpt lat="22.31433" lon="114.26919833333335"><ele>47.9</ele><time>2025-12-22T03:21:07Z</time></trkpt><trkpt lat="22.31435333333333" lon="114.26919833333335"><ele>46.199999999999996</ele><time>2025-12-22T03:21:09Z</time></trkpt><trkpt lat="22.31438166666667" lon="114.26920833333334"><ele>32.199999999999996</ele><time>2025-12-22T03:21:41Z</time></trkpt><trkpt lat="22.314376666666664" lon="114.26924333333334"><ele>32.8</ele><time>2025-12-22T03:21:44Z</time></trkpt><trkpt lat="22.314373333333332" lon="114.26926333333334"><ele>33.1</ele><time>2025-12-22T03:21:46Z</time></trkpt><trkpt lat="22.314361666666667" lon="114.26928000000001"><ele>34.1</ele><time>2025-12-22T03:21:51Z</time></trkpt><trkpt lat="22.314345000000003" lon="114.26929833333334"><ele>36.0</ele><time>2025-12-22T03:22:02Z</time></trkpt><trkpt lat="22.31435333333333" lon="114.26927333333333"><ele>36.0</ele><time>2025-12-22T03:22:05Z</time></trkpt><trkpt lat="22.31433" lon="114.26927833333333"><ele>37.199999999999996</ele><time>2025-12-22T03:22:20Z</time></trkpt><trkpt lat="22.314326666666663" lon="114.26923833333333"><ele>38.5</ele><time>2025-12-22T03:22:25Z</time></trkpt><trkpt lat="22.314341666666664" lon="114.26921833333333"><ele>38.1</ele><time>2025-12-22T03:22:27Z</time></trkpt><trkpt lat="22.314363333333336" lon="114.26919333333332"><ele>37.9</ele><time>2025-12-22T03:22:30Z</time></trkpt><trkpt lat="22.314373333333332" lon="114.26917166666665"><ele>36.6</ele><time>2025-12-22T03:22:32Z</time></trkpt><trkpt lat="22.314383333333332" lon="114.26918833333333"><ele>31.6</ele><time>2025-12-22T03:22:38Z</time></trkpt><trkpt lat="22.314388333333333" lon="114.26920833333334"><ele>29.099999999999998</ele><time>2025-12-22T03:22:42Z</time></trkpt><trkpt lat="22.31440166666666" lon="114.26922666666665"><ele>21.099999999999998</ele><time>2025-12-22T03:23:01Z</time></trkpt><trkpt lat="22.314375000000002" lon="114.26922833333334"><ele>17.799999999999997</ele><time>2025-12-22T03:23:11Z</time></trkpt><trkpt lat="22.314365" lon="114.26920999999999"><ele>17.4</ele><time>2025-12-22T03:23:13Z</time></trkpt><trkpt lat="22.314363333333336" lon="114.26918833333333"><ele>17.0</ele><time>2025-12-22T03:23:15Z</time></trkpt><trkpt lat="22.314355" lon="114.26916666666666"><ele>16.4</ele><time>2025-12-22T03:23:18Z</time></trkpt><trkpt lat="22.314348333333335" lon="114.269145"><ele>15.500000000000002</ele><time>2025-12-22T03:23:25Z</time></trkpt><trkpt lat="22.314373333333332" lon="114.26914333333335"><ele>13.9</ele><time>2025-12-22T03:23:41Z</time></trkpt><trkpt lat="22.314383333333332" lon="114.26916333333332"><ele>13.5</ele><time>2025-12-22T03:23:43Z</time></trkpt><trkpt lat="22.314394999999998" lon="114.26918333333333"><ele>13.1</ele><time>2025-12-22T03:23:45Z</time></trkpt><trkpt lat="22.314403333333335" lon="114.26920333333334"><ele>11.3</ele><time>2025-12-22T03:23:48Z</time></trkpt><trkpt lat="22.31441333333333" lon="114.26917833333333"><ele>8.5</ele><time>2025-12-22T03:24:15Z</time></trkpt><trkpt lat="22.3144" lon="114.269165"><ele>9.6</ele><time>2025-12-22T03:24:19Z</time></trkpt><trkpt lat="22.3144" lon="114.26919000000001"><ele>11.200000000000001</ele><time>2025-12-22T03:24:28Z</time></trkpt><trkpt lat="22.31441333333333" lon="114.26914666666669"><ele>13.700000000000001</ele><time>2025-12-22T03:25:01Z</time></trkpt><trkpt lat="22.314433333333334" lon="114.26912833333333"><ele>14.0</ele><time>2025-12-22T03:25:04Z</time></trkpt><trkpt lat="22.31444666666666" lon="114.269115"><ele>14.200000000000001</ele><time>2025-12-22T03:25:05Z</time></trkpt><trkpt lat="22.31446" lon="114.26909499999998"><ele>14.5</ele><time>2025-12-22T03:25:06Z</time></trkpt><trkpt lat="22.31447166666667" lon="114.26908"><ele>14.6</ele><time>2025-12-22T03:25:07Z</time></trkpt><trkpt lat="22.314486666666667" lon="114.26906"><ele>15.799999999999999</ele><time>2025-12-22T03:25:09Z</time></trkpt><trkpt lat="22.314476666666664" lon="114.26904"><ele>17.9</ele><time>2025-12-22T03:25:12Z</time></trkpt><trkpt lat="22.31445833333333" lon="114.26903499999999"><ele>18.5</ele><time>2025-12-22T03:25:16Z</time></trkpt><trkpt lat="22.314439999999998" lon="114.269025"><ele>17.599999999999998</ele><time>2025-12-22T03:25:20Z</time></trkpt><trkpt lat="22.314463333333332" lon="114.26901666666666"><ele>12.0</ele><time>2025-12-22T03:25:59Z</time></trkpt><trkpt lat="22.314473333333332" lon="114.26899"><ele>12.0</ele><time>2025-12-22T03:26:01Z</time></trkpt><trkpt lat="22.314481666666666" lon="114.26896"><ele>11.8</ele><time>2025-12-22T03:26:03Z</time></trkpt><trkpt lat="22.31448833333333" lon="114.26894166666668"><ele>11.700000000000001</ele><time>2025-12-22T03:26:05Z</time></trkpt><trkpt lat="22.314513333333334" lon="114.26892833333335"><ele>11.5</ele><time>2025-12-22T03:26:08Z</time></trkpt><trkpt lat="22.314529999999998" lon="114.26890999999999"><ele>11.5</ele><time>2025-12-22T03:26:10Z</time></trkpt><trkpt lat="22.314545" lon="114.26888666666667"><ele>11.6</ele><time>2025-12-22T03:26:12Z</time></trkpt><trkpt lat="22.314553333333333" lon="114.26885499999999"><ele>11.700000000000001</ele><time>2025-12-22T03:26:14Z</time></trkpt><trkpt lat="22.314563333333332" lon="114.26883000000001"><ele>12.0</ele><time>2025-12-22T03:26:16Z</time></trkpt><trkpt lat="22.314568333333334" lon="114.26885166666668"><ele>11.700000000000001</ele><time>2025-12-22T03:26:23Z</time></trkpt><trkpt lat="22.31457833333333" lon="114.26887333333335"><ele>11.3</ele><time>2025-12-22T03:26:26Z</time></trkpt><trkpt lat="22.31458" lon="114.2689"><ele>11.1</ele><time>2025-12-22T03:26:29Z</time></trkpt><trkpt lat="22.31457833333333" lon="114.26892333333332"><ele>11.0</ele><time>2025-12-22T03:26:31Z</time></trkpt><trkpt lat="22.31457833333333" lon="114.26894833333333"><ele>11.0</ele><time>2025-12-22T03:26:35Z</time></trkpt><trkpt lat="22.31459333333333" lon="114.26893"><ele>11.200000000000001</ele><time>2025-12-22T03:26:42Z</time></trkpt><trkpt lat="22.314598333333333" lon="114.2689"><ele>11.200000000000001</ele><time>2025-12-22T03:26:44Z</time></trkpt><trkpt lat="22.314604999999997" lon="114.26887166666666"><ele>11.3</ele><time>2025-12-22T03:26:46Z</time></trkpt><trkpt lat="22.314618333333335" lon="114.26885499999999"><ele>11.200000000000001</ele><time>2025-12-22T03:26:48Z</time></trkpt><trkpt lat="22.314641666666663" lon="114.26883500000001"><ele>11.0</ele><time>2025-12-22T03:26:50Z</time></trkpt><trkpt lat="22.314655000000002" lon="114.26882166666668"><ele>10.8</ele><time>2025-12-22T03:26:52Z</time></trkpt><trkpt lat="22.314671666666662" lon="114.26880166666666"><ele>10.5</ele><time>2025-12-22T03:26:54Z</time></trkpt><trkpt lat="22.314686666666663" lon="114.26878166666665"><ele>10.6</ele><time>2025-12-22T03:26:56Z</time></trkpt><trkpt lat="22.314685" lon="114.26875166666666"><ele>10.5</ele><time>2025-12-22T03:26:59Z</time></trkpt><trkpt lat="22.31468166666667" lon="114.26872833333333"><ele>10.5</ele><time>2025-12-22T03:27:01Z</time></trkpt><trkpt lat="22.314671666666662" lon="114.26869333333335"><ele>10.6</ele><time>2025-12-22T03:27:03Z</time></trkpt><trkpt lat="22.314649999999997" lon="114.26867500000002"><ele>10.700000000000001</ele><time>2025-12-22T03:27:06Z</time></trkpt><trkpt lat="22.314633333333337" lon="114.26866166666666"><ele>11.0</ele><time>2025-12-22T03:27:08Z</time></trkpt><trkpt lat="22.31462333333333" lon="114.26864333333333"><ele>10.700000000000001</ele><time>2025-12-22T03:27:10Z</time></trkpt><trkpt lat="22.314603333333334" lon="114.26864166666668"><ele>11.6</ele><time>2025-12-22T03:27:19Z</time></trkpt><trkpt lat="22.314598333333333" lon="114.26861166666667"><ele>11.8</ele><time>2025-12-22T03:27:24Z</time></trkpt><trkpt lat="22.31459166666667" lon="114.26859166666667"><ele>11.6</ele><time>2025-12-22T03:27:27Z</time></trkpt><trkpt lat="22.31457833333333" lon="114.26857666666668"><ele>11.4</ele><time>2025-12-22T03:27:30Z</time></trkpt><trkpt lat="22.314566666666664" lon="114.26859833333334"><ele>10.6</ele><time>2025-12-22T03:27:33Z</time></trkpt><trkpt lat="22.314555000000002" lon="114.26857666666668"><ele>10.3</ele><time>2025-12-22T03:27:43Z</time></trkpt><trkpt lat="22.314540000000004" lon="114.26856333333332"><ele>10.1</ele><time>2025-12-22T03:27:47Z</time></trkpt><trkpt lat="22.314552981668953" lon="114.26852307329979" /><trkpt lat="22.31423278125" lon="114.26820479638671" /><trkpt lat="22.31413378125" lon="114.26810279638671" /><trkpt lat="22.31407278125" lon="114.26802979638671" /><trkpt lat="22.31357278125" lon="114.26743079638672" /><trkpt lat="22.31360578125" lon="114.26739979638671" /><trkpt lat="22.31368578125" lon="114.26732579638671" /><trkpt lat="22.31372478125" lon="114.26728979638672" /><trkpt lat="22.31375378125" lon="114.26730179638672" /><trkpt lat="22.31378578125" lon="114.26730479638672" /><trkpt lat="22.31381678125" lon="114.26729879638673" /><trkpt lat="22.31384578125" lon="114.26728579638672" /><trkpt lat="22.31386978125" lon="114.26726479638671" /><trkpt lat="22.31427178125" lon="114.26676879638671" /><trkpt lat="22.314333193719364" lon="114.26665927858735" /><trkpt lat="22.31436778125" lon="114.26658479638672" /><trkpt lat="22.31468878125" lon="114.26619979638672" /><trkpt lat="22.31497378125" lon="114.26586879638671" /><trkpt lat="22.31502478125" lon="114.26577279638671" /><trkpt lat="22.31506178125" lon="114.26578279638672" /><trkpt lat="22.31510578125" lon="114.26579379638672" /><trkpt lat="22.31531878125" lon="114.26578179638672" /><trkpt lat="22.31535078125" lon="114.26572379638672" /><trkpt lat="22.31539278125" lon="114.26564879638671" /><trkpt lat="22.31510778125" lon="114.26535479638672" /><trkpt lat="22.31495378125" lon="114.26519579638672" /><trkpt lat="22.31496278125" lon="114.26517179638672" /></trkseg></trk></gpx>