<?xml version='1.0' encoding='UTF-8' ?><gpx version="1.1" creator="HikingTrailHK" xsi:schemaLocation="http://www.topografix.com/GPX/1/1 http://www.topografix.com/GPX/1/1/gpx.xsd" xmlns="http://www.topografix.com/GPX/1/1" xmlns:xsi="http://www.w3.org/2001/XMLSchema-instance"><metadata><name>瀑布灣@2023-10-15</name><desc></desc></metadata><trk><trkseg><trkpt lat="22.251143165442837" lon="114.13650298279767" /><trkpt lat="22.25108478125" lon="114.13653279638672" /><trkpt lat="22.25075878125" lon="114.13668479638672" /><trkpt lat="22.25068078125" lon="114.13672179638672" /><trkpt lat="22.25090578125" lon="114.13704579638672" /><trkpt lat="22.25084278125" lon="114.13721879638672" /><trkpt lat="22.25064478125" lon="114.13740979638672" /><trkpt lat="22.25053578125" lon="114.13753379638672" /><trkpt lat="22.25023678125" lon="114.13786579638672" /><trkpt lat="22.25014878125" lon="114.13796179638672" /><trkpt lat="22.25007278125" lon="114.13809879638671" /><trkpt lat="22.24974678125" lon="114.13842379638672" /><trkpt lat="22.24974678125" lon="114.13856079638671" /><trkpt lat="22.24968678125" lon="114.13867179638672" /><trkpt lat="22.24968478125" lon="114.13840979638672" /><trkpt lat="22.24961178125" lon="114.13841479638671" /><trkpt lat="22.24959578125" lon="114.13822379638673" /><trkpt lat="22.24937178125" lon="114.13822479638672" /><trkpt lat="22.24924178125" lon="114.13822679638672" /><trkpt lat="22.24922778125" lon="114.13825679638671" /><trkpt lat="22.24923278125" lon="114.13839579638672" /><trkpt lat="22.24920178125" lon="114.13847879638672" /><trkpt lat="22.24919878125" lon="114.13856379638672" /><trkpt lat="22.24921878125" lon="114.13862779638671" /><trkpt lat="22.24919978125" lon="114.13874679638671" /><trkpt lat="22.24920178125" lon="114.13878879638672" /><trkpt lat="22.24922478125" lon="114.13884579638672" /><trkpt lat="22.24920578125" lon="114.13893079638672" /><trkpt lat="22.24916478125" lon="114.13898079638672" /><trkpt lat="22.24908978125" lon="114.13899079638672" /><trkpt lat="22.24883378125" lon="114.13899179638672" /><trkpt lat="22.24861678125" lon="114.13791879638671" /><trkpt lat="22.24861478125" lon="114.13757679638672" /><trkpt lat="22.24872378125" lon="114.13745079638672" /><trkpt lat="22.24881878125" lon="114.13730579638671" /><trkpt lat="22.24882678125" lon="114.13700679638671" /><trkpt lat="22.24886278125" lon="114.13686279638672" /><trkpt lat="22.24898578125" lon="114.13658479638671" /><trkpt lat="22.24912278125" lon="114.13625979638672" /><trkpt lat="22.24919478125" lon="114.13615879638672" /><trkpt lat="22.24924078125" lon="114.13609379638672" /><trkpt lat="22.24940278125" lon="114.13592679638671" /><trkpt lat="22.24982078125" lon="114.13565379638672" /><trkpt lat="22.24994178125" lon="114.13554579638672" /><trkpt lat="22.25005178125" lon="114.13540679638672" /><trkpt lat="22.25022278125" lon="114.13522079638672" /><trkpt lat="22.25048278125" lon="114.13499279638671" /><trkpt lat="22.25068378125" lon="114.13486979638672" /><trkpt lat="22.25077778125" lon="114.13487479638673" /><trkpt lat="22.25088778125" lon="114.13482679638672" /><trkpt lat="22.25098278125" lon="114.13465679638672" /><trkpt lat="22.25114778125" lon="114.13454179638671" /><trkpt lat="22.25123278125" lon="114.13450879638673" /><trkpt lat="22.25130078125" lon="114.13452479638671" /><trkpt lat="22.25173378125" lon="114.13431279638672" /><trkpt lat="22.25183478125" lon="114.13405779638671" /><trkpt lat="22.25192378125" lon="114.13393479638673" /><trkpt lat="22.25202778125" lon="114.13385479638671" /><trkpt lat="22.25208278125" lon="114.13376879638672" /><trkpt lat="22.25218178125" lon="114.13359679638671" /><trkpt lat="22.25224378125" lon="114.13352979638672" /><trkpt lat="22.25229878125" lon="114.13345979638672" /><trkpt lat="22.25232878125" lon="114.13339579638672" /><trkpt lat="22.25223878125" lon="114.13339579638672" /><trkpt lat="22.25230378125" lon="114.13333179638671" /><trkpt lat="22.25236778125" lon="114.13328279638672" /><trkpt lat="22.25239778125" lon="114.13322379638672" /><trkpt lat="22.252420390843525" lon="114.13324682497654" /><trkpt lat="22.25241479760936" lon="114.13328209858827" /><trkpt lat="22.252376383002648" lon="114.13326587911362" /><trkpt lat="22.25236778125" lon="114.13328279638672" /><trkpt lat="22.25230378125" lon="114.13333179638671" /><trkpt lat="22.25223878125" lon="114.13339579638672" /><trkpt lat="22.25232878125" lon="114.13339579638672" /><trkpt lat="22.25229878125" lon="114.13345979638672" /><trkpt lat="22.25224378125" lon="114.13352979638672" /><trkpt lat="22.25226878125" lon="114.13359379638672" /><trkpt lat="22.25230878125" lon="114.13359979638672" /><trkpt lat="22.25239778125" lon="114.13364279638672" /><trkpt lat="22.25242778125" lon="114.13371179638672" /><trkpt lat="22.25247778125" lon="114.13370179638672" /><trkpt lat="22.25254178125" lon="114.13366379638671" /><trkpt lat="22.25258678125" lon="114.13360479638672" /><trkpt lat="22.25262678125" lon="114.13356679638672" /><trkpt lat="22.25270578125" lon="114.13352379638673" /><trkpt lat="22.25272078125" lon="114.13342779638671" /><trkpt lat="22.25272578125" lon="114.13334779638672" /><trkpt lat="22.25276578125" lon="114.13331479638671" /><trkpt lat="22.25278078125" lon="114.13325579638672" /><trkpt lat="22.25280578125" lon="114.13318679638672" /><trkpt lat="22.25282378125" lon="114.13308779638672" /><trkpt lat="22.25281178125" lon="114.13298579638672" /><trkpt lat="22.25279678125" lon="114.13290679638672" /><trkpt lat="22.25282578125" lon="114.13266879638672" /><trkpt lat="22.25286078125" lon="114.13252479638672" /><trkpt lat="22.25291878125" lon="114.13238679638673" /><trkpt lat="22.25299178125" lon="114.13226879638673" /><trkpt lat="22.25309578125" lon="114.13214679638672" /><trkpt lat="22.25322678125" lon="114.13205279638672" /><trkpt lat="22.25337278125" lon="114.13198279638672" /><trkpt lat="22.25351778125" lon="114.13194779638673" /><trkpt lat="22.25372678125" lon="114.13193879638672" /><trkpt lat="22.25384378125" lon="114.13195579638672" /><trkpt lat="22.25405278125" lon="114.13201879638672" /><trkpt lat="22.25474978125" lon="114.13220379638672" /><trkpt lat="22.25502778125" lon="114.13225179638673" /><trkpt lat="22.25531478125" lon="114.13230579638672" /><trkpt lat="22.25572578125" lon="114.13241379638671" /><trkpt lat="22.25581278125" lon="114.13243579638672" /><trkpt lat="22.25583778125" lon="114.13235579638672" /><trkpt lat="22.25595278125" lon="114.13197079638672" /><trkpt lat="22.25647678125" lon="114.13180179638672" /><trkpt lat="22.25673478125" lon="114.13158479638672" /><trkpt lat="22.25693578125" lon="114.13150479638672" /><trkpt lat="22.25726378125" lon="114.13140779638672" /><trkpt lat="22.25756178125" lon="114.13128179638672" /><trkpt lat="22.25774778125" lon="114.13109179638671" /><trkpt lat="22.25791678125" lon="114.13074779638671" /><trkpt lat="22.25805578125" lon="114.13056879638673" /><trkpt lat="22.25836878125" lon="114.13036979638672" /><trkpt lat="22.25860978125" lon="114.13029079638672" /><trkpt lat="22.25864678125" lon="114.13027879638672" /><trkpt lat="22.25904378125" lon="114.13028679638671" /><trkpt lat="22.25925978125" lon="114.13023879638672" /><trkpt lat="22.25949778125" lon="114.13006679638671" /><trkpt lat="22.25975878125" lon="114.12969979638672" /><trkpt lat="22.25990578125" lon="114.12958179638672" /><trkpt lat="22.26001178125" lon="114.12974379638672" /><trkpt lat="22.26009878125" lon="114.12972079638672" /><trkpt lat="22.26014678125" lon="114.12973579638673" /><trkpt lat="22.26021278125" lon="114.12979579638672" /><trkpt lat="22.26021778125" lon="114.12986879638672" /><trkpt lat="22.26022178125" lon="114.12996079638671" /><trkpt lat="22.26025378125" lon="114.13002779638671" /><trkpt lat="22.26061378125" lon="114.13055279638672" /><trkpt lat="22.26094078125" lon="114.13079979638673" /><trkpt lat="22.26086878125" lon="114.13089879638672" /><trkpt lat="22.26093878125" lon="114.13093779638672" /><trkpt lat="22.26110478125" lon="114.13102579638672" /><trkpt lat="22.26120978125" lon="114.13109579638672" /><trkpt lat="22.26124778125" lon="114.13112979638672" /><trkpt lat="22.26125778125" lon="114.13114179638671" /><trkpt lat="22.26129878125" lon="114.13119179638672" /><trkpt lat="22.26132478125" lon="114.13120479638673" /><trkpt lat="22.26136378125" lon="114.13121079638672" /><trkpt lat="22.26142778125" lon="114.13120279638672" /><trkpt lat="22.26150878125" lon="114.13118379638672" /><trkpt lat="22.26158878125" lon="114.13116679638672" /><trkpt lat="22.26172378125" lon="114.13114879638673" /><trkpt lat="22.26172978125" lon="114.13102179638672" /><trkpt lat="22.26175978125" lon="114.13077179638672" /><trkpt lat="22.26182278125" lon="114.13046579638672" /><trkpt lat="22.26185278125" lon="114.13041779638672" /><trkpt lat="22.26190078125" lon="114.13037879638672" /><trkpt lat="22.26197278125" lon="114.13037379638672" /><trkpt lat="22.26198378125" lon="114.13031979638671" /><trkpt lat="22.26203007608884" lon="114.13010087639584" /></trkseg></trk></gpx>