<?xml version='1.0' encoding='UTF-8' ?><gpx version="1.1" creator="HikingTrailHK" xsi:schemaLocation="http://www.topografix.com/GPX/1/1 http://www.topografix.com/GPX/1/1/gpx.xsd" xmlns="http://www.topografix.com/GPX/1/1" xmlns:xsi="http://www.w3.org/2001/XMLSchema-instance"><metadata><name>灣畔徑小山 @ 2017-11-26</name><desc></desc></metadata><trk><trkseg><trkpt lat="22.312825357922005" lon="114.26403380423982" /><trkpt lat="22.31211678125" lon="114.26471979638671" /><trkpt lat="22.31205778125" lon="114.26476479638671" /><trkpt lat="22.31199478125" lon="114.26480279638672" /><trkpt lat="22.31192678125" lon="114.26483179638672" /><trkpt lat="22.31185578125" lon="114.26484979638671" /><trkpt lat="22.31178378125" lon="114.26485879638672" /><trkpt lat="22.31171078125" lon="114.26485779638672" /><trkpt lat="22.31163878125" lon="114.26484679638672" /><trkpt lat="22.31156878125" lon="114.26482679638671" /><trkpt lat="22.31150178125" lon="114.26479579638672" /><trkpt lat="22.31143878125" lon="114.26475679638672" /><trkpt lat="22.31138178125" lon="114.26470979638673" /><trkpt lat="22.31128778125" lon="114.26462779638672" /><trkpt lat="22.31118878125" lon="114.26455479638672" /><trkpt lat="22.31108578125" lon="114.26448879638671" /><trkpt lat="22.31097878125" lon="114.26443079638672" /><trkpt lat="22.31086778125" lon="114.26438079638672" /><trkpt lat="22.31075478125" lon="114.26433879638672" /><trkpt lat="22.31063878125" lon="114.26430579638672" /><trkpt lat="22.31052078125" lon="114.26428179638671" /><trkpt lat="22.31040178125" lon="114.26426679638672" /><trkpt lat="22.31027678125" lon="114.26425979638672" /><trkpt lat="22.31000678125" lon="114.26428879638672" /><trkpt lat="22.30986778125" lon="114.26429779638671" /><trkpt lat="22.30972878125" lon="114.26429979638672" /><trkpt lat="22.30962678125" lon="114.26429679638672" /><trkpt lat="22.30952478125" lon="114.26428579638672" /><trkpt lat="22.30942378125" lon="114.26426579638672" /><trkpt lat="22.30938678125" lon="114.26425479638672" /><trkpt lat="22.30932478125" lon="114.26423779638672" /><trkpt lat="22.30918978125" lon="114.26418979638672" /><trkpt lat="22.30915478125" lon="114.26416979638672" /><trkpt lat="22.30912178125" lon="114.26414479638672" /><trkpt lat="22.30909478125" lon="114.26411379638672" /><trkpt lat="22.30907178125" lon="114.26407779638672" /><trkpt lat="22.30905078125" lon="114.26401679638671" /><trkpt lat="22.30901078125" lon="114.26402379638672" /><trkpt lat="22.30888278125" lon="114.26405879638672" /><trkpt lat="22.30854578125" lon="114.26426679638672" /><trkpt lat="22.30851578125" lon="114.26428579638672" /><trkpt lat="22.30859378125" lon="114.26441779638672" /><trkpt lat="22.30863978125" lon="114.26440379638672" /><trkpt lat="22.30879878125" lon="114.26445679638672" /><trkpt lat="22.30908978125" lon="114.26464379638672" /><trkpt lat="22.30923578125" lon="114.26475879638672" /><trkpt lat="22.30922178125" lon="114.26485879638672" /><trkpt lat="22.30938078125" lon="114.26478479638672" /><trkpt lat="22.30944978125" lon="114.26483079638672" /><trkpt lat="22.30956878125" lon="114.26489179638672" /><trkpt lat="22.30951878125" lon="114.26510879638671" /><trkpt lat="22.30951778125" lon="114.26526079638671" /><trkpt lat="22.30955178125" lon="114.26541879638671" /><trkpt lat="22.30958178125" lon="114.26547779638672" /><trkpt lat="22.30967478125" lon="114.26555479638672" /><trkpt lat="22.30976778125" lon="114.26558279638672" /><trkpt lat="22.30984678125" lon="114.26558479638672" /><trkpt lat="22.30996778125" lon="114.26556779638672" /><trkpt lat="22.31002978125" lon="114.26556779638672" /><trkpt lat="22.31008978125" lon="114.26562779638672" /><trkpt lat="22.31013578125" lon="114.26573479638672" /><trkpt lat="22.31015078125" lon="114.26580879638672" /><trkpt lat="22.31015578125" lon="114.26587879638672" /><trkpt lat="22.31015678125" lon="114.26597079638672" /><trkpt lat="22.31017078125" lon="114.26598379638672" /><trkpt lat="22.31017178125" lon="114.26601679638672" /><trkpt lat="22.31015578125" lon="114.26612279638672" /><trkpt lat="22.31014978125" lon="114.26616779638672" /><trkpt lat="22.31021778125" lon="114.26613579638672" /><trkpt lat="22.31046478125" lon="114.26601679638672" /><trkpt lat="22.31109278125" lon="114.26572279638673" /><trkpt lat="22.31114478125" lon="114.26568479638672" /><trkpt lat="22.31120378125" lon="114.26563279638673" /><trkpt lat="22.31124078125" lon="114.26558679638671" /><trkpt lat="22.31125778125" lon="114.26555379638671" /><trkpt lat="22.31127778125" lon="114.26550079638672" /><trkpt lat="22.31128378125" lon="114.26546979638672" /><trkpt lat="22.31129178125" lon="114.26540379638672" /><trkpt lat="22.31129778125" lon="114.26534279638672" /><trkpt lat="22.31129778125" lon="114.26530079638673" /><trkpt lat="22.31133678125" lon="114.26525679638672" /><trkpt lat="22.31156378125" lon="114.26500579638672" /><trkpt lat="22.31161978125" lon="114.26488679638672" /><trkpt lat="22.31163878125" lon="114.26484679638672" /><trkpt lat="22.31171078125" lon="114.26485779638672" /><trkpt lat="22.31178378125" lon="114.26485879638672" /><trkpt lat="22.31185578125" lon="114.26484979638671" /><trkpt lat="22.31192678125" lon="114.26483179638672" /><trkpt lat="22.31199478125" lon="114.26480279638672" /><trkpt lat="22.31205778125" lon="114.26476479638671" /><trkpt lat="22.31211678125" lon="114.26471979638671" /><trkpt lat="22.312825357922005" lon="114.26403380423982" /></trkseg></trk></gpx>