<?xml version='1.0' encoding='UTF-8' ?><gpx version="1.1" creator="HikingTrailHK" xsi:schemaLocation="http://www.topografix.com/GPX/1/1 http://www.topografix.com/GPX/1/1/gpx.xsd https://hikingtrailhk.appspot.com/xml/gpxextensions/v1 https://hikingtrailhk.appspot.com/xml/gpxextensions/v1/gpxextensions.xsd" xmlns="http://www.topografix.com/GPX/1/1" xmlns:h="https://hikingtrailhk.appspot.com/xml/gpxextensions/v1" xmlns:xsi="http://www.w3.org/2001/XMLSchema-instance"><metadata><name>獅子山 @ 2015-6-5</name><desc></desc><extensions><h:categoryid>scenery_route</h:categoryid></extensions></metadata><trk><trkseg><trkpt lat="22.376594219805973" lon="114.19473932752834" /><trkpt lat="22.37716278125" lon="114.19550579638671" /><trkpt lat="22.37737078125" lon="114.19578479638672" /><trkpt lat="22.37756778125" lon="114.19605079638671" /><trkpt lat="22.37741878125" lon="114.19614379638672" /><trkpt lat="22.37720378125" lon="114.19620479638672" /><trkpt lat="22.37692078125" lon="114.19621779638672" /><trkpt lat="22.37621978125" lon="114.19625079638672" /><trkpt lat="22.37573878125" lon="114.19623579638672" /><trkpt lat="22.37556078125" lon="114.19623379638672" /><trkpt lat="22.37544378125" lon="114.19619379638672" /><trkpt lat="22.37518378125" lon="114.19600879638672" /><trkpt lat="22.37503678125" lon="114.19589979638671" /><trkpt lat="22.37486478125" lon="114.19581579638673" /><trkpt lat="22.37468278125" lon="114.19577679638672" /><trkpt lat="22.37399678125" lon="114.19574679638671" /><trkpt lat="22.37382478125" lon="114.19572379638672" /><trkpt lat="22.37366278125" lon="114.19566779638672" /><trkpt lat="22.37350478125" lon="114.19562679638672" /><trkpt lat="22.37335878125" lon="114.19559579638671" /><trkpt lat="22.37321078125" lon="114.19558079638672" /><trkpt lat="22.37287178125" lon="114.19559479638671" /><trkpt lat="22.37271678125" lon="114.19563679638672" /><trkpt lat="22.37264778125" lon="114.19566879638671" /><trkpt lat="22.37258678125" lon="114.19573079638671" /><trkpt lat="22.37251578125" lon="114.19583079638672" /><trkpt lat="22.37246878125" lon="114.19598879638671" /><trkpt lat="22.37244478125" lon="114.19614379638672" /><trkpt lat="22.37244878125" lon="114.19628179638671" /><trkpt lat="22.37172578125" lon="114.19626179638672" /><trkpt lat="22.37159978125" lon="114.19627179638672" /><trkpt lat="22.37067478125" lon="114.19654579638672" /><trkpt lat="22.37001978125" lon="114.19680779638672" /><trkpt lat="22.36941478125" lon="114.19705079638672" /><trkpt lat="22.36902078125" lon="114.19699079638671" /><trkpt lat="22.36881878125" lon="114.19698179638672" /><trkpt lat="22.36865178125" lon="114.19701379638671" /><trkpt lat="22.36844678125" lon="114.19720979638672" /><trkpt lat="22.36814178125" lon="114.19730879638672" /><trkpt lat="22.36783078125" lon="114.19744579638672" /><trkpt lat="22.36766678125" lon="114.19756179638672" /><trkpt lat="22.36754178125" lon="114.19773279638672" /><trkpt lat="22.36734978125" lon="114.19779479638672" /><trkpt lat="22.36720978125" lon="114.19779479638672" /><trkpt lat="22.36701978125" lon="114.19778979638672" /><trkpt lat="22.36687978125" lon="114.19770479638672" /><trkpt lat="22.36645178125" lon="114.19774279638672" /><trkpt lat="22.36626778125" lon="114.19784879638672" /><trkpt lat="22.36618478125" lon="114.19794279638671" /><trkpt lat="22.36609778125" lon="114.19795779638672" /><trkpt lat="22.36606278125" lon="114.19794379638672" /><trkpt lat="22.36575978125" lon="114.19814879638672" /><trkpt lat="22.36565778125" lon="114.19825079638672" /><trkpt lat="22.36553378125" lon="114.19819579638671" /><trkpt lat="22.36543078125" lon="114.19820679638671" /><trkpt lat="22.36534978125" lon="114.19832179638672" /><trkpt lat="22.36529978125" lon="114.19848879638671" /><trkpt lat="22.36520678125" lon="114.19861579638672" /><trkpt lat="22.36513878125" lon="114.19868479638671" /><trkpt lat="22.36493278125" lon="114.19876979638671" /><trkpt lat="22.36475978125" lon="114.19882579638671" /><trkpt lat="22.36457978125" lon="114.19894679638672" /><trkpt lat="22.36444678125" lon="114.19900179638672" /><trkpt lat="22.36414278125" lon="114.19872879638672" /><trkpt lat="22.36405078125" lon="114.19868479638671" /><trkpt lat="22.36385078125" lon="114.19877579638671" /><trkpt lat="22.36358478125" lon="114.19915679638672" /><trkpt lat="22.36336578125" lon="114.19927179638672" /><trkpt lat="22.36319678125" lon="114.19935579638671" /><trkpt lat="22.36304078125" lon="114.19930579638672" /><trkpt lat="22.36256378125" lon="114.19950879638672" /><trkpt lat="22.36203778125" lon="114.19951179638672" /><trkpt lat="22.36184878125" lon="114.19955979638672" /><trkpt lat="22.36150678125" lon="114.19967379638672" /><trkpt lat="22.36132578125" lon="114.19972979638672" /><trkpt lat="22.36103678125" lon="114.19978079638672" /><trkpt lat="22.36044378125" lon="114.19993979638672" /><trkpt lat="22.36018878125" lon="114.20016479638672" /><trkpt lat="22.35998278125" lon="114.20008979638672" /><trkpt lat="22.35982978125" lon="114.20001179638672" /><trkpt lat="22.35968578125" lon="114.19998979638672" /><trkpt lat="22.35928578125" lon="114.19971679638672" /><trkpt lat="22.35895678125" lon="114.19989779638672" /><trkpt lat="22.35891778125" lon="114.19999079638671" /><trkpt lat="22.35880878125" lon="114.19995679638672" /><trkpt lat="22.35865678125" lon="114.20005879638671" /><trkpt lat="22.35855778125" lon="114.20004379638672" /><trkpt lat="22.35842078125" lon="114.20018079638672" /><trkpt lat="22.35820378125" lon="114.20026079638671" /><trkpt lat="22.35771878125" lon="114.19996779638672" /><trkpt lat="22.35741078125" lon="114.19985479638672" /><trkpt lat="22.35720478125" lon="114.19980379638672" /><trkpt lat="22.35698178125" lon="114.19979579638672" /><trkpt lat="22.35667878125" lon="114.19979579638672" /><trkpt lat="22.35647978125" lon="114.19974679638672" /><trkpt lat="22.35620778125" lon="114.19965579638672" /><trkpt lat="22.35604878125" lon="114.19960779638672" /><trkpt lat="22.35593478125" lon="114.19951679638672" /><trkpt lat="22.35566978125" lon="114.19942779638671" /><trkpt lat="22.35553078125" lon="114.19945779638672" /><trkpt lat="22.35548078125" lon="114.19947979638673" /><trkpt lat="22.35540378125" lon="114.19954679638671" /><trkpt lat="22.35546078125" lon="114.19937779638671" /><trkpt lat="22.35549078125" lon="114.19919779638671" /><trkpt lat="22.35549078125" lon="114.19906879638671" /><trkpt lat="22.35553278125" lon="114.19902079638672" /><trkpt lat="22.35558278125" lon="114.19895079638673" /><trkpt lat="22.35556778125" lon="114.19891079638671" /><trkpt lat="22.35552278125" lon="114.19891079638671" /><trkpt lat="22.35554578125" lon="114.19869779638672" /><trkpt lat="22.35556078125" lon="114.19855079638671" /><trkpt lat="22.35565678125" lon="114.19837779638672" /><trkpt lat="22.35565678125" lon="114.19829879638672" /><trkpt lat="22.35554278125" lon="114.19827579638672" /><trkpt lat="22.35544278125" lon="114.19826279638671" /><trkpt lat="22.35549778125" lon="114.19818579638672" /><trkpt lat="22.35545578125" lon="114.19812679638672" /><trkpt lat="22.35533478125" lon="114.19802679638671" /><trkpt lat="22.35531078125" lon="114.19794179638671" /><trkpt lat="22.35535878125" lon="114.19781079638672" /><trkpt lat="22.35543978125" lon="114.19764479638673" /><trkpt lat="22.35550478125" lon="114.19759479638672" /><trkpt lat="22.35557378125" lon="114.19753979638672" /><trkpt lat="22.35557078125" lon="114.19739079638671" /><trkpt lat="22.35562578125" lon="114.19723679638672" /><trkpt lat="22.35565778125" lon="114.19705679638672" /><trkpt lat="22.35565478125" lon="114.19693479638671" /><trkpt lat="22.35566078125" lon="114.19681179638673" /><trkpt lat="22.35566178125" lon="114.19665679638672" /><trkpt lat="22.35565478125" lon="114.19651079638672" /><trkpt lat="22.35565078125" lon="114.19636879638672" /><trkpt lat="22.35565978125" lon="114.19623479638672" /><trkpt lat="22.35564678125" lon="114.19611079638672" /><trkpt lat="22.35566678125" lon="114.19598079638672" /><trkpt lat="22.35570078125" lon="114.19586079638673" /><trkpt lat="22.35563478125" lon="114.19575379638673" /><trkpt lat="22.35564478125" lon="114.19562979638673" /><trkpt lat="22.35561478125" lon="114.19550679638672" /><trkpt lat="22.35561678125" lon="114.19538179638671" /><trkpt lat="22.35562878125" lon="114.19526679638672" /><trkpt lat="22.35564078125" lon="114.19515479638672" /><trkpt lat="22.35567578125" lon="114.19505579638673" /><trkpt lat="22.35571178125" lon="114.19494879638673" /><trkpt lat="22.35574078125" lon="114.19483579638671" /><trkpt lat="22.35576578125" lon="114.19469679638672" /><trkpt lat="22.35579078125" lon="114.19456879638672" /><trkpt lat="22.35576078125" lon="114.19446179638672" /><trkpt lat="22.35571378125" lon="114.19436279638671" /><trkpt lat="22.35568378125" lon="114.19423979638673" /><trkpt lat="22.35572278125" lon="114.19414279638671" /><trkpt lat="22.35578078125" lon="114.19406279638672" /><trkpt lat="22.35585978125" lon="114.19397479638671" /><trkpt lat="22.355926781249998" lon="114.19389179638672" /><trkpt lat="22.35602078125" lon="114.19380779638672" /><trkpt lat="22.35612078125" lon="114.19372679638671" /><trkpt lat="22.35620278125" lon="114.19366779638672" /><trkpt lat="22.35628078125" lon="114.19359979638672" /><trkpt lat="22.35635178125" lon="114.19347979638673" /><trkpt lat="22.35641178125" lon="114.19340179638672" /><trkpt lat="22.35647778125" lon="114.19333279638671" /><trkpt lat="22.35657578125" lon="114.19325279638672" /><trkpt lat="22.35667378125" lon="114.19318679638671" /><trkpt lat="22.35678478125" lon="114.19313979638672" /><trkpt lat="22.35687378125" lon="114.19309779638672" /><trkpt lat="22.35688778125" lon="114.19304979638672" /><trkpt lat="22.35681178125" lon="114.19292479638672" /><trkpt lat="22.35687878125" lon="114.19283479638672" /><trkpt lat="22.35690578125" lon="114.19274979638672" /><trkpt lat="22.35681478125" lon="114.19269079638671" /><trkpt lat="22.35668578125" lon="114.19258879638672" /><trkpt lat="22.35660278125" lon="114.19255479638672" /><trkpt lat="22.35656078125" lon="114.19249579638672" /><trkpt lat="22.35654578125" lon="114.19246679638673" /><trkpt lat="22.35651078125" lon="114.19240279638672" /><trkpt lat="22.35641778125" lon="114.19240179638672" /><trkpt lat="22.35631478125" lon="114.19240179638672" /><trkpt lat="22.35625878125" lon="114.19231479638673" /><trkpt lat="22.35613678125" lon="114.19220179638671" /><trkpt lat="22.35618278125" lon="114.19205479638671" /><trkpt lat="22.35615578125" lon="114.19197779638672" /><trkpt lat="22.35607478125" lon="114.19192779638672" /><trkpt lat="22.35595578125" lon="114.19189079638672" /><trkpt lat="22.35582278125" lon="114.19182479638671" /><trkpt lat="22.35567678125" lon="114.19174779638672" /><trkpt lat="22.35558678125" lon="114.19166179638673" /><trkpt lat="22.35549178125" lon="114.19156679638672" /><trkpt lat="22.35549278125" lon="114.19148679638671" /><trkpt lat="22.35555178125" lon="114.19134379638672" /><trkpt lat="22.35556478125" lon="114.19125479638672" /><trkpt lat="22.35557478125" lon="114.19110179638672" /><trkpt lat="22.35550778125" lon="114.19104279638672" /><trkpt lat="22.35542778125" lon="114.19099479638672" /><trkpt lat="22.35533478125" lon="114.19096779638672" /><trkpt lat="22.35524178125" lon="114.19087179638672" /><trkpt lat="22.35514778125" lon="114.19082679638672" /><trkpt lat="22.35504678125" lon="114.19083279638672" /><trkpt lat="22.35495778125" lon="114.19086679638671" /><trkpt lat="22.35487778125" lon="114.19082479638672" /><trkpt lat="22.35481178125" lon="114.19072679638671" /><trkpt lat="22.35470378125" lon="114.19065279638671" /><trkpt lat="22.35465078125" lon="114.19057679638672" /><trkpt lat="22.35466578125" lon="114.19046379638672" /><trkpt lat="22.35473178125" lon="114.19037679638672" /><trkpt lat="22.35478078125" lon="114.19027679638671" /><trkpt lat="22.35485478125" lon="114.19018379638672" /><trkpt lat="22.35490478125" lon="114.19009279638672" /><trkpt lat="22.35495678125" lon="114.18998779638672" /><trkpt lat="22.35504378125" lon="114.18996079638671" /><trkpt lat="22.35512078125" lon="114.18990379638672" /><trkpt lat="22.35519578125" lon="114.18983079638672" /><trkpt lat="22.35527878125" lon="114.18977279638672" /><trkpt lat="22.35534178125" lon="114.18967279638672" /><trkpt lat="22.35536678125" lon="114.18956479638672" /><trkpt lat="22.35532878125" lon="114.18945379638672" /><trkpt lat="22.35525878125" lon="114.18940279638672" /><trkpt lat="22.35515178125" lon="114.18939779638671" /><trkpt lat="22.35506578125" lon="114.18939479638672" /><trkpt lat="22.35494078125" lon="114.18934579638672" /><trkpt lat="22.35486278125" lon="114.18930079638672" /><trkpt lat="22.35477978125" lon="114.18919679638672" /><trkpt lat="22.35469678125" lon="114.18909179638672" /><trkpt lat="22.35470878125" lon="114.18902979638672" /><trkpt lat="22.35478078125" lon="114.18896179638672" /><trkpt lat="22.35486078125" lon="114.18892379638672" /><trkpt lat="22.35491078125" lon="114.18884979638672" /><trkpt lat="22.35494278125" lon="114.18876879638673" /><trkpt lat="22.35495378125" lon="114.18866279638672" /><trkpt lat="22.35493878125" lon="114.18852079638671" /><trkpt lat="22.35486078125" lon="114.18839379638672" /><trkpt lat="22.35481478125" lon="114.18826179638671" /><trkpt lat="22.35482978125" lon="114.18815279638672" /><trkpt lat="22.35488778125" lon="114.18798579638671" /><trkpt lat="22.35504878125" lon="114.18794779638672" /><trkpt lat="22.35515878125" lon="114.18787679638672" /><trkpt lat="22.35521978125" lon="114.18777979638672" /><trkpt lat="22.35527978125" lon="114.18762279638672" /><trkpt lat="22.35525878125" lon="114.18746179638671" /><trkpt lat="22.35507678125" lon="114.18750979638672" /><trkpt lat="22.35494378125" lon="114.18749779638672" /><trkpt lat="22.35472278125" lon="114.18761779638672" /><trkpt lat="22.35462878125" lon="114.18758879638672" /><trkpt lat="22.35451978125" lon="114.18746479638672" /><trkpt lat="22.35419878125" lon="114.18728579638672" /><trkpt lat="22.35406978125" lon="114.18725879638671" /><trkpt lat="22.35385978125" lon="114.18715679638672" /><trkpt lat="22.35376878125" lon="114.18709079638671" /><trkpt lat="22.35358878125" lon="114.18703179638672" /><trkpt lat="22.35342578125" lon="114.18691779638672" /><trkpt lat="22.35324978125" lon="114.18695279638672" /><trkpt lat="22.35301078125" lon="114.18690479638671" /><trkpt lat="22.35297578125" lon="114.18684279638671" /><trkpt lat="22.35286978125" lon="114.18667179638672" /><trkpt lat="22.35280078125" lon="114.18645879638672" /><trkpt lat="22.35268678125" lon="114.18640579638672" /><trkpt lat="22.35270778125" lon="114.18620779638673" /><trkpt lat="22.35262478125" lon="114.18603079638672" /><trkpt lat="22.35255678125" lon="114.18594379638672" /><trkpt lat="22.35251378125" lon="114.18588779638672" /><trkpt lat="22.35236178125" lon="114.18565579638671" /><trkpt lat="22.35235578125" lon="114.18538979638672" /><trkpt lat="22.35231978125" lon="114.18532579638672" /><trkpt lat="22.35231278125" lon="114.18517779638672" /><trkpt lat="22.35234678125" lon="114.18502279638672" /><trkpt lat="22.35218278125" lon="114.18485379638672" /><trkpt lat="22.35219978125" lon="114.18477579638672" /><trkpt lat="22.352135708020967" lon="114.1847393077672" /><trkpt lat="22.352051813695013" lon="114.18474346777778" /><trkpt lat="22.3519915345462" lon="114.18478638312202" /><trkpt lat="22.351974716664785" lon="114.18478638312202" /><trkpt lat="22.351972235983183" lon="114.18478010897282" /><trkpt lat="22.35196727461988" lon="114.18477723522422" /><trkpt lat="22.351962313256408" lon="114.18476760765891" /><trkpt lat="22.35200713100568" lon="114.18478079102779" /><trkpt lat="22.35203078125" lon="114.18468679638671" /><trkpt lat="22.35210278125" lon="114.18458779638672" /><trkpt lat="22.35202378125" lon="114.18445979638672" /><trkpt lat="22.35210278125" lon="114.18417679638672" /><trkpt lat="22.35215478125" lon="114.18415579638672" /><trkpt lat="22.35218178125" lon="114.18405679638671" /><trkpt lat="22.35223378125" lon="114.18402079638672" /><trkpt lat="22.35227278125" lon="114.18392179638671" /><trkpt lat="22.35226678125" lon="114.18362179638672" /><trkpt lat="22.35223778125" lon="114.18356879638672" /><trkpt lat="22.35215078125" lon="114.18343479638672" /><trkpt lat="22.35209178125" lon="114.18324079638671" /><trkpt lat="22.35196278125" lon="114.18297479638672" /><trkpt lat="22.35189778125" lon="114.18288279638672" /><trkpt lat="22.35178078125" lon="114.18271979638672" /><trkpt lat="22.35165178125" lon="114.18253379638672" /><trkpt lat="22.35160378125" lon="114.18242479638671" /><trkpt lat="22.35155878125" lon="114.18237179638672" /><trkpt lat="22.35149278125" lon="114.18228979638671" /><trkpt lat="22.35143978125" lon="114.18219979638671" /><trkpt lat="22.35134778125" lon="114.18217679638671" /><trkpt lat="22.35129878125" lon="114.18214279638671" /><trkpt lat="22.35112878125" lon="114.18200579638672" /><trkpt lat="22.35094178125" lon="114.18183779638672" /><trkpt lat="22.35083178125" lon="114.18172679638671" /><trkpt lat="22.35075178125" lon="114.18161179638672" /><trkpt lat="22.35065578125" lon="114.18146179638671" /><trkpt lat="22.35060478125" lon="114.18140779638672" /><trkpt lat="22.35046478125" lon="114.18130779638672" /><trkpt lat="22.35032078125" lon="114.18108179638672" /><trkpt lat="22.35017678125" lon="114.18100279638672" /><trkpt lat="22.35015878125" lon="114.18081579638672" /><trkpt lat="22.35010478125" lon="114.18063179638672" /><trkpt lat="22.35014178125" lon="114.18053779638672" /><trkpt lat="22.35012978125" lon="114.18037879638672" /><trkpt lat="22.35011278125" lon="114.18029779638672" /><trkpt lat="22.35010778125" lon="114.18002879638672" /><trkpt lat="22.35010578125" lon="114.18000779638672" /><trkpt lat="22.35010578125" lon="114.17997479638672" /><trkpt lat="22.35011078125" lon="114.17992979638672" /><trkpt lat="22.35011078125" lon="114.17986379638671" /><trkpt lat="22.35010178125" lon="114.17978279638672" /><trkpt lat="22.35007778125" lon="114.17969379638672" /><trkpt lat="22.35006478125" lon="114.17959979638673" /><trkpt lat="22.35004578125" lon="114.17946979638671" /><trkpt lat="22.35002778125" lon="114.17940579638672" /><trkpt lat="22.35002078125" lon="114.17934879638672" /><trkpt lat="22.35002378125" lon="114.17930879638672" /><trkpt lat="22.35002378125" lon="114.17927179638671" /><trkpt lat="22.35001978125" lon="114.17923079638672" /><trkpt lat="22.35002778125" lon="114.17910779638672" /><trkpt lat="22.35005078125" lon="114.17905179638672" /><trkpt lat="22.35009078125" lon="114.17901979638673" /><trkpt lat="22.35011978125" lon="114.17897579638672" /><trkpt lat="22.35013878125" lon="114.17890079638671" /><trkpt lat="22.35014978125" lon="114.17881079638671" /><trkpt lat="22.35011878125" lon="114.17874179638672" /><trkpt lat="22.35009878125" lon="114.17872279638672" /><trkpt lat="22.35007178125" lon="114.17870779638672" /><trkpt lat="22.35005978125" lon="114.17868579638672" /><trkpt lat="22.35003878125" lon="114.17863779638672" /><trkpt lat="22.35002978125" lon="114.17862479638671" /><trkpt lat="22.35002178125" lon="114.17859679638671" /><trkpt lat="22.35001678125" lon="114.17855979638672" /><trkpt lat="22.35001878125" lon="114.17847779638672" /><trkpt lat="22.35004578125" lon="114.17827179638672" /><trkpt lat="22.35002378125" lon="114.17813079638672" /><trkpt lat="22.35000578125" lon="114.17790779638672" /><trkpt lat="22.35003078125" lon="114.17770079638672" /><trkpt lat="22.35014178125" lon="114.17759379638672" /><trkpt lat="22.35024978125" lon="114.17715479638672" /><trkpt lat="22.35024678125" lon="114.17694679638672" /><trkpt lat="22.35018178125" lon="114.17673679638672" /><trkpt lat="22.35022978125" lon="114.17643479638672" /><trkpt lat="22.35047478125" lon="114.17633379638671" /><trkpt lat="22.35056478125" lon="114.17611879638672" /><trkpt lat="22.35051478125" lon="114.17587279638671" /><trkpt lat="22.35057478125" lon="114.17564679638672" /><trkpt lat="22.35059378125" lon="114.17529279638671" /><trkpt lat="22.35063378125" lon="114.17499279638672" /><trkpt lat="22.35056478125" lon="114.17473479638672" /><trkpt lat="22.35054478125" lon="114.17449879638671" /><trkpt lat="22.35038978125" lon="114.17428479638671" /><trkpt lat="22.35035878125" lon="114.17412879638673" /><trkpt lat="22.35029078125" lon="114.17404279638671" /><trkpt lat="22.35018378125" lon="114.17377579638672" /><trkpt lat="22.35012378125" lon="114.17361279638672" /><trkpt lat="22.35014778125" lon="114.17335079638671" /><trkpt lat="22.35028078125" lon="114.17305679638672" /><trkpt lat="22.35025078125" lon="114.17294779638672" /><trkpt lat="22.35021178125" lon="114.17273079638672" /><trkpt lat="22.35023478125" lon="114.17253579638673" /><trkpt lat="22.35025978125" lon="114.17234279638672" /><trkpt lat="22.35019678125" lon="114.17223179638673" /><trkpt lat="22.35015478125" lon="114.17202879638671" /><trkpt lat="22.35016378125" lon="114.17188579638672" /><trkpt lat="22.35013278125" lon="114.17168579638673" /><trkpt lat="22.35004078125" lon="114.17155579638671" /><trkpt lat="22.34995378125" lon="114.17138779638672" /><trkpt lat="22.34996278125" lon="114.17125879638672" /><trkpt lat="22.34995478125" lon="114.17108979638672" /><trkpt lat="22.34989578125" lon="114.17083179638672" /><trkpt lat="22.34983178125" lon="114.17064379638671" /><trkpt lat="22.34965178125" lon="114.17047379638672" /><trkpt lat="22.34945378125" lon="114.17048779638672" /><trkpt lat="22.34927778125" lon="114.17047879638672" /><trkpt lat="22.34916378125" lon="114.17031179638671" /><trkpt lat="22.34917778125" lon="114.17023379638673" /><trkpt lat="22.34918878125" lon="114.17017279638672" /><trkpt lat="22.34933678125" lon="114.16994379638672" /><trkpt lat="22.34947878125" lon="114.16971279638672" /><trkpt lat="22.34955178125" lon="114.16962079638672" /><trkpt lat="22.34960278125" lon="114.16945479638672" /><trkpt lat="22.34960978125" lon="114.16939779638672" /><trkpt lat="22.34967478125" lon="114.16935879638672" /><trkpt lat="22.34973378125" lon="114.16932979638672" /><trkpt lat="22.34986278125" lon="114.16927679638673" /><trkpt lat="22.34994178125" lon="114.16918679638673" /><trkpt lat="22.34996778125" lon="114.16906179638671" /><trkpt lat="22.34989178125" lon="114.16883879638672" /><trkpt lat="22.34984178125" lon="114.16881479638671" /><trkpt lat="22.34982678125" lon="114.16879479638672" /><trkpt lat="22.34984278125" lon="114.16875279638671" /><trkpt lat="22.34986078125" lon="114.16870479638672" /><trkpt lat="22.34997478125" lon="114.16854779638672" /><trkpt lat="22.35013378125" lon="114.16838179638673" /><trkpt lat="22.35028278125" lon="114.16825479638672" /><trkpt lat="22.35038178125" lon="114.16824179638672" /><trkpt lat="22.35047078125" lon="114.16823679638672" /><trkpt lat="22.35060778125" lon="114.16806179638672" /><trkpt lat="22.35064678125" lon="114.16796079638672" /><trkpt lat="22.350652781249998" lon="114.16785779638671" /><trkpt lat="22.35072278125" lon="114.16766779638672" /><trkpt lat="22.35073978125" lon="114.16755279638672" /><trkpt lat="22.35071678125" lon="114.16742879638672" /><trkpt lat="22.35071378125" lon="114.16728879638671" /><trkpt lat="22.35068878125" lon="114.16717179638673" /><trkpt lat="22.35062178125" lon="114.16692779638672" /><trkpt lat="22.35058478125" lon="114.16681279638672" /><trkpt lat="22.35044778125" lon="114.16673479638672" /><trkpt lat="22.35026978125" lon="114.16671179638672" /><trkpt lat="22.35002978125" lon="114.16683679638672" /><trkpt lat="22.34973678125" lon="114.16684079638672" /><trkpt lat="22.34960378125" lon="114.16674879638671" /><trkpt lat="22.34946978125" lon="114.16664479638672" /><trkpt lat="22.34924678125" lon="114.16645079638671" /><trkpt lat="22.34913178125" lon="114.16635279638672" /><trkpt lat="22.34905278125" lon="114.16622779638672" /><trkpt lat="22.34893178125" lon="114.16599179638672" /><trkpt lat="22.34887178125" lon="114.16587079638671" /><trkpt lat="22.34881278125" lon="114.16574079638671" /><trkpt lat="22.34880678125" lon="114.16563179638672" /><trkpt lat="22.34884978125" lon="114.16552079638672" /><trkpt lat="22.34882978125" lon="114.16530279638671" /><trkpt lat="22.34891278125" lon="114.16523379638672" /><trkpt lat="22.34903678125" lon="114.16499779638671" /><trkpt lat="22.34914478125" lon="114.16486479638672" /><trkpt lat="22.34926978125" lon="114.16475779638672" /><trkpt lat="22.34924178125" lon="114.16471779638673" /><trkpt lat="22.34922278125" lon="114.16468979638672" /><trkpt lat="22.34914578125" lon="114.16463579638672" /><trkpt lat="22.34916578125" lon="114.16449479638672" /><trkpt lat="22.34916578125" lon="114.16439479638672" /><trkpt lat="22.34910978125" lon="114.16421079638671" /><trkpt lat="22.34897778125" lon="114.16405979638672" /><trkpt lat="22.34878878125" lon="114.16392779638672" /><trkpt lat="22.34876778125" lon="114.16381579638671" /><trkpt lat="22.34874778125" lon="114.16360179638671" /><trkpt lat="22.34871778125" lon="114.16352679638672" /><trkpt lat="22.34876878125" lon="114.16347379638673" /><trkpt lat="22.34889778125" lon="114.16340979638672" /><trkpt lat="22.34900578125" lon="114.16328679638671" /><trkpt lat="22.34897978125" lon="114.16305479638672" /><trkpt lat="22.34916278125" lon="114.16302579638672" /><trkpt lat="22.34934378125" lon="114.16288479638672" /><trkpt lat="22.34947278125" lon="114.16266979638672" /><trkpt lat="22.34962678125" lon="114.16265779638672" /><trkpt lat="22.34978778125" lon="114.16261479638672" /><trkpt lat="22.34990178125" lon="114.16250779638672" /><trkpt lat="22.34990278125" lon="114.16234379638672" /><trkpt lat="22.35007778125" lon="114.16224779638672" /><trkpt lat="22.35014778125" lon="114.16209579638672" /><trkpt lat="22.35032578125" lon="114.16186979638672" /><trkpt lat="22.35055078125" lon="114.16190979638672" /><trkpt lat="22.35069378125" lon="114.16194379638672" /><trkpt lat="22.35074878125" lon="114.16188179638672" /><trkpt lat="22.35074578125" lon="114.16175379638672" /><trkpt lat="22.35078078125" lon="114.16149679638671" /><trkpt lat="22.35056878125" lon="114.16119579638672" /><trkpt lat="22.35039778125" lon="114.16119179638672" /><trkpt lat="22.35013978125" lon="114.16132479638672" /><trkpt lat="22.34998078125" lon="114.16140179638671" /><trkpt lat="22.34985378125" lon="114.16137879638671" /><trkpt lat="22.34996378125" lon="114.16116379638672" /><trkpt lat="22.35011578125" lon="114.16091579638672" /><trkpt lat="22.35019378125" lon="114.16065579638672" /><trkpt lat="22.35012978125" lon="114.16042379638672" /><trkpt lat="22.35001478125" lon="114.16033279638673" /><trkpt lat="22.34968078125" lon="114.16014379638672" /><trkpt lat="22.34965578125" lon="114.15991379638672" /><trkpt lat="22.34956078125" lon="114.15975079638672" /><trkpt lat="22.34950478125" lon="114.15958679638672" /><trkpt lat="22.34952078125" lon="114.15943479638672" /><trkpt lat="22.34954378125" lon="114.15937079638672" /><trkpt lat="22.34962878125" lon="114.15940779638672" /><trkpt lat="22.34975478125" lon="114.15945379638671" /><trkpt lat="22.34986678125" lon="114.15939079638672" /><trkpt lat="22.34997478125" lon="114.15928879638672" /><trkpt lat="22.34980778125" lon="114.15896079638672" /><trkpt lat="22.34980678125" lon="114.15873479638672" /><trkpt lat="22.34971978125" lon="114.15864879638671" /><trkpt lat="22.34949878125" lon="114.15846579638672" /><trkpt lat="22.34928278125" lon="114.15831279638672" /><trkpt lat="22.34917478125" lon="114.15827879638672" /><trkpt lat="22.34900278125" lon="114.15833579638672" /><trkpt lat="22.34881078125" lon="114.15847779638672" /><trkpt lat="22.34867378125" lon="114.15853579638672" /><trkpt lat="22.34859778125" lon="114.15838379638672" /><trkpt lat="22.34852578125" lon="114.15823479638672" /><trkpt lat="22.34875078125" lon="114.15790879638672" /><trkpt lat="22.34896178125" lon="114.15787479638672" /><trkpt lat="22.34909178125" lon="114.15784479638671" /><trkpt lat="22.34934578125" lon="114.15780579638673" /><trkpt lat="22.34954078125" lon="114.15759379638672" /><trkpt lat="22.34964178125" lon="114.15754279638672" /><trkpt lat="22.34974878125" lon="114.15756379638673" /><trkpt lat="22.34978478125" lon="114.15752179638672" /><trkpt lat="22.34983378125" lon="114.15746379638672" /><trkpt lat="22.34980178125" lon="114.15736179638672" /><trkpt lat="22.34981978125" lon="114.15725279638671" /><trkpt lat="22.34981478125" lon="114.15712079638672" /><trkpt lat="22.34974778125" lon="114.15699479638671" /><trkpt lat="22.34969378125" lon="114.15679979638672" /><trkpt lat="22.34974078125" lon="114.15670679638671" /><trkpt lat="22.34990878125" lon="114.15647479638672" /><trkpt lat="22.34993578125" lon="114.15635179638672" /><trkpt lat="22.35013878125" lon="114.15637179638672" /><trkpt lat="22.35036378125" lon="114.15624879638672" /><trkpt lat="22.35057878125" lon="114.15624979638672" /><trkpt lat="22.35061778125" lon="114.15615679638672" /><trkpt lat="22.35059778125" lon="114.15604479638672" /><trkpt lat="22.35060178125" lon="114.15591379638671" /><trkpt lat="22.35065178125" lon="114.15575579638671" /><trkpt lat="22.35059578125" lon="114.15567579638672" /><trkpt lat="22.35051478125" lon="114.15558479638672" /><trkpt lat="22.35039278125" lon="114.15529979638671" /><trkpt lat="22.35054578125" lon="114.15534179638672" /><trkpt lat="22.35049178125" lon="114.15526879638672" /><trkpt lat="22.35045278125" lon="114.15516979638672" /><trkpt lat="22.35037278125" lon="114.15507779638672" /><trkpt lat="22.35029978125" lon="114.15498979638672" /><trkpt lat="22.35025878125" lon="114.15487279638671" /><trkpt lat="22.35024078125" lon="114.15477179638673" /><trkpt lat="22.35018278125" lon="114.15467479638671" /><trkpt lat="22.35008978125" lon="114.15460879638673" /><trkpt lat="22.35000178125" lon="114.15458179638672" /><trkpt lat="22.34989378125" lon="114.15453279638672" /><trkpt lat="22.34983078125" lon="114.15449679638672" /><trkpt lat="22.34979178125" lon="114.15447379638672" /><trkpt lat="22.34963378125" lon="114.15445879638672" /><trkpt lat="22.34954278125" lon="114.15446579638672" /><trkpt lat="22.34937678125" lon="114.15445779638672" /><trkpt lat="22.34918478125" lon="114.15455279638672" /><trkpt lat="22.34904278125" lon="114.15461579638672" /><trkpt lat="22.34893578125" lon="114.15456479638672" /><trkpt lat="22.34881578125" lon="114.15437179638671" /><trkpt lat="22.34869578125" lon="114.15421079638672" /><trkpt lat="22.34849178125" lon="114.15406679638672" /><trkpt lat="22.34823378125" lon="114.15400579638671" /><trkpt lat="22.34811578125" lon="114.15402479638672" /><trkpt lat="22.34802478125" lon="114.15409779638672" /><trkpt lat="22.34790778125" lon="114.15400479638672" /><trkpt lat="22.34793178125" lon="114.15386779638672" /><trkpt lat="22.34790978125" lon="114.15372279638672" /><trkpt lat="22.34795578125" lon="114.15363979638671" /><trkpt lat="22.34803178125" lon="114.15365079638671" /><trkpt lat="22.34828278125" lon="114.15370179638671" /><trkpt lat="22.34853878125" lon="114.15374379638672" /><trkpt lat="22.34878878125" lon="114.15377279638672" /><trkpt lat="22.34907878125" lon="114.15376279638672" /><trkpt lat="22.34915278125" lon="114.15371579638672" /><trkpt lat="22.34926678125" lon="114.15354479638673" /><trkpt lat="22.349282640982953" lon="114.15356641050903" /></trkseg></trk></gpx>