<?xml version='1.0' encoding='UTF-8' ?><gpx version="1.1" creator="HikingTrailHK" xsi:schemaLocation="http://www.topografix.com/GPX/1/1 http://www.topografix.com/GPX/1/1/gpx.xsd https://hikingtrailhk.appspot.com/xml/gpxextensions/v1 https://hikingtrailhk.appspot.com/xml/gpxextensions/v1/gpxextensions.xsd" xmlns="http://www.topografix.com/GPX/1/1" xmlns:h="https://hikingtrailhk.appspot.com/xml/gpxextensions/v1" xmlns:xsi="http://www.w3.org/2001/XMLSchema-instance"><metadata><name>獅尾脊 @ 2017-4-2 12:00</name><desc></desc><extensions><h:categoryid>scenery_route</h:categoryid></extensions></metadata><trk><trkseg><trkpt lat="22.34516674193131" lon="114.19380640577516" /><trkpt lat="22.34517978125" lon="114.19484979638672" /><trkpt lat="22.34519078125" lon="114.19496879638672" /><trkpt lat="22.34521478125" lon="114.19514779638672" /><trkpt lat="22.34523878125" lon="114.19532479638671" /><trkpt lat="22.34526078125" lon="114.19541379638672" /><trkpt lat="22.34530078125" lon="114.19550579638671" /><trkpt lat="22.34534378125" lon="114.19564279638672" /><trkpt lat="22.34540178125" lon="114.19573579638671" /><trkpt lat="22.34554378125" lon="114.19587179638673" /><trkpt lat="22.34566678125" lon="114.19594179638672" /><trkpt lat="22.34572678125" lon="114.19595679638672" /><trkpt lat="22.34577178125" lon="114.19596679638671" /><trkpt lat="22.34593978125" lon="114.19596179638671" /><trkpt lat="22.34662278125" lon="114.19590579638673" /><trkpt lat="22.34696778125" lon="114.19585579638672" /><trkpt lat="22.34717978125" lon="114.19580879638671" /><trkpt lat="22.34725578125" lon="114.19578679638671" /><trkpt lat="22.34741178125" lon="114.19571979638673" /><trkpt lat="22.34763578125" lon="114.19559479638671" /><trkpt lat="22.34773878125" lon="114.19552579638672" /><trkpt lat="22.34853578125" lon="114.19488679638673" /><trkpt lat="22.34860778125" lon="114.19482879638672" /><trkpt lat="22.34890878125" lon="114.19458879638672" /><trkpt lat="22.34914878125" lon="114.19440179638671" /><trkpt lat="22.34937678125" lon="114.19422379638672" /><trkpt lat="22.34949578125" lon="114.19414279638671" /><trkpt lat="22.34979278125" lon="114.19403079638671" /><trkpt lat="22.34990578125" lon="114.19403179638672" /><trkpt lat="22.34992978125" lon="114.19382179638671" /><trkpt lat="22.34989178125" lon="114.19360279638671" /><trkpt lat="22.34991178125" lon="114.19336479638672" /><trkpt lat="22.34992178125" lon="114.19316179638672" /><trkpt lat="22.34985778125" lon="114.19297279638671" /><trkpt lat="22.34983778125" lon="114.19277979638672" /><trkpt lat="22.34982778125" lon="114.19249579638672" /><trkpt lat="22.34984078125" lon="114.19230379638672" /><trkpt lat="22.34969678125" lon="114.19211179638671" /><trkpt lat="22.34991578125" lon="114.19174379638672" /><trkpt lat="22.34979778125" lon="114.19143479638672" /><trkpt lat="22.34989678125" lon="114.19139879638672" /><trkpt lat="22.34999278125" lon="114.19120579638673" /><trkpt lat="22.34996278125" lon="114.19118379638672" /><trkpt lat="22.34999678125" lon="114.19120779638672" /><trkpt lat="22.35006678125" lon="114.19109179638671" /><trkpt lat="22.34999578125" lon="114.19084279638672" /><trkpt lat="22.35010178125" lon="114.19082479638672" /><trkpt lat="22.35012078125" lon="114.19073479638672" /><trkpt lat="22.35023578125" lon="114.19062879638672" /><trkpt lat="22.35035578125" lon="114.19065579638672" /><trkpt lat="22.35043878125" lon="114.19048379638672" /><trkpt lat="22.35051178125" lon="114.19049879638672" /><trkpt lat="22.35070978125" lon="114.19036479638672" /><trkpt lat="22.35078578125" lon="114.19033679638672" /><trkpt lat="22.35088278125" lon="114.19014879638672" /><trkpt lat="22.35101978125" lon="114.19011279638671" /><trkpt lat="22.35105378125" lon="114.19003779638672" /><trkpt lat="22.35119078125" lon="114.18997879638673" /><trkpt lat="22.35124778125" lon="114.18979979638672" /><trkpt lat="22.35138378125" lon="114.18972979638671" /><trkpt lat="22.35148078125" lon="114.18968079638672" /><trkpt lat="22.35158278125" lon="114.18961379638672" /><trkpt lat="22.35167778125" lon="114.18958779638672" /><trkpt lat="22.35194078125" lon="114.18956779638673" /><trkpt lat="22.35200078125" lon="114.18941079638672" /><trkpt lat="22.35220778125" lon="114.18951579638671" /><trkpt lat="22.35223878125" lon="114.18939679638672" /><trkpt lat="22.35232878125" lon="114.18930079638672" /><trkpt lat="22.35231278125" lon="114.18924379638672" /><trkpt lat="22.35228978125" lon="114.18917179638672" /><trkpt lat="22.35246578125" lon="114.18859879638671" /><trkpt lat="22.35245678125" lon="114.18837579638672" /><trkpt lat="22.35254478125" lon="114.18835479638672" /><trkpt lat="22.35266478125" lon="114.18811979638672" /><trkpt lat="22.35282778125" lon="114.18797479638671" /><trkpt lat="22.35297378125" lon="114.18776879638672" /><trkpt lat="22.35313478125" lon="114.18748479638671" /><trkpt lat="22.35310278125" lon="114.18713479638672" /><trkpt lat="22.35301078125" lon="114.18690479638671" /><trkpt lat="22.35297578125" lon="114.18684279638671" /><trkpt lat="22.35286978125" lon="114.18667179638672" /><trkpt lat="22.35280078125" lon="114.18645879638672" /><trkpt lat="22.35268678125" lon="114.18640579638672" /><trkpt lat="22.35270778125" lon="114.18620779638673" /><trkpt lat="22.35262478125" lon="114.18603079638672" /><trkpt lat="22.35255678125" lon="114.18594379638672" /><trkpt lat="22.35251378125" lon="114.18588779638672" /><trkpt lat="22.35236178125" lon="114.18565579638671" /><trkpt lat="22.35235578125" lon="114.18538979638672" /><trkpt lat="22.35231978125" lon="114.18532579638672" /><trkpt lat="22.35231278125" lon="114.18517779638672" /><trkpt lat="22.35234678125" lon="114.18502279638672" /><trkpt lat="22.35218278125" lon="114.18485379638672" /><trkpt lat="22.35219978125" lon="114.18477579638672" /><trkpt lat="22.35232440434372" lon="114.18487772758994" /><trkpt lat="22.352330645398112" lon="114.18487772758994" /><trkpt lat="22.352334327044744" lon="114.18488040979895" /><trkpt lat="22.35233776340965" lon="114.18488040979895" /><trkpt lat="22.35233680771988" lon="114.18488268486357" /><trkpt lat="22.35233928839496" lon="114.18488309200796" /><trkpt lat="22.35233928839496" lon="114.18488449728642" /><trkpt lat="22.3523728605314" lon="114.18490600672122" /><trkpt lat="22.35234678125" lon="114.18502279638672" /><trkpt lat="22.35231278125" lon="114.18517779638672" /><trkpt lat="22.35231978125" lon="114.18532579638672" /><trkpt lat="22.35235578125" lon="114.18538979638672" /><trkpt lat="22.35236178125" lon="114.18565579638671" /><trkpt lat="22.35251378125" lon="114.18588779638672" /><trkpt lat="22.35255678125" lon="114.18594379638672" /><trkpt lat="22.35262478125" lon="114.18603079638672" /><trkpt lat="22.35270778125" lon="114.18620779638673" /><trkpt lat="22.35268678125" lon="114.18640579638672" /><trkpt lat="22.35280078125" lon="114.18645879638672" /><trkpt lat="22.35286978125" lon="114.18667179638672" /><trkpt lat="22.35297578125" lon="114.18684279638671" /><trkpt lat="22.35301078125" lon="114.18690479638671" /><trkpt lat="22.35324978125" lon="114.18695279638672" /><trkpt lat="22.35342578125" lon="114.18691779638672" /><trkpt lat="22.35358878125" lon="114.18703179638672" /><trkpt lat="22.35376878125" lon="114.18709079638671" /><trkpt lat="22.35385978125" lon="114.18715679638672" /><trkpt lat="22.35406978125" lon="114.18725879638671" /><trkpt lat="22.35419878125" lon="114.18728579638672" /><trkpt lat="22.35451978125" lon="114.18746479638672" /><trkpt lat="22.35462878125" lon="114.18758879638672" /><trkpt lat="22.35472278125" lon="114.18761779638672" /><trkpt lat="22.35494378125" lon="114.18749779638672" /><trkpt lat="22.35507678125" lon="114.18750979638672" /><trkpt lat="22.35525878125" lon="114.18746179638671" /><trkpt lat="22.35527978125" lon="114.18762279638672" /><trkpt lat="22.35521978125" lon="114.18777979638672" /><trkpt lat="22.35515878125" lon="114.18787679638672" /><trkpt lat="22.35504878125" lon="114.18794779638672" /><trkpt lat="22.35488778125" lon="114.18798579638671" /><trkpt lat="22.35482978125" lon="114.18815279638672" /><trkpt lat="22.35481478125" lon="114.18826179638671" /><trkpt lat="22.35486078125" lon="114.18839379638672" /><trkpt lat="22.35493878125" lon="114.18852079638671" /><trkpt lat="22.35495378125" lon="114.18866279638672" /><trkpt lat="22.35494278125" lon="114.18876879638673" /><trkpt lat="22.35491078125" lon="114.18884979638672" /><trkpt lat="22.35486078125" lon="114.18892379638672" /><trkpt lat="22.35478078125" lon="114.18896179638672" /><trkpt lat="22.35470878125" lon="114.18902979638672" /><trkpt lat="22.35469678125" lon="114.18909179638672" /><trkpt lat="22.35477978125" lon="114.18919679638672" /><trkpt lat="22.35486278125" lon="114.18930079638672" /><trkpt lat="22.35494078125" lon="114.18934579638672" /><trkpt lat="22.35506578125" lon="114.18939479638672" /><trkpt lat="22.35515178125" lon="114.18939779638671" /><trkpt lat="22.35525878125" lon="114.18940279638672" /><trkpt lat="22.35532878125" lon="114.18945379638672" /><trkpt lat="22.35536678125" lon="114.18956479638672" /><trkpt lat="22.35534178125" lon="114.18967279638672" /><trkpt lat="22.35527878125" lon="114.18977279638672" /><trkpt lat="22.35519578125" lon="114.18983079638672" /><trkpt lat="22.35512078125" lon="114.18990379638672" /><trkpt lat="22.35504378125" lon="114.18996079638671" /><trkpt lat="22.35495678125" lon="114.18998779638672" /><trkpt lat="22.35490478125" lon="114.19009279638672" /><trkpt lat="22.35485478125" lon="114.19018379638672" /><trkpt lat="22.35478078125" lon="114.19027679638671" /><trkpt lat="22.35473178125" lon="114.19037679638672" /><trkpt lat="22.35466578125" lon="114.19046379638672" /><trkpt lat="22.35465078125" lon="114.19057679638672" /><trkpt lat="22.35470378125" lon="114.19065279638671" /><trkpt lat="22.35481178125" lon="114.19072679638671" /><trkpt lat="22.35487778125" lon="114.19082479638672" /><trkpt lat="22.35495778125" lon="114.19086679638671" /><trkpt lat="22.35504678125" lon="114.19083279638672" /><trkpt lat="22.35514778125" lon="114.19082679638672" /><trkpt lat="22.35524178125" lon="114.19087179638672" /><trkpt lat="22.35533478125" lon="114.19096779638672" /><trkpt lat="22.35542778125" lon="114.19099479638672" /><trkpt lat="22.35550778125" lon="114.19104279638672" /><trkpt lat="22.35557478125" lon="114.19110179638672" /><trkpt lat="22.35556478125" lon="114.19125479638672" /><trkpt lat="22.35555178125" lon="114.19134379638672" /><trkpt lat="22.35549278125" lon="114.19148679638671" /><trkpt lat="22.35549178125" lon="114.19156679638672" /><trkpt lat="22.35558678125" lon="114.19166179638673" /><trkpt lat="22.35567678125" lon="114.19174779638672" /><trkpt lat="22.35582278125" lon="114.19182479638671" /><trkpt lat="22.35595578125" lon="114.19189079638672" /><trkpt lat="22.35607478125" lon="114.19192779638672" /><trkpt lat="22.35615578125" lon="114.19197779638672" /><trkpt lat="22.35618278125" lon="114.19205479638671" /><trkpt lat="22.35613678125" lon="114.19220179638671" /><trkpt lat="22.35625878125" lon="114.19231479638673" /><trkpt lat="22.35631478125" lon="114.19240179638672" /><trkpt lat="22.35641778125" lon="114.19240179638672" /><trkpt lat="22.35651078125" lon="114.19240279638672" /><trkpt lat="22.35654578125" lon="114.19246679638673" /><trkpt lat="22.35656078125" lon="114.19249579638672" /><trkpt lat="22.35660278125" lon="114.19255479638672" /><trkpt lat="22.35668578125" lon="114.19258879638672" /><trkpt lat="22.35681478125" lon="114.19269079638671" /><trkpt lat="22.35690578125" lon="114.19274979638672" /><trkpt lat="22.35687878125" lon="114.19283479638672" /><trkpt lat="22.35681178125" lon="114.19292479638672" /><trkpt lat="22.35688778125" lon="114.19304979638672" /><trkpt lat="22.35687378125" lon="114.19309779638672" /><trkpt lat="22.35678478125" lon="114.19313979638672" /><trkpt lat="22.35667378125" lon="114.19318679638671" /><trkpt lat="22.35657578125" lon="114.19325279638672" /><trkpt lat="22.35647778125" lon="114.19333279638671" /><trkpt lat="22.35641178125" lon="114.19340179638672" /><trkpt lat="22.35635178125" lon="114.19347979638673" /><trkpt lat="22.35628078125" lon="114.19359979638672" /><trkpt lat="22.35620278125" lon="114.19366779638672" /><trkpt lat="22.35612078125" lon="114.19372679638671" /><trkpt lat="22.35602078125" lon="114.19380779638672" /><trkpt lat="22.355926781249998" lon="114.19389179638672" /><trkpt lat="22.35585978125" lon="114.19397479638671" /><trkpt lat="22.35578078125" lon="114.19406279638672" /><trkpt lat="22.35572278125" lon="114.19414279638671" /><trkpt lat="22.35568378125" lon="114.19423979638673" /><trkpt lat="22.35571378125" lon="114.19436279638671" /><trkpt lat="22.35595378125" lon="114.19433579638672" /><trkpt lat="22.35615178125" lon="114.19453979638672" /><trkpt lat="22.35666378125" lon="114.19441579638672" /><trkpt lat="22.35724378125" lon="114.19428179638672" /><trkpt lat="22.35752778125" lon="114.19400779638671" /><trkpt lat="22.35800228283201" lon="114.19407602520262" /><trkpt lat="22.35811878125" lon="114.19406179638672" /><trkpt lat="22.35834078125" lon="114.19415879638672" /><trkpt lat="22.35851978125" lon="114.19419879638671" /><trkpt lat="22.35883078125" lon="114.19419879638671" /><trkpt lat="22.35910578125" lon="114.19442279638672" /><trkpt lat="22.35926178125" lon="114.19459979638673" /><trkpt lat="22.35948478125" lon="114.19457579638672" /><trkpt lat="22.35968478125" lon="114.19457579638672" /><trkpt lat="22.35995278125" lon="114.19480079638672" /><trkpt lat="22.36015978125" lon="114.19485679638672" /><trkpt lat="22.36036778125" lon="114.19488079638671" /><trkpt lat="22.36055378125" lon="114.19494479638672" /><trkpt lat="22.36072478125" lon="114.19495279638672" /><trkpt lat="22.36088778125" lon="114.19492079638673" /><trkpt lat="22.36103678125" lon="114.19486479638672" /><trkpt lat="22.36130378125" lon="114.19485679638672" /><trkpt lat="22.36142278125" lon="114.19490479638672" /><trkpt lat="22.36137078125" lon="114.19500979638671" /><trkpt lat="22.36133378125" lon="114.19510579638671" /><trkpt lat="22.36134078125" lon="114.19522579638672" /><trkpt lat="22.36136278125" lon="114.19533879638672" /><trkpt lat="22.36162278125" lon="114.19540279638672" /><trkpt lat="22.36197678125" lon="114.19547879638672" /><trkpt lat="22.36239678125" lon="114.19550079638672" /><trkpt lat="22.36275378125" lon="114.19552379638672" /><trkpt lat="22.36302678125" lon="114.19536479638671" /><trkpt lat="22.36336278125" lon="114.19536479638671" /><trkpt lat="22.36355178125" lon="114.19536479638671" /><trkpt lat="22.36372878125" lon="114.19533279638672" /><trkpt lat="22.36375878125" lon="114.19536979638671" /><trkpt lat="22.36386778125" lon="114.19528179638672" /><trkpt lat="22.36391478125" lon="114.19516379638672" /><trkpt lat="22.36395178125" lon="114.19500579638672" /><trkpt lat="22.36400178125" lon="114.19501079638673" /><trkpt lat="22.36404378125" lon="114.19497879638672" /><trkpt lat="22.36405178125" lon="114.19483079638673" /><trkpt lat="22.36400478125" lon="114.19472379638673" /><trkpt lat="22.36403078125" lon="114.19453079638672" /><trkpt lat="22.36415178125" lon="114.19439379638672" /><trkpt lat="22.36419078125" lon="114.19426479638672" /><trkpt lat="22.36483378125" lon="114.19427479638672" /><trkpt lat="22.36507378125" lon="114.19438879638672" /><trkpt lat="22.36564378125" lon="114.19447279638672" /><trkpt lat="22.36619778125" lon="114.19421379638672" /><trkpt lat="22.36631978125" lon="114.19420579638673" /><trkpt lat="22.36619978125" lon="114.19389079638673" /><trkpt lat="22.36608978125" lon="114.19381279638672" /><trkpt lat="22.36595678125" lon="114.19358979638672" /><trkpt lat="22.36597978125" lon="114.19338279638671" /><trkpt lat="22.36592578125" lon="114.19315279638671" /><trkpt lat="22.36593378125" lon="114.19262879638671" /><trkpt lat="22.36596878125" lon="114.19251079638671" /><trkpt lat="22.36598078125" lon="114.19237379638672" /><trkpt lat="22.366080781249998" lon="114.19225279638673" /><trkpt lat="22.36612378125" lon="114.19216479638672" /><trkpt lat="22.36616278125" lon="114.19207679638671" /><trkpt lat="22.36623178125" lon="114.19189379638672" /><trkpt lat="22.36629678125" lon="114.19174579638671" /><trkpt lat="22.36655478125" lon="114.19129379638672" /><trkpt lat="22.36674678125" lon="114.19127479638672" /><trkpt lat="22.36689878125" lon="114.19140879638672" /><trkpt lat="22.36699778125" lon="114.19171179638671" /><trkpt lat="22.36708678125" lon="114.19172679638672" /><trkpt lat="22.36746778125" lon="114.19134479638672" /><trkpt lat="22.36747678125" lon="114.19114179638672" /><trkpt lat="22.36754678125" lon="114.19107379638672" /><trkpt lat="22.36782678125" lon="114.19101479638672" /><trkpt lat="22.36822578125" lon="114.19103679638673" /><trkpt lat="22.36841578125" lon="114.19110379638671" /><trkpt lat="22.36881778125" lon="114.19104379638672" /><trkpt lat="22.36884178125" lon="114.19124379638671" /><trkpt lat="22.36910278125" lon="114.19153579638672" /><trkpt lat="22.36919378125" lon="114.19182779638672" /><trkpt lat="22.36939878125" lon="114.19205879638672" /><trkpt lat="22.36943178125" lon="114.19225779638671" /><trkpt lat="22.36951278125" lon="114.19230679638672" /><trkpt lat="22.36966778125" lon="114.19255979638672" /><trkpt lat="22.36989278125" lon="114.19261679638672" /><trkpt lat="22.37015678125" lon="114.19289879638671" /><trkpt lat="22.370396676879018" lon="114.19294493512702" /><trkpt lat="22.3702762383723" lon="114.1930622952222" /><trkpt lat="22.370029183591086" lon="114.19318244980417" /><trkpt lat="22.369923012514988" lon="114.19330042345422" /><trkpt lat="22.36988360769729" lon="114.19353334344663" /><trkpt lat="22.369690921054385" lon="114.19402634767351" /><trkpt lat="22.369714779436606" lon="114.19425058846713" /><trkpt lat="22.369682850175565" lon="114.19449038718625" /><trkpt lat="22.369571531587013" lon="114.19476869289241" /><trkpt lat="22.369414981269145" lon="114.19486587352907" /><trkpt lat="22.369410020527113" lon="114.19487337500499" /><trkpt lat="22.369410020527113" lon="114.19489269561922" /><trkpt lat="22.369471194019063" lon="114.19482584273847" /><trkpt lat="22.36929078125" lon="114.19463279638671" /><trkpt lat="22.36900278125" lon="114.19447279638672" /><trkpt lat="22.36875478125" lon="114.19441179638672" /><trkpt lat="22.36862778125" lon="114.19415979638671" /><trkpt lat="22.36840378125" lon="114.19388579638672" /><trkpt lat="22.36820578125" lon="114.19392379638671" /><trkpt lat="22.36787778125" lon="114.19452679638673" /><trkpt lat="22.36788878125" lon="114.19462579638672" /><trkpt lat="22.36812978125" lon="114.19494579638672" /><trkpt lat="22.36764678125" lon="114.19489279638672" /><trkpt lat="22.36738578125" lon="114.19476279638671" /><trkpt lat="22.36737978125" lon="114.19470179638672" /><trkpt lat="22.36698178125" lon="114.19438879638672" /><trkpt lat="22.36647978125" lon="114.19442679638672" /><trkpt lat="22.36631978125" lon="114.19420579638673" /><trkpt lat="22.36619978125" lon="114.19389079638673" /><trkpt lat="22.36608978125" lon="114.19381279638672" /><trkpt lat="22.36595678125" lon="114.19358979638672" /><trkpt lat="22.36597978125" lon="114.19338279638671" /><trkpt lat="22.36592578125" lon="114.19315279638671" /><trkpt lat="22.36593378125" lon="114.19262879638671" /><trkpt lat="22.36596878125" lon="114.19251079638671" /><trkpt lat="22.36598078125" lon="114.19237379638672" /><trkpt lat="22.366080781249998" lon="114.19225279638673" /><trkpt lat="22.36612378125" lon="114.19216479638672" /><trkpt lat="22.36616278125" lon="114.19207679638671" /><trkpt lat="22.36623178125" lon="114.19189379638672" /><trkpt lat="22.36629678125" lon="114.19174579638671" /><trkpt lat="22.36655478125" lon="114.19129379638672" /><trkpt lat="22.36674678125" lon="114.19127479638672" /><trkpt lat="22.36689878125" lon="114.19140879638672" /><trkpt lat="22.36699778125" lon="114.19171179638671" /><trkpt lat="22.36708678125" lon="114.19172679638672" /><trkpt lat="22.36746778125" lon="114.19134479638672" /><trkpt lat="22.36747678125" lon="114.19114179638672" /><trkpt lat="22.36754678125" lon="114.19107379638672" /><trkpt lat="22.36782678125" lon="114.19101479638672" /><trkpt lat="22.36822578125" lon="114.19103679638673" /><trkpt lat="22.36841578125" lon="114.19110379638671" /><trkpt lat="22.36881778125" lon="114.19104379638672" /><trkpt lat="22.36884178125" lon="114.19124379638671" /><trkpt lat="22.36910278125" lon="114.19153579638672" /><trkpt lat="22.36919378125" lon="114.19182779638672" /><trkpt lat="22.36939878125" lon="114.19205879638672" /><trkpt lat="22.36943178125" lon="114.19225779638671" /><trkpt lat="22.36951278125" lon="114.19230679638672" /><trkpt lat="22.36966778125" lon="114.19255979638672" /><trkpt lat="22.36989278125" lon="114.19261679638672" /><trkpt lat="22.37015678125" lon="114.19289879638671" /><trkpt lat="22.37038778125" lon="114.19294979638671" /><trkpt lat="22.37074278125" lon="114.19275579638672" /><trkpt lat="22.37098978125" lon="114.19244379638671" /><trkpt lat="22.37117978125" lon="114.19239779638671" /><trkpt lat="22.37124178125" lon="114.19247879638672" /><trkpt lat="22.37154278125" lon="114.19231079638672" /><trkpt lat="22.37172978125" lon="114.19201379638672" /><trkpt lat="22.37196178125" lon="114.19201679638672" /><trkpt lat="22.37209578125" lon="114.19174079638672" /><trkpt lat="22.37191378125" lon="114.19157079638671" /><trkpt lat="22.37178478125" lon="114.19160479638671" /><trkpt lat="22.37141778125" lon="114.19140479638672" /><trkpt lat="22.37129178125" lon="114.19124979638671" /><trkpt lat="22.37130178125" lon="114.19082979638672" /><trkpt lat="22.37198678125" lon="114.19060679638672" /><trkpt lat="22.37212078125" lon="114.19061979638671" /><trkpt lat="22.37248578125" lon="114.19039479638671" /><trkpt lat="22.37283278125" lon="114.19032979638672" /><trkpt lat="22.37307878125" lon="114.19029879638671" /><trkpt lat="22.37337078125" lon="114.19021379638671" /><trkpt lat="22.373756781250002" lon="114.19001779638671" /><trkpt lat="22.37416078125" lon="114.18988979638672" /><trkpt lat="22.37413078125" lon="114.18972679638672" /><trkpt lat="22.37408278125" lon="114.18971579638672" /><trkpt lat="22.37402678125" lon="114.18965279638672" /><trkpt lat="22.37382578125" lon="114.18946879638672" /><trkpt lat="22.37374078125" lon="114.18938779638673" /><trkpt lat="22.37367578125" lon="114.18945479638671" /><trkpt lat="22.37358478125" lon="114.18951479638672" /><trkpt lat="22.37351478125" lon="114.18942479638672" /><trkpt lat="22.37344178125" lon="114.18933079638671" /><trkpt lat="22.37339878125" lon="114.18926079638672" /><trkpt lat="22.37352478125" lon="114.18884979638672" /><trkpt lat="22.37346578125" lon="114.18872079638672" /><trkpt lat="22.37336378125" lon="114.18866379638672" /><trkpt lat="22.37329078125" lon="114.18859279638671" /><trkpt lat="22.37327978125" lon="114.18852379638672" /><trkpt lat="22.37332478125" lon="114.18841079638672" /><trkpt lat="22.37335478125" lon="114.18826679638671" /><trkpt lat="22.37336778125" lon="114.18810679638672" /><trkpt lat="22.37334578125" lon="114.18791879638673" /><trkpt lat="22.37336978125" lon="114.18780079638672" /><trkpt lat="22.37330278125" lon="114.18766079638672" /><trkpt lat="22.37354678125" lon="114.18751079638672" /><trkpt lat="22.37405978125" lon="114.18719579638672" /><trkpt lat="22.37412678125" lon="114.18707479638672" /><trkpt lat="22.37413378125" lon="114.18693079638672" /><trkpt lat="22.37419478125" lon="114.18691479638672" /><trkpt lat="22.37417678125" lon="114.18681279638672" /><trkpt lat="22.37415478125" lon="114.18662579638672" /><trkpt lat="22.37414078125" lon="114.18624579638671" /><trkpt lat="22.37412678125" lon="114.18594279638671" /><trkpt lat="22.37414178125" lon="114.18576079638672" /><trkpt lat="22.37429778125" lon="114.18576579638672" /><trkpt lat="22.37434378125" lon="114.18577979638673" /><trkpt lat="22.374347781250002" lon="114.18569179638672" /><trkpt lat="22.37442978125" lon="114.18568879638671" /><trkpt lat="22.37457278125" lon="114.18572479638672" /><trkpt lat="22.374572991531938" lon="114.18571491372543" /></trkseg></trk></gpx>