<?xml version='1.0' encoding='UTF-8' ?><gpx version="1.1" creator="HikingTrailHK" xsi:schemaLocation="http://www.topografix.com/GPX/1/1 http://www.topografix.com/GPX/1/1/gpx.xsd" xmlns="http://www.topografix.com/GPX/1/1" xmlns:xsi="http://www.w3.org/2001/XMLSchema-instance"><metadata><name>獅肚望夫 @ 2016-12-27</name><desc></desc></metadata><trk><trkseg><trkpt lat="22.3451851747205" lon="114.1899643698175" /><trkpt lat="22.34517978125" lon="114.18958479638673" /><trkpt lat="22.34516478125" lon="114.18884979638672" /><trkpt lat="22.34515978125" lon="114.18874979638672" /><trkpt lat="22.34514978125" lon="114.18864979638671" /><trkpt lat="22.34496678125" lon="114.18768979638672" /><trkpt lat="22.34483978125" lon="114.18721979638671" /><trkpt lat="22.34478078125" lon="114.18689979638673" /><trkpt lat="22.34467978125" lon="114.18655979638672" /><trkpt lat="22.34458978125" lon="114.18639979638672" /><trkpt lat="22.34445978125" lon="114.18620979638672" /><trkpt lat="22.34437478125" lon="114.18611379638672" /><trkpt lat="22.34436078125" lon="114.18605979638671" /><trkpt lat="22.34423178125" lon="114.18591379638671" /><trkpt lat="22.34410978125" lon="114.18577479638672" /><trkpt lat="22.34407578125" lon="114.18576279638671" /><trkpt lat="22.34402778125" lon="114.18568879638671" /><trkpt lat="22.34404178125" lon="114.18561379638672" /><trkpt lat="22.34406178125" lon="114.18551679638672" /><trkpt lat="22.34406878125" lon="114.18545079638672" /><trkpt lat="22.34408678125" lon="114.18532979638672" /><trkpt lat="22.34412678125" lon="114.18519079638672" /><trkpt lat="22.34424478125" lon="114.18524579638672" /><trkpt lat="22.34436478125" lon="114.18525479638672" /><trkpt lat="22.34447878125" lon="114.18518879638673" /><trkpt lat="22.34454978125" lon="114.18500279638671" /><trkpt lat="22.34458378125" lon="114.18480979638672" /><trkpt lat="22.34463678125" lon="114.18484279638672" /><trkpt lat="22.34464678125" lon="114.18484879638672" /><trkpt lat="22.34467778125" lon="114.18490279638672" /><trkpt lat="22.34469278125" lon="114.18501279638672" /><trkpt lat="22.34470778125" lon="114.18514579638672" /><trkpt lat="22.34473278125" lon="114.18521579638671" /><trkpt lat="22.34476678125" lon="114.18528379638671" /><trkpt lat="22.34493778125" lon="114.18555679638672" /><trkpt lat="22.34518178125" lon="114.18591179638672" /><trkpt lat="22.34530878125" lon="114.18598979638672" /><trkpt lat="22.34556378125" lon="114.18599279638671" /><trkpt lat="22.34562378125" lon="114.18602279638672" /><trkpt lat="22.34589878125" lon="114.18631379638671" /><trkpt lat="22.34596378125" lon="114.18633679638671" /><trkpt lat="22.34601778125" lon="114.18632879638672" /><trkpt lat="22.34671378125" lon="114.18622979638671" /><trkpt lat="22.34679878125" lon="114.18621779638671" /><trkpt lat="22.34692678125" lon="114.18624679638671" /><trkpt lat="22.34705678125" lon="114.18633079638671" /><trkpt lat="22.34717478125" lon="114.18645479638671" /><trkpt lat="22.34719778125" lon="114.18654279638672" /><trkpt lat="22.34732978125" lon="114.18650479638671" /><trkpt lat="22.34739878125" lon="114.18648279638671" /><trkpt lat="22.34744978125" lon="114.18652379638672" /><trkpt lat="22.34740278125" lon="114.18667379638671" /><trkpt lat="22.34757678125" lon="114.18663979638671" /><trkpt lat="22.34777078125" lon="114.18685879638672" /><trkpt lat="22.34787578125" lon="114.18699779638672" /><trkpt lat="22.34797478125" lon="114.18722179638672" /><trkpt lat="22.34827278125" lon="114.18735079638672" /><trkpt lat="22.34854078125" lon="114.18729679638672" /><trkpt lat="22.34877878125" lon="114.18732879638672" /><trkpt lat="22.34877878125" lon="114.18725579638672" /><trkpt lat="22.34877878125" lon="114.18713579638671" /><trkpt lat="22.34895778125" lon="114.18706079638672" /><trkpt lat="22.34901778125" lon="114.18714479638672" /><trkpt lat="22.34895878125" lon="114.18719779638671" /><trkpt lat="22.34877878125" lon="114.18725579638672" /><trkpt lat="22.34877878125" lon="114.18713579638671" /><trkpt lat="22.34895778125" lon="114.18706079638672" /><trkpt lat="22.34901778125" lon="114.18714479638672" /><trkpt lat="22.34913578125" lon="114.18730779638672" /><trkpt lat="22.34939378125" lon="114.18745779638672" /><trkpt lat="22.34960278125" lon="114.18739379638671" /><trkpt lat="22.35001478125" lon="114.18757979638671" /><trkpt lat="22.35024578125" lon="114.18756879638671" /><trkpt lat="22.35036678125" lon="114.18747979638673" /><trkpt lat="22.35059478125" lon="114.18762979638672" /><trkpt lat="22.35065378125" lon="114.18783379638671" /><trkpt lat="22.35077278125" lon="114.18787679638672" /><trkpt lat="22.35114978125" lon="114.18787679638672" /><trkpt lat="22.35117978125" lon="114.18774779638672" /><trkpt lat="22.35147778125" lon="114.18757579638672" /><trkpt lat="22.35162678125" lon="114.18737179638671" /><trkpt lat="22.35172578125" lon="114.18733979638672" /><trkpt lat="22.35184078125" lon="114.18719979638672" /><trkpt lat="22.35193878125" lon="114.18731279638672" /><trkpt lat="22.35227878125" lon="114.18748079638672" /><trkpt lat="22.35234478125" lon="114.18742679638672" /><trkpt lat="22.35235178125" lon="114.18729979638672" /><trkpt lat="22.35246978125" lon="114.18728579638672" /><trkpt lat="22.35265878125" lon="114.18712979638671" /><trkpt lat="22.35272478125" lon="114.18700279638672" /><trkpt lat="22.35264578125" lon="114.18689579638672" /><trkpt lat="22.35286978125" lon="114.18667179638672" /><trkpt lat="22.35297578125" lon="114.18684279638671" /><trkpt lat="22.35301078125" lon="114.18690479638671" /><trkpt lat="22.35324978125" lon="114.18695279638672" /><trkpt lat="22.35342578125" lon="114.18691779638672" /><trkpt lat="22.35358878125" lon="114.18703179638672" /><trkpt lat="22.35376878125" lon="114.18709079638671" /><trkpt lat="22.35385978125" lon="114.18715679638672" /><trkpt lat="22.35406978125" lon="114.18725879638671" /><trkpt lat="22.35419878125" lon="114.18728579638672" /><trkpt lat="22.35451978125" lon="114.18746479638672" /><trkpt lat="22.35462878125" lon="114.18758879638672" /><trkpt lat="22.35472278125" lon="114.18761779638672" /><trkpt lat="22.35494378125" lon="114.18749779638672" /><trkpt lat="22.35507678125" lon="114.18750979638672" /><trkpt lat="22.35525878125" lon="114.18746179638671" /><trkpt lat="22.35526278125" lon="114.18737379638672" /><trkpt lat="22.35521478125" lon="114.18721479638671" /><trkpt lat="22.35508878125" lon="114.18717379638672" /><trkpt lat="22.35488878125" lon="114.18716779638672" /><trkpt lat="22.35484978125" lon="114.18688779638671" /><trkpt lat="22.35473678125" lon="114.18679679638672" /><trkpt lat="22.35465278125" lon="114.18666979638672" /><trkpt lat="22.35459978125" lon="114.18651079638671" /><trkpt lat="22.35456578125" lon="114.18638979638672" /><trkpt lat="22.35446278125" lon="114.18633179638672" /><trkpt lat="22.35442878125" lon="114.18619279638672" /><trkpt lat="22.35437778125" lon="114.18606179638672" /><trkpt lat="22.35424978125" lon="114.18593079638671" /><trkpt lat="22.35423678125" lon="114.18576679638672" /><trkpt lat="22.35427178125" lon="114.18565079638672" /><trkpt lat="22.35421978125" lon="114.18560179638672" /><trkpt lat="22.35408178125" lon="114.18558279638673" /><trkpt lat="22.35398078125" lon="114.18552079638673" /><trkpt lat="22.35390278125" lon="114.18541779638672" /><trkpt lat="22.35386578125" lon="114.18526579638672" /><trkpt lat="22.35380378125" lon="114.18514879638671" /><trkpt lat="22.35382978125" lon="114.18499279638672" /><trkpt lat="22.35384478125" lon="114.18481979638672" /><trkpt lat="22.35385978125" lon="114.18469779638671" /><trkpt lat="22.35386478125" lon="114.18452579638672" /><trkpt lat="22.35386178125" lon="114.18441279638672" /><trkpt lat="22.35388978125" lon="114.18427879638672" /><trkpt lat="22.35389878125" lon="114.18422079638673" /><trkpt lat="22.35390478125" lon="114.18416279638672" /><trkpt lat="22.35391878125" lon="114.18404479638671" /><trkpt lat="22.35386878125" lon="114.18393079638672" /><trkpt lat="22.35382378125" lon="114.18373779638672" /><trkpt lat="22.35385778125" lon="114.18354079638672" /><trkpt lat="22.35393478125" lon="114.18339979638672" /><trkpt lat="22.35414078125" lon="114.18332179638672" /><trkpt lat="22.35423778125" lon="114.18319779638672" /><trkpt lat="22.35419678125" lon="114.18303879638673" /><trkpt lat="22.35454978125" lon="114.18266279638672" /><trkpt lat="22.35456378125" lon="114.18267379638672" /><trkpt lat="22.35470678125" lon="114.18262679638671" /><trkpt lat="22.35477178125" lon="114.18245979638672" /><trkpt lat="22.35473078125" lon="114.18230479638672" /><trkpt lat="22.35488878125" lon="114.18210079638672" /><trkpt lat="22.35493578125" lon="114.18198879638672" /><trkpt lat="22.35494878125" lon="114.18173579638672" /><trkpt lat="22.35538878125" lon="114.18125979638671" /><trkpt lat="22.35545378125" lon="114.18105379638672" /><trkpt lat="22.35576578125" lon="114.18089079638672" /><trkpt lat="22.35607178125" lon="114.18087179638673" /><trkpt lat="22.35625978125" lon="114.18068979638672" /><trkpt lat="22.35647578125" lon="114.18058779638672" /><trkpt lat="22.35691378125" lon="114.18017579638672" /><trkpt lat="22.35706478125" lon="114.18006179638672" /><trkpt lat="22.35726278125" lon="114.18010779638672" /><trkpt lat="22.35738878125" lon="114.18006679638673" /><trkpt lat="22.35760878125" lon="114.17976279638673" /><trkpt lat="22.35769578125" lon="114.17954879638671" /><trkpt lat="22.35779878125" lon="114.17939779638672" /><trkpt lat="22.35795578125" lon="114.17926879638672" /><trkpt lat="22.35807078125" lon="114.17922179638671" /><trkpt lat="22.35836878125" lon="114.17925179638672" /><trkpt lat="22.35859478125" lon="114.17935479638672" /><trkpt lat="22.35879878125" lon="114.17951779638672" /><trkpt lat="22.35897978125" lon="114.17960579638672" /><trkpt lat="22.359420960602918" lon="114.17980097422911" /><trkpt lat="22.359333302601144" lon="114.17996995339705" /><trkpt lat="22.359303907679294" lon="114.17998792447345" /><trkpt lat="22.35938878125" lon="114.18033979638672" /><trkpt lat="22.35955878125" lon="114.18040279638672" /><trkpt lat="22.35956378125" lon="114.18060679638671" /><trkpt lat="22.35970978125" lon="114.18075879638671" /><trkpt lat="22.35968178125" lon="114.18109379638672" /><trkpt lat="22.35970878125" lon="114.18120079638672" /><trkpt lat="22.35979778125" lon="114.18135979638672" /><trkpt lat="22.35989878125" lon="114.18150079638671" /><trkpt lat="22.36018978125" lon="114.18171479638671" /><trkpt lat="22.36032678125" lon="114.18175779638672" /><trkpt lat="22.36055278125" lon="114.18182179638671" /><trkpt lat="22.360571781250002" lon="114.18175579638672" /><trkpt lat="22.36066078125" lon="114.18178079638672" /><trkpt lat="22.36075878125" lon="114.18188879638672" /><trkpt lat="22.36083478125" lon="114.18234879638672" /><trkpt lat="22.36095878125" lon="114.18270879638672" /><trkpt lat="22.36103278125" lon="114.18292479638671" /><trkpt lat="22.36110478125" lon="114.18294579638672" /><trkpt lat="22.36129078125" lon="114.18289079638672" /><trkpt lat="22.36183678125" lon="114.18231679638671" /><trkpt lat="22.36201478125" lon="114.18234879638672" /><trkpt lat="22.36216378125" lon="114.18244579638672" /><trkpt lat="22.36229478125" lon="114.18251079638672" /><trkpt lat="22.36225978125" lon="114.18289779638671" /><trkpt lat="22.36228178125" lon="114.18302679638671" /><trkpt lat="22.36254078125" lon="114.18319679638672" /><trkpt lat="22.36272978125" lon="114.18321779638671" /><trkpt lat="22.36303178125" lon="114.18344879638671" /><trkpt lat="22.36313178125" lon="114.18362579638672" /><trkpt lat="22.36322178125" lon="114.18383579638672" /><trkpt lat="22.36333578125" lon="114.18394479638673" /><trkpt lat="22.36334478125" lon="114.18409079638671" /><trkpt lat="22.36314678125" lon="114.18420179638672" /><trkpt lat="22.36284878125" lon="114.18439479638671" /><trkpt lat="22.36283378125" lon="114.18463479638672" /><trkpt lat="22.36292778125" lon="114.18479579638672" /><trkpt lat="22.36297278125" lon="114.18493479638671" /><trkpt lat="22.36289278125" lon="114.18511279638672" /><trkpt lat="22.36266678125" lon="114.18522879638672" /><trkpt lat="22.36237478125" lon="114.18516779638672" /><trkpt lat="22.36220878125" lon="114.18518179638671" /><trkpt lat="22.36210478125" lon="114.18531079638672" /><trkpt lat="22.36212378125" lon="114.18575579638672" /><trkpt lat="22.36186078125" lon="114.18613679638672" /><trkpt lat="22.36190078125" lon="114.18633479638672" /><trkpt lat="22.36210478125" lon="114.18644379638671" /><trkpt lat="22.36229378125" lon="114.18656379638672" /><trkpt lat="22.36241678125" lon="114.18657679638672" /><trkpt lat="22.36258078125" lon="114.18663679638672" /><trkpt lat="22.36271478125" lon="114.18666179638672" /><trkpt lat="22.36287878125" lon="114.18666479638672" /><trkpt lat="22.36308678125" lon="114.18663779638672" /><trkpt lat="22.36333478125" lon="114.18668379638672" /><trkpt lat="22.36341878125" lon="114.18676679638672" /><trkpt lat="22.36353778125" lon="114.18676979638671" /><trkpt lat="22.36374878125" lon="114.18673479638672" /><trkpt lat="22.36389978125" lon="114.18667279638672" /><trkpt lat="22.36403878125" lon="114.18649079638672" /><trkpt lat="22.36427678125" lon="114.18640479638673" /><trkpt lat="22.36443578125" lon="114.18656579638672" /><trkpt lat="22.36445578125" lon="114.18694779638672" /><trkpt lat="22.36444078125" lon="114.18726879638672" /><trkpt lat="22.36438678125" lon="114.18739979638671" /><trkpt lat="22.36437378125" lon="114.18761679638672" /><trkpt lat="22.36445578125" lon="114.18769179638672" /><trkpt lat="22.36461478125" lon="114.18768779638671" /><trkpt lat="22.36476378125" lon="114.18765579638672" /><trkpt lat="22.36497178125" lon="114.18773079638672" /><trkpt lat="22.36505078125" lon="114.18781279638672" /><trkpt lat="22.36495978125" lon="114.18801979638671" /><trkpt lat="22.36497178125" lon="114.18822479638672" /><trkpt lat="22.36522778125" lon="114.18821379638672" /><trkpt lat="22.36547678125" lon="114.18832579638672" /><trkpt lat="22.36565278125" lon="114.18861579638671" /><trkpt lat="22.36606678125" lon="114.18868379638671" /><trkpt lat="22.36622278125" lon="114.18883379638672" /><trkpt lat="22.36652478125" lon="114.18905779638672" /><trkpt lat="22.36692878125" lon="114.18900079638672" /><trkpt lat="22.36723178125" lon="114.18915179638672" /><trkpt lat="22.36735878125" lon="114.18912179638671" /><trkpt lat="22.36755778125" lon="114.18905679638672" /><trkpt lat="22.36782278125" lon="114.18918979638671" /><trkpt lat="22.36804478125" lon="114.18935179638672" /><trkpt lat="22.36817678125" lon="114.18926679638672" /><trkpt lat="22.36839378125" lon="114.18948579638672" /><trkpt lat="22.36860178125" lon="114.18965779638671" /><trkpt lat="22.36878078125" lon="114.18966879638671" /><trkpt lat="22.36891578125" lon="114.18964179638672" /><trkpt lat="22.36915778125" lon="114.18959379638672" /><trkpt lat="22.36923578125" lon="114.18949479638673" /><trkpt lat="22.36931978125" lon="114.18949679638672" /><trkpt lat="22.36939878125" lon="114.18955479638672" /><trkpt lat="22.36962978125" lon="114.18960479638672" /><trkpt lat="22.37015178125" lon="114.18964679638673" /><trkpt lat="22.37031178125" lon="114.18967679638672" /><trkpt lat="22.37054678125" lon="114.18958379638671" /><trkpt lat="22.37059478125" lon="114.18937979638672" /><trkpt lat="22.37059378125" lon="114.18906979638672" /><trkpt lat="22.370674599915628" lon="114.18915061500331" /></trkseg></trk></gpx>