<?xml version='1.0' encoding='UTF-8' ?><gpx version="1.1" creator="HikingTrailHK" xsi:schemaLocation="http://www.topografix.com/GPX/1/1 http://www.topografix.com/GPX/1/1/gpx.xsd" xmlns="http://www.topografix.com/GPX/1/1" xmlns:xsi="http://www.w3.org/2001/XMLSchema-instance"><metadata><name>獅象虎 @ 2017-5-20</name><desc></desc></metadata><trk><trkseg><trkpt lat="22.24420003194686" lon="113.87499540085373" /><trkpt lat="22.24427578125" lon="113.87468879638672" /><trkpt lat="22.24434778125" lon="113.87472879638672" /><trkpt lat="22.24463078125" lon="113.87440479638671" /><trkpt lat="22.24475678125" lon="113.87436679638672" /><trkpt lat="22.24515378125" lon="113.87438979638672" /><trkpt lat="22.24522578125" lon="113.87442779638671" /><trkpt lat="22.24522178125" lon="113.87449679638672" /><trkpt lat="22.24543778125" lon="113.87452679638672" /><trkpt lat="22.24571778125" lon="113.87440479638671" /><trkpt lat="22.24608278125" lon="113.87450379638672" /><trkpt lat="22.24649278125" lon="113.87479379638673" /><trkpt lat="22.24651678125" lon="113.87489279638672" /><trkpt lat="22.24663178125" lon="113.87496179638671" /><trkpt lat="22.24700978125" lon="113.87492379638672" /><trkpt lat="22.24707978125" lon="113.87474079638672" /><trkpt lat="22.24716378125" lon="113.87466479638672" /><trkpt lat="22.24784678125" lon="113.87441979638672" /><trkpt lat="22.24798278125" lon="113.87436479638671" /><trkpt lat="22.24822578125" lon="113.87427379638672" /><trkpt lat="22.24850878125" lon="113.87413479638671" /><trkpt lat="22.24871478125" lon="113.87406179638671" /><trkpt lat="22.24914778125" lon="113.87416079638672" /><trkpt lat="22.24937078125" lon="113.87430579638672" /><trkpt lat="22.24968378125" lon="113.87425979638672" /><trkpt lat="22.24989278125" lon="113.87435179638672" /><trkpt lat="22.25023478125" lon="113.87426779638672" /><trkpt lat="22.25032778125" lon="113.87416079638672" /><trkpt lat="22.25052278125" lon="113.87409179638672" /><trkpt lat="22.25081278125" lon="113.87409979638672" /><trkpt lat="22.25079778125" lon="113.87415279638672" /><trkpt lat="22.25089978125" lon="113.87408479638673" /><trkpt lat="22.25173378125" lon="113.87438179638671" /><trkpt lat="22.25180978125" lon="113.87459579638671" /><trkpt lat="22.25201078125" lon="113.87463379638672" /><trkpt lat="22.25202578125" lon="113.87467979638672" /><trkpt lat="22.25226178125" lon="113.87470979638672" /><trkpt lat="22.25244078125" lon="113.87466579638672" /><trkpt lat="22.25264178125" lon="113.87462179638672" /><trkpt lat="22.25273178125" lon="113.87464279638672" /><trkpt lat="22.25284078125" lon="113.87471779638672" /><trkpt lat="22.25292978125" lon="113.87472879638672" /><trkpt lat="22.25294978125" lon="113.87496479638672" /><trkpt lat="22.25301978125" lon="113.87503979638672" /><trkpt lat="22.25299978125" lon="113.87515779638672" /><trkpt lat="22.25306878125" lon="113.87529779638672" /><trkpt lat="22.25321778125" lon="113.87574779638672" /><trkpt lat="22.25347578125" lon="113.87601679638672" /><trkpt lat="22.25353578125" lon="113.87621979638672" /><trkpt lat="22.25370478125" lon="113.87635979638672" /><trkpt lat="22.25386378125" lon="113.87653079638672" /><trkpt lat="22.25398278125" lon="113.87656379638672" /><trkpt lat="22.25414178125" lon="113.87676779638672" /><trkpt lat="22.25430078125" lon="113.87686379638671" /><trkpt lat="22.25445978125" lon="113.87694979638673" /><trkpt lat="22.25462778125" lon="113.87715379638672" /><trkpt lat="22.25479678125" lon="113.87741079638671" /><trkpt lat="22.25501578125" lon="113.87762579638672" /><trkpt lat="22.25506478125" lon="113.87765779638671" /><trkpt lat="22.25514478125" lon="113.87791579638672" /><trkpt lat="22.25530378125" lon="113.87796879638672" /><trkpt lat="22.25542278125" lon="113.87794779638672" /><trkpt lat="22.25550178125" lon="113.87795779638672" /><trkpt lat="22.25559078125" lon="113.87799079638671" /><trkpt lat="22.25569078125" lon="113.87793679638672" /><trkpt lat="22.25580978125" lon="113.87803379638672" /><trkpt lat="22.25603378125" lon="113.87804179638673" /><trkpt lat="22.25634578125" lon="113.87785079638672" /><trkpt lat="22.25643478125" lon="113.87779679638672" /><trkpt lat="22.25659378125" lon="113.87778679638672" /><trkpt lat="22.25683278125" lon="113.87781879638672" /><trkpt lat="22.25703078125" lon="113.87797979638673" /><trkpt lat="22.25712078125" lon="113.87808679638673" /><trkpt lat="22.25719978125" lon="113.87811879638672" /><trkpt lat="22.25726978125" lon="113.87824779638672" /><trkpt lat="22.25746778125" lon="113.87836579638672" /><trkpt lat="22.25772578125" lon="113.87874179638672" /><trkpt lat="22.25777578125" lon="113.87899879638672" /><trkpt lat="22.25785478125" lon="113.87920279638672" /><trkpt lat="22.25797478125" lon="113.87932079638672" /><trkpt lat="22.25807378125" lon="113.87936379638671" /><trkpt lat="22.25824278125" lon="113.87963179638672" /><trkpt lat="22.25845078125" lon="113.87978179638672" /><trkpt lat="22.25863978125" lon="113.87991079638672" /><trkpt lat="22.25883778125" lon="113.87993279638673" /><trkpt lat="22.25895778125" lon="113.88000779638672" /><trkpt lat="22.25918578125" lon="113.88003979638673" /><trkpt lat="22.25927478125" lon="113.88010379638672" /><trkpt lat="22.25934178125" lon="113.88010979638672" /><trkpt lat="22.25935078125" lon="113.88010579638672" /><trkpt lat="22.25937278125" lon="113.88010679638671" /><trkpt lat="22.25938678125" lon="113.88007979638672" /><trkpt lat="22.25941478125" lon="113.88007879638671" /><trkpt lat="22.25943378125" lon="113.88005679638673" /><trkpt lat="22.25945378125" lon="113.88006679638671" /><trkpt lat="22.25947478125" lon="113.88006079638672" /><trkpt lat="22.25949378125" lon="113.88007379638672" /><trkpt lat="22.25951578125" lon="113.88007379638672" /><trkpt lat="22.25953678125" lon="113.88006479638672" /><trkpt lat="22.25955278125" lon="113.88007179638672" /><trkpt lat="22.25957578125" lon="113.88005879638672" /><trkpt lat="22.25960478125" lon="113.88005379638672" /><trkpt lat="22.25962778125" lon="113.88003079638672" /><trkpt lat="22.25963878125" lon="113.88002879638672" /><trkpt lat="22.25968378125" lon="113.88003279638671" /><trkpt lat="22.25970278125" lon="113.88001379638672" /><trkpt lat="22.25972478125" lon="113.88001579638672" /><trkpt lat="22.25975378125" lon="113.87998779638671" /><trkpt lat="22.25982678125" lon="113.87999679638672" /><trkpt lat="22.25983978125" lon="113.87998279638671" /><trkpt lat="22.25985978125" lon="113.87998779638671" /><trkpt lat="22.25987978125" lon="113.87997479638672" /><trkpt lat="22.25989178125" lon="113.87997979638672" /><trkpt lat="22.25990478125" lon="113.87996779638672" /><trkpt lat="22.25991678125" lon="113.87996379638672" /><trkpt lat="22.25997378125" lon="113.87993079638672" /><trkpt lat="22.26001178125" lon="113.87987579638671" /><trkpt lat="22.26000578125" lon="113.87982279638672" /><trkpt lat="22.26001778125" lon="113.87980479638672" /><trkpt lat="22.26001578125" lon="113.87975679638672" /><trkpt lat="22.25999378125" lon="113.87973779638672" /><trkpt lat="22.25999378125" lon="113.87973179638672" /><trkpt lat="22.25999078125" lon="113.87970379638672" /><trkpt lat="22.26001378125" lon="113.87966779638671" /><trkpt lat="22.26001378125" lon="113.87963379638671" /><trkpt lat="22.25999978125" lon="113.87959279638672" /><trkpt lat="22.26000978125" lon="113.87954579638672" /><trkpt lat="22.26007478125" lon="113.87944579638672" /><trkpt lat="22.26004978125" lon="113.87940979638672" /><trkpt lat="22.26004778125" lon="113.87938879638672" /><trkpt lat="22.26006478125" lon="113.87935579638672" /><trkpt lat="22.26006978125" lon="113.87932579638672" /><trkpt lat="22.26008178125" lon="113.87930279638672" /><trkpt lat="22.26015878125" lon="113.87927479638672" /><trkpt lat="22.26021378125" lon="113.87922879638671" /><trkpt lat="22.26032778125" lon="113.87912479638672" /><trkpt lat="22.26038178125" lon="113.87903679638671" /><trkpt lat="22.26023778125" lon="113.87892379638672" /><trkpt lat="22.26018878125" lon="113.87877379638672" /><trkpt lat="22.26005978125" lon="113.87855879638671" /><trkpt lat="22.26005978125" lon="113.87847279638672" /><trkpt lat="22.26000978125" lon="113.87837679638672" /><trkpt lat="22.26000978125" lon="113.87826979638672" /><trkpt lat="22.25994078125" lon="113.87827979638672" /><trkpt lat="22.25987078125" lon="113.87817279638672" /><trkpt lat="22.25988078125" lon="113.87803379638672" /><trkpt lat="22.25983078125" lon="113.87790479638672" /><trkpt lat="22.25974178125" lon="113.87786179638672" /><trkpt lat="22.25973178125" lon="113.87767879638672" /><trkpt lat="22.25978178125" lon="113.87761479638672" /><trkpt lat="22.25978178125" lon="113.87749679638672" /><trkpt lat="22.25986078125" lon="113.87736779638672" /><trkpt lat="22.25990078125" lon="113.87717479638673" /><trkpt lat="22.25993078125" lon="113.87702479638672" /><trkpt lat="22.25985078125" lon="113.87690679638672" /><trkpt lat="22.25988078125" lon="113.87676779638672" /><trkpt lat="22.25980178125" lon="113.87661679638671" /><trkpt lat="22.25980178125" lon="113.87652079638671" /><trkpt lat="22.25975178125" lon="113.87641279638672" /><trkpt lat="22.25965278125" lon="113.87642379638672" /><trkpt lat="22.25958278125" lon="113.87627379638671" /><trkpt lat="22.25966278125" lon="113.87608079638672" /><trkpt lat="22.25977178125" lon="113.87595179638672" /><trkpt lat="22.25982078125" lon="113.87580179638672" /><trkpt lat="22.25981078125" lon="113.87555479638672" /><trkpt lat="22.25992078125" lon="113.87522279638672" /><trkpt lat="22.25988078125" lon="113.87501879638671" /><trkpt lat="22.25988078125" lon="113.87482579638672" /><trkpt lat="22.25979178125" lon="113.87458979638672" /><trkpt lat="22.25978178125" lon="113.87436379638672" /><trkpt lat="22.25979178125" lon="113.87390279638672" /><trkpt lat="22.25974178125" lon="113.87370979638672" /><trkpt lat="22.25935478125" lon="113.87317079638672" /><trkpt lat="22.25956278125" lon="113.87292679638672" /><trkpt lat="22.25963278125" lon="113.87281879638672" /><trkpt lat="22.25965278125" lon="113.87265779638672" /><trkpt lat="22.26001978125" lon="113.87226079638671" /><trkpt lat="22.26023778125" lon="113.87181079638673" /><trkpt lat="22.26038678125" lon="113.87164979638672" /><trkpt lat="22.26031778125" lon="113.87146179638673" /><trkpt lat="22.26023778125" lon="113.87128979638672" /><trkpt lat="22.26020378125" lon="113.87098479638672" /><trkpt lat="22.26015378125" lon="113.87069479638672" /><trkpt lat="22.26003978125" lon="113.87043779638672" /><trkpt lat="22.26005978125" lon="113.87027679638672" /><trkpt lat="22.25993078125" lon="113.86994379638672" /><trkpt lat="22.25982078125" lon="113.86965379638671" /><trkpt lat="22.25972178125" lon="113.86962179638672" /><trkpt lat="22.25976178125" lon="113.86948279638672" /><trkpt lat="22.25968178125" lon="113.86929979638671" /><trkpt lat="22.25958278125" lon="113.86903179638672" /><trkpt lat="22.25940378125" lon="113.86852779638672" /><trkpt lat="22.25939378125" lon="113.86817379638671" /><trkpt lat="22.25937478125" lon="113.86804479638671" /><trkpt lat="22.25928478125" lon="113.86788379638672" /><trkpt lat="22.25928478125" lon="113.86769079638673" /><trkpt lat="22.25915578125" lon="113.86732579638672" /><trkpt lat="22.25933478125" lon="113.86703579638672" /><trkpt lat="22.25938478125" lon="113.86648879638672" /><trkpt lat="22.25926678125" lon="113.86636779638673" /><trkpt lat="22.25920978125" lon="113.86630379638672" /><trkpt lat="22.25918178125" lon="113.86627579638672" /><trkpt lat="22.25914878125" lon="113.86624579638672" /><trkpt lat="22.25890978125" lon="113.86624979638673" /><trkpt lat="22.25886478125" lon="113.86629279638672" /><trkpt lat="22.25860978125" lon="113.86636579638672" /><trkpt lat="22.25777878125" lon="113.86624779638672" /><trkpt lat="22.25724078125" lon="113.86665579638672" /><trkpt lat="22.25633178125" lon="113.86703779638673" /><trkpt lat="22.25621178125" lon="113.86708779638671" /><trkpt lat="22.25508878125" lon="113.86655679638672" /><trkpt lat="22.25503978125" lon="113.86648879638672" /><trkpt lat="22.25514078125" lon="113.86625179638672" /><trkpt lat="22.25537678125" lon="113.86566579638672" /><trkpt lat="22.25551178125" lon="113.86552279638671" /><trkpt lat="22.25566578125" lon="113.86513479638671" /><trkpt lat="22.25586078125" lon="113.86496179638672" /><trkpt lat="22.25590878125" lon="113.86456279638672" /><trkpt lat="22.25586878125" lon="113.86425879638672" /><trkpt lat="22.25578478125" lon="113.86427079638672" /><trkpt lat="22.25570478125" lon="113.86417979638672" /><trkpt lat="22.25562578125" lon="113.86404979638672" /><trkpt lat="22.25555878125" lon="113.86389379638672" /><trkpt lat="22.25549378125" lon="113.86378679638672" /><trkpt lat="22.25549278125" lon="113.86370879638672" /><trkpt lat="22.25545478125" lon="113.86355479638672" /><trkpt lat="22.25533678125" lon="113.86354879638672" /><trkpt lat="22.25523478125" lon="113.86354179638671" /><trkpt lat="22.25522578125" lon="113.86351479638672" /><trkpt lat="22.25515178125" lon="113.86342879638671" /><trkpt lat="22.25507878125" lon="113.86336279638672" /><trkpt lat="22.25498878125" lon="113.86328279638671" /><trkpt lat="22.25488178125" lon="113.86318879638672" /><trkpt lat="22.25483878125" lon="113.86315679638672" /><trkpt lat="22.25474078125" lon="113.86304679638671" /><trkpt lat="22.25469078125" lon="113.86296879638672" /><trkpt lat="22.25466278125" lon="113.86290979638672" /><trkpt lat="22.254659781249998" lon="113.86286179638672" /><trkpt lat="22.25456678125" lon="113.86260079638672" /><trkpt lat="22.25452378125" lon="113.86248179638672" /><trkpt lat="22.25450378125" lon="113.86238079638672" /><trkpt lat="22.25447378125" lon="113.86222979638671" /><trkpt lat="22.25448578125" lon="113.86219179638672" /><trkpt lat="22.25462078125" lon="113.86214979638672" /><trkpt lat="22.25465178125" lon="113.86226379638671" /><trkpt lat="22.25466678125" lon="113.86231979638671" /><trkpt lat="22.25468378125" lon="113.86237879638672" /><trkpt lat="22.25471478125" lon="113.86249279638672" /><trkpt lat="22.25477378125" lon="113.86267379638672" /><trkpt lat="22.25485078125" lon="113.86279579638672" /><trkpt lat="22.25504278125" lon="113.86306479638672" /><trkpt lat="22.25506778125" lon="113.86309879638672" /><trkpt lat="22.25514178125" lon="113.86317879638672" /><trkpt lat="22.25526978125" lon="113.86323879638672" /><trkpt lat="22.25560178125" lon="113.86328879638671" /><trkpt lat="22.25606578125" lon="113.86318479638672" /><trkpt lat="22.25625578125" lon="113.86312579638673" /><trkpt lat="22.25641778125" lon="113.86298279638672" /><trkpt lat="22.25655278125" lon="113.86285779638672" /><trkpt lat="22.25668078125" lon="113.86274179638671" /><trkpt lat="22.25696878125" lon="113.86258579638672" /><trkpt lat="22.25748878125" lon="113.86232179638672" /><trkpt lat="22.25757378125" lon="113.86211679638672" /><trkpt lat="22.25766378125" lon="113.86211179638671" /><trkpt lat="22.25777278125" lon="113.86196179638672" /><trkpt lat="22.25788678125" lon="113.86172579638672" /><trkpt lat="22.25810978125" lon="113.86143579638671" /><trkpt lat="22.25842778125" lon="113.86134479638672" /><trkpt lat="22.25853178125" lon="113.86140879638671" /><trkpt lat="22.25890978125" lon="113.86141379638671" /><trkpt lat="22.25909278125" lon="113.86133879638672" /><trkpt lat="22.25938578125" lon="113.86146779638672" /><trkpt lat="22.25945578125" lon="113.86140879638671" /><trkpt lat="22.259539781249998" lon="113.86139779638673" /><trkpt lat="22.26005978125" lon="113.86160279638672" /><trkpt lat="22.26033778125" lon="113.86165679638673" /><trkpt lat="22.26049678125" lon="113.86173179638672" /><trkpt lat="22.26057078125" lon="113.86176179638672" /><trkpt lat="22.26059278125" lon="113.86159379638671" /><trkpt lat="22.26042578125" lon="113.86143779638672" /><trkpt lat="22.26041778125" lon="113.86073279638671" /><trkpt lat="22.26034178125" lon="113.86023879638672" /><trkpt lat="22.26022978125" lon="113.85990679638672" /><trkpt lat="22.26013778125" lon="113.85976279638672" /><trkpt lat="22.26005178125" lon="113.85937079638671" /><trkpt lat="22.26005978125" lon="113.85918279638672" /><trkpt lat="22.25988878125" lon="113.85882879638672" /><trkpt lat="22.25989978125" lon="113.85875079638672" /><trkpt lat="22.25978578125" lon="113.85858479638672" /><trkpt lat="22.25965278125" lon="113.85838179638672" /><trkpt lat="22.25954978125" lon="113.85827379638671" /><trkpt lat="22.25963478125" lon="113.85806679638672" /><trkpt lat="22.25962778125" lon="113.85783979638671" /><trkpt lat="22.25963678125" lon="113.85773279638671" /><trkpt lat="22.25953278125" lon="113.85757879638672" /><trkpt lat="22.25951278125" lon="113.85731879638672" /><trkpt lat="22.25937978125" lon="113.85697479638672" /><trkpt lat="22.25887078125" lon="113.85638279638673" /><trkpt lat="22.25879878125" lon="113.85613779638672" /><trkpt lat="22.25866478125" lon="113.85600279638672" /><trkpt lat="22.25831678125" lon="113.85581079638672" /><trkpt lat="22.25784478125" lon="113.85514679638672" /><trkpt lat="22.25752778125" lon="113.85531579638672" /><trkpt lat="22.25733978125" lon="113.85535179638671" /><trkpt lat="22.25737678125" lon="113.85556179638672" /><trkpt lat="22.25744578125" lon="113.85563779638672" /><trkpt lat="22.25752278125" lon="113.85570079638671" /><trkpt lat="22.25753678125" lon="113.85591479638671" /><trkpt lat="22.25745978125" lon="113.85612379638673" /><trkpt lat="22.25726878125" lon="113.85619579638671" /><trkpt lat="22.25714078125" lon="113.85633579638672" /><trkpt lat="22.25686478125" lon="113.85642579638672" /><trkpt lat="22.25660978125" lon="113.85649179638672" /><trkpt lat="22.25658478125" lon="113.85668579638671" /><trkpt lat="22.25639378125" lon="113.85671379638671" /><trkpt lat="22.25626278125" lon="113.85672979638672" /><trkpt lat="22.25611778125" lon="113.85685779638672" /><trkpt lat="22.25611678125" lon="113.85693379638671" /><trkpt lat="22.25611178125" lon="113.85693279638672" /><trkpt lat="22.25610178125" lon="113.85693379638671" /><trkpt lat="22.25608678125" lon="113.85693279638672" /><trkpt lat="22.25600978125" lon="113.85698579638672" /><trkpt lat="22.25584078125" lon="113.85698979638671" /><trkpt lat="22.25570578125" lon="113.85711579638672" /><trkpt lat="22.25571478125" lon="113.85717979638672" /><trkpt lat="22.25570578125" lon="113.85733479638672" /><trkpt lat="22.25570178125" lon="113.85736979638672" /><trkpt lat="22.25568278125" lon="113.85741379638672" /><trkpt lat="22.25564078125" lon="113.85747979638671" /><trkpt lat="22.25560278125" lon="113.85754079638671" /><trkpt lat="22.25559178125" lon="113.85759179638671" /><trkpt lat="22.25558678125" lon="113.85776179638673" /><trkpt lat="22.25562478125" lon="113.85776979638672" /><trkpt lat="22.25559978125" lon="113.85789479638672" /><trkpt lat="22.25556678125" lon="113.85788479638671" /><trkpt lat="22.25553178125" lon="113.85810579638672" /><trkpt lat="22.25552378125" lon="113.85816079638671" /><trkpt lat="22.25548978125" lon="113.85834279638672" /><trkpt lat="22.25548478125" lon="113.85836579638672" /><trkpt lat="22.25545278125" lon="113.85852479638672" /><trkpt lat="22.25531978125" lon="113.85918679638672" /><trkpt lat="22.25530778125" lon="113.85928279638672" /><trkpt lat="22.25526178125" lon="113.85965779638671" /><trkpt lat="22.25524078125" lon="113.85980979638671" /><trkpt lat="22.25519078125" lon="113.85998279638672" /><trkpt lat="22.25516578125" lon="113.86020779638672" /><trkpt lat="22.25513678125" lon="113.86030479638671" /><trkpt lat="22.25493378125" lon="113.86066879638672" /><trkpt lat="22.25483778125" lon="113.86088179638672" /><trkpt lat="22.25481778125" lon="113.86098979638672" /><trkpt lat="22.25476978125" lon="113.86114979638671" /><trkpt lat="22.25471178125" lon="113.86126379638672" /><trkpt lat="22.25470678125" lon="113.86146279638672" /><trkpt lat="22.25469478125" lon="113.86158579638672" /><trkpt lat="22.25468478125" lon="113.86170079638671" /><trkpt lat="22.25467678125" lon="113.86179879638672" /><trkpt lat="22.25465178125" lon="113.86186779638672" /><trkpt lat="22.25459178125" lon="113.86193479638672" /><trkpt lat="22.25457378125" lon="113.86197879638672" /><trkpt lat="22.25450978125" lon="113.86201379638672" /><trkpt lat="22.25446478125" lon="113.86203479638672" /><trkpt lat="22.25410978125" lon="113.86218479638671" /><trkpt lat="22.25406278125" lon="113.86220279638673" /><trkpt lat="22.25404578125" lon="113.86220979638672" /><trkpt lat="22.25400278125" lon="113.86208879638671" /><trkpt lat="22.25379478125" lon="113.86218179638672" /><trkpt lat="22.25382078125" lon="113.86224579638672" /><trkpt lat="22.25379678125" lon="113.86227479638671" /><trkpt lat="22.25377078125" lon="113.86230679638672" /><trkpt lat="22.25369078125" lon="113.86236679638672" /><trkpt lat="22.25366478125" lon="113.86233979638672" /><trkpt lat="22.25359878125" lon="113.86224179638671" /><trkpt lat="22.25355678125" lon="113.86218779638672" /><trkpt lat="22.25349578125" lon="113.86210979638672" /><trkpt lat="22.25341778125" lon="113.86201579638671" /><trkpt lat="22.25337878125" lon="113.86193979638672" /><trkpt lat="22.25330978125" lon="113.86185579638672" /><trkpt lat="22.25325578125" lon="113.86189179638671" /><trkpt lat="22.25314578125" lon="113.86195379638671" /><trkpt lat="22.25311378125" lon="113.86196079638673" /><trkpt lat="22.25304678125" lon="113.86198479638672" /><trkpt lat="22.25299978125" lon="113.86200279638672" /><trkpt lat="22.25294278125" lon="113.86225079638672" /><trkpt lat="22.25293378125" lon="113.86224779638673" /><trkpt lat="22.25291878125" lon="113.86224679638671" /><trkpt lat="22.25288478125" lon="113.86224079638671" /><trkpt lat="22.25289180949047" lon="113.86219583829252" /></trkseg></trk></gpx>