<?xml version='1.0' encoding='UTF-8' ?><gpx version="1.1" creator="HikingTrailHK" xsi:schemaLocation="http://www.topografix.com/GPX/1/1 http://www.topografix.com/GPX/1/1/gpx.xsd" xmlns="http://www.topografix.com/GPX/1/1" xmlns:xsi="http://www.w3.org/2001/XMLSchema-instance"><metadata><name>玉桂山綑邊 @ 2022-06-25</name><desc></desc></metadata><trk><trkseg><trkpt lat="22.240727904327628" lon="114.15627264271848" /><trkpt lat="22.24071178125" lon="114.15625279638672" /><trkpt lat="22.24069278125" lon="114.15620279638672" /><trkpt lat="22.24066578125" lon="114.15609479638672" /><trkpt lat="22.24064878125" lon="114.15601679638672" /><trkpt lat="22.24064078125" lon="114.15591179638672" /><trkpt lat="22.24063478125" lon="114.15566579638671" /><trkpt lat="22.24063978125" lon="114.15513679638671" /><trkpt lat="22.24065878125" lon="114.15506579638672" /><trkpt lat="22.24069878125" lon="114.15497979638671" /><trkpt lat="22.24072878125" lon="114.15494879638672" /><trkpt lat="22.24078378125" lon="114.15492479638672" /><trkpt lat="22.24071278125" lon="114.15487579638672" /><trkpt lat="22.24066478125" lon="114.15475179638672" /><trkpt lat="22.24043978125" lon="114.15457379638671" /><trkpt lat="22.24037578125" lon="114.15466279638672" /><trkpt lat="22.24038178125" lon="114.15465779638672" /><trkpt lat="22.24042778125" lon="114.15490979638672" /><trkpt lat="22.24029678125" lon="114.15533079638672" /><trkpt lat="22.24042678125" lon="114.15595779638672" /><trkpt lat="22.24044078125" lon="114.15602379638672" /><trkpt lat="22.24043078125" lon="114.15608379638672" /><trkpt lat="22.24039878125" lon="114.15612079638672" /><trkpt lat="22.24033178125" lon="114.15615379638672" /><trkpt lat="22.24032378125" lon="114.15618579638672" /><trkpt lat="22.24025678125" lon="114.15624979638672" /><trkpt lat="22.24022078125" lon="114.15624579638671" /><trkpt lat="22.24018278125" lon="114.15632379638672" /><trkpt lat="22.24016478125" lon="114.15645879638672" /><trkpt lat="22.24018578125" lon="114.15655279638672" /><trkpt lat="22.24014778125" lon="114.15661379638672" /><trkpt lat="22.24011178125" lon="114.15666679638672" /><trkpt lat="22.23993578125" lon="114.15662679638672" /><trkpt lat="22.23979778125" lon="114.15658079638672" /><trkpt lat="22.23976178125" lon="114.15654979638671" /><trkpt lat="22.23953878125" lon="114.15635879638671" /><trkpt lat="22.23950078125" lon="114.15638479638672" /><trkpt lat="22.23944178125" lon="114.15640479638672" /><trkpt lat="22.23940078125" lon="114.15639979638672" /><trkpt lat="22.23934878125" lon="114.15641379638672" /><trkpt lat="22.23926578125" lon="114.15646679638672" /><trkpt lat="22.23921778125" lon="114.15647379638672" /><trkpt lat="22.23917678125" lon="114.15644579638672" /><trkpt lat="22.23908378125" lon="114.15648579638672" /><trkpt lat="22.23902978125" lon="114.15645279638672" /><trkpt lat="22.23895278125" lon="114.15644179638672" /><trkpt lat="22.23892778125" lon="114.15645379638671" /><trkpt lat="22.23880378125" lon="114.15647879638672" /><trkpt lat="22.23866078125" lon="114.15655879638672" /><trkpt lat="22.23854178125" lon="114.15656879638672" /><trkpt lat="22.23849378125" lon="114.15660779638672" /><trkpt lat="22.23841478125" lon="114.15659579638672" /><trkpt lat="22.23835478125" lon="114.15659579638672" /><trkpt lat="22.23833678125" lon="114.15661379638672" /><trkpt lat="22.23827278125" lon="114.15660679638673" /><trkpt lat="22.23820678125" lon="114.15662279638671" /><trkpt lat="22.23815478125" lon="114.15662079638672" /><trkpt lat="22.23803478125" lon="114.15668279638672" /><trkpt lat="22.23794578125" lon="114.15670479638672" /><trkpt lat="22.23760678125" lon="114.15699279638672" /><trkpt lat="22.23752178125" lon="114.15713279638672" /><trkpt lat="22.23750178125" lon="114.15716079638672" /><trkpt lat="22.23749478125" lon="114.15719279638672" /><trkpt lat="22.23749178125" lon="114.15725779638672" /><trkpt lat="22.23750178125" lon="114.15728479638672" /><trkpt lat="22.23749078125" lon="114.15737279638672" /><trkpt lat="22.23735078125" lon="114.15751479638672" /><trkpt lat="22.23722878125" lon="114.15776179638672" /><trkpt lat="22.23718678125" lon="114.15784679638672" /><trkpt lat="22.23715678125" lon="114.15791679638671" /><trkpt lat="22.23714478125" lon="114.15795179638671" /><trkpt lat="22.23701078125" lon="114.15802979638671" /><trkpt lat="22.23688778125" lon="114.15808079638671" /><trkpt lat="22.23680878125" lon="114.15807079638672" /><trkpt lat="22.23670578125" lon="114.15811279638672" /><trkpt lat="22.23659078125" lon="114.15817179638672" /><trkpt lat="22.23645878125" lon="114.15826179638672" /><trkpt lat="22.23641278125" lon="114.15827379638672" /><trkpt lat="22.23634578125" lon="114.15834279638672" /><trkpt lat="22.23622778125" lon="114.15847779638672" /><trkpt lat="22.23610278125" lon="114.15852779638672" /><trkpt lat="22.23602878125" lon="114.15857179638672" /><trkpt lat="22.23596078125" lon="114.15866679638673" /><trkpt lat="22.23589578125" lon="114.15868679638672" /><trkpt lat="22.23586778125" lon="114.15871979638672" /><trkpt lat="22.23583678125" lon="114.15880679638671" /><trkpt lat="22.23580378125" lon="114.15881179638671" /><trkpt lat="22.23553978125" lon="114.15898779638673" /><trkpt lat="22.23540378125" lon="114.15897879638672" /><trkpt lat="22.23531278125" lon="114.15902479638672" /><trkpt lat="22.23516978125" lon="114.15900279638672" /><trkpt lat="22.23503878125" lon="114.15899079638672" /><trkpt lat="22.23489478125" lon="114.15897679638672" /><trkpt lat="22.23478878125" lon="114.15901879638672" /><trkpt lat="22.23452378125" lon="114.15908879638671" /><trkpt lat="22.23436678125" lon="114.15911779638672" /><trkpt lat="22.23425778125" lon="114.15917879638671" /><trkpt lat="22.23411478125" lon="114.15929179638673" /><trkpt lat="22.23401878125" lon="114.15931279638671" /><trkpt lat="22.23396378125" lon="114.15929879638672" /><trkpt lat="22.23354178125" lon="114.15939079638672" /><trkpt lat="22.23341478125" lon="114.15936379638671" /><trkpt lat="22.23339278125" lon="114.15929679638671" /><trkpt lat="22.23323178125" lon="114.15927379638671" /><trkpt lat="22.23318978125" lon="114.15931979638673" /><trkpt lat="22.23314878125" lon="114.15933979638672" /><trkpt lat="22.23311078125" lon="114.15935379638672" /><trkpt lat="22.23308178125" lon="114.15939979638672" /><trkpt lat="22.23299378125" lon="114.15941079638672" /><trkpt lat="22.23285078125" lon="114.15953379638673" /><trkpt lat="22.23276878125" lon="114.15955979638672" /><trkpt lat="22.23260478125" lon="114.15966479638672" /><trkpt lat="22.23262478125" lon="114.15975179638671" /><trkpt lat="22.23259778125" lon="114.15979579638672" /><trkpt lat="22.23257678125" lon="114.15979279638672" /><trkpt lat="22.23255578125" lon="114.15979279638672" /><trkpt lat="22.23254278125" lon="114.15980179638672" /><trkpt lat="22.23250778125" lon="114.15978679638673" /><trkpt lat="22.23249378125" lon="114.15978579638671" /><trkpt lat="22.23247078125" lon="114.15981179638672" /><trkpt lat="22.23246678125" lon="114.15986179638672" /><trkpt lat="22.23245578125" lon="114.15987079638671" /><trkpt lat="22.23246378125" lon="114.15988979638672" /><trkpt lat="22.23246678125" lon="114.15991679638672" /><trkpt lat="22.23245578125" lon="114.15994679638672" /><trkpt lat="22.23240178125" lon="114.15996979638672" /><trkpt lat="22.23239378125" lon="114.15998579638672" /><trkpt lat="22.23236578125" lon="114.15999379638671" /><trkpt lat="22.23234578125" lon="114.16003879638671" /><trkpt lat="22.23233078125" lon="114.16009479638672" /><trkpt lat="22.23230678125" lon="114.16012679638672" /><trkpt lat="22.23228178125" lon="114.16013379638672" /><trkpt lat="22.23226278125" lon="114.16017679638672" /><trkpt lat="22.23224478125" lon="114.16018379638672" /><trkpt lat="22.23222678125" lon="114.16017779638672" /><trkpt lat="22.23221178125" lon="114.16019379638672" /><trkpt lat="22.23220978125" lon="114.16022779638672" /><trkpt lat="22.23220378125" lon="114.16024779638671" /><trkpt lat="22.23217678125" lon="114.16027879638672" /><trkpt lat="22.23215078125" lon="114.16032479638672" /><trkpt lat="22.23213178125" lon="114.16035379638672" /><trkpt lat="22.23212778125" lon="114.16040679638672" /><trkpt lat="22.23212178125" lon="114.16042379638672" /><trkpt lat="22.23208178125" lon="114.16043279638671" /><trkpt lat="22.23203778125" lon="114.16042079638672" /><trkpt lat="22.23199378125" lon="114.16041179638673" /><trkpt lat="22.23193778125" lon="114.16040479638671" /><trkpt lat="22.23190978125" lon="114.16038379638672" /><trkpt lat="22.23187878125" lon="114.16036079638671" /><trkpt lat="22.23179678125" lon="114.16028179638671" /><trkpt lat="22.23176578125" lon="114.16034079638672" /><trkpt lat="22.23174878125" lon="114.16046879638672" /><trkpt lat="22.23171278125" lon="114.16053679638672" /><trkpt lat="22.23164078125" lon="114.16064179638671" /><trkpt lat="22.23164178125" lon="114.16069279638671" /><trkpt lat="22.23164278125" lon="114.16072779638672" /><trkpt lat="22.23164178125" lon="114.16076979638672" /><trkpt lat="22.23162578125" lon="114.16081679638671" /><trkpt lat="22.23158678125" lon="114.16081179638672" /><trkpt lat="22.23157178125" lon="114.16083679638672" /><trkpt lat="22.23153078125" lon="114.16087679638672" /><trkpt lat="22.23147678125" lon="114.16086679638671" /><trkpt lat="22.23143478125" lon="114.16081979638672" /><trkpt lat="22.23140578125" lon="114.16076179638672" /><trkpt lat="22.23133078125" lon="114.16068579638672" /><trkpt lat="22.23129678125" lon="114.16064279638672" /><trkpt lat="22.23122778125" lon="114.16061479638672" /><trkpt lat="22.23118678125" lon="114.16060279638671" /><trkpt lat="22.23102778125" lon="114.16052179638672" /><trkpt lat="22.23088678125" lon="114.16064179638671" /><trkpt lat="22.23073778125" lon="114.16073779638671" /><trkpt lat="22.23058478125" lon="114.16082379638672" /><trkpt lat="22.23048478125" lon="114.16090379638672" /><trkpt lat="22.23031078125" lon="114.16098879638672" /><trkpt lat="22.23020478125" lon="114.16103879638672" /><trkpt lat="22.23016978125" lon="114.16105979638672" /><trkpt lat="22.23013078125" lon="114.16107779638672" /><trkpt lat="22.23006578125" lon="114.16111679638672" /><trkpt lat="22.23002578125" lon="114.16117579638671" /><trkpt lat="22.22996478125" lon="114.16119379638671" /><trkpt lat="22.22990778125" lon="114.16125679638672" /><trkpt lat="22.22985578125" lon="114.16130179638672" /><trkpt lat="22.22980678125" lon="114.16135779638672" /><trkpt lat="22.22972278125" lon="114.16142379638671" /><trkpt lat="22.22965078125" lon="114.16151579638672" /><trkpt lat="22.22954878125" lon="114.16157379638672" /><trkpt lat="22.22933578125" lon="114.16166079638671" /><trkpt lat="22.22923278125" lon="114.16162879638672" /><trkpt lat="22.22918378125" lon="114.16157679638673" /><trkpt lat="22.22911378125" lon="114.16174779638672" /><trkpt lat="22.22907478125" lon="114.16157679638673" /><trkpt lat="22.22912693801031" lon="114.16156662627816" /><trkpt lat="22.22908373528487" lon="114.16161605594263" /><trkpt lat="22.22911378125" lon="114.16174779638672" /><trkpt lat="22.22918378125" lon="114.16157679638673" /><trkpt lat="22.22923278125" lon="114.16162879638672" /><trkpt lat="22.22933578125" lon="114.16166079638671" /><trkpt lat="22.22954878125" lon="114.16157379638672" /><trkpt lat="22.22965078125" lon="114.16151579638672" /><trkpt lat="22.22972278125" lon="114.16142379638671" /><trkpt lat="22.22980678125" lon="114.16135779638672" /><trkpt lat="22.22985578125" lon="114.16130179638672" /><trkpt lat="22.22990778125" lon="114.16125679638672" /><trkpt lat="22.22996478125" lon="114.16119379638671" /><trkpt lat="22.23002578125" lon="114.16117579638671" /><trkpt lat="22.23006578125" lon="114.16111679638672" /><trkpt lat="22.23013078125" lon="114.16107779638672" /><trkpt lat="22.23016978125" lon="114.16105979638672" /><trkpt lat="22.23020478125" lon="114.16103879638672" /><trkpt lat="22.23031078125" lon="114.16098879638672" /><trkpt lat="22.23048478125" lon="114.16090379638672" /><trkpt lat="22.23058478125" lon="114.16082379638672" /><trkpt lat="22.23073778125" lon="114.16073779638671" /><trkpt lat="22.23088678125" lon="114.16064179638671" /><trkpt lat="22.23102778125" lon="114.16052179638672" /><trkpt lat="22.23118678125" lon="114.16060279638671" /><trkpt lat="22.23122778125" lon="114.16061479638672" /><trkpt lat="22.23129678125" lon="114.16064279638672" /><trkpt lat="22.23133078125" lon="114.16068579638672" /><trkpt lat="22.23140578125" lon="114.16076179638672" /><trkpt lat="22.23143478125" lon="114.16081979638672" /><trkpt lat="22.23147678125" lon="114.16086679638671" /><trkpt lat="22.23153078125" lon="114.16087679638672" /><trkpt lat="22.23157178125" lon="114.16083679638672" /><trkpt lat="22.23158678125" lon="114.16081179638672" /><trkpt lat="22.23162578125" lon="114.16081679638671" /><trkpt lat="22.23164178125" lon="114.16076979638672" /><trkpt lat="22.23164278125" lon="114.16072779638672" /><trkpt lat="22.23164178125" lon="114.16069279638671" /><trkpt lat="22.23164078125" lon="114.16064179638671" /><trkpt lat="22.23171278125" lon="114.16053679638672" /><trkpt lat="22.23174878125" lon="114.16046879638672" /><trkpt lat="22.23176578125" lon="114.16034079638672" /><trkpt lat="22.23179678125" lon="114.16028179638671" /><trkpt lat="22.23189378125" lon="114.16019379638672" /><trkpt lat="22.23196178125" lon="114.16011279638671" /><trkpt lat="22.23198978125" lon="114.16002279638671" /><trkpt lat="22.23201878125" lon="114.15995579638673" /><trkpt lat="22.23204778125" lon="114.15991179638672" /><trkpt lat="22.23211178125" lon="114.15986379638672" /><trkpt lat="22.23215178125" lon="114.15979879638672" /><trkpt lat="22.23225778125" lon="114.15977679638672" /><trkpt lat="22.23239878125" lon="114.15974979638672" /><trkpt lat="22.23246078125" lon="114.15974979638672" /><trkpt lat="22.23251778125" lon="114.15976279638672" /><trkpt lat="22.23260478125" lon="114.15966479638672" /><trkpt lat="22.23276878125" lon="114.15955979638672" /><trkpt lat="22.23285078125" lon="114.15953379638673" /><trkpt lat="22.23299378125" lon="114.15941079638672" /><trkpt lat="22.23308178125" lon="114.15939979638672" /><trkpt lat="22.23311078125" lon="114.15935379638672" /><trkpt lat="22.23314878125" lon="114.15933979638672" /><trkpt lat="22.23318978125" lon="114.15931979638673" /><trkpt lat="22.23323178125" lon="114.15927379638671" /><trkpt lat="22.23339278125" lon="114.15929679638671" /><trkpt lat="22.23341478125" lon="114.15936379638671" /><trkpt lat="22.23354178125" lon="114.15939079638672" /><trkpt lat="22.23396378125" lon="114.15929879638672" /><trkpt lat="22.23397178125" lon="114.15919879638672" /><trkpt lat="22.23404978125" lon="114.15905879638672" /><trkpt lat="22.23410278125" lon="114.15888979638672" /><trkpt lat="22.23416878125" lon="114.15877779638672" /><trkpt lat="22.23424913160796" lon="114.15879633920103" /><trkpt lat="22.234247185853263" lon="114.15871837812261" /><trkpt lat="22.234581461217218" lon="114.15774820743218" /><trkpt lat="22.23462595487007" lon="114.15766594510154" /><trkpt lat="22.234722143129545" lon="114.1573946692277" /><trkpt lat="22.23477728275138" lon="114.15699900175758" /><trkpt lat="22.234893781250236" lon="114.15677095313077" /><trkpt lat="22.23502148468242" lon="114.15664334335054" /><trkpt lat="22.235088287777046" lon="114.15651074842839" /><trkpt lat="22.235226391360868" lon="114.15608175833967" /><trkpt lat="22.23524042778081" lon="114.15592101550226" /><trkpt lat="22.23522943372103" lon="114.1557510903869" /><trkpt lat="22.23541349600208" lon="114.15508102465361" /><trkpt lat="22.23545258255203" lon="114.15500938875681" /><trkpt lat="22.23547618772413" lon="114.15494026183501" /><trkpt lat="22.235600196729322" lon="114.15471421469886" /><trkpt lat="22.2357811316717" lon="114.15453792962916" /><trkpt lat="22.23670131724397" lon="114.15414345591478" /><trkpt lat="22.236766003583497" lon="114.15410269866209" /><trkpt lat="22.23680452552398" lon="114.15405718024829" /><trkpt lat="22.23685297496769" lon="114.15391982101221" /><trkpt lat="22.23686120719809" lon="114.15384489494386" /><trkpt lat="22.23685014653809" lon="114.15378356879074" /><trkpt lat="22.236824736833867" lon="114.1537153394828" /><trkpt lat="22.236818937720603" lon="114.15363181587496" /><trkpt lat="22.23688078125" lon="114.15361679638671" /><trkpt lat="22.237357216081627" lon="114.15325161960764" /></trkseg></trk></gpx>