<?xml version='1.0' encoding='UTF-8' ?><gpx version="1.1" creator="HikingTrailHK" xsi:schemaLocation="http://www.topografix.com/GPX/1/1 http://www.topografix.com/GPX/1/1/gpx.xsd" xmlns="http://www.topografix.com/GPX/1/1" xmlns:xsi="http://www.w3.org/2001/XMLSchema-instance"><metadata><name>環湖@ 2024-02-03</name><desc></desc></metadata><trk><trkseg><trkpt lat="22.50743366339124" lon="114.2429722330777" /><trkpt lat="22.50734278125" lon="114.24289979638672" /><trkpt lat="22.50727278125" lon="114.24290379638671" /><trkpt lat="22.50722678125" lon="114.24290379638671" /><trkpt lat="22.50714578125" lon="114.24288779638673" /><trkpt lat="22.50708778125" lon="114.24280979638672" /><trkpt lat="22.50704078125" lon="114.24277479638671" /><trkpt lat="22.50699378125" lon="114.24277379638671" /><trkpt lat="22.50697478125" lon="114.24276879638671" /><trkpt lat="22.50692278125" lon="114.24275779638671" /><trkpt lat="22.50689678125" lon="114.24273279638672" /><trkpt lat="22.50687078125" lon="114.24274779638672" /><trkpt lat="22.50682678125" lon="114.24276579638672" /><trkpt lat="22.50680278125" lon="114.24277379638671" /><trkpt lat="22.50673478125" lon="114.24279479638672" /><trkpt lat="22.50667578125" lon="114.24282079638672" /><trkpt lat="22.50665378125" lon="114.24285879638671" /><trkpt lat="22.50663678125" lon="114.24287079638673" /><trkpt lat="22.50661678125" lon="114.24287979638672" /><trkpt lat="22.50646978125" lon="114.24291679638672" /><trkpt lat="22.50637378125" lon="114.24292979638672" /><trkpt lat="22.50628578125" lon="114.24294879638671" /><trkpt lat="22.50627978125" lon="114.24292379638672" /><trkpt lat="22.50627478125" lon="114.24290279638672" /><trkpt lat="22.50626878125" lon="114.24288279638672" /><trkpt lat="22.50626178125" lon="114.24286679638672" /><trkpt lat="22.50625378125" lon="114.24285179638672" /><trkpt lat="22.50624078125" lon="114.24283079638671" /><trkpt lat="22.50622678125" lon="114.24281079638672" /><trkpt lat="22.50621578125" lon="114.24279979638672" /><trkpt lat="22.50620178125" lon="114.24278779638672" /><trkpt lat="22.50616778125" lon="114.24276779638672" /><trkpt lat="22.50610478125" lon="114.24279079638671" /><trkpt lat="22.50608878125" lon="114.24279679638671" /><trkpt lat="22.50605878125" lon="114.24280379638672" /><trkpt lat="22.50601578125" lon="114.24280379638672" /><trkpt lat="22.50596078125" lon="114.24279379638672" /><trkpt lat="22.50582378125" lon="114.24274479638672" /><trkpt lat="22.50581378125" lon="114.24274379638672" /><trkpt lat="22.50580378125" lon="114.24274479638672" /><trkpt lat="22.50579378125" lon="114.24274879638672" /><trkpt lat="22.50574478125" lon="114.24277479638671" /><trkpt lat="22.50573678125" lon="114.24277779638672" /><trkpt lat="22.50572478125" lon="114.24277979638671" /><trkpt lat="22.50571378125" lon="114.24277979638671" /><trkpt lat="22.50570178125" lon="114.24277779638672" /><trkpt lat="22.50568778125" lon="114.24277379638671" /><trkpt lat="22.505651021997508" lon="114.24276933603628" /><trkpt lat="22.50565278125" lon="114.24278779638672" /><trkpt lat="22.50565478125" lon="114.24281279638672" /><trkpt lat="22.50566178125" lon="114.24298879638673" /><trkpt lat="22.50566378125" lon="114.24300879638672" /><trkpt lat="22.50566978125" lon="114.24304579638672" /><trkpt lat="22.50567178125" lon="114.24306579638672" /><trkpt lat="22.50567178125" lon="114.24309479638671" /><trkpt lat="22.50567378125" lon="114.24310879638672" /><trkpt lat="22.50567678125" lon="114.24311879638672" /><trkpt lat="22.50568278125" lon="114.24313079638672" /><trkpt lat="22.50572178125" lon="114.24319779638672" /><trkpt lat="22.50574878125" lon="114.24324979638672" /><trkpt lat="22.50577178125" lon="114.24329979638672" /><trkpt lat="22.50581478125" lon="114.24339479638672" /><trkpt lat="22.50581878125" lon="114.24342879638672" /><trkpt lat="22.50581378125" lon="114.24343579638672" /><trkpt lat="22.50580478125" lon="114.24343879638671" /><trkpt lat="22.50575178125" lon="114.24344779638672" /><trkpt lat="22.50574578125" lon="114.24344879638672" /><trkpt lat="22.50574078125" lon="114.24345179638672" /><trkpt lat="22.50573678125" lon="114.24345579638671" /><trkpt lat="22.50573178125" lon="114.24346179638673" /><trkpt lat="22.505720781249998" lon="114.24347779638671" /><trkpt lat="22.50570778125" lon="114.24349579638672" /><trkpt lat="22.50569078125" lon="114.24351579638672" /><trkpt lat="22.50563078125" lon="114.24357779638672" /><trkpt lat="22.50562678125" lon="114.24358379638672" /><trkpt lat="22.50559078125" lon="114.24364679638671" /><trkpt lat="22.50557978125" lon="114.24366879638671" /><trkpt lat="22.50552978125" lon="114.24378279638672" /><trkpt lat="22.50552378125" lon="114.24379479638672" /><trkpt lat="22.50551678125" lon="114.24380279638672" /><trkpt lat="22.50550878125" lon="114.24380879638672" /><trkpt lat="22.50549778125" lon="114.24381379638672" /><trkpt lat="22.50548478125" lon="114.24381879638672" /><trkpt lat="22.50545578125" lon="114.24382579638672" /><trkpt lat="22.50544778125" lon="114.24382779638673" /><trkpt lat="22.50543778125" lon="114.24383179638671" /><trkpt lat="22.50520678125" lon="114.24395379638672" /><trkpt lat="22.50516678125" lon="114.24397679638672" /><trkpt lat="22.50512878125" lon="114.24400379638672" /><trkpt lat="22.50503578125" lon="114.24407779638672" /><trkpt lat="22.50499378125" lon="114.24410879638671" /><trkpt lat="22.50497678125" lon="114.24411779638672" /><trkpt lat="22.50496178125" lon="114.24412379638672" /><trkpt lat="22.50491578125" lon="114.24414079638672" /><trkpt lat="22.50489878125" lon="114.24414479638672" /><trkpt lat="22.50488478125" lon="114.24414679638672" /><trkpt lat="22.50487378125" lon="114.24414679638672" /><trkpt lat="22.50484478125" lon="114.24414779638671" /><trkpt lat="22.50483078125" lon="114.24414979638672" /><trkpt lat="22.50479578125" lon="114.24415679638672" /><trkpt lat="22.50477378125" lon="114.24416279638672" /><trkpt lat="22.50475578125" lon="114.24416879638672" /><trkpt lat="22.50473878125" lon="114.24417679638672" /><trkpt lat="22.50471378125" lon="114.24418879638672" /><trkpt lat="22.50467078125" lon="114.24421379638672" /><trkpt lat="22.50466078125" lon="114.24421779638672" /><trkpt lat="22.50454878125" lon="114.24426179638672" /><trkpt lat="22.50453878125" lon="114.24426679638673" /><trkpt lat="22.50453178125" lon="114.24427379638672" /><trkpt lat="22.50452478125" lon="114.24428179638672" /><trkpt lat="22.50451778125" lon="114.24429379638671" /><trkpt lat="22.50451278125" lon="114.24430579638671" /><trkpt lat="22.50450678125" lon="114.24432079638672" /><trkpt lat="22.50449278125" lon="114.24436879638672" /><trkpt lat="22.50448778125" lon="114.24438379638671" /><trkpt lat="22.50448078125" lon="114.24439779638672" /><trkpt lat="22.50447278125" lon="114.24441179638671" /><trkpt lat="22.504462781249998" lon="114.24442579638672" /><trkpt lat="22.50445078125" lon="114.24443879638672" /><trkpt lat="22.50440878125" lon="114.24447979638671" /><trkpt lat="22.50439778125" lon="114.24449279638672" /><trkpt lat="22.50438878125" lon="114.24450479638672" /><trkpt lat="22.50438278125" lon="114.24451679638672" /><trkpt lat="22.50437278125" lon="114.24453979638672" /><trkpt lat="22.50436578125" lon="114.24455279638671" /><trkpt lat="22.50435878125" lon="114.24456379638671" /><trkpt lat="22.50434878125" lon="114.24457579638671" /><trkpt lat="22.50433778125" lon="114.24458779638672" /><trkpt lat="22.50430478125" lon="114.24462079638671" /><trkpt lat="22.50429178125" lon="114.24463179638671" /><trkpt lat="22.50421278125" lon="114.24469479638672" /><trkpt lat="22.50419778125" lon="114.24470579638673" /><trkpt lat="22.50417778125" lon="114.24471779638672" /><trkpt lat="22.50417078125" lon="114.24472279638672" /><trkpt lat="22.50416578125" lon="114.24472779638671" /><trkpt lat="22.50416278125" lon="114.24473379638673" /><trkpt lat="22.50412678125" lon="114.24480379638672" /><trkpt lat="22.50410478125" lon="114.24484079638673" /><trkpt lat="22.50406178125" lon="114.24491979638672" /><trkpt lat="22.50404578125" lon="114.24494679638671" /><trkpt lat="22.50403178125" lon="114.24496679638672" /><trkpt lat="22.50399678125" lon="114.24501079638672" /><trkpt lat="22.50397678125" lon="114.24503479638672" /><trkpt lat="22.50395678125" lon="114.24505479638673" /><trkpt lat="22.50391178125" lon="114.24510279638672" /><trkpt lat="22.50388578125" lon="114.24512779638673" /><trkpt lat="22.50386478125" lon="114.24514579638672" /><trkpt lat="22.50384178125" lon="114.24516479638672" /><trkpt lat="22.50382578125" lon="114.24517779638671" /><trkpt lat="22.50381178125" lon="114.24519179638672" /><trkpt lat="22.50378678125" lon="114.24521879638672" /><trkpt lat="22.50377478125" lon="114.24523579638672" /><trkpt lat="22.50376478125" lon="114.24525279638672" /><trkpt lat="22.50372778125" lon="114.24533379638672" /><trkpt lat="22.50372378125" lon="114.24534079638671" /><trkpt lat="22.50371878125" lon="114.24534579638672" /><trkpt lat="22.50370878125" lon="114.24535479638672" /><trkpt lat="22.50370378125" lon="114.24536079638672" /><trkpt lat="22.50369478125" lon="114.24537379638672" /><trkpt lat="22.50368678125" lon="114.24538479638672" /><trkpt lat="22.50368078125" lon="114.24539679638671" /><trkpt lat="22.50367678125" lon="114.24540879638671" /><trkpt lat="22.50366178125" lon="114.24545779638672" /><trkpt lat="22.50365378125" lon="114.24547879638672" /><trkpt lat="22.50364578125" lon="114.24549979638672" /><trkpt lat="22.50361778125" lon="114.24555779638672" /><trkpt lat="22.50361078125" lon="114.24557579638672" /><trkpt lat="22.50359478125" lon="114.24562479638672" /><trkpt lat="22.50358678125" lon="114.24564579638673" /><trkpt lat="22.50352778125" lon="114.24577479638671" /><trkpt lat="22.50352078125" lon="114.24579179638671" /><trkpt lat="22.50351178125" lon="114.24580779638671" /><trkpt lat="22.50347678125" lon="114.24586079638672" /><trkpt lat="22.50346778125" lon="114.24587779638672" /><trkpt lat="22.50345978125" lon="114.24589479638672" /><trkpt lat="22.50345478125" lon="114.24590879638671" /><trkpt lat="22.50345178125" lon="114.24591979638672" /><trkpt lat="22.50344878125" lon="114.24593679638672" /><trkpt lat="22.50344678125" lon="114.24594579638672" /><trkpt lat="22.50344278125" lon="114.24595579638672" /><trkpt lat="22.50343778125" lon="114.24596479638672" /><trkpt lat="22.50342178125" lon="114.24598779638671" /><trkpt lat="22.50341378125" lon="114.24600279638672" /><trkpt lat="22.50337978125" lon="114.24606879638672" /><trkpt lat="22.50336578125" lon="114.24609479638671" /><trkpt lat="22.50334978125" lon="114.24612179638672" /><trkpt lat="22.50334278125" lon="114.24613679638672" /><trkpt lat="22.50333578125" lon="114.24615579638672" /><trkpt lat="22.50332878125" lon="114.24617879638672" /><trkpt lat="22.50331478125" lon="114.24622979638671" /><trkpt lat="22.50331078125" lon="114.24625079638672" /><trkpt lat="22.50330778125" lon="114.24627179638672" /><trkpt lat="22.50330478125" lon="114.24629879638672" /><trkpt lat="22.50330478125" lon="114.24631779638672" /><trkpt lat="22.50330678125" lon="114.24633479638672" /><trkpt lat="22.50330978125" lon="114.24634879638671" /><trkpt lat="22.50331478125" lon="114.24636179638672" /><trkpt lat="22.50332178125" lon="114.24637579638672" /><trkpt lat="22.50333178125" lon="114.24639279638671" /><trkpt lat="22.50335278125" lon="114.24642279638672" /><trkpt lat="22.50335778125" lon="114.24643079638672" /><trkpt lat="22.50336278125" lon="114.24644179638672" /><trkpt lat="22.50336578125" lon="114.24645279638672" /><trkpt lat="22.50336778125" lon="114.24646679638671" /><trkpt lat="22.50336878125" lon="114.24648079638672" /><trkpt lat="22.50336778125" lon="114.24648979638673" /><trkpt lat="22.50336478125" lon="114.24649979638671" /><trkpt lat="22.50335978125" lon="114.24650879638672" /><trkpt lat="22.50335378125" lon="114.24651779638671" /><trkpt lat="22.50334378125" lon="114.24652779638672" /><trkpt lat="22.50333078125" lon="114.24653979638671" /><trkpt lat="22.50328878125" lon="114.24657579638672" /><trkpt lat="22.50327778125" lon="114.24658579638673" /><trkpt lat="22.50324678125" lon="114.24661779638672" /><trkpt lat="22.50323078125" lon="114.24663579638671" /><trkpt lat="22.50321678125" lon="114.24665679638672" /><trkpt lat="22.50320478125" lon="114.24667879638672" /><trkpt lat="22.50319178125" lon="114.24671179638672" /><trkpt lat="22.50318578125" lon="114.24673279638672" /><trkpt lat="22.50318078125" lon="114.24675379638671" /><trkpt lat="22.50317878125" lon="114.24677379638672" /><trkpt lat="22.50317878125" lon="114.24679579638672" /><trkpt lat="22.50318178125" lon="114.24681279638672" /><trkpt lat="22.50318678125" lon="114.24682879638672" /><trkpt lat="22.50319378125" lon="114.24684279638672" /><trkpt lat="22.50320478125" lon="114.24685679638672" /><trkpt lat="22.50321578125" lon="114.24686979638672" /><trkpt lat="22.50325878125" lon="114.24690779638672" /><trkpt lat="22.50332478125" lon="114.24697279638671" /><trkpt lat="22.50333778125" lon="114.24698679638672" /><trkpt lat="22.50334778125" lon="114.24700179638671" /><trkpt lat="22.50335378125" lon="114.24701279638671" /><trkpt lat="22.50336278125" lon="114.24703479638671" /><trkpt lat="22.50337178125" lon="114.24707079638672" /><trkpt lat="22.50336978125" lon="114.24707879638672" /><trkpt lat="22.50336578125" lon="114.24708679638672" /><trkpt lat="22.50336178125" lon="114.24709279638672" /><trkpt lat="22.50335678125" lon="114.24709879638672" /><trkpt lat="22.50330478125" lon="114.24715379638671" /><trkpt lat="22.50329878125" lon="114.24716079638672" /><trkpt lat="22.50329378125" lon="114.24716879638672" /><trkpt lat="22.50328578125" lon="114.24718579638672" /><trkpt lat="22.50327778125" lon="114.24720279638672" /><trkpt lat="22.50327378125" lon="114.24721379638672" /><trkpt lat="22.50324678125" lon="114.24726779638672" /><trkpt lat="22.50316578125" lon="114.24741179638671" /><trkpt lat="22.50314578125" lon="114.24746879638671" /><trkpt lat="22.50310478125" lon="114.24759679638672" /><trkpt lat="22.50302578125" lon="114.24774279638672" /><trkpt lat="22.50299378125" lon="114.24778879638671" /><trkpt lat="22.50298178125" lon="114.24780479638672" /><trkpt lat="22.50296878125" lon="114.24781979638672" /><trkpt lat="22.50296378125" lon="114.24783079638672" /><trkpt lat="22.50295878125" lon="114.24784579638671" /><trkpt lat="22.50295678125" lon="114.24786279638671" /><trkpt lat="22.50295778125" lon="114.24788079638672" /><trkpt lat="22.50295978125" lon="114.24789679638671" /><trkpt lat="22.50296278125" lon="114.24790779638671" /><trkpt lat="22.50296878125" lon="114.24791879638671" /><trkpt lat="22.50297078125" lon="114.24792279638672" /><trkpt lat="22.50297478125" lon="114.24792579638672" /><trkpt lat="22.50297878125" lon="114.24792779638672" /><trkpt lat="22.50298278125" lon="114.24792879638672" /><trkpt lat="22.50299078125" lon="114.24792879638672" /><trkpt lat="22.50300278125" lon="114.24792679638672" /><trkpt lat="22.50302478125" lon="114.24792379638671" /><trkpt lat="22.50303578125" lon="114.24792579638672" /><trkpt lat="22.50304778125" lon="114.24793179638672" /><trkpt lat="22.50314178125" lon="114.24799579638672" /><trkpt lat="22.50323978125" lon="114.24805679638672" /><trkpt lat="22.50325378125" lon="114.24806879638672" /><trkpt lat="22.50337478125" lon="114.24817879638672" /><trkpt lat="22.50343578125" lon="114.24822479638672" /><trkpt lat="22.50345078125" lon="114.24823079638672" /><trkpt lat="22.50348378125" lon="114.24825279638672" /><trkpt lat="22.50349878125" lon="114.24826479638672" /><trkpt lat="22.50351678125" lon="114.24827879638671" /><trkpt lat="22.50354878125" lon="114.24833779638672" /><trkpt lat="22.50356878125" lon="114.24838679638673" /><trkpt lat="22.50358978125" lon="114.24844779638671" /><trkpt lat="22.50359578125" lon="114.24847179638672" /><trkpt lat="22.50360578125" lon="114.24849279638671" /><trkpt lat="22.50362978125" lon="114.24852479638672" /><trkpt lat="22.50363978125" lon="114.24854479638672" /><trkpt lat="22.50368878125" lon="114.24868279638672" /><trkpt lat="22.50369878125" lon="114.24871579638672" /><trkpt lat="22.50370078125" lon="114.24872979638671" /><trkpt lat="22.50370078125" lon="114.24874379638672" /><trkpt lat="22.50369978125" lon="114.24876079638672" /><trkpt lat="22.50369778125" lon="114.24877579638672" /><trkpt lat="22.50367878125" lon="114.24883479638672" /><trkpt lat="22.50365878125" lon="114.24889279638671" /><trkpt lat="22.50365478125" lon="114.24890279638672" /><trkpt lat="22.50364778125" lon="114.24891379638672" /><trkpt lat="22.50363078125" lon="114.24893179638671" /><trkpt lat="22.50362578125" lon="114.24893979638672" /><trkpt lat="22.50361978125" lon="114.24895079638672" /><trkpt lat="22.50359978125" lon="114.24899479638673" /><trkpt lat="22.50358378125" lon="114.24901979638672" /><trkpt lat="22.50354578125" lon="114.24906279638672" /><trkpt lat="22.50351478125" lon="114.24910079638671" /><trkpt lat="22.50349378125" lon="114.24913379638672" /><trkpt lat="22.50348478125" lon="114.24914279638672" /><trkpt lat="22.50347678125" lon="114.24914979638672" /><trkpt lat="22.50346078125" lon="114.24915679638671" /><trkpt lat="22.50342878125" lon="114.24916579638672" /><trkpt lat="22.50341978125" lon="114.24916979638672" /><trkpt lat="22.50339278125" lon="114.24919179638673" /><trkpt lat="22.50338078125" lon="114.24920479638672" /><trkpt lat="22.50337478125" lon="114.24921379638671" /><trkpt lat="22.50336678125" lon="114.24922679638672" /><trkpt lat="22.50335978125" lon="114.24924379638672" /><trkpt lat="22.50335178125" lon="114.24926279638672" /><trkpt lat="22.50334578125" lon="114.24928279638672" /><trkpt lat="22.50334178125" lon="114.24929579638672" /><trkpt lat="22.50333578125" lon="114.24932879638672" /><trkpt lat="22.50333378125" lon="114.24934879638671" /><trkpt lat="22.50333278125" lon="114.24936779638672" /><trkpt lat="22.50333378125" lon="114.24938979638672" /><trkpt lat="22.50333778125" lon="114.24941179638672" /><trkpt lat="22.50334278125" lon="114.24942979638672" /><trkpt lat="22.50334678125" lon="114.24944479638671" /><trkpt lat="22.50335578125" lon="114.24946679638671" /><trkpt lat="22.50336778125" lon="114.24949379638672" /><trkpt lat="22.50337878125" lon="114.24950779638672" /><trkpt lat="22.50339078125" lon="114.24951979638672" /><trkpt lat="22.50340878125" lon="114.24953179638672" /><trkpt lat="22.50342778125" lon="114.24954279638672" /><trkpt lat="22.50346778125" lon="114.24955979638672" /><trkpt lat="22.50349478125" lon="114.24956979638672" /><trkpt lat="22.50351078125" lon="114.24957279638672" /><trkpt lat="22.50361278125" lon="114.24957279638672" /><trkpt lat="22.50368378125" lon="114.24956379638672" /><trkpt lat="22.50370978125" lon="114.24960679638671" /><trkpt lat="22.50371978125" lon="114.24960279638672" /><trkpt lat="22.50373578125" lon="114.24959879638672" /><trkpt lat="22.50375278125" lon="114.24959479638672" /><trkpt lat="22.50376078125" lon="114.24959579638671" /><trkpt lat="22.50376778125" lon="114.24959779638672" /><trkpt lat="22.50377378125" lon="114.24960179638671" /><trkpt lat="22.50379378125" lon="114.24961879638671" /><trkpt lat="22.50381178125" lon="114.24963679638672" /><trkpt lat="22.50381778125" lon="114.24964679638671" /><trkpt lat="22.50382278125" lon="114.24965779638671" /><trkpt lat="22.50382678125" lon="114.24966879638671" /><trkpt lat="22.50382778125" lon="114.24967779638672" /><trkpt lat="22.50382778125" lon="114.24968579638671" /><trkpt lat="22.50382378125" lon="114.24973079638671" /><trkpt lat="22.50383478125" lon="114.24982879638672" /><trkpt lat="22.50383578125" lon="114.24985179638672" /><trkpt lat="22.50383578125" lon="114.24987979638672" /><trkpt lat="22.50383178125" lon="114.24991579638672" /><trkpt lat="22.50382978125" lon="114.24993579638672" /><trkpt lat="22.50381578125" lon="114.25000879638672" /><trkpt lat="22.50381178125" lon="114.25004179638672" /><trkpt lat="22.50381678125" lon="114.25008879638672" /><trkpt lat="22.50385578125" lon="114.25017979638672" /><trkpt lat="22.50389678125" lon="114.25023779638671" /><trkpt lat="22.50390278125" lon="114.25026779638672" /><trkpt lat="22.50391378125" lon="114.25028779638671" /><trkpt lat="22.50405878125" lon="114.25039279638672" /><trkpt lat="22.50408378125" lon="114.25042279638672" /><trkpt lat="22.50408978125" lon="114.25047079638672" /><trkpt lat="22.50408578125" lon="114.25054179638671" /><trkpt lat="22.50407978125" lon="114.25062479638672" /><trkpt lat="22.50408378125" lon="114.25070079638672" /><trkpt lat="22.50409978125" lon="114.25082879638671" /><trkpt lat="22.50412478125" lon="114.25092879638672" /><trkpt lat="22.50414978125" lon="114.25100579638672" /><trkpt lat="22.50424078125" lon="114.25116479638672" /><trkpt lat="22.50426978125" lon="114.25126979638672" /><trkpt lat="22.50426878125" lon="114.25140979638672" /><trkpt lat="22.50426778125" lon="114.25149079638672" /><trkpt lat="22.50423578125" lon="114.25152179638673" /><trkpt lat="22.50422378125" lon="114.25156379638672" /><trkpt lat="22.50419778125" lon="114.25164479638671" /><trkpt lat="22.50418978125" lon="114.25171879638673" /><trkpt lat="22.50419378125" lon="114.25181579638672" /><trkpt lat="22.50419578125" lon="114.25186779638672" /><trkpt lat="22.50420278125" lon="114.25193679638672" /><trkpt lat="22.50422578125" lon="114.25203879638671" /><trkpt lat="22.50426278125" lon="114.25212679638672" /><trkpt lat="22.50432878125" lon="114.25226279638672" /><trkpt lat="22.50437078125" lon="114.25233679638671" /><trkpt lat="22.50440778125" lon="114.25240179638672" /><trkpt lat="22.50444878125" lon="114.25245479638671" /><trkpt lat="22.50451578125" lon="114.25253279638672" /><trkpt lat="22.50456878125" lon="114.25263079638673" /><trkpt lat="22.50460378125" lon="114.25275379638671" /><trkpt lat="22.50461678125" lon="114.25285779638672" /><trkpt lat="22.50460678125" lon="114.25301579638672" /><trkpt lat="22.50461078125" lon="114.25312379638672" /><trkpt lat="22.50460378125" lon="114.25323879638673" /><trkpt lat="22.50459878125" lon="114.25339179638672" /><trkpt lat="22.50456578125" lon="114.25350079638672" /><trkpt lat="22.50454278125" lon="114.25359279638671" /><trkpt lat="22.50451178125" lon="114.25370179638672" /><trkpt lat="22.50449578125" lon="114.25379179638672" /><trkpt lat="22.50448678125" lon="114.25385079638671" /><trkpt lat="22.50446878125" lon="114.25397079638672" /><trkpt lat="22.50444578125" lon="114.25410679638672" /><trkpt lat="22.50442978125" lon="114.25422079638672" /><trkpt lat="22.50440678125" lon="114.25432479638671" /><trkpt lat="22.50437578125" lon="114.25440779638672" /><trkpt lat="22.50433978125" lon="114.25445979638671" /><trkpt lat="22.50430678125" lon="114.25452279638672" /><trkpt lat="22.50425178125" lon="114.25464079638672" /><trkpt lat="22.50419378125" lon="114.25470479638672" /><trkpt lat="22.50418878125" lon="114.25471379638672" /><trkpt lat="22.50418378125" lon="114.25472479638672" /><trkpt lat="22.50417778125" lon="114.25473979638672" /><trkpt lat="22.50417378125" lon="114.25475479638672" /><trkpt lat="22.50416878125" lon="114.25477779638672" /><trkpt lat="22.50416678125" lon="114.25478479638672" /><trkpt lat="22.50416478125" lon="114.25479279638672" /><trkpt lat="22.50415978125" lon="114.25480179638672" /><trkpt lat="22.50414978125" lon="114.25482079638672" /><trkpt lat="22.50413878125" lon="114.25483579638671" /><trkpt lat="22.50407578125" lon="114.25492179638672" /><trkpt lat="22.50405278125" lon="114.25495079638672" /><trkpt lat="22.50402778125" lon="114.25498079638672" /><trkpt lat="22.50401578125" lon="114.25499579638672" /><trkpt lat="22.50400578125" lon="114.25501279638672" /><trkpt lat="22.50400078125" lon="114.25502579638672" /><trkpt lat="22.50399478125" lon="114.25504879638672" /><trkpt lat="22.50398878125" lon="114.25507679638672" /><trkpt lat="22.50397578125" lon="114.25516179638672" /><trkpt lat="22.50396878125" lon="114.25519779638672" /><trkpt lat="22.50396478125" lon="114.25521679638672" /><trkpt lat="22.50395778125" lon="114.25523879638672" /><trkpt lat="22.50395078125" lon="114.25525779638672" /><trkpt lat="22.50393578125" lon="114.25529079638672" /><trkpt lat="22.50392778125" lon="114.25530479638672" /><trkpt lat="22.50391178125" lon="114.25532479638672" /><trkpt lat="22.50390578125" lon="114.25533379638672" /><trkpt lat="22.50389978125" lon="114.25534379638673" /><trkpt lat="22.50389478125" lon="114.25535379638671" /><trkpt lat="22.50389078125" lon="114.25535979638671" /><trkpt lat="22.50388778125" lon="114.25536479638671" /><trkpt lat="22.50387778125" lon="114.25537479638672" /><trkpt lat="22.50387478125" lon="114.25538079638672" /><trkpt lat="22.50387278125" lon="114.25538679638672" /><trkpt lat="22.50387078125" lon="114.25539279638672" /><trkpt lat="22.50386878125" lon="114.25540279638672" /><trkpt lat="22.50386778125" lon="114.25540879638672" /><trkpt lat="22.50386578125" lon="114.25541479638672" /><trkpt lat="22.50386278125" lon="114.25541979638672" /><trkpt lat="22.50385578125" lon="114.25543179638672" /><trkpt lat="22.50385078125" lon="114.25544179638672" /><trkpt lat="22.50384178125" lon="114.25546779638672" /><trkpt lat="22.50383878125" lon="114.25547579638672" /><trkpt lat="22.50383478125" lon="114.25548179638672" /><trkpt lat="22.50382378125" lon="114.25549979638672" /><trkpt lat="22.50382078125" lon="114.25550479638672" /><trkpt lat="22.50381678125" lon="114.25550879638672" /><trkpt lat="22.50380678125" lon="114.25551579638672" /><trkpt lat="22.50380178125" lon="114.25551879638672" /><trkpt lat="22.50379478125" lon="114.25552179638672" /><trkpt lat="22.50378478125" lon="114.25552379638673" /><trkpt lat="22.50378078125" lon="114.25552579638672" /><trkpt lat="22.50376878125" lon="114.25553079638672" /><trkpt lat="22.50376378125" lon="114.25553379638671" /><trkpt lat="22.50375878125" lon="114.25553779638672" /><trkpt lat="22.50375378125" lon="114.25554279638672" /><trkpt lat="22.50374978125" lon="114.25554579638671" /><trkpt lat="22.50374478125" lon="114.25554879638672" /><trkpt lat="22.50373778125" lon="114.25555179638671" /><trkpt lat="22.50371878125" lon="114.25555279638672" /><trkpt lat="22.50370978125" lon="114.25555479638672" /><trkpt lat="22.50369978125" lon="114.25555779638673" /><trkpt lat="22.50368678125" lon="114.25556379638672" /><trkpt lat="22.50367778125" lon="114.25556679638672" /><trkpt lat="22.50365978125" lon="114.25557079638672" /><trkpt lat="22.50364778125" lon="114.25557279638672" /><trkpt lat="22.50363678125" lon="114.25557279638672" /><trkpt lat="22.50362978125" lon="114.25557479638672" /><trkpt lat="22.50362478125" lon="114.25557879638671" /><trkpt lat="22.50361778125" lon="114.25558679638672" /><trkpt lat="22.50361178125" lon="114.25559079638671" /><trkpt lat="22.50360778125" lon="114.25559479638672" /><trkpt lat="22.50359278125" lon="114.25560279638673" /><trkpt lat="22.50358678125" lon="114.25560679638672" /><trkpt lat="22.50357978125" lon="114.25561379638673" /><trkpt lat="22.50357178125" lon="114.25562379638671" /><trkpt lat="22.50354478125" lon="114.25566579638672" /><trkpt lat="22.50350478125" lon="114.25573179638671" /><trkpt lat="22.50348378125" lon="114.25576879638672" /><trkpt lat="22.50347678125" lon="114.25578079638672" /><trkpt lat="22.50345978125" lon="114.25580179638672" /><trkpt lat="22.50345278125" lon="114.25580879638672" /><trkpt lat="22.50344278125" lon="114.25581679638672" /><trkpt lat="22.50342278125" lon="114.25582979638672" /><trkpt lat="22.50341578125" lon="114.25583479638672" /><trkpt lat="22.50340978125" lon="114.25583979638672" /><trkpt lat="22.50340178125" lon="114.25585079638672" /><trkpt lat="22.50339478125" lon="114.25586379638672" /><trkpt lat="22.50338778125" lon="114.25588179638672" /><trkpt lat="22.50337578125" lon="114.25591479638672" /><trkpt lat="22.50336678125" lon="114.25595379638672" /><trkpt lat="22.50335378125" lon="114.25602079638672" /><trkpt lat="22.50334778125" lon="114.25604179638673" /><trkpt lat="22.50333178125" lon="114.25608779638672" /><trkpt lat="22.50332778125" lon="114.25609679638671" /><trkpt lat="22.50331978125" lon="114.25610779638671" /><trkpt lat="22.50331178125" lon="114.25611679638672" /><trkpt lat="22.50330078125" lon="114.25612879638672" /><trkpt lat="22.50329478125" lon="114.25613479638672" /><trkpt lat="22.50329178125" lon="114.25614179638671" /><trkpt lat="22.50328978125" lon="114.25614779638671" /><trkpt lat="22.50328778125" lon="114.25615479638672" /><trkpt lat="22.50328178125" lon="114.25618579638672" /><trkpt lat="22.50327878125" lon="114.25619679638672" /><trkpt lat="22.50327478125" lon="114.25620879638672" /><trkpt lat="22.50326878125" lon="114.25621879638672" /><trkpt lat="22.50326278125" lon="114.25622879638672" /><trkpt lat="22.50325378125" lon="114.25624179638672" /><trkpt lat="22.50324078125" lon="114.25625479638671" /><trkpt lat="22.50322978125" lon="114.25626379638672" /><trkpt lat="22.50319678125" lon="114.25628679638672" /><trkpt lat="22.50319378125" lon="114.25628979638672" /><trkpt lat="22.50319178125" lon="114.25629279638672" /><trkpt lat="22.50318978125" lon="114.25629579638672" /><trkpt lat="22.50318678125" lon="114.25630679638672" /><trkpt lat="22.50318478125" lon="114.25631679638671" /><trkpt lat="22.50318378125" lon="114.25633679638672" /><trkpt lat="22.50318278125" lon="114.25634779638672" /><trkpt lat="22.50317878125" lon="114.25636379638672" /><trkpt lat="22.50317778125" lon="114.25637879638671" /><trkpt lat="22.50317778125" lon="114.25639079638673" /><trkpt lat="22.50318078125" lon="114.25640379638672" /><trkpt lat="22.50318878125" lon="114.25643479638671" /><trkpt lat="22.50319178125" lon="114.25644879638672" /><trkpt lat="22.50319278125" lon="114.25646779638672" /><trkpt lat="22.50319278125" lon="114.25648679638672" /><trkpt lat="22.50318978125" lon="114.25650479638672" /><trkpt lat="22.50318378125" lon="114.25652379638672" /><trkpt lat="22.50318078125" lon="114.25653279638672" /><trkpt lat="22.50317478125" lon="114.25654179638671" /><trkpt lat="22.50316878125" lon="114.25654779638671" /><trkpt lat="22.50315778125" lon="114.25655779638672" /><trkpt lat="22.50314578125" lon="114.25656779638672" /><trkpt lat="22.50310878125" lon="114.25659379638672" /><trkpt lat="22.50310378125" lon="114.25660079638672" /><trkpt lat="22.50310178125" lon="114.25660979638671" /><trkpt lat="22.50310078125" lon="114.25661779638672" /><trkpt lat="22.50310278125" lon="114.25662579638671" /><trkpt lat="22.50310478125" lon="114.25663279638673" /><trkpt lat="22.50310978125" lon="114.25664079638672" /><trkpt lat="22.50311878125" lon="114.25665379638671" /><trkpt lat="22.50312878125" lon="114.25666479638672" /><trkpt lat="22.50313878125" lon="114.25667479638672" /><trkpt lat="22.50315578125" lon="114.25669079638672" /><trkpt lat="22.50316978125" lon="114.25670479638671" /><trkpt lat="22.50319778125" lon="114.25673579638672" /><trkpt lat="22.50320378125" lon="114.25674579638672" /><trkpt lat="22.50322078125" lon="114.25677779638671" /><trkpt lat="22.50322678125" lon="114.25679179638672" /><trkpt lat="22.50324078125" lon="114.25682879638671" /><trkpt lat="22.50327478125" lon="114.25695279638671" /><trkpt lat="22.50329978125" lon="114.25702979638672" /><trkpt lat="22.50337678125" lon="114.25732979638671" /><trkpt lat="22.50339978125" lon="114.25743879638672" /><trkpt lat="22.50340078125" lon="114.25766479638672" /><trkpt lat="22.50333278125" lon="114.25783279638672" /><trkpt lat="22.50321178125" lon="114.25798079638672" /><trkpt lat="22.50311378125" lon="114.25812379638671" /><trkpt lat="22.50305278125" lon="114.25821579638672" /><trkpt lat="22.50290378125" lon="114.25829179638671" /><trkpt lat="22.50284278125" lon="114.25833479638672" /><trkpt lat="22.50281478125" lon="114.25838979638672" /><trkpt lat="22.50277078125" lon="114.25847779638671" /><trkpt lat="22.50267078125" lon="114.25857179638672" /><trkpt lat="22.50260378125" lon="114.25869579638672" /><trkpt lat="22.50258378125" lon="114.25876779638672" /><trkpt lat="22.50265778125" lon="114.25889479638671" /><trkpt lat="22.50268178125" lon="114.25897779638672" /><trkpt lat="22.50268478125" lon="114.25906179638672" /><trkpt lat="22.50258678125" lon="114.25919779638672" /><trkpt lat="22.50248378125" lon="114.25930679638672" /><trkpt lat="22.50245378125" lon="114.25935779638672" /><trkpt lat="22.50239578125" lon="114.25945679638671" /><trkpt lat="22.50232878125" lon="114.25958179638671" /><trkpt lat="22.50228478125" lon="114.25971279638672" /><trkpt lat="22.50226978125" lon="114.25978479638673" /><trkpt lat="22.50227378125" lon="114.25984279638672" /><trkpt lat="22.50229678125" lon="114.25990079638672" /><trkpt lat="22.50233578125" lon="114.25994279638672" /><trkpt lat="22.50235878125" lon="114.25996779638672" /><trkpt lat="22.50240878125" lon="114.26002079638671" /><trkpt lat="22.50246678125" lon="114.26010179638672" /><trkpt lat="22.50248678125" lon="114.26015179638672" /><trkpt lat="22.50248978125" lon="114.26019479638671" /><trkpt lat="22.50248578125" lon="114.26023379638671" /><trkpt lat="22.50243878125" lon="114.26030779638671" /><trkpt lat="22.50241178125" lon="114.26033279638672" /><trkpt lat="22.50234778125" lon="114.26035979638672" /><trkpt lat="22.50212178125" lon="114.26043279638672" /><trkpt lat="22.50209178125" lon="114.26044779638671" /><trkpt lat="22.50206278125" lon="114.26046779638672" /><trkpt lat="22.50204278125" lon="114.26049179638672" /><trkpt lat="22.50203178125" lon="114.26051979638672" /><trkpt lat="22.50203178125" lon="114.26055579638673" /><trkpt lat="22.50204878125" lon="114.26059879638672" /><trkpt lat="22.50208978125" lon="114.26067179638672" /><trkpt lat="22.50213978125" lon="114.26074679638671" /><trkpt lat="22.50218678125" lon="114.26083279638672" /><trkpt lat="22.50222178125" lon="114.26086979638671" /><trkpt lat="22.50233378125" lon="114.26097079638672" /><trkpt lat="22.50238778125" lon="114.26101079638671" /><trkpt lat="22.50254278125" lon="114.26110579638672" /><trkpt lat="22.50256778125" lon="114.26112579638672" /><trkpt lat="22.50259278125" lon="114.26116079638672" /><trkpt lat="22.50261578125" lon="114.26121179638672" /><trkpt lat="22.50262778125" lon="114.26124479638672" /><trkpt lat="22.50263678125" lon="114.26129579638672" /><trkpt lat="22.50263978125" lon="114.26137279638672" /><trkpt lat="22.50262678125" lon="114.26154279638672" /><trkpt lat="22.50264978125" lon="114.26173079638671" /><trkpt lat="22.50264878125" lon="114.26191079638672" /><trkpt lat="22.50274278125" lon="114.26222579638672" /><trkpt lat="22.50282778125" lon="114.26242379638671" /><trkpt lat="22.50286578125" lon="114.26257079638673" /><trkpt lat="22.502850807779865" lon="114.26269590007234" /><trkpt lat="22.50281998423185" lon="114.26283045637035" /><trkpt lat="22.502774094997136" lon="114.26291919239077" /><trkpt lat="22.502774083533396" lon="114.2629227844049" /><trkpt lat="22.502770914563342" lon="114.2629263718539" /><trkpt lat="22.5027710733591" lon="114.26293011373133" /><trkpt lat="22.502766110060435" lon="114.26293055163319" /><trkpt lat="22.50276798938394" lon="114.26293570396149" /><trkpt lat="22.502764742633175" lon="114.26293745843526" /><trkpt lat="22.50276490090569" lon="114.2629411881959" /><trkpt lat="22.502759938344056" lon="114.26294164334615" /><trkpt lat="22.502761816755992" lon="114.26294677751645" /><trkpt lat="22.502758569648293" lon="114.26294852380369" /><trkpt lat="22.50275866176254" lon="114.26295069426283" /><trkpt lat="22.502755423660872" lon="114.2629526527304" /><trkpt lat="22.502755575900295" lon="114.26295624007639" /><trkpt lat="22.50275226168283" lon="114.26295640485387" /><trkpt lat="22.5027293448571" lon="114.26298044777586" /><trkpt lat="22.50277978125" lon="114.26306179638672" /><trkpt lat="22.50284478125" lon="114.26311879638672" /><trkpt lat="22.50295678125" lon="114.26316379638672" /><trkpt lat="22.50298178125" lon="114.26321279638672" /><trkpt lat="22.50300678125" lon="114.26326179638671" /><trkpt lat="22.50307678125" lon="114.26337579638673" /><trkpt lat="22.50312378125" lon="114.26353279638671" /><trkpt lat="22.50309678125" lon="114.26368279638672" /><trkpt lat="22.50304278125" lon="114.26378179638672" /><trkpt lat="22.50302578125" lon="114.26383679638671" /><trkpt lat="22.50300578125" lon="114.26390079638672" /><trkpt lat="22.50282978125" lon="114.26387479638672" /><trkpt lat="22.50271478125" lon="114.26375379638672" /><trkpt lat="22.50256978125" lon="114.26370979638672" /><trkpt lat="22.50252078125" lon="114.26372479638673" /><trkpt lat="22.50244778125" lon="114.26384379638672" /><trkpt lat="22.50238678125" lon="114.26392079638671" /><trkpt lat="22.50201978125" lon="114.26418479638671" /><trkpt lat="22.50193178125" lon="114.26422979638672" /><trkpt lat="22.50182778125" lon="114.26431879638672" /><trkpt lat="22.50174678125" lon="114.26444479638671" /><trkpt lat="22.50161778125" lon="114.26457179638672" /><trkpt lat="22.50158078125" lon="114.26465779638671" /><trkpt lat="22.50152978125" lon="114.26472779638672" /><trkpt lat="22.50141078125" lon="114.26498579638672" /><trkpt lat="22.50136778125" lon="114.26512279638672" /><trkpt lat="22.50129678125" lon="114.26522179638673" /><trkpt lat="22.501234781249998" lon="114.26537979638672" /><trkpt lat="22.50117978125" lon="114.26547479638671" /><trkpt lat="22.50113778125" lon="114.26554879638672" /><trkpt lat="22.50109778125" lon="114.26557979638672" /><trkpt lat="22.50094478125" lon="114.26559979638672" /><trkpt lat="22.50080278125" lon="114.26559279638671" /><trkpt lat="22.50062678125" lon="114.26556079638672" /><trkpt lat="22.50057578125" lon="114.26558179638671" /><trkpt lat="22.50050378125" lon="114.26565279638672" /><trkpt lat="22.50045578125" lon="114.26568479638672" /><trkpt lat="22.50040678125" lon="114.26570379638672" /><trkpt lat="22.50032778125" lon="114.26571079638671" /><trkpt lat="22.50026378125" lon="114.26574879638672" /><trkpt lat="22.50023378125" lon="114.26579179638672" /><trkpt lat="22.50013278125" lon="114.26587979638671" /><trkpt lat="22.50005978125" lon="114.26594479638672" /><trkpt lat="22.49996178125" lon="114.26598579638672" /><trkpt lat="22.49988078125" lon="114.26602079638671" /><trkpt lat="22.49982778125" lon="114.26603679638671" /><trkpt lat="22.49974378125" lon="114.26614579638672" /><trkpt lat="22.49929878125" lon="114.26632479638671" /><trkpt lat="22.49922378125" lon="114.26635079638672" /><trkpt lat="22.49919578125" lon="114.26636079638672" /><trkpt lat="22.49913678125" lon="114.26643679638671" /><trkpt lat="22.49909078125" lon="114.26646479638671" /><trkpt lat="22.49904878125" lon="114.26648579638672" /><trkpt lat="22.49899378125" lon="114.26652879638672" /><trkpt lat="22.49895178125" lon="114.26656979638672" /><trkpt lat="22.49884278125" lon="114.26659879638672" /><trkpt lat="22.49874778125" lon="114.26661979638672" /><trkpt lat="22.49863778125" lon="114.26667379638671" /><trkpt lat="22.49851078125" lon="114.26672079638672" /><trkpt lat="22.49840978125" lon="114.26673179638672" /><trkpt lat="22.49835378125" lon="114.26676679638672" /><trkpt lat="22.49827578125" lon="114.26676779638672" /><trkpt lat="22.49816778125" lon="114.26682879638672" /><trkpt lat="22.49812578125" lon="114.26689679638672" /><trkpt lat="22.49801578125" lon="114.26696979638672" /><trkpt lat="22.49793078125" lon="114.26703179638672" /><trkpt lat="22.49785978125" lon="114.26710779638672" /><trkpt lat="22.49782478125" lon="114.26719079638671" /><trkpt lat="22.49773678125" lon="114.26731579638673" /><trkpt lat="22.49767078125" lon="114.26737179638671" /><trkpt lat="22.49761178125" lon="114.26745779638672" /><trkpt lat="22.49757178125" lon="114.26757979638671" /><trkpt lat="22.49750478125" lon="114.26774279638671" /><trkpt lat="22.49741178125" lon="114.26782879638672" /><trkpt lat="22.49738178125" lon="114.26792279638671" /><trkpt lat="22.49730778125" lon="114.26803979638672" /><trkpt lat="22.49724178125" lon="114.26817379638672" /><trkpt lat="22.49721278125" lon="114.26830579638671" /><trkpt lat="22.49719478125" lon="114.26838079638672" /><trkpt lat="22.49707578125" lon="114.26855979638673" /><trkpt lat="22.49696678125" lon="114.26867979638672" /><trkpt lat="22.49691078125" lon="114.26877879638671" /><trkpt lat="22.49676478125" lon="114.26887179638672" /><trkpt lat="22.49668378125" lon="114.26887779638672" /><trkpt lat="22.49662378125" lon="114.26889179638673" /><trkpt lat="22.49653878125" lon="114.26901779638672" /><trkpt lat="22.49647478125" lon="114.26911979638672" /><trkpt lat="22.49646278125" lon="114.26929979638672" /><trkpt lat="22.49637778125" lon="114.26944779638671" /><trkpt lat="22.49630078125" lon="114.26959679638672" /><trkpt lat="22.49625578125" lon="114.26974179638673" /><trkpt lat="22.49612478125" lon="114.27002979638672" /><trkpt lat="22.49610078125" lon="114.27012879638671" /><trkpt lat="22.49606478125" lon="114.27025979638672" /><trkpt lat="22.49604878125" lon="114.27037979638672" /><trkpt lat="22.49611878125" lon="114.27097579638672" /><trkpt lat="22.49607978125" lon="114.27137079638672" /><trkpt lat="22.49617578125" lon="114.27236279638672" /><trkpt lat="22.49627278125" lon="114.27262879638671" /><trkpt lat="22.49632278125" lon="114.27304579638673" /><trkpt lat="22.49636478125" lon="114.27345179638672" /><trkpt lat="22.49638578125" lon="114.27394679638672" /><trkpt lat="22.49645278125" lon="114.27411879638672" /><trkpt lat="22.49653578125" lon="114.27464579638672" /><trkpt lat="22.49656778125" lon="114.27523379638671" /><trkpt lat="22.49673378125" lon="114.27574879638672" /><trkpt lat="22.49678978125" lon="114.27614779638672" /><trkpt lat="22.49694478125" lon="114.27652079638672" /><trkpt lat="22.49718578125" lon="114.27728879638671" /><trkpt lat="22.49748878125" lon="114.27810479638671" /><trkpt lat="22.49757478125" lon="114.27846379638672" /><trkpt lat="22.49775078125" lon="114.27894679638672" /><trkpt lat="22.49785878125" lon="114.27912279638672" /><trkpt lat="22.49791178125" lon="114.27922979638672" /><trkpt lat="22.49795478125" lon="114.27961279638671" /><trkpt lat="22.49806078125" lon="114.27975879638672" /><trkpt lat="22.49812578125" lon="114.27989779638672" /><trkpt lat="22.49819278125" lon="114.27995979638672" /><trkpt lat="22.49826778125" lon="114.28011579638672" /><trkpt lat="22.49831378125" lon="114.28022579638672" /><trkpt lat="22.49833778125" lon="114.28036479638672" /><trkpt lat="22.49830478125" lon="114.28047079638672" /><trkpt lat="22.49821578125" lon="114.28065979638671" /><trkpt lat="22.49814778125" lon="114.28083579638673" /><trkpt lat="22.49811478125" lon="114.28088979638672" /><trkpt lat="22.49803878125" lon="114.28095879638671" /><trkpt lat="22.49798478125" lon="114.28101279638672" /><trkpt lat="22.49793778125" lon="114.28108179638672" /><trkpt lat="22.49779578125" lon="114.28118079638672" /><trkpt lat="22.49773578125" lon="114.28125679638671" /><trkpt lat="22.49762678125" lon="114.28144979638672" /><trkpt lat="22.49751878125" lon="114.28171879638671" /><trkpt lat="22.49740878125" lon="114.28184179638671" /><trkpt lat="22.49724378125" lon="114.28214079638671" /><trkpt lat="22.49717278125" lon="114.28233379638672" /><trkpt lat="22.49711578125" lon="114.28244479638671" /><trkpt lat="22.49707478125" lon="114.28260279638671" /><trkpt lat="22.49701178125" lon="114.28280679638672" /><trkpt lat="22.49697078125" lon="114.28288079638672" /><trkpt lat="22.49690378125" lon="114.28303079638673" /><trkpt lat="22.49691278125" lon="114.28310779638672" /><trkpt lat="22.49688178125" lon="114.28337079638672" /><trkpt lat="22.49687878125" lon="114.28349679638671" /><trkpt lat="22.49690278125" lon="114.28364579638672" /><trkpt lat="22.49694078125" lon="114.28377479638672" /><trkpt lat="22.49693678125" lon="114.28397079638673" /><trkpt lat="22.49696678125" lon="114.28409279638672" /><trkpt lat="22.49695278125" lon="114.28445679638672" /><trkpt lat="22.49693978125" lon="114.28458979638671" /><trkpt lat="22.49691178125" lon="114.28476679638672" /><trkpt lat="22.49683878125" lon="114.28506779638671" /><trkpt lat="22.49683678125" lon="114.28517179638672" /><trkpt lat="22.49677978125" lon="114.28544379638672" /><trkpt lat="22.49678778125" lon="114.28559379638672" /><trkpt lat="22.49675178125" lon="114.28570479638672" /><trkpt lat="22.49681378125" lon="114.28582279638673" /><trkpt lat="22.49678378125" lon="114.28589879638672" /><trkpt lat="22.49670578125" lon="114.28592979638672" /><trkpt lat="22.49662578125" lon="114.28587479638672" /><trkpt lat="22.49655078125" lon="114.28584879638672" /><trkpt lat="22.49653278125" lon="114.28591079638672" /><trkpt lat="22.49659278125" lon="114.28605179638672" /><trkpt lat="22.49655778125" lon="114.28623679638672" /><trkpt lat="22.49651678125" lon="114.28632779638671" /><trkpt lat="22.49640478125" lon="114.28646979638673" /><trkpt lat="22.49637578125" lon="114.28650079638672" /><trkpt lat="22.49632578125" lon="114.28662479638672" /><trkpt lat="22.49630378125" lon="114.28680479638672" /><trkpt lat="22.49626378125" lon="114.28699279638671" /><trkpt lat="22.49624978125" lon="114.28710879638672" /><trkpt lat="22.49621278125" lon="114.28722179638672" /><trkpt lat="22.49604678125" lon="114.28745479638673" /><trkpt lat="22.49596678125" lon="114.28760579638671" /><trkpt lat="22.49583178125" lon="114.28779379638672" /><trkpt lat="22.49574978125" lon="114.28798279638671" /><trkpt lat="22.49571678125" lon="114.28816579638672" /><trkpt lat="22.49570778125" lon="114.28824379638672" /><trkpt lat="22.49569278125" lon="114.28832379638672" /><trkpt lat="22.49555678125" lon="114.28844179638672" /><trkpt lat="22.49542778125" lon="114.28856879638671" /><trkpt lat="22.49507678125" lon="114.28880379638672" /><trkpt lat="22.49502178125" lon="114.28892479638672" /><trkpt lat="22.49496178125" lon="114.28897779638672" /><trkpt lat="22.49493378125" lon="114.28909679638672" /><trkpt lat="22.49482378125" lon="114.28915279638672" /><trkpt lat="22.49475278125" lon="114.28918779638671" /><trkpt lat="22.49467578125" lon="114.28923979638672" /><trkpt lat="22.49433378125" lon="114.28970079638673" /><trkpt lat="22.49424378125" lon="114.28994079638672" /><trkpt lat="22.49412978125" lon="114.29010179638672" /><trkpt lat="22.49401378125" lon="114.29027779638672" /><trkpt lat="22.49395978125" lon="114.29038879638672" /><trkpt lat="22.49393378125" lon="114.29049279638672" /><trkpt lat="22.49386878125" lon="114.29064179638672" /><trkpt lat="22.49379778125" lon="114.29071679638672" /><trkpt lat="22.49368078125" lon="114.29088979638672" /><trkpt lat="22.49366778125" lon="114.29101579638672" /><trkpt lat="22.49366478125" lon="114.29113879638672" /><trkpt lat="22.49371478125" lon="114.29125779638672" /><trkpt lat="22.49377178125" lon="114.29135879638672" /><trkpt lat="22.49372978125" lon="114.29148879638672" /><trkpt lat="22.49355878125" lon="114.29174579638672" /><trkpt lat="22.49342278125" lon="114.29200779638671" /><trkpt lat="22.49330078125" lon="114.29211579638672" /><trkpt lat="22.49325278125" lon="114.29224479638673" /><trkpt lat="22.49323878125" lon="114.29238979638671" /><trkpt lat="22.49315878125" lon="114.29246479638672" /><trkpt lat="22.49298778125" lon="114.29260079638672" /><trkpt lat="22.49291378125" lon="114.29269379638671" /><trkpt lat="22.49289278125" lon="114.29277979638672" /><trkpt lat="22.49283578125" lon="114.29288179638672" /><trkpt lat="22.49267678125" lon="114.29296079638672" /><trkpt lat="22.49260278125" lon="114.29296079638672" /><trkpt lat="22.49250178125" lon="114.29300479638673" /><trkpt lat="22.49241578125" lon="114.29315179638672" /><trkpt lat="22.49232778125" lon="114.29323679638672" /><trkpt lat="22.49227178125" lon="114.29336579638672" /><trkpt lat="22.49215578125" lon="114.29348779638671" /><trkpt lat="22.49206278125" lon="114.29361179638671" /><trkpt lat="22.49202578125" lon="114.29369479638672" /><trkpt lat="22.49188178125" lon="114.29366779638671" /><trkpt lat="22.49173378125" lon="114.29366279638671" /><trkpt lat="22.49159678125" lon="114.29359579638673" /><trkpt lat="22.49150478125" lon="114.29360679638671" /><trkpt lat="22.49145578125" lon="114.29363879638672" /><trkpt lat="22.49134678125" lon="114.29356679638671" /><trkpt lat="22.49122678125" lon="114.29342279638672" /><trkpt lat="22.49113578125" lon="114.29338979638672" /><trkpt lat="22.49104178125" lon="114.29332079638672" /><trkpt lat="22.49096878125" lon="114.29328379638672" /><trkpt lat="22.49089378125" lon="114.29324579638671" /><trkpt lat="22.49080778125" lon="114.29324479638672" /><trkpt lat="22.49066878125" lon="114.29320779638672" /><trkpt lat="22.49058278125" lon="114.29319779638672" /><trkpt lat="22.49041678125" lon="114.29319679638672" /><trkpt lat="22.49030078125" lon="114.29320779638672" /><trkpt lat="22.49024378125" lon="114.29319979638672" /><trkpt lat="22.49019678125" lon="114.29319579638671" /><trkpt lat="22.49012078125" lon="114.29317279638671" /><trkpt lat="22.49002778125" lon="114.29317679638672" /><trkpt lat="22.48993878125" lon="114.29316479638672" /><trkpt lat="22.48984678125" lon="114.29316479638672" /><trkpt lat="22.48976778125" lon="114.29319179638672" /><trkpt lat="22.48955878125" lon="114.29329179638673" /><trkpt lat="22.48949778125" lon="114.29329579638672" /><trkpt lat="22.48942578125" lon="114.29327979638671" /><trkpt lat="22.48919278125" lon="114.29340379638671" /><trkpt lat="22.48907778125" lon="114.29346179638672" /><trkpt lat="22.48889578125" lon="114.29367579638672" /><trkpt lat="22.48880978125" lon="114.29379379638672" /><trkpt lat="22.48859678125" lon="114.29391179638672" /><trkpt lat="22.48848378125" lon="114.29393479638672" /><trkpt lat="22.48833678125" lon="114.29404679638672" /><trkpt lat="22.48816678125" lon="114.29426379638672" /><trkpt lat="22.48802078125" lon="114.29422079638672" /><trkpt lat="22.48796878125" lon="114.29413179638672" /><trkpt lat="22.48791478125" lon="114.29407179638672" /><trkpt lat="22.48773578125" lon="114.29404579638671" /><trkpt lat="22.48766578125" lon="114.29404979638672" /><trkpt lat="22.48745278125" lon="114.29402079638672" /><trkpt lat="22.48733678125" lon="114.29397379638672" /><trkpt lat="22.48723078125" lon="114.29386679638672" /><trkpt lat="22.48715678125" lon="114.29383079638671" /><trkpt lat="22.48709678125" lon="114.29382379638672" /><trkpt lat="22.48704378125" lon="114.29381079638672" /><trkpt lat="22.48689678125" lon="114.29367079638672" /><trkpt lat="22.48682078125" lon="114.29364979638672" /><trkpt lat="22.48674278125" lon="114.29367179638672" /><trkpt lat="22.48663278125" lon="114.29380179638672" /><trkpt lat="22.48612978125" lon="114.29397979638672" /><trkpt lat="22.48617778125" lon="114.29391379638672" /><trkpt lat="22.48612378125" lon="114.29380879638671" /><trkpt lat="22.48598378125" lon="114.29377979638672" /><trkpt lat="22.48592578125" lon="114.29375379638672" /><trkpt lat="22.48572678125" lon="114.29371579638672" /><trkpt lat="22.48534978125" lon="114.29344179638672" /><trkpt lat="22.48525878125" lon="114.29339979638672" /><trkpt lat="22.48501478125" lon="114.29322179638672" /><trkpt lat="22.48492578125" lon="114.29300179638672" /><trkpt lat="22.48483178125" lon="114.29295179638672" /><trkpt lat="22.48468878125" lon="114.29284579638671" /><trkpt lat="22.48453378125" lon="114.29274679638672" /><trkpt lat="22.48434778125" lon="114.29269479638671" /><trkpt lat="22.48424578125" lon="114.29263979638672" /><trkpt lat="22.48416978125" lon="114.29260979638671" /><trkpt lat="22.48403478125" lon="114.29253579638672" /><trkpt lat="22.48383178125" lon="114.29237579638672" /><trkpt lat="22.48363578125" lon="114.29230479638672" /><trkpt lat="22.48348878125" lon="114.29228079638672" /><trkpt lat="22.48341878125" lon="114.29224279638672" /><trkpt lat="22.48331178125" lon="114.29207779638672" /><trkpt lat="22.48324878125" lon="114.29199279638672" /><trkpt lat="22.48313678125" lon="114.29193979638671" /><trkpt lat="22.48308378125" lon="114.29187479638672" /><trkpt lat="22.48302578125" lon="114.29176979638672" /><trkpt lat="22.48280778125" lon="114.29169779638671" /><trkpt lat="22.48261078125" lon="114.29155879638672" /><trkpt lat="22.48241978125" lon="114.29121779638672" /><trkpt lat="22.48234178125" lon="114.29115079638672" /><trkpt lat="22.48221578125" lon="114.29102579638672" /><trkpt lat="22.48192978125" lon="114.29094279638672" /><trkpt lat="22.48138078125" lon="114.29051779638672" /><trkpt lat="22.48124278125" lon="114.29057779638671" /><trkpt lat="22.48120378125" lon="114.29058379638671" /><trkpt lat="22.48104178125" lon="114.29050379638672" /><trkpt lat="22.48089078125" lon="114.29041979638671" /><trkpt lat="22.48073878125" lon="114.29036079638672" /><trkpt lat="22.48061878125" lon="114.29020479638672" /><trkpt lat="22.48042378125" lon="114.29006279638672" /><trkpt lat="22.48027178125" lon="114.28999479638672" /><trkpt lat="22.47993578125" lon="114.28953779638672" /><trkpt lat="22.47986078125" lon="114.28947879638672" /><trkpt lat="22.47974278125" lon="114.28931379638672" /><trkpt lat="22.47970278125" lon="114.28921779638672" /><trkpt lat="22.47942678125" lon="114.28888079638672" /><trkpt lat="22.47929478125" lon="114.28875679638672" /><trkpt lat="22.47916478125" lon="114.28862979638672" /><trkpt lat="22.47905478125" lon="114.28855279638672" /><trkpt lat="22.47882478125" lon="114.28833679638672" /><trkpt lat="22.47865778125" lon="114.28821779638672" /><trkpt lat="22.47831078125" lon="114.28789979638672" /><trkpt lat="22.47801078125" lon="114.28772379638671" /><trkpt lat="22.47794878125" lon="114.28763879638672" /><trkpt lat="22.47784678125" lon="114.28742479638672" /><trkpt lat="22.47757178125" lon="114.28714879638672" /><trkpt lat="22.47748878125" lon="114.28703379638672" /><trkpt lat="22.47739978125" lon="114.28693979638672" /><trkpt lat="22.47728978125" lon="114.28683679638672" /><trkpt lat="22.47717078125" lon="114.28665779638672" /><trkpt lat="22.47688378125" lon="114.28651579638672" /><trkpt lat="22.47676678125" lon="114.28645979638672" /><trkpt lat="22.47669678125" lon="114.28638779638672" /><trkpt lat="22.47658578125" lon="114.28621879638672" /><trkpt lat="22.47644178125" lon="114.28612979638672" /><trkpt lat="22.47631978125" lon="114.28603479638672" /><trkpt lat="22.476243781249998" lon="114.28594579638671" /><trkpt lat="22.47611178125" lon="114.28573479638672" /><trkpt lat="22.47592778125" lon="114.28566679638672" /><trkpt lat="22.47580878125" lon="114.28556879638671" /><trkpt lat="22.47571278125" lon="114.28545379638672" /><trkpt lat="22.47547578125" lon="114.28529679638672" /><trkpt lat="22.47545478125" lon="114.28521779638672" /><trkpt lat="22.47532678125" lon="114.28494179638672" /><trkpt lat="22.47531978125" lon="114.28466479638672" /><trkpt lat="22.47530378125" lon="114.28452779638671" /><trkpt lat="22.47525678125" lon="114.28442879638672" /><trkpt lat="22.47521878125" lon="114.28428279638672" /><trkpt lat="22.47517178125" lon="114.28413079638672" /><trkpt lat="22.47504878125" lon="114.28384379638672" /><trkpt lat="22.47459778125" lon="114.28338779638672" /><trkpt lat="22.47432678125" lon="114.28322279638672" /><trkpt lat="22.47414978125" lon="114.28301279638671" /><trkpt lat="22.47394778125" lon="114.28290179638672" /><trkpt lat="22.47387878125" lon="114.28283679638672" /><trkpt lat="22.47381778125" lon="114.28277979638672" /><trkpt lat="22.47378678125" lon="114.28270979638671" /><trkpt lat="22.47374878125" lon="114.28247979638672" /><trkpt lat="22.47358578125" lon="114.28235579638672" /><trkpt lat="22.47346178125" lon="114.28230679638672" /><trkpt lat="22.47337378125" lon="114.28224879638672" /><trkpt lat="22.47332778125" lon="114.28219579638672" /><trkpt lat="22.47329178125" lon="114.28204479638671" /><trkpt lat="22.47330578125" lon="114.28176679638672" /><trkpt lat="22.47326678125" lon="114.28153479638672" /><trkpt lat="22.47322478125" lon="114.28098979638672" /><trkpt lat="22.47326478125" lon="114.28074579638673" /><trkpt lat="22.47323278125" lon="114.28054479638672" /><trkpt lat="22.47312078125" lon="114.28033479638673" /><trkpt lat="22.47306878125" lon="114.28019379638671" /><trkpt lat="22.47304178125" lon="114.27990079638671" /><trkpt lat="22.47304578125" lon="114.27963679638673" /><trkpt lat="22.47300078125" lon="114.27951879638672" /><trkpt lat="22.47297378125" lon="114.27943379638671" /><trkpt lat="22.47293678125" lon="114.27924179638671" /><trkpt lat="22.47291678125" lon="114.27910579638672" /><trkpt lat="22.47284778125" lon="114.27891679638672" /><trkpt lat="22.47280378125" lon="114.27868979638671" /><trkpt lat="22.47275678125" lon="114.27853079638672" /><trkpt lat="22.47274578125" lon="114.27832679638672" /><trkpt lat="22.47270278125" lon="114.27812879638672" /><trkpt lat="22.47272078125" lon="114.27788879638672" /><trkpt lat="22.47278678125" lon="114.27776879638672" /><trkpt lat="22.47291978125" lon="114.27760179638672" /><trkpt lat="22.47299578125" lon="114.27739379638672" /><trkpt lat="22.47305978125" lon="114.27717579638671" /><trkpt lat="22.47311978125" lon="114.27708079638671" /><trkpt lat="22.47325178125" lon="114.27691379638672" /><trkpt lat="22.47326478125" lon="114.27671479638671" /><trkpt lat="22.47320578125" lon="114.27656479638672" /><trkpt lat="22.47307178125" lon="114.27626779638672" /><trkpt lat="22.47301278125" lon="114.27615379638672" /><trkpt lat="22.47293778125" lon="114.27599579638672" /><trkpt lat="22.47294778125" lon="114.27584979638672" /><trkpt lat="22.47308778125" lon="114.27569779638672" /><trkpt lat="22.47312578125" lon="114.27559179638672" /><trkpt lat="22.47309378125" lon="114.27548179638671" /><trkpt lat="22.47305078125" lon="114.27527279638672" /><trkpt lat="22.47287878125" lon="114.27504679638672" /><trkpt lat="22.47281578125" lon="114.27493979638672" /><trkpt lat="22.47277278125" lon="114.27483979638671" /><trkpt lat="22.47278278125" lon="114.27459279638671" /><trkpt lat="22.47282378125" lon="114.27440579638672" /><trkpt lat="22.47282078125" lon="114.27408479638672" /><trkpt lat="22.472780781250002" lon="114.27384779638672" /><trkpt lat="22.47273578125" lon="114.27353979638671" /><trkpt lat="22.47268878125" lon="114.27344979638671" /><trkpt lat="22.47265978125" lon="114.27339179638672" /><trkpt lat="22.47266878125" lon="114.27308779638672" /><trkpt lat="22.47254678125" lon="114.27267779638672" /><trkpt lat="22.47248478125" lon="114.27244779638671" /><trkpt lat="22.47244078125" lon="114.27220179638672" /><trkpt lat="22.47250778125" lon="114.27212679638671" /><trkpt lat="22.47281078125" lon="114.27205079638672" /><trkpt lat="22.47292278125" lon="114.27196979638671" /><trkpt lat="22.47297678125" lon="114.27187779638672" /><trkpt lat="22.47294878125" lon="114.27161979638672" /><trkpt lat="22.47286478125" lon="114.27139279638672" /><trkpt lat="22.47285478125" lon="114.27128579638672" /><trkpt lat="22.47287478125" lon="114.27099679638673" /><trkpt lat="22.47293878125" lon="114.27082079638672" /><trkpt lat="22.47292978125" lon="114.27069179638671" /><trkpt lat="22.47287578125" lon="114.27064279638672" /><trkpt lat="22.47274778125" lon="114.27057679638672" /><trkpt lat="22.47261978125" lon="114.27050879638672" /><trkpt lat="22.47236178125" lon="114.27026979638671" /><trkpt lat="22.47212178125" lon="114.27016879638671" /><trkpt lat="22.472030781249998" lon="114.27002479638672" /><trkpt lat="22.47201878125" lon="114.26982979638672" /><trkpt lat="22.47197778125" lon="114.26963179638672" /><trkpt lat="22.47191478125" lon="114.26951279638672" /><trkpt lat="22.47176978125" lon="114.26936679638672" /><trkpt lat="22.47168378125" lon="114.26932279638672" /><trkpt lat="22.47154578125" lon="114.26928079638672" /><trkpt lat="22.47134178125" lon="114.26908879638673" /><trkpt lat="22.47124278125" lon="114.26875979638672" /><trkpt lat="22.47124178125" lon="114.26863579638672" /><trkpt lat="22.47133778125" lon="114.26832579638672" /><trkpt lat="22.47134178125" lon="114.26808179638672" /><trkpt lat="22.47128178125" lon="114.26785079638672" /><trkpt lat="22.47120578125" lon="114.26764879638672" /><trkpt lat="22.47113978125" lon="114.26743779638672" /><trkpt lat="22.47109378125" lon="114.26734679638672" /><trkpt lat="22.47098078125" lon="114.26723679638671" /><trkpt lat="22.47085978125" lon="114.26707479638672" /><trkpt lat="22.47078378125" lon="114.26695179638672" /><trkpt lat="22.47074778125" lon="114.26660679638672" /><trkpt lat="22.47070578125" lon="114.26648579638672" /><trkpt lat="22.47067778125" lon="114.26637479638671" /><trkpt lat="22.47054878125" lon="114.26616079638671" /><trkpt lat="22.47048778125" lon="114.26604679638672" /><trkpt lat="22.47042078125" lon="114.26597379638672" /><trkpt lat="22.47030778125" lon="114.26594279638672" /><trkpt lat="22.47026478125" lon="114.26587179638672" /><trkpt lat="22.47017378125" lon="114.26544079638671" /><trkpt lat="22.47004078125" lon="114.26510679638672" /><trkpt lat="22.46994978125" lon="114.26498579638672" /><trkpt lat="22.46985578125" lon="114.26492079638672" /><trkpt lat="22.46977678125" lon="114.26489079638672" /><trkpt lat="22.46971978125" lon="114.26485079638672" /><trkpt lat="22.46966778125" lon="114.26479379638671" /><trkpt lat="22.46958578125" lon="114.26464379638672" /><trkpt lat="22.46945678125" lon="114.26451579638672" /><trkpt lat="22.46938578125" lon="114.26463079638673" /><trkpt lat="22.46930878125" lon="114.26448479638672" /><trkpt lat="22.46914478125" lon="114.26445879638672" /><trkpt lat="22.46901878125" lon="114.26442479638672" /><trkpt lat="22.46896378125" lon="114.26441279638672" /><trkpt lat="22.46888978125" lon="114.26438079638672" /><trkpt lat="22.46882478125" lon="114.26435179638672" /><trkpt lat="22.46876378125" lon="114.26431779638672" /><trkpt lat="22.46862578125" lon="114.26424579638672" /><trkpt lat="22.46852078125" lon="114.26420579638672" /><trkpt lat="22.46844778125" lon="114.26418579638671" /><trkpt lat="22.46836878125" lon="114.26405079638671" /><trkpt lat="22.46839478125" lon="114.26386279638672" /><trkpt lat="22.46824678125" lon="114.26390079638672" /><trkpt lat="22.46813978125" lon="114.26392579638672" /><trkpt lat="22.46796678125" lon="114.26394779638672" /><trkpt lat="22.46786878125" lon="114.26397679638671" /><trkpt lat="22.46770278125" lon="114.26407879638671" /><trkpt lat="22.46759678125" lon="114.26402179638671" /><trkpt lat="22.46750478125" lon="114.26396979638672" /><trkpt lat="22.46744078125" lon="114.26402179638671" /><trkpt lat="22.46732878125" lon="114.26413579638673" /><trkpt lat="22.46712678125" lon="114.26436379638672" /><trkpt lat="22.46703278125" lon="114.26446979638672" /><trkpt lat="22.46687078125" lon="114.26471479638671" /><trkpt lat="22.46673178125" lon="114.26476379638672" /><trkpt lat="22.466642781250002" lon="114.26476379638672" /><trkpt lat="22.46658678125" lon="114.26479779638672" /><trkpt lat="22.46651878125" lon="114.26487479638672" /><trkpt lat="22.46653178125" lon="114.26499479638672" /><trkpt lat="22.46656478125" lon="114.26508079638671" /><trkpt lat="22.46652178125" lon="114.26517179638672" /><trkpt lat="22.46636778125" lon="114.26526179638672" /><trkpt lat="22.46625878125" lon="114.26537379638673" /><trkpt lat="22.46620578125" lon="114.26540579638672" /><trkpt lat="22.46616078125" lon="114.26544779638672" /><trkpt lat="22.46610778125" lon="114.26544379638672" /><trkpt lat="22.46593678125" lon="114.26542779638672" /><trkpt lat="22.46583078125" lon="114.26543979638672" /><trkpt lat="22.46568878125" lon="114.26539679638672" /><trkpt lat="22.46563278125" lon="114.26536179638671" /><trkpt lat="22.465498781249998" lon="114.26525079638672" /><trkpt lat="22.46544378125" lon="114.26525179638672" /><trkpt lat="22.46531478125" lon="114.26528379638673" /><trkpt lat="22.46512078125" lon="114.26539579638671" /><trkpt lat="22.46492378125" lon="114.26552279638672" /><trkpt lat="22.46481278125" lon="114.26552779638672" /><trkpt lat="22.464710781249998" lon="114.26554479638672" /><trkpt lat="22.46461278125" lon="114.26558479638672" /><trkpt lat="22.46456078125" lon="114.26560279638672" /><trkpt lat="22.46449878125" lon="114.26561479638671" /><trkpt lat="22.46439578125" lon="114.26559179638672" /><trkpt lat="22.46429078125" lon="114.26554379638672" /><trkpt lat="22.46421778125" lon="114.26545679638672" /><trkpt lat="22.46410878125" lon="114.26527079638672" /><trkpt lat="22.46411478125" lon="114.26509879638672" /><trkpt lat="22.46412078125" lon="114.26492279638671" /><trkpt lat="22.46409578125" lon="114.26479779638672" /><trkpt lat="22.46401078125" lon="114.26462679638672" /><trkpt lat="22.46388478125" lon="114.26454679638672" /><trkpt lat="22.46373978125" lon="114.26437979638672" /><trkpt lat="22.46364778125" lon="114.26432279638672" /><trkpt lat="22.46362078125" lon="114.26426479638671" /><trkpt lat="22.46359678125" lon="114.26420979638672" /><trkpt lat="22.46352978125" lon="114.26414579638671" /><trkpt lat="22.46344778125" lon="114.26408379638671" /><trkpt lat="22.46342678125" lon="114.26406879638672" /><trkpt lat="22.46342878125" lon="114.26365379638672" /><trkpt lat="22.46332678125" lon="114.26348579638672" /><trkpt lat="22.46326078125" lon="114.26340079638672" /><trkpt lat="22.46319878125" lon="114.26332179638672" /><trkpt lat="22.46307978125" lon="114.26320279638672" /><trkpt lat="22.46298978125" lon="114.26302479638672" /><trkpt lat="22.46294178125" lon="114.26293079638671" /><trkpt lat="22.46292578125" lon="114.26289879638672" /><trkpt lat="22.46268478125" lon="114.26260379638671" /><trkpt lat="22.46254178125" lon="114.26247379638671" /><trkpt lat="22.46251778125" lon="114.26244579638671" /><trkpt lat="22.462429781250002" lon="114.26233979638671" /><trkpt lat="22.46238678125" lon="114.26231279638672" /><trkpt lat="22.46233378125" lon="114.26227979638672" /><trkpt lat="22.46226078125" lon="114.26213579638672" /><trkpt lat="22.46212678125" lon="114.26197379638671" /><trkpt lat="22.462073781249998" lon="114.26193279638672" /><trkpt lat="22.46204578125" lon="114.26191279638672" /><trkpt lat="22.46200478125" lon="114.26188379638671" /><trkpt lat="22.46188378125" lon="114.26174179638672" /><trkpt lat="22.46183478125" lon="114.26169079638672" /><trkpt lat="22.46164178125" lon="114.26149079638672" /><trkpt lat="22.46153578125" lon="114.26142079638672" /><trkpt lat="22.46146178125" lon="114.26135479638671" /><trkpt lat="22.46134178125" lon="114.26122679638672" /><trkpt lat="22.46130378125" lon="114.26117279638672" /><trkpt lat="22.46125578125" lon="114.26114579638671" /><trkpt lat="22.46120278125" lon="114.26103479638672" /><trkpt lat="22.461171781250002" lon="114.26098579638672" /><trkpt lat="22.46113878125" lon="114.26094679638672" /><trkpt lat="22.46104378125" lon="114.26077779638672" /><trkpt lat="22.46098278125" lon="114.26071379638672" /><trkpt lat="22.46095478125" lon="114.26071179638672" /><trkpt lat="22.46092978125" lon="114.26071679638672" /><trkpt lat="22.46091278125" lon="114.26070779638673" /><trkpt lat="22.46087678125" lon="114.26073179638672" /><trkpt lat="22.46084578125" lon="114.26072679638672" /><trkpt lat="22.46080278125" lon="114.26068779638672" /><trkpt lat="22.46076978125" lon="114.26068279638672" /><trkpt lat="22.46075278125" lon="114.26068279638672" /><trkpt lat="22.46074178125" lon="114.26070779638673" /><trkpt lat="22.46074878125" lon="114.26074279638672" /><trkpt lat="22.46076778125" lon="114.26079679638671" /><trkpt lat="22.46074778125" lon="114.26082279638672" /><trkpt lat="22.46068678125" lon="114.26085679638672" /><trkpt lat="22.45929078125" lon="114.26012479638672" /><trkpt lat="22.45922678125" lon="114.26012579638672" /><trkpt lat="22.45915478125" lon="114.26017379638672" /><trkpt lat="22.45912078125" lon="114.26017679638672" /><trkpt lat="22.45906978125" lon="114.26017779638671" /><trkpt lat="22.45896278125" lon="114.26016379638672" /><trkpt lat="22.45883878125" lon="114.26013679638672" /><trkpt lat="22.45876578125" lon="114.26010879638672" /><trkpt lat="22.45884378125" lon="114.25997179638672" /><trkpt lat="22.45882278125" lon="114.25996079638672" /><trkpt lat="22.45855978125" lon="114.25978079638672" /><trkpt lat="22.45776278125" lon="114.25925179638672" /><trkpt lat="22.45722278125" lon="114.25901679638672" /><trkpt lat="22.45689678125" lon="114.25902779638672" /><trkpt lat="22.45688878125" lon="114.25912479638671" /><trkpt lat="22.45683778125" lon="114.25912679638672" /><trkpt lat="22.45674078125" lon="114.25912879638672" /><trkpt lat="22.45663278125" lon="114.25909579638672" /><trkpt lat="22.45629778125" lon="114.25882379638672" /><trkpt lat="22.45620378125" lon="114.25879779638672" /><trkpt lat="22.456094781250002" lon="114.25875279638672" /><trkpt lat="22.45595178125" lon="114.25872279638672" /><trkpt lat="22.45581578125" lon="114.25867479638671" /><trkpt lat="22.45574778125" lon="114.25857279638672" /><trkpt lat="22.45572178125" lon="114.25848079638672" /><trkpt lat="22.45570478125" lon="114.25829679638672" /><trkpt lat="22.45573778125" lon="114.25814879638672" /><trkpt lat="22.45577778125" lon="114.25808479638673" /><trkpt lat="22.45608578125" lon="114.25775879638672" /><trkpt lat="22.45614478125" lon="114.25768379638671" /><trkpt lat="22.45618078125" lon="114.25754879638671" /><trkpt lat="22.45616578125" lon="114.25719579638672" /><trkpt lat="22.45615378125" lon="114.25690679638672" /><trkpt lat="22.45616278125" lon="114.25678379638671" /><trkpt lat="22.45619878125" lon="114.25660679638672" /><trkpt lat="22.45633978125" lon="114.25630279638672" /><trkpt lat="22.45644678125" lon="114.25611879638672" /><trkpt lat="22.45655878125" lon="114.25594479638671" /><trkpt lat="22.45665878125" lon="114.25576879638672" /><trkpt lat="22.45670378125" lon="114.25568979638672" /><trkpt lat="22.45676278125" lon="114.25546979638672" /><trkpt lat="22.45674278125" lon="114.25535179638672" /><trkpt lat="22.45673478125" lon="114.25531179638672" /><trkpt lat="22.45665878125" lon="114.25506579638672" /><trkpt lat="22.45664478125" lon="114.25503179638672" /><trkpt lat="22.45663078125" lon="114.25500379638672" /><trkpt lat="22.45661578125" lon="114.25497779638673" /><trkpt lat="22.45659878125" lon="114.25495479638671" /><trkpt lat="22.45617778125" lon="114.25445179638672" /><trkpt lat="22.45615478125" lon="114.25441979638671" /><trkpt lat="22.45614378125" lon="114.25440079638672" /><trkpt lat="22.45613078125" lon="114.25437079638672" /><trkpt lat="22.45612378125" lon="114.25434279638672" /><trkpt lat="22.45612078125" lon="114.25431379638673" /><trkpt lat="22.45612078125" lon="114.25428179638672" /><trkpt lat="22.45612378125" lon="114.25425079638671" /><trkpt lat="22.45613078125" lon="114.25422579638672" /><trkpt lat="22.45614078125" lon="114.25419879638672" /><trkpt lat="22.45615478125" lon="114.25417479638672" /><trkpt lat="22.45617178125" lon="114.25415379638672" /><trkpt lat="22.45619378125" lon="114.25413379638672" /><trkpt lat="22.45621478125" lon="114.25411779638672" /><trkpt lat="22.45623878125" lon="114.25410379638672" /><trkpt lat="22.45626878125" lon="114.25409079638672" /><trkpt lat="22.45629778125" lon="114.25407979638672" /><trkpt lat="22.45634678125" lon="114.25406579638671" /><trkpt lat="22.45659278125" lon="114.25400779638672" /><trkpt lat="22.45663078125" lon="114.25400379638671" /><trkpt lat="22.45666378125" lon="114.25400179638672" /><trkpt lat="22.45669178125" lon="114.25400279638671" /><trkpt lat="22.45671878125" lon="114.25400479638672" /><trkpt lat="22.45675078125" lon="114.25401179638672" /><trkpt lat="22.45677978125" lon="114.25402279638672" /><trkpt lat="22.456799781249998" lon="114.25403479638672" /><trkpt lat="22.45681678125" lon="114.25405079638672" /><trkpt lat="22.45683678125" lon="114.25407279638672" /><trkpt lat="22.45693578125" lon="114.25418979638673" /><trkpt lat="22.45695478125" lon="114.25420779638672" /><trkpt lat="22.45697378125" lon="114.25422479638672" /><trkpt lat="22.45699278125" lon="114.25423779638672" /><trkpt lat="22.45702678125" lon="114.25425379638672" /><trkpt lat="22.45706578125" lon="114.25426879638673" /><trkpt lat="22.45726678125" lon="114.25431179638672" /><trkpt lat="22.45730078125" lon="114.25431779638672" /><trkpt lat="22.45738878125" lon="114.25432379638671" /><trkpt lat="22.45741878125" lon="114.25432079638672" /><trkpt lat="22.45744278125" lon="114.25431579638672" /><trkpt lat="22.45746678125" lon="114.25430379638672" /><trkpt lat="22.45750178125" lon="114.25428279638672" /><trkpt lat="22.45753378125" lon="114.25425979638672" /><trkpt lat="22.45757078125" lon="114.25422879638671" /><trkpt lat="22.45771778125" lon="114.25409279638671" /><trkpt lat="22.45774278125" lon="114.25406379638672" /><trkpt lat="22.45776078125" lon="114.25403979638672" /><trkpt lat="22.45777178125" lon="114.25401879638672" /><trkpt lat="22.45780078125" lon="114.25392879638672" /><trkpt lat="22.45775778125" lon="114.25369979638671" /><trkpt lat="22.45770578125" lon="114.25352079638672" /><trkpt lat="22.45765578125" lon="114.25339279638672" /><trkpt lat="22.45766678125" lon="114.25323579638672" /><trkpt lat="22.45773578125" lon="114.25312779638672" /><trkpt lat="22.45780978125" lon="114.25307679638672" /><trkpt lat="22.45790178125" lon="114.25302979638671" /><trkpt lat="22.45798278125" lon="114.25295579638671" /><trkpt lat="22.45810778125" lon="114.25275279638672" /><trkpt lat="22.45818478125" lon="114.25259279638672" /><trkpt lat="22.45820978125" lon="114.25238179638671" /><trkpt lat="22.45817478125" lon="114.25229079638672" /><trkpt lat="22.45810878125" lon="114.25218879638672" /><trkpt lat="22.45799378125" lon="114.25206479638672" /><trkpt lat="22.45779178125" lon="114.25178079638673" /><trkpt lat="22.45776178125" lon="114.25165879638672" /><trkpt lat="22.45775878125" lon="114.25153679638672" /><trkpt lat="22.45776778125" lon="114.25131179638672" /><trkpt lat="22.45773278125" lon="114.25123079638672" /><trkpt lat="22.45768278125" lon="114.25116579638672" /><trkpt lat="22.45746578125" lon="114.25099379638672" /><trkpt lat="22.45730378125" lon="114.25089379638672" /><trkpt lat="22.45720278125" lon="114.25084579638671" /><trkpt lat="22.456958781250002" lon="114.25076779638673" /><trkpt lat="22.45687278125" lon="114.25076279638672" /><trkpt lat="22.45677478125" lon="114.25075979638672" /><trkpt lat="22.45671978125" lon="114.25073479638672" /><trkpt lat="22.45666778125" lon="114.25065479638671" /><trkpt lat="22.45647378125" lon="114.25022679638671" /><trkpt lat="22.45618478125" lon="114.24974579638672" /><trkpt lat="22.45610278125" lon="114.24962479638671" /><trkpt lat="22.45590978125" lon="114.24937579638672" /><trkpt lat="22.45575978125" lon="114.24922979638671" /><trkpt lat="22.45570578125" lon="114.24917779638672" /><trkpt lat="22.45562678125" lon="114.24910979638672" /><trkpt lat="22.45554578125" lon="114.24900279638672" /><trkpt lat="22.45550478125" lon="114.24890379638671" /><trkpt lat="22.45543878125" lon="114.24882279638672" /><trkpt lat="22.45531878125" lon="114.24866279638672" /><trkpt lat="22.45517278125" lon="114.24842979638672" /><trkpt lat="22.45508578125" lon="114.24824879638672" /><trkpt lat="22.45539978125" lon="114.24786579638672" /><trkpt lat="22.46228278125" lon="114.24079979638672" /><trkpt lat="22.46803378125" lon="114.23499879638672" /><trkpt lat="22.46810178125" lon="114.23489979638671" /><trkpt lat="22.46816278125" lon="114.23479579638672" /><trkpt lat="22.46823378125" lon="114.23460279638672" /><trkpt lat="22.46823878125" lon="114.23438179638671" /><trkpt lat="22.46822078125" lon="114.23421179638672" /><trkpt lat="22.46821678125" lon="114.23404179638672" /><trkpt lat="22.46822078125" lon="114.23389079638672" /><trkpt lat="22.46827278125" lon="114.23376479638672" /><trkpt lat="22.46833978125" lon="114.23367379638673" /><trkpt lat="22.46842578125" lon="114.23360279638672" /><trkpt lat="22.46852478125" lon="114.23355679638672" /><trkpt lat="22.46859878125" lon="114.23354579638672" /><trkpt lat="22.46867478125" lon="114.23354479638672" /><trkpt lat="22.46874978125" lon="114.23355379638672" /><trkpt lat="22.46882278125" lon="114.23357179638671" /><trkpt lat="22.46889378125" lon="114.23359879638672" /><trkpt lat="22.46897378125" lon="114.23361879638672" /><trkpt lat="22.46906478125" lon="114.23363579638672" /><trkpt lat="22.46917278125" lon="114.23362579638672" /><trkpt lat="22.46923178125" lon="114.23359179638672" /><trkpt lat="22.46927478125" lon="114.23358979638672" /><trkpt lat="22.46934378125" lon="114.23366479638672" /><trkpt lat="22.46943378125" lon="114.23371379638672" /><trkpt lat="22.46943278125" lon="114.23387579638671" /><trkpt lat="22.46946678125" lon="114.23395179638672" /><trkpt lat="22.46957978125" lon="114.23416579638672" /><trkpt lat="22.46953678125" lon="114.23426179638672" /><trkpt lat="22.46957178125" lon="114.23441079638671" /><trkpt lat="22.46968578125" lon="114.23451279638672" /><trkpt lat="22.46973178125" lon="114.23464079638671" /><trkpt lat="22.46954478125" lon="114.23456479638672" /><trkpt lat="22.46928878125" lon="114.23437879638672" /><trkpt lat="22.46897278125" lon="114.23412679638672" /><trkpt lat="22.46872978125" lon="114.23410579638671" /><trkpt lat="22.46861078125" lon="114.23417479638672" /><trkpt lat="22.46864278125" lon="114.23420979638672" /><trkpt lat="22.46890578125" lon="114.23425279638671" /><trkpt lat="22.46902178125" lon="114.23429979638672" /><trkpt lat="22.46952378125" lon="114.23477379638672" /><trkpt lat="22.46957678125" lon="114.23487679638671" /><trkpt lat="22.46968878125" lon="114.23501879638673" /><trkpt lat="22.46989778125" lon="114.23522579638671" /><trkpt lat="22.46998378125" lon="114.23524479638672" /><trkpt lat="22.47028678125" lon="114.23509679638671" /><trkpt lat="22.47052278125" lon="114.23500579638672" /><trkpt lat="22.47067778125" lon="114.23497879638671" /><trkpt lat="22.47085378125" lon="114.23487079638672" /><trkpt lat="22.47099478125" lon="114.23483979638672" /><trkpt lat="22.47120678125" lon="114.23466579638672" /><trkpt lat="22.47092178125" lon="114.23451879638672" /><trkpt lat="22.47098678125" lon="114.23445779638672" /><trkpt lat="22.47087578125" lon="114.23435779638672" /><trkpt lat="22.47071378125" lon="114.23434179638672" /><trkpt lat="22.47059678125" lon="114.23427679638672" /><trkpt lat="22.47042578125" lon="114.23398479638672" /><trkpt lat="22.47034778125" lon="114.23388779638672" /><trkpt lat="22.47026078125" lon="114.23387979638672" /><trkpt lat="22.47022178125" lon="114.23377279638672" /><trkpt lat="22.47013578125" lon="114.23387679638672" /><trkpt lat="22.47003178125" lon="114.23394079638672" /><trkpt lat="22.46997178125" lon="114.23402379638672" /><trkpt lat="22.46993778125" lon="114.23409879638672" /><trkpt lat="22.47004378125" lon="114.23418079638672" /><trkpt lat="22.47010978125" lon="114.23420479638672" /><trkpt lat="22.47023378125" lon="114.23423679638672" /><trkpt lat="22.47009978125" lon="114.23433979638672" /><trkpt lat="22.46987378125" lon="114.23438779638671" /><trkpt lat="22.46969878125" lon="114.23432779638672" /><trkpt lat="22.46957978125" lon="114.23416579638672" /><trkpt lat="22.46946678125" lon="114.23395179638672" /><trkpt lat="22.46943278125" lon="114.23387579638671" /><trkpt lat="22.46943378125" lon="114.23371379638672" /><trkpt lat="22.46934378125" lon="114.23366479638672" /><trkpt lat="22.46927478125" lon="114.23358979638672" /><trkpt lat="22.46930878125" lon="114.23356179638672" /><trkpt lat="22.46940478125" lon="114.23350479638673" /><trkpt lat="22.46943378125" lon="114.23347679638673" /><trkpt lat="22.46947978125" lon="114.23343079638671" /><trkpt lat="22.46955778125" lon="114.23335979638672" /><trkpt lat="22.46970078125" lon="114.23323079638672" /><trkpt lat="22.46988678125" lon="114.23314779638672" /><trkpt lat="22.47010678125" lon="114.23308879638672" /><trkpt lat="22.47032178125" lon="114.23305279638672" /><trkpt lat="22.470537781250002" lon="114.23304579638672" /><trkpt lat="22.47074778125" lon="114.23304479638672" /><trkpt lat="22.47086278125" lon="114.23307779638672" /><trkpt lat="22.47099878125" lon="114.23315779638672" /><trkpt lat="22.471128781250002" lon="114.23323179638672" /><trkpt lat="22.47128678125" lon="114.23331079638672" /><trkpt lat="22.47147478125" lon="114.23336579638672" /><trkpt lat="22.47158878125" lon="114.23336379638671" /><trkpt lat="22.47167578125" lon="114.23334079638671" /><trkpt lat="22.47171478125" lon="114.23331879638671" /><trkpt lat="22.47173778125" lon="114.23328479638671" /><trkpt lat="22.47180778125" lon="114.23319079638672" /><trkpt lat="22.47176778125" lon="114.23315679638672" /><trkpt lat="22.47173878125" lon="114.23311579638671" /><trkpt lat="22.47171678125" lon="114.23306679638672" /><trkpt lat="22.47170578125" lon="114.23301879638672" /><trkpt lat="22.47170578125" lon="114.23297679638672" /><trkpt lat="22.47173078125" lon="114.23292779638672" /><trkpt lat="22.47175478125" lon="114.23288779638672" /><trkpt lat="22.47177778125" lon="114.23286079638672" /><trkpt lat="22.47182378125" lon="114.23283779638672" /><trkpt lat="22.47193778125" lon="114.23293379638672" /><trkpt lat="22.472077085941006" lon="114.23290230957564" /></trkseg></trk></gpx>