<?xml version='1.0' encoding='UTF-8' ?><gpx version="1.1" creator="HikingTrailHK" xsi:schemaLocation="http://www.topografix.com/GPX/1/1 http://www.topografix.com/GPX/1/1/gpx.xsd https://hikingtrailhk.appspot.com/xml/gpxextensions/v1 https://hikingtrailhk.appspot.com/xml/gpxextensions/v1/gpxextensions.xsd" xmlns="http://www.topografix.com/GPX/1/1" xmlns:h="https://hikingtrailhk.appspot.com/xml/gpxextensions/v1" xmlns:xsi="http://www.w3.org/2001/XMLSchema-instance"><metadata><name>環湖出嘴 @ 2016-12-5 8:30</name><desc></desc><extensions><h:categoryid>tour_route</h:categoryid></extensions></metadata><trk><trkseg><trkpt lat="22.506592439133637" lon="114.24145029303486" /><trkpt lat="22.50600578125" lon="114.24175979638672" /><trkpt lat="22.50590778125" lon="114.24181179638671" /><trkpt lat="22.50583678125" lon="114.24183779638672" /><trkpt lat="22.50581578125" lon="114.24184479638672" /><trkpt lat="22.50564678125" lon="114.24193779638672" /><trkpt lat="22.50563678125" lon="114.24195979638672" /><trkpt lat="22.50564078125" lon="114.24203979638672" /><trkpt lat="22.50558078125" lon="114.24203879638672" /><trkpt lat="22.50551778125" lon="114.24203579638672" /><trkpt lat="22.50547278125" lon="114.24206579638673" /><trkpt lat="22.50544778125" lon="114.24209479638672" /><trkpt lat="22.50544778125" lon="114.24214179638672" /><trkpt lat="22.50536278125" lon="114.24215679638672" /><trkpt lat="22.50527778125" lon="114.24221579638672" /><trkpt lat="22.50506578125" lon="114.24222779638671" /><trkpt lat="22.50492578125" lon="114.24226279638673" /><trkpt lat="22.50468378125" lon="114.24224079638672" /><trkpt lat="22.50442178125" lon="114.24214879638672" /><trkpt lat="22.50414578125" lon="114.24217679638672" /><trkpt lat="22.50388478125" lon="114.24214279638672" /><trkpt lat="22.50344678125" lon="114.24221479638672" /><trkpt lat="22.50282778125" lon="114.24204679638672" /><trkpt lat="22.50268078125" lon="114.24196779638672" /><trkpt lat="22.50261378125" lon="114.24190479638672" /><trkpt lat="22.50248978125" lon="114.24194479638672" /><trkpt lat="22.50217278125" lon="114.24228079638672" /><trkpt lat="22.50208778125" lon="114.24268079638672" /><trkpt lat="22.50180778125" lon="114.24317279638672" /><trkpt lat="22.50163478125" lon="114.24329279638673" /><trkpt lat="22.50149278125" lon="114.24349979638671" /><trkpt lat="22.50144578125" lon="114.24366479638672" /><trkpt lat="22.50137278125" lon="114.24378779638671" /><trkpt lat="22.50135178125" lon="114.24395179638672" /><trkpt lat="22.50126278125" lon="114.24422179638673" /><trkpt lat="22.50112678125" lon="114.24445079638672" /><trkpt lat="22.50095478125" lon="114.24472179638671" /><trkpt lat="22.500840781249998" lon="114.24496879638671" /><trkpt lat="22.50070478125" lon="114.24512579638672" /><trkpt lat="22.50061378125" lon="114.24517879638672" /><trkpt lat="22.50052678125" lon="114.24518879638671" /><trkpt lat="22.50029478125" lon="114.24535779638671" /><trkpt lat="22.49995978125" lon="114.24553479638672" /><trkpt lat="22.49986178125" lon="114.24563479638672" /><trkpt lat="22.49955378125" lon="114.24590179638672" /><trkpt lat="22.49951878125" lon="114.24601279638672" /><trkpt lat="22.49934078125" lon="114.24617379638671" /><trkpt lat="22.49915978125" lon="114.24626179638672" /><trkpt lat="22.49904778125" lon="114.24636979638672" /><trkpt lat="22.49883778125" lon="114.24646379638672" /><trkpt lat="22.49871378125" lon="114.24661379638673" /><trkpt lat="22.49862278125" lon="114.24671679638672" /><trkpt lat="22.49846978125" lon="114.24677079638671" /><trkpt lat="22.49838778125" lon="114.24687379638672" /><trkpt lat="22.49813278125" lon="114.24721479638671" /><trkpt lat="22.49798978125" lon="114.24739679638672" /><trkpt lat="22.49789478125" lon="114.24746379638673" /><trkpt lat="22.49785078125" lon="114.24752979638671" /><trkpt lat="22.49764578125" lon="114.24762379638672" /><trkpt lat="22.49753678125" lon="114.24761479638671" /><trkpt lat="22.49738778125" lon="114.24752179638672" /><trkpt lat="22.49727178125" lon="114.24751979638671" /><trkpt lat="22.49713878125" lon="114.24747579638672" /><trkpt lat="22.49669278125" lon="114.24762179638672" /><trkpt lat="22.49659178125" lon="114.24777579638672" /><trkpt lat="22.49613078125" lon="114.24807879638672" /><trkpt lat="22.49600178125" lon="114.24807679638671" /><trkpt lat="22.49586578125" lon="114.24812279638672" /><trkpt lat="22.49575378125" lon="114.24827979638673" /><trkpt lat="22.49567078125" lon="114.24834579638672" /><trkpt lat="22.49555978125" lon="114.24838979638672" /><trkpt lat="22.49529278125" lon="114.24859479638671" /><trkpt lat="22.49514378125" lon="114.24876879638671" /><trkpt lat="22.49509978125" lon="114.24889879638671" /><trkpt lat="22.49498878125" lon="114.24892479638672" /><trkpt lat="22.49479978125" lon="114.24904579638672" /><trkpt lat="22.49459678125" lon="114.24925379638672" /><trkpt lat="22.49453678125" lon="114.24950379638672" /><trkpt lat="22.49452778125" lon="114.24965879638673" /><trkpt lat="22.49446478125" lon="114.24989079638672" /><trkpt lat="22.49438978125" lon="114.25005879638672" /><trkpt lat="22.494308781249998" lon="114.25025279638672" /><trkpt lat="22.49424778125" lon="114.25049779638672" /><trkpt lat="22.49416378125" lon="114.25061579638673" /><trkpt lat="22.49403978125" lon="114.25073779638672" /><trkpt lat="22.49381378125" lon="114.25104279638671" /><trkpt lat="22.49367678125" lon="114.25120179638672" /><trkpt lat="22.49350978125" lon="114.25127479638672" /><trkpt lat="22.49335678125" lon="114.25129579638671" /><trkpt lat="22.49327478125" lon="114.25134779638672" /><trkpt lat="22.49319778125" lon="114.25150079638672" /><trkpt lat="22.49319778125" lon="114.25161279638672" /><trkpt lat="22.49316378125" lon="114.25179379638672" /><trkpt lat="22.49321378125" lon="114.25191779638672" /><trkpt lat="22.49317378125" lon="114.25197979638672" /><trkpt lat="22.49317978125" lon="114.25204979638671" /><trkpt lat="22.49327578125" lon="114.25215679638671" /><trkpt lat="22.49327678125" lon="114.25225579638672" /><trkpt lat="22.49335478125" lon="114.25238879638673" /><trkpt lat="22.49334478125" lon="114.25250779638672" /><trkpt lat="22.49335778125" lon="114.25257879638671" /><trkpt lat="22.49337378125" lon="114.25263879638672" /><trkpt lat="22.49335978125" lon="114.25274179638672" /><trkpt lat="22.49330678125" lon="114.25298279638672" /><trkpt lat="22.49329578125" lon="114.25310079638672" /><trkpt lat="22.49328278125" lon="114.25326579638671" /><trkpt lat="22.49332778125" lon="114.25343679638672" /><trkpt lat="22.49334878125" lon="114.25346579638672" /><trkpt lat="22.49332478125" lon="114.25352179638672" /><trkpt lat="22.49327778125" lon="114.25353979638672" /><trkpt lat="22.49329878125" lon="114.25362279638672" /><trkpt lat="22.49320378125" lon="114.25367879638672" /><trkpt lat="22.49319178125" lon="114.25379579638673" /><trkpt lat="22.49314878125" lon="114.25383979638671" /><trkpt lat="22.49310878125" lon="114.25384679638672" /><trkpt lat="22.49310378125" lon="114.25388679638672" /><trkpt lat="22.49307978125" lon="114.25391479638672" /><trkpt lat="22.49296478125" lon="114.25405279638672" /><trkpt lat="22.49287678125" lon="114.25425179638673" /><trkpt lat="22.49291278125" lon="114.25448579638672" /><trkpt lat="22.49289678125" lon="114.25491479638671" /><trkpt lat="22.49280278125" lon="114.25517579638672" /><trkpt lat="22.49283878125" lon="114.25549079638672" /><trkpt lat="22.49273978125" lon="114.25566979638671" /><trkpt lat="22.49272178125" lon="114.25592379638672" /><trkpt lat="22.49286778125" lon="114.25609979638672" /><trkpt lat="22.49303878125" lon="114.25643679638672" /><trkpt lat="22.49292478125" lon="114.25672379638672" /><trkpt lat="22.49298178125" lon="114.25702879638672" /><trkpt lat="22.49302778125" lon="114.25706079638672" /><trkpt lat="22.49302378125" lon="114.25717179638671" /><trkpt lat="22.49294678125" lon="114.25722679638672" /><trkpt lat="22.49289278125" lon="114.25742579638671" /><trkpt lat="22.49292878125" lon="114.25753179638671" /><trkpt lat="22.49292578125" lon="114.25772779638672" /><trkpt lat="22.49312178125" lon="114.25805879638672" /><trkpt lat="22.49322878125" lon="114.25831879638672" /><trkpt lat="22.49331578125" lon="114.25852279638671" /><trkpt lat="22.49328978125" lon="114.25881879638672" /><trkpt lat="22.49331878125" lon="114.25912579638671" /><trkpt lat="22.49332578125" lon="114.25920779638672" /><trkpt lat="22.49324778125" lon="114.25947879638672" /><trkpt lat="22.49329678125" lon="114.25971479638672" /><trkpt lat="22.49337178125" lon="114.25991379638671" /><trkpt lat="22.493520781249998" lon="114.26009979638673" /><trkpt lat="22.49351878125" lon="114.26019479638671" /><trkpt lat="22.49342278125" lon="114.26027279638672" /><trkpt lat="22.49329078125" lon="114.26048679638672" /><trkpt lat="22.49327178125" lon="114.26063279638672" /><trkpt lat="22.49317078125" lon="114.26079279638672" /><trkpt lat="22.49302478125" lon="114.26091179638672" /><trkpt lat="22.49293378125" lon="114.26100279638672" /><trkpt lat="22.49299378125" lon="114.26129979638672" /><trkpt lat="22.49294878125" lon="114.26149579638673" /><trkpt lat="22.49289278125" lon="114.26165379638672" /><trkpt lat="22.49279878125" lon="114.26186279638672" /><trkpt lat="22.49273578125" lon="114.26203779638672" /><trkpt lat="22.49263878125" lon="114.26245279638673" /><trkpt lat="22.49270778125" lon="114.26275079638671" /><trkpt lat="22.49301078125" lon="114.26299379638672" /><trkpt lat="22.49305078125" lon="114.26313779638672" /><trkpt lat="22.49293878125" lon="114.26328579638673" /><trkpt lat="22.49293378125" lon="114.26344479638672" /><trkpt lat="22.49296578125" lon="114.26349879638671" /><trkpt lat="22.49295578125" lon="114.26362979638672" /><trkpt lat="22.49288378125" lon="114.26375379638672" /><trkpt lat="22.49293178125" lon="114.26398379638673" /><trkpt lat="22.49298678125" lon="114.26416879638671" /><trkpt lat="22.49316778125" lon="114.26428579638672" /><trkpt lat="22.49329878125" lon="114.26433079638672" /><trkpt lat="22.49339478125" lon="114.26446979638672" /><trkpt lat="22.49354878125" lon="114.26461179638672" /><trkpt lat="22.49360178125" lon="114.26472979638672" /><trkpt lat="22.49362578125" lon="114.26493879638672" /><trkpt lat="22.49367678125" lon="114.26510779638672" /><trkpt lat="22.49367778125" lon="114.26518679638671" /><trkpt lat="22.49390078125" lon="114.26527479638672" /><trkpt lat="22.49398678125" lon="114.26542279638672" /><trkpt lat="22.49403278125" lon="114.26552379638672" /><trkpt lat="22.49403278125" lon="114.26563279638673" /><trkpt lat="22.49408578125" lon="114.26569579638672" /><trkpt lat="22.49415478125" lon="114.26574679638672" /><trkpt lat="22.49422478125" lon="114.26579479638671" /><trkpt lat="22.49425678125" lon="114.26584479638672" /><trkpt lat="22.49433678125" lon="114.26592079638672" /><trkpt lat="22.49451378125" lon="114.26598079638671" /><trkpt lat="22.49458578125" lon="114.26597379638672" /><trkpt lat="22.49490178125" lon="114.26601579638672" /><trkpt lat="22.49504978125" lon="114.26600579638672" /><trkpt lat="22.49516278125" lon="114.26592679638672" /><trkpt lat="22.49527078125" lon="114.26591079638672" /><trkpt lat="22.49538578125" lon="114.26585679638671" /><trkpt lat="22.49545178125" lon="114.26584979638672" /><trkpt lat="22.49558078125" lon="114.26577379638672" /><trkpt lat="22.49567278125" lon="114.26578479638673" /><trkpt lat="22.49573178125" lon="114.26582279638671" /><trkpt lat="22.49579078125" lon="114.26594479638672" /><trkpt lat="22.49585778125" lon="114.26612679638671" /><trkpt lat="22.49588578125" lon="114.26631779638672" /><trkpt lat="22.49584578125" lon="114.26654579638672" /><trkpt lat="22.49572578125" lon="114.26679279638672" /><trkpt lat="22.49566678125" lon="114.26682379638672" /><trkpt lat="22.49551678125" lon="114.26695179638672" /><trkpt lat="22.49549278125" lon="114.26703179638672" /><trkpt lat="22.49543678125" lon="114.26705179638672" /><trkpt lat="22.49539078125" lon="114.26712179638672" /><trkpt lat="22.49532378125" lon="114.26728979638672" /><trkpt lat="22.49525278125" lon="114.26748779638672" /><trkpt lat="22.49527978125" lon="114.26766179638672" /><trkpt lat="22.49554078125" lon="114.26817979638672" /><trkpt lat="22.49559878125" lon="114.26834179638672" /><trkpt lat="22.49571678125" lon="114.26844879638672" /><trkpt lat="22.49580878125" lon="114.26848279638672" /><trkpt lat="22.495960781249998" lon="114.26860879638672" /><trkpt lat="22.49611578125" lon="114.26878879638672" /><trkpt lat="22.49614878125" lon="114.26891979638673" /><trkpt lat="22.49613778125" lon="114.26916079638671" /><trkpt lat="22.49606578125" lon="114.26947179638672" /><trkpt lat="22.49601878125" lon="114.26959879638672" /><trkpt lat="22.49608978125" lon="114.26997779638671" /><trkpt lat="22.49612478125" lon="114.27002979638672" /><trkpt lat="22.49610478125" lon="114.27010679638671" /><trkpt lat="22.49604878125" lon="114.27037979638672" /><trkpt lat="22.49611878125" lon="114.27097579638672" /><trkpt lat="22.49607978125" lon="114.27137079638672" /><trkpt lat="22.49618278125" lon="114.27235579638672" /><trkpt lat="22.49628778125" lon="114.27264179638672" /><trkpt lat="22.49633078125" lon="114.27304179638672" /><trkpt lat="22.49637178125" lon="114.27344779638672" /><trkpt lat="22.49638078125" lon="114.27395279638672" /><trkpt lat="22.49645278125" lon="114.27411879638672" /><trkpt lat="22.49653578125" lon="114.27464579638672" /><trkpt lat="22.49656778125" lon="114.27523379638671" /><trkpt lat="22.49673378125" lon="114.27574879638672" /><trkpt lat="22.49678978125" lon="114.27614779638672" /><trkpt lat="22.49692678125" lon="114.27646179638671" /><trkpt lat="22.49718578125" lon="114.27728879638671" /><trkpt lat="22.49748878125" lon="114.27810479638671" /><trkpt lat="22.49757478125" lon="114.27846379638672" /><trkpt lat="22.49775078125" lon="114.27894679638672" /><trkpt lat="22.49787678125" lon="114.27910879638672" /><trkpt lat="22.49793078125" lon="114.27924179638671" /><trkpt lat="22.49797378125" lon="114.27962479638671" /><trkpt lat="22.49813578125" lon="114.27989079638672" /><trkpt lat="22.49821778125" lon="114.27997479638672" /><trkpt lat="22.49827178125" lon="114.28010479638672" /><trkpt lat="22.49831978125" lon="114.28020579638672" /><trkpt lat="22.49833978125" lon="114.28036379638672" /><trkpt lat="22.49829078125" lon="114.28050279638671" /><trkpt lat="22.49822178125" lon="114.28064779638672" /><trkpt lat="22.49814278125" lon="114.28084779638672" /><trkpt lat="22.49805378125" lon="114.28094879638672" /><trkpt lat="22.49798978125" lon="114.28100179638672" /><trkpt lat="22.49793578125" lon="114.28108579638672" /><trkpt lat="22.49779578125" lon="114.28118079638672" /><trkpt lat="22.49773578125" lon="114.28125679638671" /><trkpt lat="22.49762678125" lon="114.28144979638672" /><trkpt lat="22.49751878125" lon="114.28171879638671" /><trkpt lat="22.49736978125" lon="114.28190579638672" /><trkpt lat="22.49724378125" lon="114.28214079638671" /><trkpt lat="22.49717278125" lon="114.28233379638672" /><trkpt lat="22.49711578125" lon="114.28244479638671" /><trkpt lat="22.49707478125" lon="114.28260279638671" /><trkpt lat="22.49701178125" lon="114.28280679638672" /><trkpt lat="22.49697078125" lon="114.28288079638672" /><trkpt lat="22.49691078125" lon="114.28302379638671" /><trkpt lat="22.49687878125" lon="114.28349679638671" /><trkpt lat="22.49694778125" lon="114.28377479638672" /><trkpt lat="22.49693978125" lon="114.28391479638672" /><trkpt lat="22.49696678125" lon="114.28409279638672" /><trkpt lat="22.49695278125" lon="114.28445679638672" /><trkpt lat="22.49691178125" lon="114.28476679638672" /><trkpt lat="22.49683578125" lon="114.28506379638672" /><trkpt lat="22.49683578125" lon="114.28518379638672" /><trkpt lat="22.49677478125" lon="114.28545679638673" /><trkpt lat="22.49678778125" lon="114.28559379638672" /><trkpt lat="22.49673978125" lon="114.28569079638672" /><trkpt lat="22.49682178125" lon="114.28582679638671" /><trkpt lat="22.49675878125" lon="114.28592179638672" /><trkpt lat="22.49668778125" lon="114.28591379638672" /><trkpt lat="22.49654878125" lon="114.28583679638672" /><trkpt lat="22.49652778125" lon="114.28589679638672" /><trkpt lat="22.49661178125" lon="114.28605179638672" /><trkpt lat="22.49653078125" lon="114.28631279638672" /><trkpt lat="22.49639878125" lon="114.28646579638672" /><trkpt lat="22.49635578125" lon="114.28651679638672" /><trkpt lat="22.49621078125" lon="114.28723679638672" /><trkpt lat="22.49597978125" lon="114.28758179638672" /><trkpt lat="22.49578678125" lon="114.28787679638671" /><trkpt lat="22.49570478125" lon="114.28815079638672" /><trkpt lat="22.49571678125" lon="114.28830379638671" /><trkpt lat="22.49496778125" lon="114.28894179638672" /><trkpt lat="22.49494478125" lon="114.28913179638671" /><trkpt lat="22.49482378125" lon="114.28915279638672" /><trkpt lat="22.49467578125" lon="114.28923979638672" /><trkpt lat="22.49427878125" lon="114.28979779638672" /><trkpt lat="22.49425978125" lon="114.28994479638672" /><trkpt lat="22.49412978125" lon="114.29010179638672" /><trkpt lat="22.49395278125" lon="114.29041379638672" /><trkpt lat="22.49389978125" lon="114.29062979638672" /><trkpt lat="22.49366778125" lon="114.29088979638672" /><trkpt lat="22.49366378125" lon="114.29116579638672" /><trkpt lat="22.49377578125" lon="114.29134079638672" /><trkpt lat="22.49373478125" lon="114.29149779638672" /><trkpt lat="22.49354278125" lon="114.29179679638672" /><trkpt lat="22.49341978125" lon="114.29201979638673" /><trkpt lat="22.49328978125" lon="114.29211979638671" /><trkpt lat="22.49325178125" lon="114.29225979638672" /><trkpt lat="22.49324878125" lon="114.29238579638672" /><trkpt lat="22.49316578125" lon="114.29246879638671" /><trkpt lat="22.49290678125" lon="114.29269479638671" /><trkpt lat="22.49290278125" lon="114.29275879638672" /><trkpt lat="22.49282478125" lon="114.29290579638672" /><trkpt lat="22.49269778125" lon="114.29294879638672" /><trkpt lat="22.49251678125" lon="114.29298779638673" /><trkpt lat="22.49221678125" lon="114.29347179638673" /><trkpt lat="22.49209178125" lon="114.29359979638672" /><trkpt lat="22.49203578125" lon="114.29369979638672" /><trkpt lat="22.49193678125" lon="114.29405979638672" /><trkpt lat="22.49196178125" lon="114.29424579638672" /><trkpt lat="22.49205878125" lon="114.29443079638672" /><trkpt lat="22.49206478125" lon="114.29474879638671" /><trkpt lat="22.49210878125" lon="114.29498579638671" /><trkpt lat="22.49213878125" lon="114.29527479638672" /><trkpt lat="22.49221278125" lon="114.29564279638672" /><trkpt lat="22.49220478125" lon="114.29600979638671" /><trkpt lat="22.49206178125" lon="114.29633379638672" /><trkpt lat="22.49198078125" lon="114.29645379638671" /><trkpt lat="22.49195078125" lon="114.29660479638672" /><trkpt lat="22.49193578125" lon="114.29673279638672" /><trkpt lat="22.49190578125" lon="114.29682479638672" /><trkpt lat="22.49186178125" lon="114.29685679638672" /><trkpt lat="22.49184678125" lon="114.29694279638672" /><trkpt lat="22.49179178125" lon="114.29707679638672" /><trkpt lat="22.49171778125" lon="114.29716779638672" /><trkpt lat="22.49167778125" lon="114.29718879638672" /><trkpt lat="22.49166878125" lon="114.29726979638671" /><trkpt lat="22.49164378125" lon="114.29737179638671" /><trkpt lat="22.49154978125" lon="114.29742479638672" /><trkpt lat="22.49154478125" lon="114.29754879638672" /><trkpt lat="22.49146978125" lon="114.29767179638672" /><trkpt lat="22.491474781249998" lon="114.29776879638672" /><trkpt lat="22.49141578125" lon="114.29784379638672" /><trkpt lat="22.49137578125" lon="114.29789679638672" /><trkpt lat="22.49135078125" lon="114.29798279638672" /><trkpt lat="22.49129678125" lon="114.29803679638673" /><trkpt lat="22.49121778125" lon="114.29822979638672" /><trkpt lat="22.49111278125" lon="114.29838579638673" /><trkpt lat="22.49104378125" lon="114.29846579638672" /><trkpt lat="22.49107378125" lon="114.29851979638671" /><trkpt lat="22.49106878125" lon="114.29859979638672" /><trkpt lat="22.49100378125" lon="114.29860579638672" /><trkpt lat="22.49097478125" lon="114.29860579638672" /><trkpt lat="22.49093978125" lon="114.29868079638672" /><trkpt lat="22.49095978125" lon="114.29872879638671" /><trkpt lat="22.49092978125" lon="114.29874479638671" /><trkpt lat="22.49090478125" lon="114.29882579638672" /><trkpt lat="22.49085578125" lon="114.29899179638672" /><trkpt lat="22.49081578125" lon="114.29919579638671" /><trkpt lat="22.49077078125" lon="114.29941579638673" /><trkpt lat="22.49080078125" lon="114.29962479638672" /><trkpt lat="22.49077578125" lon="114.29982879638672" /><trkpt lat="22.49070678125" lon="114.29987179638673" /><trkpt lat="22.49070178125" lon="114.29992479638672" /><trkpt lat="22.49053378125" lon="114.30003779638672" /><trkpt lat="22.49057778125" lon="114.30017679638672" /><trkpt lat="22.49061778125" lon="114.30035379638672" /><trkpt lat="22.49062778125" lon="114.30048279638672" /><trkpt lat="22.49059278125" lon="114.30057379638671" /><trkpt lat="22.49056778125" lon="114.30079979638671" /><trkpt lat="22.49064278125" lon="114.30096579638672" /><trkpt lat="22.49076678125" lon="114.30102479638671" /><trkpt lat="22.49087578125" lon="114.30106179638672" /><trkpt lat="22.49091478125" lon="114.30130879638672" /><trkpt lat="22.49097978125" lon="114.30139979638672" /><trkpt lat="22.49094978125" lon="114.30146979638671" /><trkpt lat="22.49100378125" lon="114.30151779638672" /><trkpt lat="22.49099878125" lon="114.30166879638672" /><trkpt lat="22.49098478125" lon="114.30181379638672" /><trkpt lat="22.49105378125" lon="114.30192079638672" /><trkpt lat="22.49119278125" lon="114.30203879638673" /><trkpt lat="22.49137578125" lon="114.30230179638671" /><trkpt lat="22.49136078125" lon="114.30248879638673" /><trkpt lat="22.49143578125" lon="114.30252679638672" /><trkpt lat="22.49153978125" lon="114.30273079638673" /><trkpt lat="22.49160378125" lon="114.30280579638672" /><trkpt lat="22.49164978125" lon="114.30298779638672" /><trkpt lat="22.49159378125" lon="114.30315979638672" /><trkpt lat="22.49149978125" lon="114.30326679638672" /><trkpt lat="22.49143578125" lon="114.30360479638672" /><trkpt lat="22.49136178125" lon="114.30367479638672" /><trkpt lat="22.49119378125" lon="114.30384679638672" /><trkpt lat="22.49109978125" lon="114.30391379638672" /><trkpt lat="22.49101878125" lon="114.30391579638672" /><trkpt lat="22.49104378125" lon="114.30406079638672" /><trkpt lat="22.49110378125" lon="114.30420079638672" /><trkpt lat="22.49110878125" lon="114.30435579638672" /><trkpt lat="22.49109878125" lon="114.30455479638673" /><trkpt lat="22.49103878125" lon="114.30471579638672" /><trkpt lat="22.49102878125" lon="114.30492979638672" /><trkpt lat="22.49107878125" lon="114.30510679638672" /><trkpt lat="22.49115778125" lon="114.30521979638672" /><trkpt lat="22.49126178125" lon="114.30541279638672" /><trkpt lat="22.49141078125" lon="114.30556879638672" /><trkpt lat="22.49189078125" lon="114.30620279638671" /><trkpt lat="22.49227578125" lon="114.30671679638672" /><trkpt lat="22.49253778125" lon="114.30747779638672" /><trkpt lat="22.49288178125" lon="114.30791779638672" /><trkpt lat="22.49307378125" lon="114.30831979638671" /><trkpt lat="22.49343078125" lon="114.30856779638673" /><trkpt lat="22.49363578125" lon="114.30908379638672" /><trkpt lat="22.49366478125" lon="114.30936479638672" /><trkpt lat="22.49384478125" lon="114.30959279638672" /><trkpt lat="22.49383078125" lon="114.30983379638671" /><trkpt lat="22.49388578125" lon="114.31024579638672" /><trkpt lat="22.494308781249998" lon="114.31079579638671" /><trkpt lat="22.49446878125" lon="114.31104179638672" /><trkpt lat="22.49471478125" lon="114.31120979638672" /><trkpt lat="22.49501578125" lon="114.31145679638672" /><trkpt lat="22.49527878125" lon="114.31161979638672" /><trkpt lat="22.49545578125" lon="114.31191679638673" /><trkpt lat="22.495566781249998" lon="114.31209079638671" /><trkpt lat="22.49559278125" lon="114.31250279638672" /><trkpt lat="22.49552978125" lon="114.31259579638672" /><trkpt lat="22.49561978125" lon="114.31286779638671" /><trkpt lat="22.49555578125" lon="114.31304779638671" /><trkpt lat="22.49563678125" lon="114.31306479638671" /><trkpt lat="22.49567778125" lon="114.31323479638672" /><trkpt lat="22.49561278125" lon="114.31348179638672" /><trkpt lat="22.49568178125" lon="114.31398579638672" /><trkpt lat="22.49587478125" lon="114.31414779638672" /><trkpt lat="22.49601478125" lon="114.31428679638672" /><trkpt lat="22.49602978125" lon="114.31443379638672" /><trkpt lat="22.49629278125" lon="114.31474379638672" /><trkpt lat="22.49646078125" lon="114.31502379638673" /><trkpt lat="22.49648178125" lon="114.31539179638672" /><trkpt lat="22.49681078125" lon="114.31563979638672" /><trkpt lat="22.49725478125" lon="114.31595279638672" /><trkpt lat="22.49742978125" lon="114.31594779638672" /><trkpt lat="22.49766478125" lon="114.31608679638671" /><trkpt lat="22.49792278125" lon="114.31617179638671" /><trkpt lat="22.49826878125" lon="114.31618879638673" /><trkpt lat="22.49853278125" lon="114.31629079638672" /><trkpt lat="22.49874278125" lon="114.31632179638672" /><trkpt lat="22.49903078125" lon="114.31632479638672" /><trkpt lat="22.49914478125" lon="114.31620179638672" /><trkpt lat="22.49926878125" lon="114.31621179638672" /><trkpt lat="22.49929178125" lon="114.31614579638672" /><trkpt lat="22.49941678125" lon="114.31622079638672" /><trkpt lat="22.49951878125" lon="114.31677179638672" /><trkpt lat="22.49936778125" lon="114.31724479638672" /><trkpt lat="22.49911078125" lon="114.31741679638672" /><trkpt lat="22.49914978125" lon="114.31786679638672" /><trkpt lat="22.49950678125" lon="114.31830679638672" /><trkpt lat="22.49969578125" lon="114.31891879638673" /><trkpt lat="22.49960578125" lon="114.31907979638672" /><trkpt lat="22.49954678125" lon="114.31958379638672" /><trkpt lat="22.49972478125" lon="114.31965879638672" /><trkpt lat="22.49982378125" lon="114.31984079638671" /><trkpt lat="22.50044878125" lon="114.32016279638673" /><trkpt lat="22.50095378125" lon="114.32113979638672" /><trkpt lat="22.50109778125" lon="114.32119179638671" /><trkpt lat="22.50132778125" lon="114.32126679638672" /><trkpt lat="22.50155178125" lon="114.32145879638672" /><trkpt lat="22.50172878125" lon="114.32167379638672" /><trkpt lat="22.50217178125" lon="114.32190679638671" /><trkpt lat="22.50233378125" lon="114.32206579638672" /><trkpt lat="22.50246878125" lon="114.32223379638671" /><trkpt lat="22.50258178125" lon="114.32251779638672" /><trkpt lat="22.50271378125" lon="114.32261579638671" /><trkpt lat="22.50295878125" lon="114.32311079638671" /><trkpt lat="22.50325578125" lon="114.32349979638671" /><trkpt lat="22.50347978125" lon="114.32399979638672" /><trkpt lat="22.50359478125" lon="114.32419979638672" /><trkpt lat="22.50347478125" lon="114.32441879638672" /><trkpt lat="22.50343678125" lon="114.32464879638673" /><trkpt lat="22.50351378125" lon="114.32498079638673" /><trkpt lat="22.50337978125" lon="114.32601479638672" /><trkpt lat="22.50347578125" lon="114.32661679638672" /><trkpt lat="22.50368578125" lon="114.32704379638672" /><trkpt lat="22.50394178125" lon="114.32731979638672" /><trkpt lat="22.50408778125" lon="114.32795279638673" /><trkpt lat="22.50459778125" lon="114.32868179638672" /><trkpt lat="22.50482378125" lon="114.32957479638672" /><trkpt lat="22.50577478125" lon="114.33066379638672" /><trkpt lat="22.50612978125" lon="114.33089179638672" /><trkpt lat="22.50633478125" lon="114.33125679638673" /><trkpt lat="22.50665678125" lon="114.33156779638672" /><trkpt lat="22.50694578125" lon="114.33202079638671" /><trkpt lat="22.50739278125" lon="114.33242879638672" /><trkpt lat="22.50796878125" lon="114.33270479638672" /><trkpt lat="22.50822778125" lon="114.33288779638671" /><trkpt lat="22.50855878125" lon="114.33360779638672" /><trkpt lat="22.50865078125" lon="114.33369279638671" /><trkpt lat="22.50872978125" lon="114.33397779638672" /><trkpt lat="22.50880978125" lon="114.33402179638672" /><trkpt lat="22.50896878125" lon="114.33440479638672" /><trkpt lat="22.50895478125" lon="114.33449979638672" /><trkpt lat="22.50890278125" lon="114.33452179638672" /><trkpt lat="22.50885378125" lon="114.33456879638672" /><trkpt lat="22.50884878125" lon="114.33469279638672" /><trkpt lat="22.50883178125" lon="114.33472179638672" /><trkpt lat="22.50881278125" lon="114.33480679638672" /><trkpt lat="22.50883778125" lon="114.33492179638672" /><trkpt lat="22.50880978125" lon="114.33496279638672" /><trkpt lat="22.50880778125" lon="114.33500379638672" /><trkpt lat="22.50881678125" lon="114.33505679638672" /><trkpt lat="22.50899678125" lon="114.33500079638672" /><trkpt lat="22.50903978125" lon="114.33492279638672" /><trkpt lat="22.50900678125" lon="114.33482979638671" /><trkpt lat="22.50899978125" lon="114.33473479638671" /><trkpt lat="22.50893078125" lon="114.33465979638672" /><trkpt lat="22.50895478125" lon="114.33449979638672" /><trkpt lat="22.50896878125" lon="114.33440479638672" /><trkpt lat="22.50880978125" lon="114.33402179638672" /><trkpt lat="22.50872978125" lon="114.33397779638672" /><trkpt lat="22.50865078125" lon="114.33369279638671" /><trkpt lat="22.50855878125" lon="114.33360779638672" /><trkpt lat="22.50822778125" lon="114.33288779638671" /><trkpt lat="22.50796878125" lon="114.33270479638672" /><trkpt lat="22.50739278125" lon="114.33242879638672" /><trkpt lat="22.50694578125" lon="114.33202079638671" /><trkpt lat="22.50665678125" lon="114.33156779638672" /><trkpt lat="22.50633478125" lon="114.33125679638673" /><trkpt lat="22.50612978125" lon="114.33089179638672" /><trkpt lat="22.50577478125" lon="114.33066379638672" /><trkpt lat="22.50482378125" lon="114.32957479638672" /><trkpt lat="22.50459778125" lon="114.32868179638672" /><trkpt lat="22.50408778125" lon="114.32795279638673" /><trkpt lat="22.50394178125" lon="114.32731979638672" /><trkpt lat="22.50368578125" lon="114.32704379638672" /><trkpt lat="22.50347578125" lon="114.32661679638672" /><trkpt lat="22.50337978125" lon="114.32601479638672" /><trkpt lat="22.50351378125" lon="114.32498079638673" /><trkpt lat="22.50343678125" lon="114.32464879638673" /><trkpt lat="22.50347478125" lon="114.32441879638672" /><trkpt lat="22.50359478125" lon="114.32419979638672" /><trkpt lat="22.50347978125" lon="114.32399979638672" /><trkpt lat="22.50325578125" lon="114.32349979638671" /><trkpt lat="22.50295878125" lon="114.32311079638671" /><trkpt lat="22.50271378125" lon="114.32261579638671" /><trkpt lat="22.50258178125" lon="114.32251779638672" /><trkpt lat="22.50246878125" lon="114.32223379638671" /><trkpt lat="22.50233378125" lon="114.32206579638672" /><trkpt lat="22.50217178125" lon="114.32190679638671" /><trkpt lat="22.50172878125" lon="114.32167379638672" /><trkpt lat="22.50155178125" lon="114.32145879638672" /><trkpt lat="22.50132778125" lon="114.32126679638672" /><trkpt lat="22.50109778125" lon="114.32119179638671" /><trkpt lat="22.50095378125" lon="114.32113979638672" /><trkpt lat="22.50044878125" lon="114.32016279638673" /><trkpt lat="22.49982378125" lon="114.31984079638671" /><trkpt lat="22.49972478125" lon="114.31965879638672" /><trkpt lat="22.49954678125" lon="114.31958379638672" /><trkpt lat="22.49960578125" lon="114.31907979638672" /><trkpt lat="22.49969578125" lon="114.31891879638673" /><trkpt lat="22.49950678125" lon="114.31830679638672" /><trkpt lat="22.49914978125" lon="114.31786679638672" /><trkpt lat="22.49911078125" lon="114.31741679638672" /><trkpt lat="22.49936778125" lon="114.31724479638672" /><trkpt lat="22.49951878125" lon="114.31677179638672" /><trkpt lat="22.49941678125" lon="114.31622079638672" /><trkpt lat="22.49929178125" lon="114.31614579638672" /><trkpt lat="22.49926878125" lon="114.31621179638672" /><trkpt lat="22.49914478125" lon="114.31620179638672" /><trkpt lat="22.49903078125" lon="114.31632479638672" /><trkpt lat="22.49874278125" lon="114.31632179638672" /><trkpt lat="22.49853278125" lon="114.31629079638672" /><trkpt lat="22.49826878125" lon="114.31618879638673" /><trkpt lat="22.49792278125" lon="114.31617179638671" /><trkpt lat="22.49766478125" lon="114.31608679638671" /><trkpt lat="22.49742978125" lon="114.31594779638672" /><trkpt lat="22.49725478125" lon="114.31595279638672" /><trkpt lat="22.49681078125" lon="114.31563979638672" /><trkpt lat="22.49648178125" lon="114.31539179638672" /><trkpt lat="22.49646078125" lon="114.31502379638673" /><trkpt lat="22.49629278125" lon="114.31474379638672" /><trkpt lat="22.49602978125" lon="114.31443379638672" /><trkpt lat="22.49601478125" lon="114.31428679638672" /><trkpt lat="22.49587478125" lon="114.31414779638672" /><trkpt lat="22.49568178125" lon="114.31398579638672" /><trkpt lat="22.49561278125" lon="114.31348179638672" /><trkpt lat="22.49567778125" lon="114.31323479638672" /><trkpt lat="22.49563678125" lon="114.31306479638671" /><trkpt lat="22.49555578125" lon="114.31304779638671" /><trkpt lat="22.49561978125" lon="114.31286779638671" /><trkpt lat="22.49552978125" lon="114.31259579638672" /><trkpt lat="22.49559278125" lon="114.31250279638672" /><trkpt lat="22.495566781249998" lon="114.31209079638671" /><trkpt lat="22.49545578125" lon="114.31191679638673" /><trkpt lat="22.49527878125" lon="114.31161979638672" /><trkpt lat="22.49501578125" lon="114.31145679638672" /><trkpt lat="22.49471478125" lon="114.31120979638672" /><trkpt lat="22.49446878125" lon="114.31104179638672" /><trkpt lat="22.494308781249998" lon="114.31079579638671" /><trkpt lat="22.49388578125" lon="114.31024579638672" /><trkpt lat="22.49383078125" lon="114.30983379638671" /><trkpt lat="22.49384478125" lon="114.30959279638672" /><trkpt lat="22.49366478125" lon="114.30936479638672" /><trkpt lat="22.49363578125" lon="114.30908379638672" /><trkpt lat="22.49343078125" lon="114.30856779638673" /><trkpt lat="22.49307378125" lon="114.30831979638671" /><trkpt lat="22.49288178125" lon="114.30791779638672" /><trkpt lat="22.49253778125" lon="114.30747779638672" /><trkpt lat="22.49227578125" lon="114.30671679638672" /><trkpt lat="22.49189078125" lon="114.30620279638671" /><trkpt lat="22.49141078125" lon="114.30556879638672" /><trkpt lat="22.49126178125" lon="114.30541279638672" /><trkpt lat="22.49115778125" lon="114.30521979638672" /><trkpt lat="22.49107878125" lon="114.30510679638672" /><trkpt lat="22.49102878125" lon="114.30492979638672" /><trkpt lat="22.49103878125" lon="114.30471579638672" /><trkpt lat="22.49109878125" lon="114.30455479638673" /><trkpt lat="22.49110878125" lon="114.30435579638672" /><trkpt lat="22.49110378125" lon="114.30420079638672" /><trkpt lat="22.49104378125" lon="114.30406079638672" /><trkpt lat="22.49101878125" lon="114.30391579638672" /><trkpt lat="22.49109978125" lon="114.30391379638672" /><trkpt lat="22.49107078125" lon="114.30373779638671" /><trkpt lat="22.49032978125" lon="114.30253679638672" /><trkpt lat="22.49024678125" lon="114.30224979638672" /><trkpt lat="22.48998978125" lon="114.30168679638672" /><trkpt lat="22.48986178125" lon="114.30150279638671" /><trkpt lat="22.48986078125" lon="114.30137779638672" /><trkpt lat="22.48999378125" lon="114.30109279638671" /><trkpt lat="22.48998478125" lon="114.30062779638672" /><trkpt lat="22.49008878125" lon="114.30019679638671" /><trkpt lat="22.48993878125" lon="114.29980179638672" /><trkpt lat="22.48962178125" lon="114.29944479638672" /><trkpt lat="22.48967978125" lon="114.29935779638672" /><trkpt lat="22.48976578125" lon="114.29844479638672" /><trkpt lat="22.48956578125" lon="114.29784479638671" /><trkpt lat="22.48964278125" lon="114.29775779638672" /><trkpt lat="22.48984378125" lon="114.29774679638672" /><trkpt lat="22.48992978125" lon="114.29767279638672" /><trkpt lat="22.48996878125" lon="114.29721479638673" /><trkpt lat="22.48989178125" lon="114.29714979638672" /><trkpt lat="22.48984378125" lon="114.29695879638672" /><trkpt lat="22.48989278125" lon="114.29687779638672" /><trkpt lat="22.49004178125" lon="114.29675079638672" /><trkpt lat="22.49018578125" lon="114.29648979638672" /><trkpt lat="22.49016078125" lon="114.29627679638672" /><trkpt lat="22.49010078125" lon="114.29603579638672" /><trkpt lat="22.49010778125" lon="114.29583079638672" /><trkpt lat="22.49018878125" lon="114.29546179638672" /><trkpt lat="22.49009778125" lon="114.29543979638672" /><trkpt lat="22.49005278125" lon="114.29535279638672" /><trkpt lat="22.48998978125" lon="114.29502779638672" /><trkpt lat="22.48997478125" lon="114.29452279638672" /><trkpt lat="22.48978178125" lon="114.29439679638672" /><trkpt lat="22.48969978125" lon="114.29420979638672" /><trkpt lat="22.48966378125" lon="114.29391179638672" /><trkpt lat="22.48973178125" lon="114.29371479638672" /><trkpt lat="22.48962678125" lon="114.29341579638672" /><trkpt lat="22.48953878125" lon="114.29337879638672" /><trkpt lat="22.48956978125" lon="114.29327079638672" /><trkpt lat="22.48935478125" lon="114.29330179638671" /><trkpt lat="22.48908378125" lon="114.29346979638672" /><trkpt lat="22.48889578125" lon="114.29367579638672" /><trkpt lat="22.48884078125" lon="114.29377379638672" /><trkpt lat="22.48861878125" lon="114.29391079638673" /><trkpt lat="22.48851378125" lon="114.29392679638671" /><trkpt lat="22.48836078125" lon="114.29402279638671" /><trkpt lat="22.48819178125" lon="114.29421179638672" /><trkpt lat="22.48806478125" lon="114.29421279638672" /><trkpt lat="22.48794578125" lon="114.29406379638672" /><trkpt lat="22.48770078125" lon="114.29403879638672" /><trkpt lat="22.48766578125" lon="114.29404979638672" /><trkpt lat="22.48744778125" lon="114.29401079638671" /><trkpt lat="22.48734378125" lon="114.29395779638672" /><trkpt lat="22.48723878125" lon="114.29382179638672" /><trkpt lat="22.48708478125" lon="114.29380179638672" /><trkpt lat="22.48694478125" lon="114.29364879638672" /><trkpt lat="22.48685278125" lon="114.29361479638672" /><trkpt lat="22.48675178125" lon="114.29364179638672" /><trkpt lat="22.48661378125" lon="114.29380779638672" /><trkpt lat="22.48617178125" lon="114.29396279638672" /><trkpt lat="22.48609278125" lon="114.29384279638671" /><trkpt lat="22.48591678125" lon="114.29380879638671" /><trkpt lat="22.48565578125" lon="114.29364379638672" /><trkpt lat="22.48511578125" lon="114.29325579638672" /><trkpt lat="22.48503778125" lon="114.29320179638673" /><trkpt lat="22.48487078125" lon="114.29295179638672" /><trkpt lat="22.48468178125" lon="114.29280879638672" /><trkpt lat="22.48449778125" lon="114.29271779638673" /><trkpt lat="22.48434878125" lon="114.29268279638671" /><trkpt lat="22.48407378125" lon="114.29253979638672" /><trkpt lat="22.48387778125" lon="114.29238279638672" /><trkpt lat="22.48347378125" lon="114.29225679638672" /><trkpt lat="22.48326878125" lon="114.29198279638672" /><trkpt lat="22.48317678125" lon="114.29192479638672" /><trkpt lat="22.48305978125" lon="114.29175079638672" /><trkpt lat="22.48281578125" lon="114.29167879638672" /><trkpt lat="22.48263678125" lon="114.29154079638671" /><trkpt lat="22.48240178125" lon="114.29115879638672" /><trkpt lat="22.48235078125" lon="114.29112479638673" /><trkpt lat="22.48221778125" lon="114.29099979638671" /><trkpt lat="22.48195278125" lon="114.29092279638672" /><trkpt lat="22.48140378125" lon="114.29050179638672" /><trkpt lat="22.48119778125" lon="114.29057479638672" /><trkpt lat="22.48096178125" lon="114.29042779638672" /><trkpt lat="22.48070978125" lon="114.29032679638672" /><trkpt lat="22.48061778125" lon="114.29019479638671" /><trkpt lat="22.48043978125" lon="114.29005179638672" /><trkpt lat="22.48028978125" lon="114.28999179638672" /><trkpt lat="22.47993078125" lon="114.28949879638672" /><trkpt lat="22.47985978125" lon="114.28944879638672" /><trkpt lat="22.47974778125" lon="114.28930179638672" /><trkpt lat="22.47969378125" lon="114.28916379638672" /><trkpt lat="22.47941678125" lon="114.28887279638671" /><trkpt lat="22.47928778125" lon="114.28875479638671" /><trkpt lat="22.47915678125" lon="114.28862279638672" /><trkpt lat="22.47831078125" lon="114.28789979638672" /><trkpt lat="22.47800578125" lon="114.28769979638672" /><trkpt lat="22.47785978125" lon="114.28740979638673" /><trkpt lat="22.47759778125" lon="114.28714079638672" /><trkpt lat="22.477501781249998" lon="114.28699079638672" /><trkpt lat="22.47732078125" lon="114.28681679638672" /><trkpt lat="22.47720178125" lon="114.28664279638672" /><trkpt lat="22.47688778125" lon="114.28649679638671" /><trkpt lat="22.47674778125" lon="114.28640379638672" /><trkpt lat="22.47659178125" lon="114.28621379638672" /><trkpt lat="22.47633378125" lon="114.28601479638672" /><trkpt lat="22.47612878125" lon="114.28572679638673" /><trkpt lat="22.47597378125" lon="114.28565679638672" /><trkpt lat="22.47585178125" lon="114.28556179638672" /><trkpt lat="22.47573978125" lon="114.28542179638671" /><trkpt lat="22.47552078125" lon="114.28531579638671" /><trkpt lat="22.47533778125" lon="114.28492679638671" /><trkpt lat="22.47532178125" lon="114.28448979638672" /><trkpt lat="22.47526878125" lon="114.28442479638672" /><trkpt lat="22.47522978125" lon="114.28427679638672" /><trkpt lat="22.47518878125" lon="114.28410879638672" /><trkpt lat="22.47508178125" lon="114.28386079638672" /><trkpt lat="22.47460778125" lon="114.28338979638671" /><trkpt lat="22.47437978125" lon="114.28325579638671" /><trkpt lat="22.47417978125" lon="114.28301679638672" /><trkpt lat="22.47398078125" lon="114.28290979638672" /><trkpt lat="22.47387978125" lon="114.28280379638672" /><trkpt lat="22.47385578125" lon="114.28276079638673" /><trkpt lat="22.47380578125" lon="114.28271779638672" /><trkpt lat="22.47376978125" lon="114.28248579638672" /><trkpt lat="22.47363478125" lon="114.28237179638671" /><trkpt lat="22.47354878125" lon="114.28232179638673" /><trkpt lat="22.47334078125" lon="114.28221079638672" /><trkpt lat="22.47331178125" lon="114.28205679638671" /><trkpt lat="22.47332178125" lon="114.28174179638673" /><trkpt lat="22.47326378125" lon="114.28141579638672" /><trkpt lat="22.47322778125" lon="114.28098979638672" /><trkpt lat="22.47330478125" lon="114.28077279638671" /><trkpt lat="22.47327578125" lon="114.28055079638672" /><trkpt lat="22.47311478125" lon="114.28028979638673" /><trkpt lat="22.47306778125" lon="114.27996479638672" /><trkpt lat="22.47306478125" lon="114.27961279638671" /><trkpt lat="22.47301078125" lon="114.27951079638672" /><trkpt lat="22.47297078125" lon="114.27938979638672" /><trkpt lat="22.47293678125" lon="114.27924179638671" /><trkpt lat="22.47292378125" lon="114.27909079638673" /><trkpt lat="22.47284878125" lon="114.27892179638673" /><trkpt lat="22.47280378125" lon="114.27868979638671" /><trkpt lat="22.47276178125" lon="114.27853679638672" /><trkpt lat="22.47274578125" lon="114.27832679638672" /><trkpt lat="22.47271378125" lon="114.27817579638672" /><trkpt lat="22.47272378125" lon="114.27790879638673" /><trkpt lat="22.47279678125" lon="114.27776779638671" /><trkpt lat="22.47292578125" lon="114.27763379638672" /><trkpt lat="22.47317678125" lon="114.27701279638671" /><trkpt lat="22.47327778125" lon="114.27695079638671" /><trkpt lat="22.47329778125" lon="114.27664579638672" /><trkpt lat="22.47317278125" lon="114.27646679638671" /><trkpt lat="22.47306378125" lon="114.27627579638671" /><trkpt lat="22.47302378125" lon="114.27615279638673" /><trkpt lat="22.47295578125" lon="114.27599479638671" /><trkpt lat="22.47295778125" lon="114.27583379638672" /><trkpt lat="22.47308878125" lon="114.27566679638672" /><trkpt lat="22.47312878125" lon="114.27548979638672" /><trkpt lat="22.47307578125" lon="114.27526979638672" /><trkpt lat="22.47279578125" lon="114.27491379638671" /><trkpt lat="22.47279778125" lon="114.27461679638672" /><trkpt lat="22.47283078125" lon="114.27440279638672" /><trkpt lat="22.47284778125" lon="114.27406079638672" /><trkpt lat="22.47280378125" lon="114.27388579638672" /><trkpt lat="22.47274378125" lon="114.27347579638672" /><trkpt lat="22.47270078125" lon="114.27342079638672" /><trkpt lat="22.47268678125" lon="114.27334379638671" /><trkpt lat="22.47268778125" lon="114.27307579638672" /><trkpt lat="22.47254578125" lon="114.27262179638672" /><trkpt lat="22.47249278125" lon="114.27242279638672" /><trkpt lat="22.47245878125" lon="114.27217279638671" /><trkpt lat="22.47250778125" lon="114.27211979638672" /><trkpt lat="22.47279878125" lon="114.27208879638673" /><trkpt lat="22.47299578125" lon="114.27197379638672" /><trkpt lat="22.473015781249998" lon="114.27184679638673" /><trkpt lat="22.47295978125" lon="114.27159979638672" /><trkpt lat="22.47288078125" lon="114.27135279638672" /><trkpt lat="22.47289878125" lon="114.27097579638672" /><trkpt lat="22.47296178125" lon="114.27082779638671" /><trkpt lat="22.47297278125" lon="114.27065179638672" /><trkpt lat="22.47288978125" lon="114.27056479638672" /><trkpt lat="22.47276078125" lon="114.27052479638672" /><trkpt lat="22.47254278125" lon="114.27038779638671" /><trkpt lat="22.47232678125" lon="114.27020579638672" /><trkpt lat="22.47212278125" lon="114.27013979638672" /><trkpt lat="22.47205778125" lon="114.26999579638672" /><trkpt lat="22.47205178125" lon="114.26979479638672" /><trkpt lat="22.47200678125" lon="114.26962879638671" /><trkpt lat="22.47190478125" lon="114.26945979638671" /><trkpt lat="22.47174678125" lon="114.26930779638671" /><trkpt lat="22.47161878125" lon="114.26924879638672" /><trkpt lat="22.47155878125" lon="114.26924179638672" /><trkpt lat="22.47141278125" lon="114.26909579638672" /><trkpt lat="22.47127978125" lon="114.26881279638671" /><trkpt lat="22.47124778125" lon="114.26868179638672" /><trkpt lat="22.47135178125" lon="114.26830079638673" /><trkpt lat="22.47135878125" lon="114.26806779638672" /><trkpt lat="22.47128978125" lon="114.26781979638672" /><trkpt lat="22.47120578125" lon="114.26764179638671" /><trkpt lat="22.47117078125" lon="114.26742679638672" /><trkpt lat="22.47100178125" lon="114.26719279638672" /><trkpt lat="22.47080578125" lon="114.26694479638672" /><trkpt lat="22.47076478125" lon="114.26659379638672" /><trkpt lat="22.47053478125" lon="114.26606079638672" /><trkpt lat="22.47044278125" lon="114.26596579638672" /><trkpt lat="22.47030178125" lon="114.26592479638671" /><trkpt lat="22.47026778125" lon="114.26585379638672" /><trkpt lat="22.47022778125" lon="114.26544979638672" /><trkpt lat="22.47009178125" lon="114.26511479638671" /><trkpt lat="22.46994878125" lon="114.26492979638672" /><trkpt lat="22.46971978125" lon="114.26482979638672" /><trkpt lat="22.46950178125" lon="114.26452579638672" /><trkpt lat="22.46939978125" lon="114.26459279638672" /><trkpt lat="22.46902878125" lon="114.26445979638672" /><trkpt lat="22.46896378125" lon="114.26438879638673" /><trkpt lat="22.46888478125" lon="114.26437179638671" /><trkpt lat="22.46884478125" lon="114.26431479638671" /><trkpt lat="22.46876378125" lon="114.26431779638672" /><trkpt lat="22.46862878125" lon="114.26423579638671" /><trkpt lat="22.46852678125" lon="114.26418479638671" /><trkpt lat="22.46847978125" lon="114.26416979638672" /><trkpt lat="22.46839378125" lon="114.26405179638672" /><trkpt lat="22.46840678125" lon="114.26386479638671" /><trkpt lat="22.46827878125" lon="114.26389979638672" /><trkpt lat="22.46813478125" lon="114.26390579638672" /><trkpt lat="22.46791378125" lon="114.26395479638671" /><trkpt lat="22.46779178125" lon="114.26403679638672" /><trkpt lat="22.46760178125" lon="114.26399779638672" /><trkpt lat="22.46745678125" lon="114.26392279638672" /><trkpt lat="22.46742578125" lon="114.26400579638671" /><trkpt lat="22.46731778125" lon="114.26410079638671" /><trkpt lat="22.46703278125" lon="114.26446979638672" /><trkpt lat="22.46688778125" lon="114.26471079638672" /><trkpt lat="22.46675278125" lon="114.26474779638671" /><trkpt lat="22.46660978125" lon="114.26475479638673" /><trkpt lat="22.46657678125" lon="114.26483679638672" /><trkpt lat="22.46661078125" lon="114.26498279638672" /><trkpt lat="22.46659578125" lon="114.26508379638672" /><trkpt lat="22.46655778125" lon="114.26513579638672" /><trkpt lat="22.46638578125" lon="114.26543179638672" /><trkpt lat="22.46616978125" lon="114.26545779638671" /><trkpt lat="22.46611178125" lon="114.26543579638673" /><trkpt lat="22.46593178125" lon="114.26541579638672" /><trkpt lat="22.46582378125" lon="114.26540579638672" /><trkpt lat="22.46568278125" lon="114.26534179638672" /><trkpt lat="22.46553678125" lon="114.26524379638671" /><trkpt lat="22.46540378125" lon="114.26524379638671" /><trkpt lat="22.46530678125" lon="114.26528579638672" /><trkpt lat="22.46504178125" lon="114.26547379638671" /><trkpt lat="22.46488978125" lon="114.26552979638672" /><trkpt lat="22.46471678125" lon="114.26555679638672" /><trkpt lat="22.46460778125" lon="114.26559479638672" /><trkpt lat="22.46456078125" lon="114.26560279638672" /><trkpt lat="22.46450878125" lon="114.26561179638672" /><trkpt lat="22.46437278125" lon="114.26557579638671" /><trkpt lat="22.46420978125" lon="114.26544379638672" /><trkpt lat="22.46410978125" lon="114.26529879638672" /><trkpt lat="22.46410178125" lon="114.26512679638672" /><trkpt lat="22.46415178125" lon="114.26490079638671" /><trkpt lat="22.46410278125" lon="114.26473379638672" /><trkpt lat="22.46402278125" lon="114.26461979638673" /><trkpt lat="22.46394578125" lon="114.26457979638671" /><trkpt lat="22.46365478125" lon="114.26430579638672" /><trkpt lat="22.46359078125" lon="114.26416579638672" /><trkpt lat="22.46350178125" lon="114.26412279638672" /><trkpt lat="22.46343078125" lon="114.26400179638672" /><trkpt lat="22.46344778125" lon="114.26364179638672" /><trkpt lat="22.46310878125" lon="114.26318879638671" /><trkpt lat="22.46288878125" lon="114.26283979638671" /><trkpt lat="22.46248178125" lon="114.26236379638672" /><trkpt lat="22.46236178125" lon="114.26230179638672" /><trkpt lat="22.46216778125" lon="114.26198879638672" /><trkpt lat="22.462073781249998" lon="114.26193279638672" /><trkpt lat="22.46198878125" lon="114.26186279638672" /><trkpt lat="22.46188378125" lon="114.26174179638672" /><trkpt lat="22.46163878125" lon="114.26148279638672" /><trkpt lat="22.46146178125" lon="114.26135479638671" /><trkpt lat="22.46134178125" lon="114.26122679638672" /><trkpt lat="22.46126478125" lon="114.26110179638673" /><trkpt lat="22.46119078125" lon="114.26098579638672" /><trkpt lat="22.46114078125" lon="114.26090779638672" /><trkpt lat="22.46104578125" lon="114.26076379638671" /><trkpt lat="22.460974781250002" lon="114.26068179638672" /><trkpt lat="22.46075578125" lon="114.26069279638672" /><trkpt lat="22.46075378125" lon="114.26077779638672" /><trkpt lat="22.46075978125" lon="114.26088179638671" /><trkpt lat="22.46066578125" lon="114.26084079638672" /><trkpt lat="22.46045778125" lon="114.26073479638671" /><trkpt lat="22.45993678125" lon="114.26044379638672" /><trkpt lat="22.45949078125" lon="114.26020279638672" /><trkpt lat="22.45929978125" lon="114.26010979638671" /><trkpt lat="22.45913378125" lon="114.26015979638672" /><trkpt lat="22.45900678125" lon="114.26014379638671" /><trkpt lat="22.45892978125" lon="114.26012179638671" /><trkpt lat="22.45880478125" lon="114.26007479638672" /><trkpt lat="22.45886778125" lon="114.25995379638672" /><trkpt lat="22.45852578125" lon="114.25966979638672" /><trkpt lat="22.45812878125" lon="114.25937379638673" /><trkpt lat="22.45769278125" lon="114.25917079638671" /><trkpt lat="22.45720678125" lon="114.25895579638672" /><trkpt lat="22.45692378125" lon="114.25894579638671" /><trkpt lat="22.45684878125" lon="114.25908379638672" /><trkpt lat="22.45662078125" lon="114.25906279638671" /><trkpt lat="22.45638878125" lon="114.25889579638672" /><trkpt lat="22.456208781249998" lon="114.25880579638672" /><trkpt lat="22.45580778125" lon="114.25870379638671" /><trkpt lat="22.45569478125" lon="114.25852479638672" /><trkpt lat="22.45568678125" lon="114.25831779638672" /><trkpt lat="22.45571978125" lon="114.25814879638672" /><trkpt lat="22.45577778125" lon="114.25808479638673" /><trkpt lat="22.45607678125" lon="114.25774679638671" /><trkpt lat="22.45612078125" lon="114.25766079638672" /><trkpt lat="22.45612178125" lon="114.25744579638672" /><trkpt lat="22.45610678125" lon="114.25689079638671" /><trkpt lat="22.45612078125" lon="114.25678779638672" /><trkpt lat="22.45632878125" lon="114.25629579638672" /><trkpt lat="22.45645478125" lon="114.25610479638672" /><trkpt lat="22.45655878125" lon="114.25594479638671" /><trkpt lat="22.45671378125" lon="114.25568779638672" /><trkpt lat="22.45675678125" lon="114.25548979638671" /><trkpt lat="22.45671678125" lon="114.25518279638672" /><trkpt lat="22.45657278125" lon="114.25492379638672" /><trkpt lat="22.45618878125" lon="114.25442879638672" /><trkpt lat="22.45614678125" lon="114.25432379638671" /><trkpt lat="22.45614278125" lon="114.25416779638672" /><trkpt lat="22.45623078125" lon="114.25407879638672" /><trkpt lat="22.45656378125" lon="114.25397479638671" /><trkpt lat="22.45665378125" lon="114.25397979638672" /><trkpt lat="22.45681978125" lon="114.25400679638672" /><trkpt lat="22.45692078125" lon="114.25412379638672" /><trkpt lat="22.45704878125" lon="114.25423479638673" /><trkpt lat="22.45747578125" lon="114.25430779638671" /><trkpt lat="22.45774378125" lon="114.25402979638672" /><trkpt lat="22.457784781249998" lon="114.25390379638672" /><trkpt lat="22.45764478125" lon="114.25325179638672" /><trkpt lat="22.45767178125" lon="114.25314979638672" /><trkpt lat="22.45799078125" lon="114.25295579638671" /><trkpt lat="22.45822078125" lon="114.25257279638672" /><trkpt lat="22.45821778125" lon="114.25235779638672" /><trkpt lat="22.45810878125" lon="114.25218879638672" /><trkpt lat="22.45798078125" lon="114.25203579638672" /><trkpt lat="22.45778178125" lon="114.25175779638671" /><trkpt lat="22.45775678125" lon="114.25125979638672" /><trkpt lat="22.45745378125" lon="114.25102179638672" /><trkpt lat="22.45709778125" lon="114.25083279638672" /><trkpt lat="22.45683078125" lon="114.25078879638671" /><trkpt lat="22.45667978125" lon="114.25076979638672" /><trkpt lat="22.45662278125" lon="114.25061879638672" /><trkpt lat="22.45648278125" lon="114.25029279638672" /><trkpt lat="22.45623978125" lon="114.24992179638672" /><trkpt lat="22.45598978125" lon="114.24954379638672" /><trkpt lat="22.45563278125" lon="114.24913979638671" /><trkpt lat="22.45545378125" lon="114.24888479638672" /><trkpt lat="22.45531578125" lon="114.24868879638672" /><trkpt lat="22.45517778125" lon="114.24843779638672" /><trkpt lat="22.45512678125" lon="114.24825079638671" /><trkpt lat="22.45509378125" lon="114.24824779638672" /><trkpt lat="22.45505078125" lon="114.24822179638672" /><trkpt lat="22.45503078125" lon="114.24819279638672" /><trkpt lat="22.45502278125" lon="114.24816179638673" /><trkpt lat="22.45502378125" lon="114.24812579638672" /><trkpt lat="22.45503678125" lon="114.24809279638671" /><trkpt lat="22.45505178125" lon="114.24807279638672" /><trkpt lat="22.45507978125" lon="114.24805279638672" /><trkpt lat="22.45506778125" lon="114.24802179638672" /><trkpt lat="22.45502978125" lon="114.24789979638672" /><trkpt lat="22.45518378125" lon="114.24782479638672" /><trkpt lat="22.46696278125" lon="114.23585579638672" /><trkpt lat="22.466982639202797" lon="114.23585910803114" /><trkpt lat="22.467067889713366" lon="114.23594762119346" /><trkpt lat="22.46811578125" lon="114.23489679638672" /><trkpt lat="22.46823078125" lon="114.23460179638671" /><trkpt lat="22.46824878125" lon="114.23428779638672" /><trkpt lat="22.46823078125" lon="114.23400779638672" /><trkpt lat="22.46829178125" lon="114.23376079638672" /><trkpt lat="22.46843278125" lon="114.23359879638672" /><trkpt lat="22.46864478125" lon="114.23354679638672" /><trkpt lat="22.46889178125" lon="114.23360779638672" /><trkpt lat="22.46912078125" lon="114.23365279638672" /><trkpt lat="22.46916778125" lon="114.23361979638672" /><trkpt lat="22.46919378125" lon="114.23365179638672" /><trkpt lat="22.46921778125" lon="114.23366979638672" /><trkpt lat="22.46924678125" lon="114.23367679638672" /><trkpt lat="22.46927678125" lon="114.23367279638671" /><trkpt lat="22.46930378125" lon="114.23365879638672" /><trkpt lat="22.46932378125" lon="114.23363479638672" /><trkpt lat="22.46933578125" lon="114.23359379638671" /><trkpt lat="22.46932978125" lon="114.23355079638672" /><trkpt lat="22.46943578125" lon="114.23350779638672" /><trkpt lat="22.46948478125" lon="114.23336179638672" /><trkpt lat="22.46959278125" lon="114.23327079638672" /><trkpt lat="22.46969078125" lon="114.23318779638672" /><trkpt lat="22.46988778125" lon="114.23310379638671" /><trkpt lat="22.47025178125" lon="114.23298579638671" /><trkpt lat="22.47045678125" lon="114.23294079638671" /><trkpt lat="22.47078478125" lon="114.23297979638672" /><trkpt lat="22.47088378125" lon="114.23299579638672" /><trkpt lat="22.47096378125" lon="114.23302979638672" /><trkpt lat="22.47112578125" lon="114.23313679638672" /><trkpt lat="22.47128478125" lon="114.23322179638672" /><trkpt lat="22.47139178125" lon="114.23326479638672" /><trkpt lat="22.47152178125" lon="114.23328979638671" /><trkpt lat="22.47161178125" lon="114.23328479638671" /><trkpt lat="22.47168378125" lon="114.23326279638673" /><trkpt lat="22.47174178125" lon="114.23330179638671" /><trkpt lat="22.47182178125" lon="114.23334279638672" /><trkpt lat="22.47194778125" lon="114.23333679638672" /><trkpt lat="22.472280654703365" lon="114.23326624708876" /></trkseg></trk></gpx>