<?xml version='1.0' encoding='UTF-8' ?><gpx version="1.1" creator="HikingTrailHK" xsi:schemaLocation="http://www.topografix.com/GPX/1/1 http://www.topografix.com/GPX/1/1/gpx.xsd" xmlns="http://www.topografix.com/GPX/1/1" xmlns:xsi="http://www.w3.org/2001/XMLSchema-instance"><metadata><name>環湖 @ 2015-12-18</name><desc></desc></metadata><trk><trkseg><trkpt lat="22.472314681829374" lon="114.2332573629255" /><trkpt lat="22.47228278125" lon="114.23326579638672" /><trkpt lat="22.47194778125" lon="114.23333679638672" /><trkpt lat="22.47182178125" lon="114.23334279638672" /><trkpt lat="22.47174178125" lon="114.23330179638671" /><trkpt lat="22.47167578125" lon="114.23334079638671" /><trkpt lat="22.47158878125" lon="114.23336379638671" /><trkpt lat="22.47147478125" lon="114.23336579638672" /><trkpt lat="22.47128678125" lon="114.23331079638672" /><trkpt lat="22.47114878125" lon="114.23326279638673" /><trkpt lat="22.47099878125" lon="114.23315779638672" /><trkpt lat="22.47086278125" lon="114.23307779638672" /><trkpt lat="22.47074778125" lon="114.23304479638672" /><trkpt lat="22.470537781250002" lon="114.23304579638672" /><trkpt lat="22.47032178125" lon="114.23305279638672" /><trkpt lat="22.47010678125" lon="114.23308879638672" /><trkpt lat="22.46988678125" lon="114.23314779638672" /><trkpt lat="22.46970078125" lon="114.23323079638672" /><trkpt lat="22.46955778125" lon="114.23337479638671" /><trkpt lat="22.46950978125" lon="114.23344379638672" /><trkpt lat="22.46947678125" lon="114.23347779638672" /><trkpt lat="22.46943578125" lon="114.23350779638672" /><trkpt lat="22.46932978125" lon="114.23355079638672" /><trkpt lat="22.46933578125" lon="114.23359379638671" /><trkpt lat="22.46932378125" lon="114.23363479638672" /><trkpt lat="22.46930378125" lon="114.23365879638672" /><trkpt lat="22.46927678125" lon="114.23367279638671" /><trkpt lat="22.46924678125" lon="114.23367679638672" /><trkpt lat="22.46921778125" lon="114.23366979638672" /><trkpt lat="22.46919378125" lon="114.23365179638672" /><trkpt lat="22.46916778125" lon="114.23361979638672" /><trkpt lat="22.46912078125" lon="114.23365279638672" /><trkpt lat="22.46889178125" lon="114.23360779638672" /><trkpt lat="22.46864478125" lon="114.23354679638672" /><trkpt lat="22.46843278125" lon="114.23359879638672" /><trkpt lat="22.46829178125" lon="114.23376079638672" /><trkpt lat="22.46823078125" lon="114.23400779638672" /><trkpt lat="22.46824878125" lon="114.23428779638672" /><trkpt lat="22.46823078125" lon="114.23460179638671" /><trkpt lat="22.46811578125" lon="114.23489679638672" /><trkpt lat="22.46668478125" lon="114.23633179638672" /><trkpt lat="22.46228278125" lon="114.24079979638672" /><trkpt lat="22.45716578125" lon="114.24599579638672" /><trkpt lat="22.45553178125" lon="114.24764579638672" /><trkpt lat="22.45518378125" lon="114.24807479638672" /><trkpt lat="22.45520378125" lon="114.24810379638672" /><trkpt lat="22.45521178125" lon="114.24813879638671" /><trkpt lat="22.45520678125" lon="114.24818479638672" /><trkpt lat="22.45518978125" lon="114.24821479638672" /><trkpt lat="22.45516378125" lon="114.24823779638672" /><trkpt lat="22.45512678125" lon="114.24825079638671" /><trkpt lat="22.45517778125" lon="114.24843779638672" /><trkpt lat="22.45531578125" lon="114.24868879638672" /><trkpt lat="22.45545378125" lon="114.24888479638672" /><trkpt lat="22.45563278125" lon="114.24913979638671" /><trkpt lat="22.45598978125" lon="114.24954379638672" /><trkpt lat="22.45623978125" lon="114.24992179638672" /><trkpt lat="22.45648278125" lon="114.25029279638672" /><trkpt lat="22.45662278125" lon="114.25061879638672" /><trkpt lat="22.45667978125" lon="114.25076979638672" /><trkpt lat="22.45683078125" lon="114.25078879638671" /><trkpt lat="22.45709778125" lon="114.25083279638672" /><trkpt lat="22.45745378125" lon="114.25102179638672" /><trkpt lat="22.45775678125" lon="114.25125979638672" /><trkpt lat="22.45778178125" lon="114.25175779638671" /><trkpt lat="22.45798078125" lon="114.25203579638672" /><trkpt lat="22.45810878125" lon="114.25218879638672" /><trkpt lat="22.45821778125" lon="114.25235779638672" /><trkpt lat="22.45822078125" lon="114.25257279638672" /><trkpt lat="22.45799078125" lon="114.25295579638671" /><trkpt lat="22.45767178125" lon="114.25314979638672" /><trkpt lat="22.45764478125" lon="114.25325179638672" /><trkpt lat="22.457784781249998" lon="114.25390379638672" /><trkpt lat="22.45774378125" lon="114.25402979638672" /><trkpt lat="22.45747578125" lon="114.25430779638671" /><trkpt lat="22.45704878125" lon="114.25423479638673" /><trkpt lat="22.45692078125" lon="114.25412379638672" /><trkpt lat="22.45681978125" lon="114.25400679638672" /><trkpt lat="22.45665378125" lon="114.25397979638672" /><trkpt lat="22.45656378125" lon="114.25397479638671" /><trkpt lat="22.45623078125" lon="114.25407879638672" /><trkpt lat="22.45614278125" lon="114.25416779638672" /><trkpt lat="22.45614678125" lon="114.25432379638671" /><trkpt lat="22.45618878125" lon="114.25442879638672" /><trkpt lat="22.45657278125" lon="114.25492379638672" /><trkpt lat="22.45671678125" lon="114.25518279638672" /><trkpt lat="22.45675678125" lon="114.25548979638671" /><trkpt lat="22.45671378125" lon="114.25568779638672" /><trkpt lat="22.45655878125" lon="114.25594479638671" /><trkpt lat="22.45645478125" lon="114.25610479638672" /><trkpt lat="22.45632878125" lon="114.25629579638672" /><trkpt lat="22.45612078125" lon="114.25678779638672" /><trkpt lat="22.45610678125" lon="114.25689079638671" /><trkpt lat="22.45612178125" lon="114.25744579638672" /><trkpt lat="22.45612078125" lon="114.25766079638672" /><trkpt lat="22.45607678125" lon="114.25774679638671" /><trkpt lat="22.45577778125" lon="114.25808479638673" /><trkpt lat="22.45571978125" lon="114.25814879638672" /><trkpt lat="22.45568678125" lon="114.25831779638672" /><trkpt lat="22.45569478125" lon="114.25852479638672" /><trkpt lat="22.45580778125" lon="114.25870379638671" /><trkpt lat="22.456208781249998" lon="114.25880579638672" /><trkpt lat="22.45638878125" lon="114.25889579638672" /><trkpt lat="22.45662078125" lon="114.25906279638671" /><trkpt lat="22.45684878125" lon="114.25908379638672" /><trkpt lat="22.45692378125" lon="114.25894579638671" /><trkpt lat="22.45720678125" lon="114.25895579638672" /><trkpt lat="22.45769278125" lon="114.25917079638671" /><trkpt lat="22.45812878125" lon="114.25937379638673" /><trkpt lat="22.45852578125" lon="114.25966979638672" /><trkpt lat="22.45886778125" lon="114.25995379638672" /><trkpt lat="22.45880478125" lon="114.26007479638672" /><trkpt lat="22.45892978125" lon="114.26012179638671" /><trkpt lat="22.45900678125" lon="114.26014379638671" /><trkpt lat="22.45913378125" lon="114.26015979638672" /><trkpt lat="22.45929978125" lon="114.26010979638671" /><trkpt lat="22.45949078125" lon="114.26020279638672" /><trkpt lat="22.45993678125" lon="114.26044379638672" /><trkpt lat="22.46045778125" lon="114.26073479638671" /><trkpt lat="22.46066578125" lon="114.26084079638672" /><trkpt lat="22.46075978125" lon="114.26088179638671" /><trkpt lat="22.46075378125" lon="114.26077779638672" /><trkpt lat="22.46075578125" lon="114.26069279638672" /><trkpt lat="22.460974781250002" lon="114.26068179638672" /><trkpt lat="22.46104578125" lon="114.26076379638671" /><trkpt lat="22.46114078125" lon="114.26090779638672" /><trkpt lat="22.46119078125" lon="114.26098579638672" /><trkpt lat="22.46126478125" lon="114.26110179638673" /><trkpt lat="22.46134178125" lon="114.26122679638672" /><trkpt lat="22.46146178125" lon="114.26135479638671" /><trkpt lat="22.46163878125" lon="114.26148279638672" /><trkpt lat="22.46188378125" lon="114.26174179638672" /><trkpt lat="22.46198878125" lon="114.26186279638672" /><trkpt lat="22.462073781249998" lon="114.26193279638672" /><trkpt lat="22.46216778125" lon="114.26198879638672" /><trkpt lat="22.46236178125" lon="114.26230179638672" /><trkpt lat="22.46248178125" lon="114.26236379638672" /><trkpt lat="22.46288878125" lon="114.26283979638671" /><trkpt lat="22.46310878125" lon="114.26318879638671" /><trkpt lat="22.46344778125" lon="114.26364179638672" /><trkpt lat="22.46343078125" lon="114.26400179638672" /><trkpt lat="22.46350178125" lon="114.26412279638672" /><trkpt lat="22.46359078125" lon="114.26416579638672" /><trkpt lat="22.46365478125" lon="114.26430579638672" /><trkpt lat="22.46394578125" lon="114.26457979638671" /><trkpt lat="22.46402278125" lon="114.26461979638673" /><trkpt lat="22.46410278125" lon="114.26473379638672" /><trkpt lat="22.46415178125" lon="114.26490079638671" /><trkpt lat="22.46410178125" lon="114.26512679638672" /><trkpt lat="22.46410978125" lon="114.26529879638672" /><trkpt lat="22.46420978125" lon="114.26544379638672" /><trkpt lat="22.46437278125" lon="114.26557579638671" /><trkpt lat="22.46450878125" lon="114.26561179638672" /><trkpt lat="22.46456078125" lon="114.26560279638672" /><trkpt lat="22.46460778125" lon="114.26559479638672" /><trkpt lat="22.46471678125" lon="114.26555679638672" /><trkpt lat="22.46488978125" lon="114.26552979638672" /><trkpt lat="22.46504178125" lon="114.26547379638671" /><trkpt lat="22.46530678125" lon="114.26528579638672" /><trkpt lat="22.46540378125" lon="114.26524379638671" /><trkpt lat="22.46553678125" lon="114.26524379638671" /><trkpt lat="22.46568278125" lon="114.26534179638672" /><trkpt lat="22.46582378125" lon="114.26540579638672" /><trkpt lat="22.46593178125" lon="114.26541579638672" /><trkpt lat="22.46611178125" lon="114.26543579638673" /><trkpt lat="22.46616978125" lon="114.26545779638671" /><trkpt lat="22.46638578125" lon="114.26543179638672" /><trkpt lat="22.46655778125" lon="114.26513579638672" /><trkpt lat="22.46659578125" lon="114.26508379638672" /><trkpt lat="22.46661078125" lon="114.26498279638672" /><trkpt lat="22.46657678125" lon="114.26483679638672" /><trkpt lat="22.46660978125" lon="114.26475479638673" /><trkpt lat="22.46675278125" lon="114.26474779638671" /><trkpt lat="22.46688778125" lon="114.26471079638672" /><trkpt lat="22.46703278125" lon="114.26446979638672" /><trkpt lat="22.46731778125" lon="114.26410079638671" /><trkpt lat="22.46742578125" lon="114.26400579638671" /><trkpt lat="22.46745678125" lon="114.26392279638672" /><trkpt lat="22.46760178125" lon="114.26399779638672" /><trkpt lat="22.46779178125" lon="114.26403679638672" /><trkpt lat="22.46791378125" lon="114.26395479638671" /><trkpt lat="22.46813478125" lon="114.26390579638672" /><trkpt lat="22.46827878125" lon="114.26389979638672" /><trkpt lat="22.46840678125" lon="114.26386479638671" /><trkpt lat="22.46839378125" lon="114.26405179638672" /><trkpt lat="22.46847978125" lon="114.26416979638672" /><trkpt lat="22.46852678125" lon="114.26418479638671" /><trkpt lat="22.46862878125" lon="114.26423579638671" /><trkpt lat="22.46876378125" lon="114.26431779638672" /><trkpt lat="22.46884478125" lon="114.26431479638671" /><trkpt lat="22.46888478125" lon="114.26437179638671" /><trkpt lat="22.46896378125" lon="114.26438879638673" /><trkpt lat="22.46902878125" lon="114.26445979638672" /><trkpt lat="22.46939978125" lon="114.26459279638672" /><trkpt lat="22.46950178125" lon="114.26452579638672" /><trkpt lat="22.46971978125" lon="114.26482979638672" /><trkpt lat="22.46994878125" lon="114.26492979638672" /><trkpt lat="22.47009178125" lon="114.26511479638671" /><trkpt lat="22.47022778125" lon="114.26544979638672" /><trkpt lat="22.47026778125" lon="114.26585379638672" /><trkpt lat="22.47030178125" lon="114.26592479638671" /><trkpt lat="22.47044278125" lon="114.26596579638672" /><trkpt lat="22.47053478125" lon="114.26606079638672" /><trkpt lat="22.47076478125" lon="114.26659379638672" /><trkpt lat="22.47080578125" lon="114.26694479638672" /><trkpt lat="22.47100178125" lon="114.26719279638672" /><trkpt lat="22.47117078125" lon="114.26742679638672" /><trkpt lat="22.47120578125" lon="114.26764179638671" /><trkpt lat="22.47128978125" lon="114.26781979638672" /><trkpt lat="22.47135878125" lon="114.26806779638672" /><trkpt lat="22.47135178125" lon="114.26830079638673" /><trkpt lat="22.47124778125" lon="114.26868179638672" /><trkpt lat="22.47127978125" lon="114.26881279638671" /><trkpt lat="22.47141278125" lon="114.26909579638672" /><trkpt lat="22.47155878125" lon="114.26924179638672" /><trkpt lat="22.47161878125" lon="114.26924879638672" /><trkpt lat="22.47174678125" lon="114.26930779638671" /><trkpt lat="22.47190478125" lon="114.26945979638671" /><trkpt lat="22.47200678125" lon="114.26962879638671" /><trkpt lat="22.47205178125" lon="114.26979479638672" /><trkpt lat="22.47205778125" lon="114.26999579638672" /><trkpt lat="22.47212278125" lon="114.27013979638672" /><trkpt lat="22.47232678125" lon="114.27020579638672" /><trkpt lat="22.47254278125" lon="114.27038779638671" /><trkpt lat="22.47276078125" lon="114.27052479638672" /><trkpt lat="22.47288978125" lon="114.27056479638672" /><trkpt lat="22.47297278125" lon="114.27065179638672" /><trkpt lat="22.47296178125" lon="114.27082779638671" /><trkpt lat="22.47289878125" lon="114.27097579638672" /><trkpt lat="22.47288078125" lon="114.27135279638672" /><trkpt lat="22.47295978125" lon="114.27159979638672" /><trkpt lat="22.473015781249998" lon="114.27184679638673" /><trkpt lat="22.47299578125" lon="114.27197379638672" /><trkpt lat="22.47279878125" lon="114.27208879638673" /><trkpt lat="22.47250778125" lon="114.27211979638672" /><trkpt lat="22.47245878125" lon="114.27217279638671" /><trkpt lat="22.47249278125" lon="114.27242279638672" /><trkpt lat="22.47254578125" lon="114.27262179638672" /><trkpt lat="22.47268778125" lon="114.27307579638672" /><trkpt lat="22.47268678125" lon="114.27334379638671" /><trkpt lat="22.47270078125" lon="114.27342079638672" /><trkpt lat="22.47274378125" lon="114.27347579638672" /><trkpt lat="22.47280378125" lon="114.27388579638672" /><trkpt lat="22.47284778125" lon="114.27406079638672" /><trkpt lat="22.47283078125" lon="114.27440279638672" /><trkpt lat="22.47279778125" lon="114.27461679638672" /><trkpt lat="22.47279578125" lon="114.27491379638671" /><trkpt lat="22.47307578125" lon="114.27526979638672" /><trkpt lat="22.47312878125" lon="114.27548979638672" /><trkpt lat="22.47308878125" lon="114.27566679638672" /><trkpt lat="22.47295778125" lon="114.27583379638672" /><trkpt lat="22.47295578125" lon="114.27599479638671" /><trkpt lat="22.47302378125" lon="114.27615279638673" /><trkpt lat="22.47306378125" lon="114.27627579638671" /><trkpt lat="22.47317278125" lon="114.27646679638671" /><trkpt lat="22.47329778125" lon="114.27664579638672" /><trkpt lat="22.47327778125" lon="114.27695079638671" /><trkpt lat="22.47317678125" lon="114.27701279638671" /><trkpt lat="22.47292578125" lon="114.27763379638672" /><trkpt lat="22.47279678125" lon="114.27776779638671" /><trkpt lat="22.47272378125" lon="114.27790879638673" /><trkpt lat="22.47271378125" lon="114.27817579638672" /><trkpt lat="22.47274578125" lon="114.27832679638672" /><trkpt lat="22.47276178125" lon="114.27853679638672" /><trkpt lat="22.47280378125" lon="114.27868979638671" /><trkpt lat="22.47284878125" lon="114.27892179638673" /><trkpt lat="22.47292378125" lon="114.27909079638673" /><trkpt lat="22.47293678125" lon="114.27924179638671" /><trkpt lat="22.47297078125" lon="114.27938979638672" /><trkpt lat="22.47301078125" lon="114.27951079638672" /><trkpt lat="22.47306478125" lon="114.27961279638671" /><trkpt lat="22.47306778125" lon="114.27996479638672" /><trkpt lat="22.47311478125" lon="114.28028979638673" /><trkpt lat="22.47327578125" lon="114.28055079638672" /><trkpt lat="22.47330478125" lon="114.28077279638671" /><trkpt lat="22.47322778125" lon="114.28098979638672" /><trkpt lat="22.47326378125" lon="114.28141579638672" /><trkpt lat="22.47332178125" lon="114.28174179638673" /><trkpt lat="22.47331178125" lon="114.28205679638671" /><trkpt lat="22.47334078125" lon="114.28221079638672" /><trkpt lat="22.47354878125" lon="114.28232179638673" /><trkpt lat="22.47363478125" lon="114.28237179638671" /><trkpt lat="22.47376978125" lon="114.28248579638672" /><trkpt lat="22.47380578125" lon="114.28271779638672" /><trkpt lat="22.47385578125" lon="114.28276079638673" /><trkpt lat="22.47387978125" lon="114.28280379638672" /><trkpt lat="22.47398078125" lon="114.28290979638672" /><trkpt lat="22.47417978125" lon="114.28301679638672" /><trkpt lat="22.47437978125" lon="114.28325579638671" /><trkpt lat="22.47460778125" lon="114.28338979638671" /><trkpt lat="22.47508178125" lon="114.28386079638672" /><trkpt lat="22.47518878125" lon="114.28410879638672" /><trkpt lat="22.47522978125" lon="114.28427679638672" /><trkpt lat="22.47526878125" lon="114.28442479638672" /><trkpt lat="22.47532178125" lon="114.28448979638672" /><trkpt lat="22.47533778125" lon="114.28492679638671" /><trkpt lat="22.47552078125" lon="114.28531579638671" /><trkpt lat="22.47573978125" lon="114.28542179638671" /><trkpt lat="22.47585178125" lon="114.28556179638672" /><trkpt lat="22.47597378125" lon="114.28565679638672" /><trkpt lat="22.47612878125" lon="114.28572679638673" /><trkpt lat="22.47633378125" lon="114.28601479638672" /><trkpt lat="22.47659178125" lon="114.28621379638672" /><trkpt lat="22.47674778125" lon="114.28640379638672" /><trkpt lat="22.47688778125" lon="114.28649679638671" /><trkpt lat="22.47720178125" lon="114.28664279638672" /><trkpt lat="22.47732078125" lon="114.28681679638672" /><trkpt lat="22.477501781249998" lon="114.28699079638672" /><trkpt lat="22.47759778125" lon="114.28714079638672" /><trkpt lat="22.47785978125" lon="114.28740979638673" /><trkpt lat="22.47800578125" lon="114.28769979638672" /><trkpt lat="22.47831078125" lon="114.28789979638672" /><trkpt lat="22.47915678125" lon="114.28862279638672" /><trkpt lat="22.47928778125" lon="114.28875479638671" /><trkpt lat="22.47941678125" lon="114.28887279638671" /><trkpt lat="22.47969378125" lon="114.28916379638672" /><trkpt lat="22.47974778125" lon="114.28930179638672" /><trkpt lat="22.47985978125" lon="114.28944879638672" /><trkpt lat="22.47993078125" lon="114.28949879638672" /><trkpt lat="22.48028978125" lon="114.28999179638672" /><trkpt lat="22.48043978125" lon="114.29005179638672" /><trkpt lat="22.48061778125" lon="114.29019479638671" /><trkpt lat="22.48070978125" lon="114.29032679638672" /><trkpt lat="22.48096178125" lon="114.29042779638672" /><trkpt lat="22.48119778125" lon="114.29057479638672" /><trkpt lat="22.48140378125" lon="114.29050179638672" /><trkpt lat="22.48195278125" lon="114.29092279638672" /><trkpt lat="22.48221778125" lon="114.29099979638671" /><trkpt lat="22.48235078125" lon="114.29112479638673" /><trkpt lat="22.48240178125" lon="114.29115879638672" /><trkpt lat="22.48263678125" lon="114.29154079638671" /><trkpt lat="22.48281578125" lon="114.29167879638672" /><trkpt lat="22.48305978125" lon="114.29175079638672" /><trkpt lat="22.48317678125" lon="114.29192479638672" /><trkpt lat="22.48326878125" lon="114.29198279638672" /><trkpt lat="22.48347378125" lon="114.29225679638672" /><trkpt lat="22.48387778125" lon="114.29238279638672" /><trkpt lat="22.48407378125" lon="114.29253979638672" /><trkpt lat="22.48434878125" lon="114.29268279638671" /><trkpt lat="22.48449778125" lon="114.29271779638673" /><trkpt lat="22.48468178125" lon="114.29280879638672" /><trkpt lat="22.48487078125" lon="114.29295179638672" /><trkpt lat="22.48503778125" lon="114.29320179638673" /><trkpt lat="22.48511578125" lon="114.29325579638672" /><trkpt lat="22.48565578125" lon="114.29364379638672" /><trkpt lat="22.48591678125" lon="114.29380879638671" /><trkpt lat="22.48609278125" lon="114.29384279638671" /><trkpt lat="22.48617178125" lon="114.29396279638672" /><trkpt lat="22.48661378125" lon="114.29380779638672" /><trkpt lat="22.48675178125" lon="114.29364179638672" /><trkpt lat="22.48685278125" lon="114.29361479638672" /><trkpt lat="22.48694478125" lon="114.29364879638672" /><trkpt lat="22.48708478125" lon="114.29380179638672" /><trkpt lat="22.48723878125" lon="114.29382179638672" /><trkpt lat="22.48734378125" lon="114.29395779638672" /><trkpt lat="22.48744778125" lon="114.29401079638671" /><trkpt lat="22.48766578125" lon="114.29404979638672" /><trkpt lat="22.48770078125" lon="114.29403879638672" /><trkpt lat="22.48794578125" lon="114.29406379638672" /><trkpt lat="22.48806478125" lon="114.29421279638672" /><trkpt lat="22.48819178125" lon="114.29421179638672" /><trkpt lat="22.48836078125" lon="114.29402279638671" /><trkpt lat="22.48851378125" lon="114.29392679638671" /><trkpt lat="22.48861878125" lon="114.29391079638673" /><trkpt lat="22.48884078125" lon="114.29377379638672" /><trkpt lat="22.48889578125" lon="114.29367579638672" /><trkpt lat="22.48908378125" lon="114.29346979638672" /><trkpt lat="22.48935478125" lon="114.29330179638671" /><trkpt lat="22.48956978125" lon="114.29327079638672" /><trkpt lat="22.48987278125" lon="114.29311879638672" /><trkpt lat="22.48994678125" lon="114.29311679638671" /><trkpt lat="22.49012978125" lon="114.29315779638672" /><trkpt lat="22.49018978125" lon="114.29313779638672" /><trkpt lat="22.49024678125" lon="114.29316579638672" /><trkpt lat="22.49033278125" lon="114.29317479638672" /><trkpt lat="22.49038178125" lon="114.29315279638672" /><trkpt lat="22.49057178125" lon="114.29318979638671" /><trkpt lat="22.49070178125" lon="114.29317779638671" /><trkpt lat="22.49083178125" lon="114.29322079638672" /><trkpt lat="22.49098278125" lon="114.29324579638671" /><trkpt lat="22.49108578125" lon="114.29328479638671" /><trkpt lat="22.49119078125" lon="114.29336479638673" /><trkpt lat="22.49126378125" lon="114.29338279638672" /><trkpt lat="22.49133378125" lon="114.29347879638672" /><trkpt lat="22.49147178125" lon="114.29358879638671" /><trkpt lat="22.49159678125" lon="114.29359579638673" /><trkpt lat="22.49173378125" lon="114.29366279638671" /><trkpt lat="22.49195978125" lon="114.29366479638672" /><trkpt lat="22.49203578125" lon="114.29369979638672" /><trkpt lat="22.49209178125" lon="114.29359979638672" /><trkpt lat="22.49221678125" lon="114.29347179638673" /><trkpt lat="22.49251678125" lon="114.29298779638673" /><trkpt lat="22.49269778125" lon="114.29294879638672" /><trkpt lat="22.49282478125" lon="114.29290579638672" /><trkpt lat="22.49290278125" lon="114.29275879638672" /><trkpt lat="22.49290678125" lon="114.29269479638671" /><trkpt lat="22.49316578125" lon="114.29246879638671" /><trkpt lat="22.49324878125" lon="114.29238579638672" /><trkpt lat="22.49325178125" lon="114.29225979638672" /><trkpt lat="22.49328978125" lon="114.29211979638671" /><trkpt lat="22.49341978125" lon="114.29201979638673" /><trkpt lat="22.49354278125" lon="114.29179679638672" /><trkpt lat="22.49373478125" lon="114.29149779638672" /><trkpt lat="22.49377578125" lon="114.29134079638672" /><trkpt lat="22.49366378125" lon="114.29116579638672" /><trkpt lat="22.49366778125" lon="114.29088979638672" /><trkpt lat="22.49389978125" lon="114.29062979638672" /><trkpt lat="22.49395278125" lon="114.29041379638672" /><trkpt lat="22.49412978125" lon="114.29010179638672" /><trkpt lat="22.49425978125" lon="114.28994479638672" /><trkpt lat="22.49427878125" lon="114.28979779638672" /><trkpt lat="22.49467578125" lon="114.28923979638672" /><trkpt lat="22.49482378125" lon="114.28915279638672" /><trkpt lat="22.49494478125" lon="114.28913179638671" /><trkpt lat="22.49496778125" lon="114.28894179638672" /><trkpt lat="22.49571678125" lon="114.28830379638671" /><trkpt lat="22.49570478125" lon="114.28815079638672" /><trkpt lat="22.49578678125" lon="114.28787679638671" /><trkpt lat="22.49597978125" lon="114.28758179638672" /><trkpt lat="22.49621078125" lon="114.28723679638672" /><trkpt lat="22.49635578125" lon="114.28651679638672" /><trkpt lat="22.49639878125" lon="114.28646579638672" /><trkpt lat="22.49653078125" lon="114.28631279638672" /><trkpt lat="22.49661178125" lon="114.28605179638672" /><trkpt lat="22.49652778125" lon="114.28589679638672" /><trkpt lat="22.49654878125" lon="114.28583679638672" /><trkpt lat="22.49668778125" lon="114.28591379638672" /><trkpt lat="22.49675878125" lon="114.28592179638672" /><trkpt lat="22.49682178125" lon="114.28582679638671" /><trkpt lat="22.49673978125" lon="114.28569079638672" /><trkpt lat="22.49678778125" lon="114.28559379638672" /><trkpt lat="22.49677478125" lon="114.28545679638673" /><trkpt lat="22.49683578125" lon="114.28518379638672" /><trkpt lat="22.49683578125" lon="114.28506379638672" /><trkpt lat="22.49691178125" lon="114.28476679638672" /><trkpt lat="22.49695278125" lon="114.28445679638672" /><trkpt lat="22.49696678125" lon="114.28409279638672" /><trkpt lat="22.49693978125" lon="114.28391479638672" /><trkpt lat="22.49694778125" lon="114.28377479638672" /><trkpt lat="22.49687878125" lon="114.28349679638671" /><trkpt lat="22.49691078125" lon="114.28302379638671" /><trkpt lat="22.49697078125" lon="114.28288079638672" /><trkpt lat="22.49701178125" lon="114.28280679638672" /><trkpt lat="22.49707478125" lon="114.28260279638671" /><trkpt lat="22.49711578125" lon="114.28244479638671" /><trkpt lat="22.49717278125" lon="114.28233379638672" /><trkpt lat="22.49724378125" lon="114.28214079638671" /><trkpt lat="22.49736978125" lon="114.28190579638672" /><trkpt lat="22.49751878125" lon="114.28171879638671" /><trkpt lat="22.49762678125" lon="114.28144979638672" /><trkpt lat="22.49773578125" lon="114.28125679638671" /><trkpt lat="22.49779578125" lon="114.28118079638672" /><trkpt lat="22.49793578125" lon="114.28108579638672" /><trkpt lat="22.49798978125" lon="114.28100179638672" /><trkpt lat="22.49805378125" lon="114.28094879638672" /><trkpt lat="22.49814278125" lon="114.28084779638672" /><trkpt lat="22.49822178125" lon="114.28064779638672" /><trkpt lat="22.49829078125" lon="114.28050279638671" /><trkpt lat="22.49833978125" lon="114.28036379638672" /><trkpt lat="22.49831978125" lon="114.28020579638672" /><trkpt lat="22.49827178125" lon="114.28010479638672" /><trkpt lat="22.49821778125" lon="114.27997479638672" /><trkpt lat="22.49813578125" lon="114.27989079638672" /><trkpt lat="22.49797378125" lon="114.27962479638671" /><trkpt lat="22.49793078125" lon="114.27924179638671" /><trkpt lat="22.49787678125" lon="114.27910879638672" /><trkpt lat="22.49775078125" lon="114.27894679638672" /><trkpt lat="22.49757478125" lon="114.27846379638672" /><trkpt lat="22.49748878125" lon="114.27810479638671" /><trkpt lat="22.49718578125" lon="114.27728879638671" /><trkpt lat="22.49692678125" lon="114.27646179638671" /><trkpt lat="22.49678978125" lon="114.27614779638672" /><trkpt lat="22.49673378125" lon="114.27574879638672" /><trkpt lat="22.49656778125" lon="114.27523379638671" /><trkpt lat="22.49653578125" lon="114.27464579638672" /><trkpt lat="22.49645278125" lon="114.27411879638672" /><trkpt lat="22.49638078125" lon="114.27395279638672" /><trkpt lat="22.49637178125" lon="114.27344779638672" /><trkpt lat="22.49633078125" lon="114.27304179638672" /><trkpt lat="22.49628778125" lon="114.27264179638672" /><trkpt lat="22.49618278125" lon="114.27235579638672" /><trkpt lat="22.49607978125" lon="114.27137079638672" /><trkpt lat="22.49611878125" lon="114.27097579638672" /><trkpt lat="22.49604878125" lon="114.27037979638672" /><trkpt lat="22.49610478125" lon="114.27010679638671" /><trkpt lat="22.49612478125" lon="114.27002979638672" /><trkpt lat="22.49637778125" lon="114.26944779638671" /><trkpt lat="22.49646278125" lon="114.26929979638672" /><trkpt lat="22.49648178125" lon="114.26911879638672" /><trkpt lat="22.49653878125" lon="114.26901779638672" /><trkpt lat="22.49662378125" lon="114.26889179638673" /><trkpt lat="22.49668378125" lon="114.26887779638672" /><trkpt lat="22.49676478125" lon="114.26887179638672" /><trkpt lat="22.49691078125" lon="114.26877879638671" /><trkpt lat="22.49696678125" lon="114.26867979638672" /><trkpt lat="22.49707578125" lon="114.26855979638673" /><trkpt lat="22.49719478125" lon="114.26838079638672" /><trkpt lat="22.49721278125" lon="114.26830579638671" /><trkpt lat="22.49724178125" lon="114.26817379638672" /><trkpt lat="22.49730778125" lon="114.26803979638672" /><trkpt lat="22.49738178125" lon="114.26792279638671" /><trkpt lat="22.49741878125" lon="114.26782479638672" /><trkpt lat="22.49750178125" lon="114.26775079638672" /><trkpt lat="22.49757178125" lon="114.26757979638671" /><trkpt lat="22.49761178125" lon="114.26745779638672" /><trkpt lat="22.49767078125" lon="114.26737179638671" /><trkpt lat="22.49773678125" lon="114.26731579638673" /><trkpt lat="22.49782478125" lon="114.26719079638671" /><trkpt lat="22.49785978125" lon="114.26710779638672" /><trkpt lat="22.49793078125" lon="114.26703179638672" /><trkpt lat="22.49801578125" lon="114.26696979638672" /><trkpt lat="22.49812578125" lon="114.26689679638672" /><trkpt lat="22.49816778125" lon="114.26682879638672" /><trkpt lat="22.49827578125" lon="114.26676779638672" /><trkpt lat="22.49835378125" lon="114.26676679638672" /><trkpt lat="22.49842478125" lon="114.26672079638672" /><trkpt lat="22.49851678125" lon="114.26671879638671" /><trkpt lat="22.49863778125" lon="114.26667379638671" /><trkpt lat="22.49874778125" lon="114.26661479638672" /><trkpt lat="22.49884278125" lon="114.26659879638672" /><trkpt lat="22.49895178125" lon="114.26656979638672" /><trkpt lat="22.49899378125" lon="114.26652879638672" /><trkpt lat="22.49904878125" lon="114.26648579638672" /><trkpt lat="22.49909078125" lon="114.26646479638671" /><trkpt lat="22.49913678125" lon="114.26643679638671" /><trkpt lat="22.49917878125" lon="114.26636279638672" /><trkpt lat="22.49922378125" lon="114.26635079638672" /><trkpt lat="22.49929878125" lon="114.26632479638671" /><trkpt lat="22.49974378125" lon="114.26614579638672" /><trkpt lat="22.49982778125" lon="114.26603679638671" /><trkpt lat="22.49988078125" lon="114.26602079638671" /><trkpt lat="22.49996178125" lon="114.26598579638672" /><trkpt lat="22.50005978125" lon="114.26594479638672" /><trkpt lat="22.50013278125" lon="114.26587979638671" /><trkpt lat="22.50022978125" lon="114.26581079638672" /><trkpt lat="22.50025078125" lon="114.26575279638672" /><trkpt lat="22.50030078125" lon="114.26571379638672" /><trkpt lat="22.50040678125" lon="114.26570379638672" /><trkpt lat="22.50045578125" lon="114.26568479638672" /><trkpt lat="22.50049578125" lon="114.26565179638672" /><trkpt lat="22.50056578125" lon="114.26557379638672" /><trkpt lat="22.50069178125" lon="114.26556279638672" /><trkpt lat="22.50080478125" lon="114.26558479638672" /><trkpt lat="22.50094478125" lon="114.26559979638672" /><trkpt lat="22.50108878125" lon="114.26558579638672" /><trkpt lat="22.50113778125" lon="114.26554879638672" /><trkpt lat="22.50117978125" lon="114.26547479638671" /><trkpt lat="22.501234781249998" lon="114.26537979638672" /><trkpt lat="22.50129678125" lon="114.26522179638673" /><trkpt lat="22.50136778125" lon="114.26512279638672" /><trkpt lat="22.50141078125" lon="114.26498579638672" /><trkpt lat="22.50153278125" lon="114.26472879638672" /><trkpt lat="22.50167278125" lon="114.26450979638672" /><trkpt lat="22.50175478125" lon="114.26444079638672" /><trkpt lat="22.50182778125" lon="114.26431879638672" /><trkpt lat="22.50193178125" lon="114.26422979638672" /><trkpt lat="22.50201978125" lon="114.26418479638671" /><trkpt lat="22.50238678125" lon="114.26392079638671" /><trkpt lat="22.50244778125" lon="114.26384379638672" /><trkpt lat="22.50247378125" lon="114.26372779638672" /><trkpt lat="22.50257078125" lon="114.26370379638672" /><trkpt lat="22.50260778125" lon="114.26357379638672" /><trkpt lat="22.50256878125" lon="114.26339179638671" /><trkpt lat="22.50240978125" lon="114.26333979638672" /><trkpt lat="22.50235378125" lon="114.26321079638672" /><trkpt lat="22.50238378125" lon="114.26291579638672" /><trkpt lat="22.50242778125" lon="114.26275479638672" /><trkpt lat="22.50256478125" lon="114.26261779638672" /><trkpt lat="22.50271378125" lon="114.26250379638672" /><trkpt lat="22.50280178125" lon="114.26244079638671" /><trkpt lat="22.50274278125" lon="114.26230379638672" /><trkpt lat="22.50271178125" lon="114.26221479638671" /><trkpt lat="22.50269578125" lon="114.26208479638672" /><trkpt lat="22.50267878125" lon="114.26197179638672" /><trkpt lat="22.50268478125" lon="114.26185579638671" /><trkpt lat="22.50269378125" lon="114.26173779638673" /><trkpt lat="22.50272878125" lon="114.26163379638672" /><trkpt lat="22.50271678125" lon="114.26156579638672" /><trkpt lat="22.50269978125" lon="114.26148779638672" /><trkpt lat="22.50268278125" lon="114.26137579638672" /><trkpt lat="22.50264478125" lon="114.26120979638672" /><trkpt lat="22.50254578125" lon="114.26103679638672" /><trkpt lat="22.50246778125" lon="114.26090579638672" /><trkpt lat="22.50240378125" lon="114.26080979638672" /><trkpt lat="22.50234878125" lon="114.26057979638672" /><trkpt lat="22.50234778125" lon="114.26046779638672" /><trkpt lat="22.50242978125" lon="114.26039579638672" /><trkpt lat="22.50240878125" lon="114.26023379638671" /><trkpt lat="22.50239878125" lon="114.26010479638671" /><trkpt lat="22.50236378125" lon="114.26002679638673" /><trkpt lat="22.50230978125" lon="114.25992779638672" /><trkpt lat="22.50230178125" lon="114.25978379638671" /><trkpt lat="22.50229978125" lon="114.25973979638673" /><trkpt lat="22.50234878125" lon="114.25956479638671" /><trkpt lat="22.50242178125" lon="114.25942879638671" /><trkpt lat="22.50245278125" lon="114.25924179638672" /><trkpt lat="22.50248378125" lon="114.25914879638673" /><trkpt lat="22.50253778125" lon="114.25901879638671" /><trkpt lat="22.50256778125" lon="114.25892879638671" /><trkpt lat="22.50256678125" lon="114.25883279638671" /><trkpt lat="22.50260378125" lon="114.25869579638672" /><trkpt lat="22.50267078125" lon="114.25857179638672" /><trkpt lat="22.50277078125" lon="114.25847779638671" /><trkpt lat="22.50284278125" lon="114.25833479638672" /><trkpt lat="22.50290378125" lon="114.25829179638671" /><trkpt lat="22.50305278125" lon="114.25821579638672" /><trkpt lat="22.50311378125" lon="114.25812379638671" /><trkpt lat="22.50321178125" lon="114.25798079638672" /><trkpt lat="22.50333278125" lon="114.25783279638672" /><trkpt lat="22.50340078125" lon="114.25766479638672" /><trkpt lat="22.50339978125" lon="114.25743879638672" /><trkpt lat="22.50337678125" lon="114.25732979638671" /><trkpt lat="22.50333178125" lon="114.25710579638672" /><trkpt lat="22.50326978125" lon="114.25683279638672" /><trkpt lat="22.50321678125" lon="114.25672379638672" /><trkpt lat="22.50316078125" lon="114.25659879638673" /><trkpt lat="22.50320678125" lon="114.25652679638672" /><trkpt lat="22.50323078125" lon="114.25646679638672" /><trkpt lat="22.50320778125" lon="114.25638079638672" /><trkpt lat="22.50330178125" lon="114.25620379638671" /><trkpt lat="22.50336178125" lon="114.25605179638671" /><trkpt lat="22.50347278125" lon="114.25581779638672" /><trkpt lat="22.50358978125" lon="114.25565179638672" /><trkpt lat="22.50365778125" lon="114.25559179638672" /><trkpt lat="22.50374378125" lon="114.25556279638671" /><trkpt lat="22.50383178125" lon="114.25551979638672" /><trkpt lat="22.50390278125" lon="114.25538579638672" /><trkpt lat="22.50396378125" lon="114.25527179638672" /><trkpt lat="22.50400478125" lon="114.25519079638671" /><trkpt lat="22.50402178125" lon="114.25502679638672" /><trkpt lat="22.50408878125" lon="114.25492179638672" /><trkpt lat="22.50416078125" lon="114.25482479638671" /><trkpt lat="22.50420078125" lon="114.25473379638672" /><trkpt lat="22.50425178125" lon="114.25464079638672" /><trkpt lat="22.50430678125" lon="114.25452279638672" /><trkpt lat="22.50433978125" lon="114.25445979638671" /><trkpt lat="22.50437578125" lon="114.25440779638672" /><trkpt lat="22.50440678125" lon="114.25432479638671" /><trkpt lat="22.50442978125" lon="114.25422079638672" /><trkpt lat="22.50444578125" lon="114.25410679638672" /><trkpt lat="22.50446878125" lon="114.25397079638672" /><trkpt lat="22.50448678125" lon="114.25385079638671" /><trkpt lat="22.50449578125" lon="114.25379179638672" /><trkpt lat="22.50451178125" lon="114.25370179638672" /><trkpt lat="22.50454278125" lon="114.25359279638671" /><trkpt lat="22.50456578125" lon="114.25350079638672" /><trkpt lat="22.50459878125" lon="114.25339179638672" /><trkpt lat="22.50460378125" lon="114.25323879638673" /><trkpt lat="22.50461078125" lon="114.25312379638672" /><trkpt lat="22.50460678125" lon="114.25301579638672" /><trkpt lat="22.50461678125" lon="114.25285779638672" /><trkpt lat="22.50460378125" lon="114.25275379638671" /><trkpt lat="22.50456878125" lon="114.25263079638673" /><trkpt lat="22.50451578125" lon="114.25253279638672" /><trkpt lat="22.50444878125" lon="114.25245479638671" /><trkpt lat="22.50443378125" lon="114.25235579638672" /><trkpt lat="22.50440578125" lon="114.25232179638672" /><trkpt lat="22.50436078125" lon="114.25227779638672" /><trkpt lat="22.50430478125" lon="114.25215979638672" /><trkpt lat="22.50429678125" lon="114.25214379638672" /><trkpt lat="22.50425578125" lon="114.25206279638672" /><trkpt lat="22.50424478125" lon="114.25201479638672" /><trkpt lat="22.50423078125" lon="114.25195479638671" /><trkpt lat="22.50420678125" lon="114.25183779638672" /><trkpt lat="22.50418978125" lon="114.25171879638673" /><trkpt lat="22.50424178125" lon="114.25156079638671" /><trkpt lat="22.50428678125" lon="114.25145879638671" /><trkpt lat="22.50429478125" lon="114.25133479638671" /><trkpt lat="22.50428178125" lon="114.25120079638671" /><trkpt lat="22.50422078125" lon="114.25109079638672" /><trkpt lat="22.50416178125" lon="114.25099879638672" /><trkpt lat="22.50414678125" lon="114.25091179638672" /><trkpt lat="22.50412678125" lon="114.25082279638671" /><trkpt lat="22.50408878125" lon="114.25070879638672" /><trkpt lat="22.50409578125" lon="114.25059279638671" /><trkpt lat="22.50410378125" lon="114.25044079638671" /><trkpt lat="22.50401078125" lon="114.25034379638672" /><trkpt lat="22.50394278125" lon="114.25029779638672" /><trkpt lat="22.50391778125" lon="114.25025179638672" /><trkpt lat="22.50388978125" lon="114.25018879638672" /><trkpt lat="22.50384678125" lon="114.25010479638672" /><trkpt lat="22.50383578125" lon="114.24999479638672" /><trkpt lat="22.50386378125" lon="114.24988579638672" /><trkpt lat="22.50385678125" lon="114.24976079638672" /><trkpt lat="22.50384978125" lon="114.24968679638671" /><trkpt lat="22.50379478125" lon="114.24961679638672" /><trkpt lat="22.50373178125" lon="114.24958979638672" /><trkpt lat="22.50361578125" lon="114.24957779638672" /><trkpt lat="22.50351078125" lon="114.24957279638672" /><trkpt lat="22.50342678125" lon="114.24952879638671" /><trkpt lat="22.50338578125" lon="114.24946979638672" /><trkpt lat="22.50336478125" lon="114.24941979638672" /><trkpt lat="22.50336978125" lon="114.24928279638672" /><trkpt lat="22.50343978125" lon="114.24915579638672" /><trkpt lat="22.50353978125" lon="114.24905779638672" /><trkpt lat="22.50362778125" lon="114.24893479638672" /><trkpt lat="22.50367078125" lon="114.24882579638673" /><trkpt lat="22.50369078125" lon="114.24870079638671" /><trkpt lat="22.50365478125" lon="114.24855679638672" /><trkpt lat="22.50360278125" lon="114.24841379638671" /><trkpt lat="22.50355478125" lon="114.24832979638671" /><trkpt lat="22.50348278125" lon="114.24825579638672" /><trkpt lat="22.50343978125" lon="114.24820779638672" /><trkpt lat="22.50336678125" lon="114.24814879638672" /><trkpt lat="22.50328378125" lon="114.24807579638671" /><trkpt lat="22.50322478125" lon="114.24803379638672" /><trkpt lat="22.50316178125" lon="114.24798879638672" /><trkpt lat="22.50304578125" lon="114.24791879638671" /><trkpt lat="22.50300478125" lon="114.24788979638672" /><trkpt lat="22.50303678125" lon="114.24781379638672" /><trkpt lat="22.50306278125" lon="114.24775079638673" /><trkpt lat="22.50313678125" lon="114.24759579638672" /><trkpt lat="22.50324078125" lon="114.24733179638672" /><trkpt lat="22.50330978125" lon="114.24718679638671" /><trkpt lat="22.50338178125" lon="114.24707279638672" /><trkpt lat="22.50331878125" lon="114.24696079638672" /><trkpt lat="22.50326378125" lon="114.24690179638672" /><trkpt lat="22.50323278125" lon="114.24681179638672" /><trkpt lat="22.50324178125" lon="114.24672179638672" /><trkpt lat="22.50329478125" lon="114.24655579638672" /><trkpt lat="22.50337078125" lon="114.24645879638672" /><trkpt lat="22.50336078125" lon="114.24635679638672" /><trkpt lat="22.50335078125" lon="114.24628679638671" /><trkpt lat="22.50336578125" lon="114.24617579638672" /><trkpt lat="22.50345278125" lon="114.24597779638673" /><trkpt lat="22.50356278125" lon="114.24577879638672" /><trkpt lat="22.50361278125" lon="114.24566179638671" /><trkpt lat="22.50369578125" lon="114.24545179638672" /><trkpt lat="22.50377078125" lon="114.24529579638671" /><trkpt lat="22.50383578125" lon="114.24520279638672" /><trkpt lat="22.50391978125" lon="114.24511679638672" /><trkpt lat="22.50404378125" lon="114.24499379638672" /><trkpt lat="22.50420678125" lon="114.24472879638672" /><trkpt lat="22.50437778125" lon="114.24457179638672" /><trkpt lat="22.50457778125" lon="114.24429279638672" /><trkpt lat="22.50476278125" lon="114.24419479638672" /><trkpt lat="22.50491278125" lon="114.24417579638671" /><trkpt lat="22.50498378125" lon="114.24416279638672" /><trkpt lat="22.50505978125" lon="114.24410779638671" /><trkpt lat="22.50522078125" lon="114.24397679638672" /><trkpt lat="22.50538178125" lon="114.24385979638672" /><trkpt lat="22.50547678125" lon="114.24381179638672" /><trkpt lat="22.50553878125" lon="114.24377379638672" /><trkpt lat="22.50562878125" lon="114.24357679638672" /><trkpt lat="22.50569578125" lon="114.24350579638671" /><trkpt lat="22.50576078125" lon="114.24346779638672" /><trkpt lat="22.50583778125" lon="114.24342579638672" /><trkpt lat="22.50576378125" lon="114.24326379638671" /><trkpt lat="22.50568078125" lon="114.24310879638672" /><trkpt lat="22.50566978125" lon="114.24299579638672" /><trkpt lat="22.50565878125" lon="114.24275179638671" /><trkpt lat="22.50559778125" lon="114.24266779638671" /><trkpt lat="22.50555778125" lon="114.24255579638672" /><trkpt lat="22.50557178125" lon="114.24247279638672" /><trkpt lat="22.50556678125" lon="114.24243379638672" /><trkpt lat="22.50550078125" lon="114.24236979638673" /><trkpt lat="22.50546578125" lon="114.24228279638672" /><trkpt lat="22.50544778125" lon="114.24214179638672" /><trkpt lat="22.50544778125" lon="114.24209479638672" /><trkpt lat="22.50547278125" lon="114.24206579638673" /><trkpt lat="22.50551778125" lon="114.24203579638672" /><trkpt lat="22.50558078125" lon="114.24203879638672" /><trkpt lat="22.50564078125" lon="114.24203979638672" /><trkpt lat="22.50563678125" lon="114.24195979638672" /><trkpt lat="22.50564678125" lon="114.24193779638672" /><trkpt lat="22.50583678125" lon="114.24183779638672" /><trkpt lat="22.50590778125" lon="114.24181179638671" /><trkpt lat="22.50600578125" lon="114.24175979638672" /><trkpt lat="22.50667678125" lon="114.24140579638672" /><trkpt lat="22.50674178125" lon="114.24156479638673" /><trkpt lat="22.50678578125" lon="114.24169979638671" /><trkpt lat="22.50681778125" lon="114.24182279638671" /><trkpt lat="22.50685078125" lon="114.24194179638671" /><trkpt lat="22.50688378125" lon="114.24204379638672" /><trkpt lat="22.50694178125" lon="114.24215579638673" /><trkpt lat="22.50698178125" lon="114.24222279638671" /><trkpt lat="22.50704378125" lon="114.24230979638672" /><trkpt lat="22.50709678125" lon="114.24239279638672" /><trkpt lat="22.50715078125" lon="114.24248779638671" /><trkpt lat="22.50728978125" lon="114.24279979638672" /><trkpt lat="22.50735778125" lon="114.24289379638672" /><trkpt lat="22.50744878125" lon="114.24295879638672" /><trkpt lat="22.50754678125" lon="114.24299779638672" /><trkpt lat="22.50763478125" lon="114.24299979638671" /><trkpt lat="22.50771254002873" lon="114.24296981709976" /></trkseg></trk></gpx>