<?xml version='1.0' encoding='UTF-8' ?><gpx version="1.1" creator="HikingTrailHK" xsi:schemaLocation="http://www.topografix.com/GPX/1/1 http://www.topografix.com/GPX/1/1/gpx.xsd" xmlns="http://www.topografix.com/GPX/1/1" xmlns:xsi="http://www.w3.org/2001/XMLSchema-instance"><metadata><name>白崖 @ 2024-8-3</name><desc></desc></metadata><trk><trkseg><trkpt lat="22.25480978125" lon="114.28868679638671" /><trkpt lat="22.25447678125" lon="114.28917979638672" /><trkpt lat="22.25445078125" lon="114.28923579638672" /><trkpt lat="22.25453078125" lon="114.28928379638671" /><trkpt lat="22.25478278125" lon="114.28930079638671" /><trkpt lat="22.254872035997817" lon="114.28932158837192" /><trkpt lat="22.254856781249998" lon="114.28937679638672" /><trkpt lat="22.25483878125" lon="114.28940379638672" /><trkpt lat="22.25480778125" lon="114.28942379638671" /><trkpt lat="22.25478678125" lon="114.28942979638671" /><trkpt lat="22.25472878125" lon="114.28941679638672" /><trkpt lat="22.25466778125" lon="114.28943179638672" /><trkpt lat="22.25468578125" lon="114.28944879638672" /><trkpt lat="22.25469178125" lon="114.28947079638672" /><trkpt lat="22.25467578125" lon="114.28949979638672" /><trkpt lat="22.25461178125" lon="114.28950579638672" /><trkpt lat="22.25460778125" lon="114.28954079638672" /><trkpt lat="22.25459078125" lon="114.28957579638671" /><trkpt lat="22.25466278125" lon="114.28964579638672" /><trkpt lat="22.25475678125" lon="114.28964679638672" /><trkpt lat="22.25478878125" lon="114.28966679638671" /><trkpt lat="22.25489478125" lon="114.28968179638672" /><trkpt lat="22.25498778125" lon="114.28991779638672" /><trkpt lat="22.25497478125" lon="114.28999379638672" /><trkpt lat="22.25495978125" lon="114.29003879638672" /><trkpt lat="22.25497178125" lon="114.29009079638672" /><trkpt lat="22.25500578125" lon="114.29017879638671" /><trkpt lat="22.25500478125" lon="114.29023579638672" /><trkpt lat="22.25498578125" lon="114.29034179638671" /><trkpt lat="22.25498478125" lon="114.29045979638671" /><trkpt lat="22.25519778125" lon="114.29066079638672" /><trkpt lat="22.25525278125" lon="114.29074379638672" /><trkpt lat="22.25532878125" lon="114.29080379638673" /><trkpt lat="22.25554178125" lon="114.29090379638671" /><trkpt lat="22.25562778125" lon="114.29105879638672" /><trkpt lat="22.25573878125" lon="114.29137379638672" /><trkpt lat="22.25578878125" lon="114.29147879638671" /><trkpt lat="22.25597678125" lon="114.29162879638672" /><trkpt lat="22.25603078125" lon="114.29172979638672" /><trkpt lat="22.25604178125" lon="114.29180779638672" /><trkpt lat="22.25612278125" lon="114.29189579638673" /><trkpt lat="22.25612378125" lon="114.29197479638673" /><trkpt lat="22.25616778125" lon="114.29206579638672" /><trkpt lat="22.25619878125" lon="114.29223579638672" /><trkpt lat="22.25622778125" lon="114.29242079638672" /><trkpt lat="22.25629778125" lon="114.29255479638672" /><trkpt lat="22.25634978125" lon="114.29271679638671" /><trkpt lat="22.25648378125" lon="114.29292179638672" /><trkpt lat="22.25660878125" lon="114.29314379638672" /><trkpt lat="22.25665178125" lon="114.29323179638672" /><trkpt lat="22.25667878125" lon="114.29330579638672" /><trkpt lat="22.25674978125" lon="114.29345079638672" /><trkpt lat="22.25679578125" lon="114.29360079638671" /><trkpt lat="22.25687578125" lon="114.29413879638672" /><trkpt lat="22.25700878125" lon="114.29441279638672" /><trkpt lat="22.25720178125" lon="114.29450879638672" /><trkpt lat="22.25758078125" lon="114.29465779638672" /><trkpt lat="22.25762678125" lon="114.29465079638672" /><trkpt lat="22.25778978125" lon="114.29463279638672" /><trkpt lat="22.25791178125" lon="114.29478279638671" /><trkpt lat="22.25796078125" lon="114.29480079638672" /><trkpt lat="22.25807378125" lon="114.29489179638672" /><trkpt lat="22.25807678125" lon="114.29504779638673" /><trkpt lat="22.25807178125" lon="114.29523079638672" /><trkpt lat="22.25809978125" lon="114.29533379638671" /><trkpt lat="22.25819878125" lon="114.29549279638672" /><trkpt lat="22.25820078125" lon="114.29557279638672" /><trkpt lat="22.25825878125" lon="114.29570679638672" /><trkpt lat="22.25829978125" lon="114.29580879638672" /><trkpt lat="22.25832078125" lon="114.29595979638673" /><trkpt lat="22.25839378125" lon="114.29596679638672" /><trkpt lat="22.25844078125" lon="114.29599179638672" /><trkpt lat="22.25847978125" lon="114.29603679638672" /><trkpt lat="22.258542019281037" lon="114.29607509851706" /><trkpt lat="22.258553137567844" lon="114.29613817198623" /><trkpt lat="22.25850529854209" lon="114.29612893980618" /><trkpt lat="22.25846631429834" lon="114.29602246515594" /><trkpt lat="22.25846178125" lon="114.29601679638672" /><trkpt lat="22.25845378125" lon="114.29600679638672" /><trkpt lat="22.25844078125" lon="114.29599179638672" /><trkpt lat="22.25839378125" lon="114.29596679638672" /><trkpt lat="22.25832078125" lon="114.29595979638673" /><trkpt lat="22.25829978125" lon="114.29580879638672" /><trkpt lat="22.25825878125" lon="114.29570679638672" /><trkpt lat="22.25820078125" lon="114.29557279638672" /><trkpt lat="22.25819878125" lon="114.29549279638672" /><trkpt lat="22.25809978125" lon="114.29533379638671" /><trkpt lat="22.25807178125" lon="114.29523079638672" /><trkpt lat="22.25807678125" lon="114.29504779638673" /><trkpt lat="22.25807378125" lon="114.29489179638672" /><trkpt lat="22.25796078125" lon="114.29480079638672" /><trkpt lat="22.25791178125" lon="114.29478279638671" /><trkpt lat="22.25778978125" lon="114.29463279638672" /><trkpt lat="22.25762678125" lon="114.29465079638672" /><trkpt lat="22.25758078125" lon="114.29465779638672" /><trkpt lat="22.25752378125" lon="114.29475079638672" /><trkpt lat="22.25721878125" lon="114.29496679638672" /><trkpt lat="22.25711078125" lon="114.29499979638672" /><trkpt lat="22.25699278125" lon="114.29497979638671" /><trkpt lat="22.25673278125" lon="114.29504379638672" /><trkpt lat="22.25646078125" lon="114.29532779638672" /><trkpt lat="22.25640378125" lon="114.29534979638672" /><trkpt lat="22.25635578125" lon="114.29536879638673" /><trkpt lat="22.25616878125" lon="114.29534779638672" /><trkpt lat="22.25581478125" lon="114.29552479638672" /><trkpt lat="22.25563078125" lon="114.29553779638672" /><trkpt lat="22.25551078125" lon="114.29549479638672" /><trkpt lat="22.25534778125" lon="114.29543779638672" /><trkpt lat="22.25525578125" lon="114.29535879638672" /><trkpt lat="22.25502478125" lon="114.29514279638671" /><trkpt lat="22.25488178125" lon="114.29507779638672" /><trkpt lat="22.25482478125" lon="114.29510079638672" /><trkpt lat="22.25475578125" lon="114.29516579638671" /><trkpt lat="22.25473478125" lon="114.29514079638672" /><trkpt lat="22.25470478125" lon="114.29510279638671" /><trkpt lat="22.25461478125" lon="114.29508979638672" /><trkpt lat="22.25459978125" lon="114.29507079638672" /><trkpt lat="22.25451878125" lon="114.29506879638672" /><trkpt lat="22.25445378125" lon="114.29496379638672" /><trkpt lat="22.25439378125" lon="114.29496379638672" /><trkpt lat="22.25436478125" lon="114.29490779638672" /><trkpt lat="22.25428778125" lon="114.29488879638672" /><trkpt lat="22.254227781250002" lon="114.29503379638672" /><trkpt lat="22.25410678125" lon="114.29500979638672" /><trkpt lat="22.25399578125" lon="114.29499179638673" /><trkpt lat="22.25391678125" lon="114.29492079638672" /><trkpt lat="22.25383978125" lon="114.29494579638671" /><trkpt lat="22.25376278125" lon="114.29499379638672" /><trkpt lat="22.25365578125" lon="114.29497379638671" /><trkpt lat="22.25354578125" lon="114.29499779638672" /><trkpt lat="22.25337078125" lon="114.29499479638672" /><trkpt lat="22.25317978125" lon="114.29498779638672" /><trkpt lat="22.25311078125" lon="114.29494079638673" /><trkpt lat="22.25303978125" lon="114.29494079638673" /><trkpt lat="22.25297178125" lon="114.29491079638672" /><trkpt lat="22.25293378125" lon="114.29484079638672" /><trkpt lat="22.25288578125" lon="114.29478479638672" /><trkpt lat="22.25280378125" lon="114.29476279638672" /><trkpt lat="22.25273278125" lon="114.29476179638672" /><trkpt lat="22.25254978125" lon="114.29469079638672" /><trkpt lat="22.25247978125" lon="114.29462179638672" /><trkpt lat="22.25234378125" lon="114.29461579638672" /><trkpt lat="22.25220778125" lon="114.29456379638673" /><trkpt lat="22.25211178125" lon="114.29438679638672" /><trkpt lat="22.25205378125" lon="114.29426879638672" /><trkpt lat="22.25196778125" lon="114.29427379638672" /><trkpt lat="22.25182878125" lon="114.29414679638671" /><trkpt lat="22.25176078125" lon="114.29416079638672" /><trkpt lat="22.25167178125" lon="114.29416179638672" /><trkpt lat="22.25162978125" lon="114.29412779638672" /><trkpt lat="22.25149378125" lon="114.29412679638672" /><trkpt lat="22.25141778125" lon="114.29415579638672" /><trkpt lat="22.25138378125" lon="114.29423979638672" /><trkpt lat="22.25131978125" lon="114.29431779638672" /><trkpt lat="22.25121878125" lon="114.29433379638672" /><trkpt lat="22.25110478125" lon="114.29435779638672" /><trkpt lat="22.25098678125" lon="114.29433979638672" /><trkpt lat="22.25087778125" lon="114.29438779638672" /><trkpt lat="22.25076778125" lon="114.29438779638672" /><trkpt lat="22.25066678125" lon="114.29444779638672" /><trkpt lat="22.25056178125" lon="114.29448279638672" /><trkpt lat="22.25040378125" lon="114.29443379638671" /><trkpt lat="22.25026978125" lon="114.29449879638672" /><trkpt lat="22.25011078125" lon="114.29449679638672" /><trkpt lat="22.24999478125" lon="114.29453879638672" /><trkpt lat="22.24991778125" lon="114.29450579638672" /><trkpt lat="22.24982178125" lon="114.29451979638672" /><trkpt lat="22.24975178125" lon="114.29444879638672" /><trkpt lat="22.24966478125" lon="114.29439379638671" /><trkpt lat="22.24962478125" lon="114.29432379638672" /><trkpt lat="22.24954278125" lon="114.29429479638672" /><trkpt lat="22.24945278125" lon="114.29428479638672" /><trkpt lat="22.24936478125" lon="114.29422179638672" /><trkpt lat="22.24932878125" lon="114.29413879638672" /><trkpt lat="22.24927478125" lon="114.29413679638672" /><trkpt lat="22.24922578125" lon="114.29409479638672" /><trkpt lat="22.24915578125" lon="114.29408479638671" /><trkpt lat="22.24907678125" lon="114.29413279638672" /><trkpt lat="22.24898878125" lon="114.29414379638672" /><trkpt lat="22.24889678125" lon="114.29407779638672" /><trkpt lat="22.24886778125" lon="114.29397979638672" /><trkpt lat="22.24888278125" lon="114.29380579638672" /><trkpt lat="22.24876878125" lon="114.29365279638672" /><trkpt lat="22.24864178125" lon="114.29366079638672" /><trkpt lat="22.24852178125" lon="114.29367979638671" /><trkpt lat="22.24842978125" lon="114.29363779638672" /><trkpt lat="22.24837478125" lon="114.29364779638672" /><trkpt lat="22.24833578125" lon="114.29360679638671" /><trkpt lat="22.24834778125" lon="114.29350679638672" /><trkpt lat="22.24845578125" lon="114.29322679638672" /><trkpt lat="22.24831678125" lon="114.29296979638671" /><trkpt lat="22.24815778125" lon="114.29286179638672" /><trkpt lat="22.24805278125" lon="114.29273979638671" /><trkpt lat="22.24806478125" lon="114.29267379638672" /><trkpt lat="22.24811378125" lon="114.29258379638672" /><trkpt lat="22.24818778125" lon="114.29244079638671" /><trkpt lat="22.24826578125" lon="114.29234779638672" /><trkpt lat="22.24830578125" lon="114.29229979638671" /><trkpt lat="22.24839078125" lon="114.29224779638672" /><trkpt lat="22.24847278125" lon="114.29216379638672" /><trkpt lat="22.24850478125" lon="114.29209279638673" /><trkpt lat="22.24854978125" lon="114.29193379638672" /><trkpt lat="22.24865478125" lon="114.29177679638671" /><trkpt lat="22.24861078125" lon="114.29145779638672" /><trkpt lat="22.24858078125" lon="114.29137179638671" /><trkpt lat="22.24858778125" lon="114.29125979638673" /><trkpt lat="22.24866478125" lon="114.29108879638672" /><trkpt lat="22.24890478125" lon="114.29077479638671" /><trkpt lat="22.24896678125" lon="114.29070579638672" /><trkpt lat="22.24912678125" lon="114.29047479638672" /><trkpt lat="22.24927978125" lon="114.29019379638672" /><trkpt lat="22.24927078125" lon="114.29012679638672" /><trkpt lat="22.24916878125" lon="114.29003479638672" /><trkpt lat="22.24909878125" lon="114.28999779638671" /><trkpt lat="22.24906778125" lon="114.28997279638672" /><trkpt lat="22.24907178125" lon="114.28991579638672" /><trkpt lat="22.24921178125" lon="114.28977979638672" /><trkpt lat="22.24935878125" lon="114.28965179638672" /><trkpt lat="22.24950978125" lon="114.28950779638672" /><trkpt lat="22.24978778125" lon="114.28916679638672" /><trkpt lat="22.24987778125" lon="114.28894179638672" /><trkpt lat="22.24984078125" lon="114.28885379638672" /><trkpt lat="22.24970378125" lon="114.28882679638672" /><trkpt lat="22.24950978125" lon="114.28884479638671" /><trkpt lat="22.24929478125" lon="114.28881379638672" /><trkpt lat="22.24896978125" lon="114.28878379638672" /><trkpt lat="22.24882978125" lon="114.28874379638673" /><trkpt lat="22.24871078125" lon="114.28866279638672" /><trkpt lat="22.24864578125" lon="114.28854579638671" /><trkpt lat="22.24856678125" lon="114.28846179638671" /><trkpt lat="22.24843878125" lon="114.28841779638672" /><trkpt lat="22.24833578125" lon="114.28839179638672" /><trkpt lat="22.24822778125" lon="114.28831179638672" /><trkpt lat="22.24784278125" lon="114.28798779638672" /><trkpt lat="22.24754278125" lon="114.28773379638672" /><trkpt lat="22.24730278125" lon="114.28758279638672" /><trkpt lat="22.24713378125" lon="114.28725979638672" /><trkpt lat="22.24700478125" lon="114.28718879638672" /><trkpt lat="22.24680278125" lon="114.28711379638672" /><trkpt lat="22.24663278125" lon="114.28704379638671" /><trkpt lat="22.24655878125" lon="114.28700879638671" /><trkpt lat="22.24652778125" lon="114.28693979638672" /><trkpt lat="22.24653378125" lon="114.28672879638673" /><trkpt lat="22.24628778125" lon="114.28666079638671" /><trkpt lat="22.24590078125" lon="114.28683079638672" /><trkpt lat="22.24577078125" lon="114.28693579638671" /><trkpt lat="22.24569878125" lon="114.28703679638672" /><trkpt lat="22.24555678125" lon="114.28708279638671" /><trkpt lat="22.24540178125" lon="114.28711079638671" /><trkpt lat="22.24521978125" lon="114.28716979638672" /><trkpt lat="22.24510978125" lon="114.28735379638672" /><trkpt lat="22.24496278125" lon="114.28781679638672" /><trkpt lat="22.24472178125" lon="114.28802879638671" /><trkpt lat="22.24468078125" lon="114.28811079638672" /><trkpt lat="22.24478078125" lon="114.28838079638672" /><trkpt lat="22.24469278125" lon="114.28855279638672" /><trkpt lat="22.24439878125" lon="114.28871479638671" /><trkpt lat="22.24405678125" lon="114.28866979638671" /><trkpt lat="22.24378578125" lon="114.28875679638672" /><trkpt lat="22.24364378125" lon="114.28892279638671" /><trkpt lat="22.24357278125" lon="114.28898879638672" /><trkpt lat="22.24346578125" lon="114.28903579638671" /><trkpt lat="22.24334878125" lon="114.28909479638672" /><trkpt lat="22.24322078125" lon="114.28921979638672" /><trkpt lat="22.24317878125" lon="114.28926479638672" /><trkpt lat="22.24310078125" lon="114.28924579638672" /><trkpt lat="22.24305578125" lon="114.28919979638673" /><trkpt lat="22.24294378125" lon="114.28880979638672" /><trkpt lat="22.24281078125" lon="114.28837879638672" /><trkpt lat="22.24274578125" lon="114.28818779638672" /><trkpt lat="22.24271878125" lon="114.28804179638672" /><trkpt lat="22.24280878125" lon="114.28783979638672" /><trkpt lat="22.24300778125" lon="114.28734779638671" /><trkpt lat="22.24286778125" lon="114.28730579638672" /><trkpt lat="22.24271878125" lon="114.28733779638672" /><trkpt lat="22.24253978125" lon="114.28745579638672" /><trkpt lat="22.24236178125" lon="114.28760579638671" /><trkpt lat="22.24210278125" lon="114.28783179638671" /><trkpt lat="22.24186378125" lon="114.28817779638672" /><trkpt lat="22.24154578125" lon="114.28832079638671" /><trkpt lat="22.24118478125" lon="114.28834179638672" /><trkpt lat="22.24093578125" lon="114.28837279638672" /><trkpt lat="22.24098678125" lon="114.28860179638671" /><trkpt lat="22.24088778125" lon="114.28864279638672" /><trkpt lat="22.24079578125" lon="114.28871179638672" /><trkpt lat="22.24063978125" lon="114.28896079638672" /><trkpt lat="22.24056378125" lon="114.28903579638671" /><trkpt lat="22.24028578125" lon="114.28926579638672" /><trkpt lat="22.24017578125" lon="114.28924579638672" /><trkpt lat="22.24003778125" lon="114.28918279638673" /><trkpt lat="22.23993778125" lon="114.28923879638671" /><trkpt lat="22.23981878125" lon="114.28914379638672" /><trkpt lat="22.23966978125" lon="114.28908679638671" /><trkpt lat="22.23951878125" lon="114.28906179638672" /><trkpt lat="22.23930378125" lon="114.28902679638672" /><trkpt lat="22.239127210443513" lon="114.28909713482733" /><trkpt lat="22.23886859022936" lon="114.2893969189621" /><trkpt lat="22.23889436363521" lon="114.2891116257814" /><trkpt lat="22.23897437515727" lon="114.28893609890264" /><trkpt lat="22.238980945152008" lon="114.28892986047885" /><trkpt lat="22.238982280302224" lon="114.2889196047708" /><trkpt lat="22.2389886366704" lon="114.28891680970753" /><trkpt lat="22.23899046877618" lon="114.28889998030058" /><trkpt lat="22.238997161241087" lon="114.28889691558328" /><trkpt lat="22.238997781468697" lon="114.28889005007636" /><trkpt lat="22.239007933787093" lon="114.28888418938925" /><trkpt lat="22.239005376483263" lon="114.28887698883813" /><trkpt lat="22.238981260011794" lon="114.28891026786634" /><trkpt lat="22.23894878125" lon="114.28888279638672" /><trkpt lat="22.23873878125" lon="114.28869179638671" /><trkpt lat="22.23868178125" lon="114.28870979638671" /><trkpt lat="22.23857478125" lon="114.28861979638671" /><trkpt lat="22.23855178125" lon="114.28847879638671" /><trkpt lat="22.23861778125" lon="114.28826079638672" /><trkpt lat="22.23862578125" lon="114.28821179638672" /><trkpt lat="22.23863778125" lon="114.28817579638672" /><trkpt lat="22.23865078125" lon="114.28814979638672" /><trkpt lat="22.23871378125" lon="114.28805979638672" /><trkpt lat="22.23879478125" lon="114.28799479638671" /><trkpt lat="22.23901178125" lon="114.28779979638672" /><trkpt lat="22.23911578125" lon="114.28785979638671" /><trkpt lat="22.23923278125" lon="114.28788779638671" /><trkpt lat="22.23937278125" lon="114.28788379638672" /><trkpt lat="22.23955778125" lon="114.28769879638672" /><trkpt lat="22.23970678125" lon="114.28769779638672" /><trkpt lat="22.23983778125" lon="114.28777079638672" /><trkpt lat="22.23990478125" lon="114.28787479638672" /><trkpt lat="22.24011778125" lon="114.28801979638672" /><trkpt lat="22.24027878125" lon="114.28819179638671" /><trkpt lat="22.24066378125" lon="114.28830279638672" /><trkpt lat="22.24093578125" lon="114.28837279638672" /><trkpt lat="22.24118478125" lon="114.28834179638672" /><trkpt lat="22.24154578125" lon="114.28832079638671" /><trkpt lat="22.24186378125" lon="114.28817779638672" /><trkpt lat="22.24210278125" lon="114.28783179638671" /><trkpt lat="22.24236178125" lon="114.28760579638671" /><trkpt lat="22.24253978125" lon="114.28745579638672" /><trkpt lat="22.24271878125" lon="114.28733779638672" /><trkpt lat="22.24286778125" lon="114.28730579638672" /><trkpt lat="22.24300778125" lon="114.28734779638671" /><trkpt lat="22.24313078125" lon="114.28699879638671" /><trkpt lat="22.24328278125" lon="114.28647679638672" /><trkpt lat="22.24343878125" lon="114.28635679638671" /><trkpt lat="22.24353078125" lon="114.28609579638672" /><trkpt lat="22.24372678125" lon="114.28585379638672" /><trkpt lat="22.24392278125" lon="114.28570779638672" /><trkpt lat="22.24411978125" lon="114.28559879638672" /><trkpt lat="22.24421978125" lon="114.28539179638672" /><trkpt lat="22.24426578125" lon="114.28529179638672" /><trkpt lat="22.24434478125" lon="114.28525379638671" /><trkpt lat="22.24457078125" lon="114.28519179638671" /><trkpt lat="22.24479678125" lon="114.28518879638672" /><trkpt lat="22.24502578125" lon="114.28511179638672" /><trkpt lat="22.24537878125" lon="114.28511679638672" /><trkpt lat="22.24570378125" lon="114.28526079638672" /><trkpt lat="22.24588878125" lon="114.28521079638672" /><trkpt lat="22.24617978125" lon="114.28523679638671" /><trkpt lat="22.24627478125" lon="114.28520479638672" /><trkpt lat="22.24637378125" lon="114.28525979638673" /><trkpt lat="22.24646778125" lon="114.28521779638672" /><trkpt lat="22.24654278125" lon="114.28523079638671" /><trkpt lat="22.24674778125" lon="114.28513779638672" /><trkpt lat="22.24685078125" lon="114.28513879638672" /><trkpt lat="22.24723678125" lon="114.28503279638672" /><trkpt lat="22.24741078125" lon="114.28497779638671" /><trkpt lat="22.24746278125" lon="114.28490379638671" /><trkpt lat="22.24748778125" lon="114.28488679638671" /><trkpt lat="22.24756278125" lon="114.28483579638672" /><trkpt lat="22.24759878125" lon="114.28481179638672" /><trkpt lat="22.24774778125" lon="114.28481079638672" /><trkpt lat="22.24810078125" lon="114.28465279638672" /><trkpt lat="22.24824178125" lon="114.28449479638672" /><trkpt lat="22.24828878125" lon="114.28434879638672" /><trkpt lat="22.24847178125" lon="114.28421979638672" /><trkpt lat="22.24858778125" lon="114.28400779638672" /><trkpt lat="22.24888878125" lon="114.28376779638671" /><trkpt lat="22.24897478125" lon="114.28364879638671" /><trkpt lat="22.24905078125" lon="114.28361779638672" /><trkpt lat="22.24918178125" lon="114.28364679638672" /><trkpt lat="22.24934578125" lon="114.28361579638671" /><trkpt lat="22.24953678125" lon="114.28365979638671" /><trkpt lat="22.24969178125" lon="114.28361579638671" /><trkpt lat="22.24984978125" lon="114.28363879638673" /><trkpt lat="22.25003878125" lon="114.28360279638672" /><trkpt lat="22.25020878125" lon="114.28361979638672" /><trkpt lat="22.25036378125" lon="114.28369679638672" /><trkpt lat="22.25046478125" lon="114.28379479638672" /><trkpt lat="22.25058178125" lon="114.28386579638672" /><trkpt lat="22.25066878125" lon="114.28396379638671" /><trkpt lat="22.25078278125" lon="114.28403379638672" /><trkpt lat="22.25084778125" lon="114.28408779638671" /><trkpt lat="22.25099278125" lon="114.28410979638672" /><trkpt lat="22.25106278125" lon="114.28414179638672" /><trkpt lat="22.25116378125" lon="114.28416079638671" /><trkpt lat="22.25131378125" lon="114.28424879638672" /><trkpt lat="22.25141078125" lon="114.28425179638671" /><trkpt lat="22.25163678125" lon="114.28433679638673" /><trkpt lat="22.25173278125" lon="114.28447279638672" /><trkpt lat="22.25210978125" lon="114.28480779638672" /><trkpt lat="22.25223578125" lon="114.28487479638672" /><trkpt lat="22.25229978125" lon="114.28495879638672" /><trkpt lat="22.25238378125" lon="114.28497479638672" /><trkpt lat="22.25252678125" lon="114.28509379638672" /><trkpt lat="22.25256378125" lon="114.28515879638672" /><trkpt lat="22.25266278125" lon="114.28525679638672" /><trkpt lat="22.25283278125" lon="114.28533679638672" /><trkpt lat="22.25296378125" lon="114.28549179638672" /><trkpt lat="22.25307678125" lon="114.28571679638672" /><trkpt lat="22.25307978125" lon="114.28578079638672" /><trkpt lat="22.25312778125" lon="114.28587779638671" /><trkpt lat="22.25322378125" lon="114.28605379638672" /><trkpt lat="22.25324378125" lon="114.28614879638671" /><trkpt lat="22.25314578125" lon="114.28640179638671" /><trkpt lat="22.25309878125" lon="114.28661779638672" /><trkpt lat="22.25310478125" lon="114.28673379638671" /><trkpt lat="22.25302178125" lon="114.28690679638672" /><trkpt lat="22.25303978125" lon="114.28711479638672" /><trkpt lat="22.25325478125" lon="114.28729479638672" /><trkpt lat="22.25329078125" lon="114.28745279638672" /><trkpt lat="22.25337778125" lon="114.28755379638672" /><trkpt lat="22.25350478125" lon="114.28755679638672" /><trkpt lat="22.25355678125" lon="114.28765979638672" /><trkpt lat="22.25367378125" lon="114.28785679638672" /><trkpt lat="22.25366678125" lon="114.28803679638672" /><trkpt lat="22.25372878125" lon="114.28826479638671" /><trkpt lat="22.25375178125" lon="114.28846079638672" /><trkpt lat="22.25377578125" lon="114.28867879638672" /><trkpt lat="22.25373178125" lon="114.28890179638672" /><trkpt lat="22.253833781250002" lon="114.28923879638671" /><trkpt lat="22.25388878125" lon="114.28935179638673" /><trkpt lat="22.25401978125" lon="114.28952779638672" /><trkpt lat="22.25404878125" lon="114.28968179638672" /><trkpt lat="22.25405778125" lon="114.28982579638672" /><trkpt lat="22.25407878125" lon="114.28982679638672" /><trkpt lat="22.25409278125" lon="114.28982779638672" /><trkpt lat="22.25414978125" lon="114.28980879638672" /><trkpt lat="22.25416078125" lon="114.28979479638672" /><trkpt lat="22.25416678125" lon="114.28976879638672" /><trkpt lat="22.25416178125" lon="114.28971679638671" /><trkpt lat="22.25422178125" lon="114.28969879638672" /><trkpt lat="22.25428478125" lon="114.28967979638672" /><trkpt lat="22.25451878125" lon="114.28963479638672" /><trkpt lat="22.25459078125" lon="114.28957579638671" /><trkpt lat="22.25460778125" lon="114.28954079638672" /><trkpt lat="22.25461178125" lon="114.28950579638672" /><trkpt lat="22.25467578125" lon="114.28949979638672" /><trkpt lat="22.25469178125" lon="114.28947079638672" /><trkpt lat="22.25468149026604" lon="114.28942842437608" /><trkpt lat="22.25472878125" lon="114.28941679638672" /><trkpt lat="22.25478678125" lon="114.28942979638671" /><trkpt lat="22.25480778125" lon="114.28942379638671" /><trkpt lat="22.25483878125" lon="114.28940379638672" /><trkpt lat="22.254856781249998" lon="114.28937679638672" /><trkpt lat="22.25487778125" lon="114.28930079638671" /><trkpt lat="22.25489178125" lon="114.28928379638671" /><trkpt lat="22.25489478125" lon="114.28925979638672" /><trkpt lat="22.25490278125" lon="114.28923379638672" /><trkpt lat="22.25492078125" lon="114.28922479638672" /><trkpt lat="22.25494578125" lon="114.28922579638672" /><trkpt lat="22.25495678125" lon="114.28924779638672" /></trkseg></trk></gpx>