<?xml version='1.0' encoding='UTF-8' ?><gpx version="1.1" creator="HikingTrailHK" xsi:schemaLocation="http://www.topografix.com/GPX/1/1 http://www.topografix.com/GPX/1/1/gpx.xsd" xmlns="http://www.topografix.com/GPX/1/1" xmlns:xsi="http://www.w3.org/2001/XMLSchema-instance"><metadata><name>白水碗 @ 2022-05-21</name><desc></desc></metadata><trk><trkseg><trkpt lat="22.338970658530446" lon="114.26186015324897" /><trkpt lat="22.33901678125" lon="114.26189179638672" /><trkpt lat="22.33905978125" lon="114.26194679638672" /><trkpt lat="22.33913578125" lon="114.26198079638672" /><trkpt lat="22.33917078125" lon="114.26202279638672" /><trkpt lat="22.33925478125" lon="114.26204679638671" /><trkpt lat="22.33941778125" lon="114.26212479638671" /><trkpt lat="22.33946978125" lon="114.26218479638672" /><trkpt lat="22.33953578125" lon="114.26226979638672" /><trkpt lat="22.33959078125" lon="114.26232179638671" /><trkpt lat="22.33981678125" lon="114.26245379638672" /><trkpt lat="22.33998378125" lon="114.26246379638673" /><trkpt lat="22.34011578125" lon="114.26248179638672" /><trkpt lat="22.34022378125" lon="114.26254979638672" /><trkpt lat="22.34029078125" lon="114.26267279638672" /><trkpt lat="22.34036678125" lon="114.26266879638672" /><trkpt lat="22.34042378125" lon="114.26267779638673" /><trkpt lat="22.34052278125" lon="114.26272379638672" /><trkpt lat="22.34058878125" lon="114.26279979638672" /><trkpt lat="22.34064678125" lon="114.26306279638672" /><trkpt lat="22.34067278125" lon="114.26313379638673" /><trkpt lat="22.34076378125" lon="114.26320479638672" /><trkpt lat="22.34088078125" lon="114.26331879638671" /><trkpt lat="22.34095578125" lon="114.26348179638671" /><trkpt lat="22.34099778125" lon="114.26365479638672" /><trkpt lat="22.34105278125" lon="114.26379179638671" /><trkpt lat="22.34109178125" lon="114.26384579638672" /><trkpt lat="22.34116978125" lon="114.26388379638672" /><trkpt lat="22.34126078125" lon="114.26391179638672" /><trkpt lat="22.34140978125" lon="114.26390379638671" /><trkpt lat="22.34152578125" lon="114.26396679638673" /><trkpt lat="22.34158778125" lon="114.26407779638672" /><trkpt lat="22.34161278125" lon="114.26407579638672" /><trkpt lat="22.34166978125" lon="114.26406179638671" /><trkpt lat="22.34171578125" lon="114.26407579638672" /><trkpt lat="22.34174278125" lon="114.26418179638672" /><trkpt lat="22.34184878125" lon="114.26421479638672" /><trkpt lat="22.34188278125" lon="114.26426179638672" /><trkpt lat="22.34193978125" lon="114.26427579638671" /><trkpt lat="22.34196178125" lon="114.26432279638672" /><trkpt lat="22.34195778125" lon="114.26438679638672" /><trkpt lat="22.34192078125" lon="114.26446679638671" /><trkpt lat="22.34183978125" lon="114.26454379638672" /><trkpt lat="22.34176978125" lon="114.26453079638672" /><trkpt lat="22.34167978125" lon="114.26462579638672" /><trkpt lat="22.34161878125" lon="114.26474179638672" /><trkpt lat="22.34147078125" lon="114.26485879638672" /><trkpt lat="22.34112578125" lon="114.26516079638672" /><trkpt lat="22.34105278125" lon="114.26529279638672" /><trkpt lat="22.34105678125" lon="114.26540179638671" /><trkpt lat="22.34107578125" lon="114.26549079638671" /><trkpt lat="22.34114878125" lon="114.26558179638671" /><trkpt lat="22.34123678125" lon="114.26564179638672" /><trkpt lat="22.34125278125" lon="114.26571479638672" /><trkpt lat="22.34122978125" lon="114.26588279638672" /><trkpt lat="22.34148278125" lon="114.26587879638672" /><trkpt lat="22.34153978125" lon="114.26576879638672" /><trkpt lat="22.34156278125" lon="114.26561579638673" /><trkpt lat="22.34158478125" lon="114.26552679638672" /><trkpt lat="22.34184678125" lon="114.26522179638673" /><trkpt lat="22.34189378125" lon="114.26527079638672" /><trkpt lat="22.34193878125" lon="114.26531679638671" /><trkpt lat="22.34197678125" lon="114.26535779638672" /><trkpt lat="22.34201878125" lon="114.26543279638672" /><trkpt lat="22.34196378125" lon="114.26550079638672" /><trkpt lat="22.34194678125" lon="114.26557279638672" /><trkpt lat="22.34199878125" lon="114.26569379638671" /><trkpt lat="22.34209978125" lon="114.26549279638672" /><trkpt lat="22.34235778125" lon="114.26547879638672" /><trkpt lat="22.34261278125" lon="114.26548779638672" /><trkpt lat="22.34267578125" lon="114.26531279638672" /><trkpt lat="22.34287878125" lon="114.26522979638672" /><trkpt lat="22.34306078125" lon="114.26507979638671" /><trkpt lat="22.34319178125" lon="114.26498079638672" /><trkpt lat="22.34328078125" lon="114.26487679638672" /><trkpt lat="22.34335378125" lon="114.26482779638673" /><trkpt lat="22.34335478125" lon="114.26484879638672" /><trkpt lat="22.34341378125" lon="114.26491479638672" /><trkpt lat="22.34350478125" lon="114.26491979638672" /><trkpt lat="22.34396778125" lon="114.26500179638671" /><trkpt lat="22.34417878125" lon="114.26513479638672" /><trkpt lat="22.34434878125" lon="114.26532479638672" /><trkpt lat="22.34470678125" lon="114.26550479638672" /><trkpt lat="22.34489878125" lon="114.26563279638673" /><trkpt lat="22.34501278125" lon="114.26564879638671" /><trkpt lat="22.34510478125" lon="114.26566179638672" /><trkpt lat="22.34515478125" lon="114.26573679638672" /><trkpt lat="22.34546878125" lon="114.26574279638672" /><trkpt lat="22.34580278125" lon="114.26575379638672" /><trkpt lat="22.34604778125" lon="114.26573179638672" /><trkpt lat="22.34618878125" lon="114.26566379638672" /><trkpt lat="22.34627678125" lon="114.26569379638671" /><trkpt lat="22.34651878125" lon="114.26566479638672" /><trkpt lat="22.34669278125" lon="114.26564379638671" /><trkpt lat="22.34681678125" lon="114.26568479638672" /><trkpt lat="22.34697778125" lon="114.26580279638672" /><trkpt lat="22.34699878125" lon="114.26627679638672" /><trkpt lat="22.34691478125" lon="114.26641879638672" /><trkpt lat="22.34704878125" lon="114.26646179638672" /><trkpt lat="22.34705378125" lon="114.26653379638672" /><trkpt lat="22.34720878125" lon="114.26659179638672" /><trkpt lat="22.34738278125" lon="114.26660279638672" /><trkpt lat="22.34758978125" lon="114.26660679638672" /><trkpt lat="22.34778878125" lon="114.26658879638671" /><trkpt lat="22.34784478125" lon="114.26652179638671" /><trkpt lat="22.34783178125" lon="114.26643279638672" /><trkpt lat="22.34785278125" lon="114.26630879638672" /><trkpt lat="22.34791978125" lon="114.26611779638672" /><trkpt lat="22.34806678125" lon="114.26606279638672" /><trkpt lat="22.34819878125" lon="114.26586979638672" /><trkpt lat="22.34829278125" lon="114.26580579638672" /><trkpt lat="22.34836678125" lon="114.26586079638672" /><trkpt lat="22.34839478125" lon="114.26581479638672" /><trkpt lat="22.34844478125" lon="114.26580179638673" /><trkpt lat="22.34848778125" lon="114.26572679638672" /><trkpt lat="22.34858278125" lon="114.26570279638672" /><trkpt lat="22.34867778125" lon="114.26560379638671" /><trkpt lat="22.34864778125" lon="114.26552179638672" /><trkpt lat="22.34874278125" lon="114.26531279638672" /><trkpt lat="22.34881478125" lon="114.26506879638671" /><trkpt lat="22.34880478125" lon="114.26497379638671" /><trkpt lat="22.34882178125" lon="114.26491279638672" /><trkpt lat="22.34912178125" lon="114.26482579638672" /><trkpt lat="22.34924178125" lon="114.26463879638672" /><trkpt lat="22.34955978125" lon="114.26448979638671" /><trkpt lat="22.34973378125" lon="114.26449979638672" /><trkpt lat="22.35001378125" lon="114.26439079638672" /><trkpt lat="22.35026678125" lon="114.26437579638672" /><trkpt lat="22.35028878125" lon="114.26445579638671" /><trkpt lat="22.350264507675405" lon="114.26463087279052" /><trkpt lat="22.350313549855187" lon="114.26460386067083" /><trkpt lat="22.350276495459454" lon="114.26441189413094" /><trkpt lat="22.350275215547136" lon="114.26437527110222" /><trkpt lat="22.35031478125" lon="114.26437279638672" /><trkpt lat="22.35036078125" lon="114.26441479638672" /><trkpt lat="22.350504547778357" lon="114.26434770559634" /><trkpt lat="22.35054078125" lon="114.26433079638672" /><trkpt lat="22.35081278125" lon="114.26433379638672" /><trkpt lat="22.35115378125" lon="114.26420379638672" /><trkpt lat="22.35130578125" lon="114.26419579638672" /><trkpt lat="22.35146478125" lon="114.26411879638673" /><trkpt lat="22.35168878125" lon="114.26426379638671" /><trkpt lat="22.35189978125" lon="114.26425379638673" /><trkpt lat="22.35225378125" lon="114.26402479638672" /><trkpt lat="22.35232878125" lon="114.26382179638672" /><trkpt lat="22.35262178125" lon="114.26370979638672" /><trkpt lat="22.35314278125" lon="114.26334679638671" /><trkpt lat="22.35336178125" lon="114.26323779638672" /><trkpt lat="22.35342078125" lon="114.26310679638672" /><trkpt lat="22.35349978125" lon="114.26296479638673" /><trkpt lat="22.35346978125" lon="114.26284479638672" /><trkpt lat="22.35363678125" lon="114.26285479638672" /><trkpt lat="22.35382978125" lon="114.26281279638673" /><trkpt lat="22.35404278125" lon="114.26256179638672" /><trkpt lat="22.35410178125" lon="114.26254779638671" /><trkpt lat="22.35414378125" lon="114.26247679638672" /><trkpt lat="22.35423878125" lon="114.26238779638672" /><trkpt lat="22.35420978125" lon="114.26225679638672" /><trkpt lat="22.35414378125" lon="114.26202679638672" /><trkpt lat="22.35405278125" lon="114.26181779638672" /><trkpt lat="22.35393178125" lon="114.26168679638671" /><trkpt lat="22.35389178125" lon="114.26154179638672" /><trkpt lat="22.35383378125" lon="114.26151079638672" /><trkpt lat="22.35367378125" lon="114.26151879638672" /><trkpt lat="22.35359678125" lon="114.26139379638671" /><trkpt lat="22.35378178125" lon="114.26118379638672" /><trkpt lat="22.35378178125" lon="114.26096379638672" /><trkpt lat="22.35392778125" lon="114.26097979638672" /><trkpt lat="22.35398678125" lon="114.26099679638672" /><trkpt lat="22.35399678125" lon="114.26104979638671" /><trkpt lat="22.35400378125" lon="114.26111779638671" /><trkpt lat="22.35403578125" lon="114.26115679638671" /><trkpt lat="22.35410478125" lon="114.26116679638672" /><trkpt lat="22.35420978125" lon="114.26110879638672" /><trkpt lat="22.35430378125" lon="114.26098379638672" /><trkpt lat="22.35443978125" lon="114.26085479638672" /><trkpt lat="22.35496078125" lon="114.26052179638671" /><trkpt lat="22.35556378125" lon="114.26025579638672" /><trkpt lat="22.35562278125" lon="114.26022679638672" /><trkpt lat="22.35564878125" lon="114.26015679638672" /><trkpt lat="22.35563178125" lon="114.26007779638672" /><trkpt lat="22.35561378125" lon="114.26000279638671" /><trkpt lat="22.35552778125" lon="114.25991879638671" /><trkpt lat="22.35563178125" lon="114.25985779638673" /><trkpt lat="22.35586878125" lon="114.25985379638672" /><trkpt lat="22.35598978125" lon="114.25982079638672" /><trkpt lat="22.35609778125" lon="114.25979779638672" /><trkpt lat="22.35629678125" lon="114.25977879638671" /><trkpt lat="22.35649578125" lon="114.25983479638671" /><trkpt lat="22.356610621038186" lon="114.26012053107297" /><trkpt lat="22.356618767588756" lon="114.26036793283293" /><trkpt lat="22.356518357797825" lon="114.2601733258931" /><trkpt lat="22.356388178058722" lon="114.26000223719097" /><trkpt lat="22.356380917521918" lon="114.25997089262125" /><trkpt lat="22.356380058672272" lon="114.25992601784236" /><trkpt lat="22.35638482630579" lon="114.25978220842879" /><trkpt lat="22.35629678125" lon="114.25977879638671" /><trkpt lat="22.35609778125" lon="114.25979779638672" /><trkpt lat="22.35598978125" lon="114.25982079638672" /><trkpt lat="22.35586878125" lon="114.25985379638672" /><trkpt lat="22.35563178125" lon="114.25985779638673" /><trkpt lat="22.35552778125" lon="114.25991879638671" /><trkpt lat="22.35504878125" lon="114.25982579638672" /><trkpt lat="22.35473878125" lon="114.25978779638672" /><trkpt lat="22.35444078125" lon="114.25977679638672" /><trkpt lat="22.35380878125" lon="114.25973179638672" /><trkpt lat="22.35357178125" lon="114.25970479638671" /><trkpt lat="22.35356278125" lon="114.25958479638672" /><trkpt lat="22.35353378125" lon="114.25938779638672" /><trkpt lat="22.35350678125" lon="114.25919079638672" /><trkpt lat="22.35350178125" lon="114.25914379638672" /><trkpt lat="22.35348278125" lon="114.25897479638672" /><trkpt lat="22.35345978125" lon="114.25831279638672" /><trkpt lat="22.35342978125" lon="114.25763679638672" /><trkpt lat="22.35341078125" lon="114.25738479638672" /><trkpt lat="22.35334678125" lon="114.25713479638672" /><trkpt lat="22.35311878125" lon="114.25658079638671" /><trkpt lat="22.35300178125" lon="114.25627579638672" /><trkpt lat="22.35294178125" lon="114.25611979638671" /><trkpt lat="22.35292378125" lon="114.25608479638672" /><trkpt lat="22.35273378125" lon="114.25571079638672" /><trkpt lat="22.35268078125" lon="114.25559679638671" /><trkpt lat="22.35267178125" lon="114.25554579638671" /><trkpt lat="22.35267378125" lon="114.25548679638672" /><trkpt lat="22.35270878125" lon="114.25538679638672" /><trkpt lat="22.35271678125" lon="114.25532379638672" /><trkpt lat="22.35273378125" lon="114.25505379638672" /><trkpt lat="22.35274478125" lon="114.25470879638672" /><trkpt lat="22.35275678125" lon="114.25440579638672" /><trkpt lat="22.35275178125" lon="114.25433179638672" /><trkpt lat="22.35268978125" lon="114.25411579638671" /><trkpt lat="22.35255178125" lon="114.25388879638672" /><trkpt lat="22.35248778125" lon="114.25381479638672" /><trkpt lat="22.35236678125" lon="114.25375879638672" /><trkpt lat="22.35220078125" lon="114.25370279638672" /><trkpt lat="22.35213278125" lon="114.25367279638672" /><trkpt lat="22.35210878125" lon="114.25363979638672" /><trkpt lat="22.35201478125" lon="114.25331779638672" /><trkpt lat="22.35196223097332" lon="114.25333984338945" /></trkseg></trk></gpx>