<?xml version='1.0' encoding='UTF-8' ?><gpx version="1.1" creator="HikingTrailHK" xsi:schemaLocation="http://www.topografix.com/GPX/1/1 http://www.topografix.com/GPX/1/1/gpx.xsd" xmlns="http://www.topografix.com/GPX/1/1" xmlns:xsi="http://www.w3.org/2001/XMLSchema-instance"><metadata><name>白鱔角山 @ 2017-2-11</name><desc></desc></metadata><trk><trkseg><trkpt lat="22.312707052513016" lon="114.2664389692982" /><trkpt lat="22.31259778125" lon="114.26658279638671" /><trkpt lat="22.31250778125" lon="114.26649179638672" /><trkpt lat="22.31243378125" lon="114.26643679638671" /><trkpt lat="22.312279781249998" lon="114.26636179638672" /><trkpt lat="22.31194378125" lon="114.26627779638672" /><trkpt lat="22.31141378125" lon="114.26627579638672" /><trkpt lat="22.31115678125" lon="114.26640479638672" /><trkpt lat="22.31082378125" lon="114.26671179638672" /><trkpt lat="22.31026578125" lon="114.26716079638672" /><trkpt lat="22.31015178125" lon="114.26738279638671" /><trkpt lat="22.31014578125" lon="114.26754279638672" /><trkpt lat="22.31023678125" lon="114.26778379638672" /><trkpt lat="22.31020278125" lon="114.26784479638673" /><trkpt lat="22.31031678125" lon="114.26802379638671" /><trkpt lat="22.31045878125" lon="114.26805479638672" /><trkpt lat="22.31051578125" lon="114.26812879638672" /><trkpt lat="22.31036778125" lon="114.26833179638672" /><trkpt lat="22.31027678125" lon="114.26839379638672" /><trkpt lat="22.31029978125" lon="114.26873279638671" /><trkpt lat="22.31035678125" lon="114.26890479638672" /><trkpt lat="22.309989128017577" lon="114.26942175079478" /><trkpt lat="22.309932621165558" lon="114.26953128837744" /><trkpt lat="22.309670349401557" lon="114.26984659651873" /><trkpt lat="22.30934068900625" lon="114.2700917255782" /><trkpt lat="22.309020180822074" lon="114.27049015977832" /><trkpt lat="22.30894815042528" lon="114.27061627201772" /></trkseg></trk></gpx>