<?xml version='1.0' encoding='UTF-8' ?><gpx version="1.1" creator="HikingTrailHK" xsi:schemaLocation="http://www.topografix.com/GPX/1/1 http://www.topografix.com/GPX/1/1/gpx.xsd https://hikingtrailhk.appspot.com/xml/gpxextensions/v1 https://hikingtrailhk.appspot.com/xml/gpxextensions/v1/gpxextensions.xsd" xmlns="http://www.topografix.com/GPX/1/1" xmlns:h="https://hikingtrailhk.appspot.com/xml/gpxextensions/v1" xmlns:xsi="http://www.w3.org/2001/XMLSchema-instance"><metadata><name>直搗黃龍 @ 2017-5-12 11:00</name><desc></desc><extensions><h:categoryid>stream</h:categoryid></extensions></metadata><trk><trkseg><trkpt lat="22.28861278125" lon="113.94082379638672" /><trkpt lat="22.28858978125" lon="113.94084579638672" /><trkpt lat="22.288508781250002" lon="113.94091979638672" /><trkpt lat="22.28851678125" lon="113.94095579638672" /><trkpt lat="22.28848778125" lon="113.94102279638672" /><trkpt lat="22.28841778125" lon="113.94111279638672" /><trkpt lat="22.28825878125" lon="113.94127079638672" /><trkpt lat="22.28823878125" lon="113.94128979638671" /><trkpt lat="22.28807478125" lon="113.94145079638672" /><trkpt lat="22.28799678125" lon="113.94139579638671" /><trkpt lat="22.28791478125" lon="113.94133279638672" /><trkpt lat="22.28786978125" lon="113.94130779638672" /><trkpt lat="22.28717778125" lon="113.94084079638672" /><trkpt lat="22.28689378125" lon="113.94066679638672" /><trkpt lat="22.28684678125" lon="113.94063779638672" /><trkpt lat="22.28676578125" lon="113.94058979638672" /><trkpt lat="22.28661878125" lon="113.94048779638672" /><trkpt lat="22.28654578125" lon="113.94059679638671" /><trkpt lat="22.28649378125" lon="113.94066679638672" /><trkpt lat="22.28628278125" lon="113.94096679638672" /><trkpt lat="22.28602278125" lon="113.94126379638672" /><trkpt lat="22.28598278125" lon="113.94131079638672" /><trkpt lat="22.28542978125" lon="113.94193279638672" /><trkpt lat="22.28525478125" lon="113.94212379638672" /><trkpt lat="22.28522578125" lon="113.94209379638671" /><trkpt lat="22.28507078125" lon="113.94226879638671" /><trkpt lat="22.28501178125" lon="113.94221679638672" /><trkpt lat="22.28498278125" lon="113.94226579638672" /><trkpt lat="22.28487678125" lon="113.94238679638671" /><trkpt lat="22.28476978125" lon="113.94248679638672" /><trkpt lat="22.28470678125" lon="113.94252179638671" /><trkpt lat="22.28465278125" lon="113.94252579638672" /><trkpt lat="22.28459778125" lon="113.94251979638672" /><trkpt lat="22.28428578125" lon="113.94228979638672" /><trkpt lat="22.28427378125" lon="113.94232679638672" /><trkpt lat="22.28413478125" lon="113.94221779638671" /><trkpt lat="22.28401378125" lon="113.94212379638672" /><trkpt lat="22.28329378125" lon="113.94153879638672" /><trkpt lat="22.28222978125" lon="113.94068479638672" /><trkpt lat="22.28190078125" lon="113.94038479638672" /><trkpt lat="22.28158678125" lon="113.94006479638672" /><trkpt lat="22.28147178125" lon="113.93994679638672" /><trkpt lat="22.28116378125" lon="113.93958779638672" /><trkpt lat="22.28004578125" lon="113.94061079638672" /><trkpt lat="22.27990778125" lon="113.94072279638672" /><trkpt lat="22.27984478125" lon="113.94063679638671" /><trkpt lat="22.27981778125" lon="113.94059979638672" /><trkpt lat="22.27972078125" lon="113.94068979638672" /><trkpt lat="22.27960078125" lon="113.94058279638672" /><trkpt lat="22.27952078125" lon="113.94049879638672" /><trkpt lat="22.27928378125" lon="113.94020379638673" /><trkpt lat="22.27913578125" lon="113.94034179638672" /><trkpt lat="22.27906278125" lon="113.94040979638672" /><trkpt lat="22.27897278125" lon="113.94046079638672" /><trkpt lat="22.27887778125" lon="113.94052979638671" /><trkpt lat="22.27868478125" lon="113.94070179638672" /><trkpt lat="22.27857078125" lon="113.94084079638672" /><trkpt lat="22.27846078125" lon="113.94109879638673" /><trkpt lat="22.27835678125" lon="113.94131279638673" /><trkpt lat="22.27818778125" lon="113.94147979638672" /><trkpt lat="22.27799978125" lon="113.94157579638672" /><trkpt lat="22.27740878125" lon="113.94168379638671" /><trkpt lat="22.27715078125" lon="113.94180179638671" /><trkpt lat="22.27697678125" lon="113.94207479638672" /><trkpt lat="22.27677878125" lon="113.94234279638673" /><trkpt lat="22.27653178125" lon="113.94264279638672" /><trkpt lat="22.27636778125" lon="113.94286279638672" /><trkpt lat="22.27626578125" lon="113.94304279638672" /><trkpt lat="22.27613378125" lon="113.94319879638672" /><trkpt lat="22.27595678125" lon="113.94337779638671" /><trkpt lat="22.27577578125" lon="113.94358379638672" /><trkpt lat="22.27565878125" lon="113.94369679638672" /><trkpt lat="22.27562478125" lon="113.94377679638671" /><trkpt lat="22.27557978125" lon="113.94393479638671" /><trkpt lat="22.27553178125" lon="113.94403079638671" /><trkpt lat="22.275361781249998" lon="113.94423279638671" /><trkpt lat="22.27522378125" lon="113.94438379638672" /><trkpt lat="22.27507778125" lon="113.94455079638672" /><trkpt lat="22.27489478125" lon="113.94476679638672" /><trkpt lat="22.27473778125" lon="113.94492479638672" /><trkpt lat="22.27452878125" lon="113.94512679638672" /><trkpt lat="22.27447678125" lon="113.94521079638672" /><trkpt lat="22.27434578125" lon="113.94547279638672" /><trkpt lat="22.27421178125" lon="113.94574979638672" /><trkpt lat="22.27408078125" lon="113.94607279638672" /><trkpt lat="22.27378678125" lon="113.94666379638672" /><trkpt lat="22.27367578125" lon="113.94679879638672" /><trkpt lat="22.27359378125" lon="113.94687779638672" /><trkpt lat="22.27353078125" lon="113.94692179638672" /><trkpt lat="22.27316778125" lon="113.94705279638671" /><trkpt lat="22.27310878125" lon="113.94708579638672" /><trkpt lat="22.27305478125" lon="113.94714279638671" /><trkpt lat="22.27292978125" lon="113.94733879638672" /><trkpt lat="22.27285978125" lon="113.94742279638672" /><trkpt lat="22.27279278125" lon="113.94747279638672" /><trkpt lat="22.27271278125" lon="113.94750279638671" /><trkpt lat="22.27241378125" lon="113.94755779638672" /><trkpt lat="22.27227478125" lon="113.94759979638673" /><trkpt lat="22.27194478125" lon="113.94772979638672" /><trkpt lat="22.27168378125" lon="113.94787279638672" /><trkpt lat="22.27162378125" lon="113.94792179638672" /><trkpt lat="22.27139578125" lon="113.94813079638672" /><trkpt lat="22.27128678125" lon="113.94828279638672" /><trkpt lat="22.27120078125" lon="113.94842879638672" /><trkpt lat="22.27111778125" lon="113.94864379638672" /><trkpt lat="22.27110178125" lon="113.94881579638673" /><trkpt lat="22.27113678125" lon="113.94897779638671" /><trkpt lat="22.27125978125" lon="113.94939979638671" /><trkpt lat="22.27137578125" lon="113.94967579638671" /><trkpt lat="22.27149778125" lon="113.94995979638672" /><trkpt lat="22.27155978125" lon="113.95011079638672" /><trkpt lat="22.27167278125" lon="113.95030079638671" /><trkpt lat="22.27191678125" lon="113.95064779638672" /><trkpt lat="22.27205478125" lon="113.95097879638672" /><trkpt lat="22.27233978125" lon="113.95223379638672" /><trkpt lat="22.27247578125" lon="113.95251779638672" /><trkpt lat="22.272585279052336" lon="113.95255523755796" /><trkpt lat="22.27254378125" lon="113.95257679638672" /><trkpt lat="22.27244478125" lon="113.95267879638672" /><trkpt lat="22.27243478125" lon="113.95288179638672" /><trkpt lat="22.27218678125" lon="113.95297379638671" /><trkpt lat="22.27203778125" lon="113.95337579638672" /><trkpt lat="22.27215178125" lon="113.95344579638672" /><trkpt lat="22.272273703700208" lon="113.95347054385041" /><trkpt lat="22.272307077806918" lon="113.95346402195679" /><trkpt lat="22.27229178125" lon="113.95353679638671" /><trkpt lat="22.27235678125" lon="113.95370379638672" /><trkpt lat="22.27248278125" lon="113.95393179638671" /><trkpt lat="22.27242578125" lon="113.95428679638673" /><trkpt lat="22.27229778125" lon="113.95451679638671" /><trkpt lat="22.27214578125" lon="113.95453879638671" /><trkpt lat="22.27203878125" lon="113.95467079638672" /><trkpt lat="22.27158878125" lon="113.95463479638671" /><trkpt lat="22.27117078125" lon="113.95495179638672" /><trkpt lat="22.27112378125" lon="113.95515779638671" /><trkpt lat="22.27097978125" lon="113.95528079638672" /><trkpt lat="22.27095078125" lon="113.95540079638671" /><trkpt lat="22.27080078125" lon="113.95563979638672" /><trkpt lat="22.27070778125" lon="113.95587879638671" /><trkpt lat="22.27059278125" lon="113.95592779638672" /><trkpt lat="22.27066378125" lon="113.95616579638671" /><trkpt lat="22.27057078125" lon="113.95629979638672" /><trkpt lat="22.27049178125" lon="113.95668579638672" /><trkpt lat="22.27038578125" lon="113.95707479638672" /><trkpt lat="22.27016378125" lon="113.95752279638671" /><trkpt lat="22.26995878125" lon="113.95769679638671" /><trkpt lat="22.26979878125" lon="113.95780479638672" /><trkpt lat="22.26972078125" lon="113.95785779638672" /><trkpt lat="22.269458781250002" lon="113.95790879638672" /><trkpt lat="22.26916478125" lon="113.95790079638672" /><trkpt lat="22.26899278125" lon="113.95800579638671" /><trkpt lat="22.26881378125" lon="113.95816679638672" /><trkpt lat="22.26856578125" lon="113.95828479638672" /><trkpt lat="22.26823078125" lon="113.95831879638672" /><trkpt lat="22.26790378125" lon="113.95839379638672" /><trkpt lat="22.26771178125" lon="113.95844579638671" /><trkpt lat="22.26756578125" lon="113.95855479638672" /><trkpt lat="22.26751578125" lon="113.95869479638672" /><trkpt lat="22.26741378125" lon="113.95890679638671" /><trkpt lat="22.26745678125" lon="113.95909179638672" /><trkpt lat="22.26761278125" lon="113.95927179638672" /><trkpt lat="22.26767478125" lon="113.95947779638672" /><trkpt lat="22.26768178125" lon="113.95972279638671" /><trkpt lat="22.26774478125" lon="113.96006779638672" /><trkpt lat="22.26778078125" lon="113.96034479638672" /><trkpt lat="22.26763578125" lon="113.96061479638672" /><trkpt lat="22.26754578125" lon="113.96077579638671" /><trkpt lat="22.26733778125" lon="113.96093679638672" /><trkpt lat="22.26725578125" lon="113.96102179638672" /><trkpt lat="22.26720578125" lon="113.96107379638671" /><trkpt lat="22.26716378125" lon="113.96114279638672" /><trkpt lat="22.26723078125" lon="113.96140779638672" /><trkpt lat="22.26729378125" lon="113.96165479638672" /><trkpt lat="22.26713078125" lon="113.96199979638672" /><trkpt lat="22.26706078125" lon="113.96214779638672" /><trkpt lat="22.26663778125" lon="113.96230779638672" /><trkpt lat="22.26659878125" lon="113.96227179638672" /><trkpt lat="22.26659078125" lon="113.96228979638671" /><trkpt lat="22.26648378125" lon="113.96262079638672" /><trkpt lat="22.26624278125" lon="113.96300579638672" /><trkpt lat="22.26580578125" lon="113.96354179638672" /><trkpt lat="22.26561678125" lon="113.96380979638671" /><trkpt lat="22.26532178125" lon="113.96382279638672" /><trkpt lat="22.26512378125" lon="113.96405879638672" /><trkpt lat="22.26491178125" lon="113.96465779638672" /><trkpt lat="22.26474278125" lon="113.96500079638672" /><trkpt lat="22.26447778125" lon="113.96529279638672" /><trkpt lat="22.26407078125" lon="113.96550779638672" /><trkpt lat="22.26365078125" lon="113.96553779638671" /><trkpt lat="22.26321678125" lon="113.96549679638672" /><trkpt lat="22.26282678125" lon="113.96547279638672" /><trkpt lat="22.26221078125" lon="113.96534379638672" /><trkpt lat="22.26185678125" lon="113.96506779638672" /><trkpt lat="22.26158578125" lon="113.96485079638671" /><trkpt lat="22.26134778125" lon="113.96471079638673" /><trkpt lat="22.261070971164997" lon="113.96467281493045" /><trkpt lat="22.261051077033486" lon="113.96466208609439" /><trkpt lat="22.261014111648493" lon="113.96466208609439" /><trkpt lat="22.260979359474945" lon="113.96464896088531" /><trkpt lat="22.26097191257948" lon="113.96464062842227" /><trkpt lat="22.26097439487802" lon="113.96464062842227" /><trkpt lat="22.260979359474945" lon="113.9646459928403" /><trkpt lat="22.261093996604956" lon="113.96462803797415" /><trkpt lat="22.26110778125" lon="113.96473079638672" /><trkpt lat="22.26141178125" lon="113.96538579638671" /><trkpt lat="22.26137178125" lon="113.96566979638672" /><trkpt lat="22.26131378125" lon="113.96577779638672" /><trkpt lat="22.26127278125" lon="113.96595979638671" /><trkpt lat="22.26127578125" lon="113.96618479638671" /><trkpt lat="22.26129778125" lon="113.96628479638672" /><trkpt lat="22.26130778125" lon="113.96640779638672" /><trkpt lat="22.26128678125" lon="113.96653679638672" /><trkpt lat="22.26121878125" lon="113.96667279638672" /><trkpt lat="22.26111878125" lon="113.96687479638672" /><trkpt lat="22.26113478125" lon="113.96696679638671" /><trkpt lat="22.26122178125" lon="113.96712979638671" /><trkpt lat="22.26118478125" lon="113.96739679638672" /><trkpt lat="22.26107978125" lon="113.96760479638672" /><trkpt lat="22.26091778125" lon="113.96774779638672" /><trkpt lat="22.26074478125" lon="113.96803379638672" /><trkpt lat="22.26078878125" lon="113.96807279638672" /><trkpt lat="22.26069078125" lon="113.96816779638672" /><trkpt lat="22.26082978125" lon="113.96825179638672" /><trkpt lat="22.26088578125" lon="113.96842179638672" /><trkpt lat="22.26032978125" lon="113.96889979638672" /><trkpt lat="22.26039878125" lon="113.96916479638672" /><trkpt lat="22.26050778125" lon="113.96941479638672" /><trkpt lat="22.26053478125" lon="113.96949779638672" /><trkpt lat="22.26058778125" lon="113.96958779638672" /><trkpt lat="22.26060678125" lon="113.96963979638672" /><trkpt lat="22.26061978125" lon="113.96977479638672" /><trkpt lat="22.26085178125" lon="113.97003979638671" /><trkpt lat="22.26095378125" lon="113.97023879638672" /><trkpt lat="22.26103178125" lon="113.97050779638671" /><trkpt lat="22.26109978125" lon="113.97060579638672" /><trkpt lat="22.26111178125" lon="113.97070179638672" /><trkpt lat="22.26111378125" lon="113.97085279638672" /><trkpt lat="22.26113378125" lon="113.97091479638672" /><trkpt lat="22.26119478125" lon="113.97097779638672" /><trkpt lat="22.26130478125" lon="113.97103179638673" /><trkpt lat="22.26138478125" lon="113.97108779638671" /><trkpt lat="22.26143478125" lon="113.97120479638671" /><trkpt lat="22.26151678125" lon="113.97130779638672" /><trkpt lat="22.26157178125" lon="113.97144579638672" /><trkpt lat="22.26167778125" lon="113.97154279638671" /><trkpt lat="22.26170678125" lon="113.97154679638672" /><trkpt lat="22.26180078125" lon="113.97152879638672" /><trkpt lat="22.26185178125" lon="113.97171879638672" /><trkpt lat="22.26190878125" lon="113.97179779638672" /><trkpt lat="22.26189678125" lon="113.97184979638672" /><trkpt lat="22.26184478125" lon="113.97188079638671" /><trkpt lat="22.26180378125" lon="113.97196079638672" /><trkpt lat="22.26169078125" lon="113.97205679638672" /><trkpt lat="22.26160078125" lon="113.97207479638672" /><trkpt lat="22.26154578125" lon="113.97216879638673" /><trkpt lat="22.26139378125" lon="113.97228479638672" /><trkpt lat="22.26131478125" lon="113.97245379638672" /><trkpt lat="22.26120478125" lon="113.97256679638672" /><trkpt lat="22.26117678125" lon="113.97263879638672" /><trkpt lat="22.26119578125" lon="113.97283579638672" /><trkpt lat="22.26115678125" lon="113.97291979638672" /><trkpt lat="22.26112178125" lon="113.97330979638672" /><trkpt lat="22.26105978125" lon="113.97340279638672" /><trkpt lat="22.26106278125" lon="113.97354279638672" /><trkpt lat="22.26100878125" lon="113.97363279638672" /><trkpt lat="22.26093278125" lon="113.97366079638672" /><trkpt lat="22.26088078125" lon="113.97371279638672" /><trkpt lat="22.26082278125" lon="113.97377579638672" /><trkpt lat="22.26077978125" lon="113.97392379638671" /><trkpt lat="22.26079978125" lon="113.97413979638672" /><trkpt lat="22.26077978125" lon="113.97424079638672" /><trkpt lat="22.26081178125" lon="113.97441279638672" /><trkpt lat="22.26075878125" lon="113.97460279638672" /><trkpt lat="22.26077178125" lon="113.97490479638672" /><trkpt lat="22.26071778125" lon="113.97518879638672" /><trkpt lat="22.26069878125" lon="113.97522279638672" /><trkpt lat="22.26065578125" lon="113.97519979638672" /><trkpt lat="22.26062778125" lon="113.97502479638672" /><trkpt lat="22.26055078125" lon="113.97492479638672" /><trkpt lat="22.26050778125" lon="113.97504679638672" /><trkpt lat="22.26047678125" lon="113.97506879638672" /><trkpt lat="22.26039978125" lon="113.97518679638672" /><trkpt lat="22.26037478125" lon="113.97524879638672" /><trkpt lat="22.26036778125" lon="113.97546679638671" /><trkpt lat="22.26038178125" lon="113.97553579638672" /><trkpt lat="22.26054778125" lon="113.97601579638672" /><trkpt lat="22.26056178125" lon="113.97607979638671" /><trkpt lat="22.26054178125" lon="113.97612279638672" /><trkpt lat="22.26048378125" lon="113.97616179638672" /><trkpt lat="22.26045278125" lon="113.97620479638672" /><trkpt lat="22.26042578125" lon="113.97625679638672" /><trkpt lat="22.26040778125" lon="113.97633679638672" /><trkpt lat="22.26043078125" lon="113.97639779638672" /><trkpt lat="22.26045978125" lon="113.97646179638672" /><trkpt lat="22.26048578125" lon="113.97652279638672" /><trkpt lat="22.26052478125" lon="113.97657279638672" /><trkpt lat="22.26057378125" lon="113.97660579638672" /><trkpt lat="22.26079678125" lon="113.97668179638671" /><trkpt lat="22.26090178125" lon="113.97676479638672" /><trkpt lat="22.26091678125" lon="113.97691579638672" /><trkpt lat="22.26095878125" lon="113.97703079638671" /><trkpt lat="22.26097878125" lon="113.97716379638672" /><trkpt lat="22.26099478125" lon="113.97721479638672" /><trkpt lat="22.26102378125" lon="113.97728079638672" /><trkpt lat="22.26112378125" lon="113.97740879638671" /><trkpt lat="22.26115478125" lon="113.97751579638673" /><trkpt lat="22.26112578125" lon="113.97759779638672" /><trkpt lat="22.26107778125" lon="113.97766679638671" /><trkpt lat="22.26102078125" lon="113.97770079638671" /><trkpt lat="22.26080378125" lon="113.97775279638672" /><trkpt lat="22.26075878125" lon="113.97777679638672" /><trkpt lat="22.26072878125" lon="113.97781579638672" /><trkpt lat="22.26071478125" lon="113.97787679638672" /><trkpt lat="22.26071878125" lon="113.97796579638671" /><trkpt lat="22.26070078125" lon="113.97800279638672" /><trkpt lat="22.26066578125" lon="113.97801479638672" /><trkpt lat="22.26060278125" lon="113.97809679638672" /><trkpt lat="22.26060478125" lon="113.97818279638672" /><trkpt lat="22.26057478125" lon="113.97821979638672" /><trkpt lat="22.26055478125" lon="113.97828079638671" /><trkpt lat="22.26050378125" lon="113.97831579638672" /><trkpt lat="22.26048278125" lon="113.97833679638671" /><trkpt lat="22.26046578125" lon="113.97840979638671" /><trkpt lat="22.26045378125" lon="113.97853979638671" /><trkpt lat="22.26047278125" lon="113.97871379638671" /><trkpt lat="22.26045978125" lon="113.97879279638671" /><trkpt lat="22.26043678125" lon="113.97882779638672" /><trkpt lat="22.26032378125" lon="113.97891779638672" /><trkpt lat="22.26013278125" lon="113.97910979638672" /><trkpt lat="22.25998078125" lon="113.97931579638671" /><trkpt lat="22.25990678125" lon="113.97945779638673" /><trkpt lat="22.25986878125" lon="113.97960579638672" /><trkpt lat="22.25971078125" lon="113.97973579638672" /><trkpt lat="22.25970178125" lon="113.97978879638671" /><trkpt lat="22.25963178125" lon="113.97980879638672" /><trkpt lat="22.25955978125" lon="113.97978179638672" /><trkpt lat="22.25947678125" lon="113.97964279638671" /><trkpt lat="22.25939078125" lon="113.97966879638672" /><trkpt lat="22.25888778125" lon="113.98021179638671" /><trkpt lat="22.25867578125" lon="113.98041579638672" /><trkpt lat="22.25843078125" lon="113.98061979638672" /><trkpt lat="22.25834378125" lon="113.98069079638672" /><trkpt lat="22.25801278125" lon="113.98089679638672" /><trkpt lat="22.25791478125" lon="113.98097379638672" /><trkpt lat="22.25786978125" lon="113.98103379638673" /><trkpt lat="22.25773278125" lon="113.98133279638672" /><trkpt lat="22.25769678125" lon="113.98141079638673" /><trkpt lat="22.25770778125" lon="113.98146979638672" /><trkpt lat="22.25790178125" lon="113.98166479638672" /><trkpt lat="22.25797278125" lon="113.98177779638672" /><trkpt lat="22.25799778125" lon="113.98198179638672" /><trkpt lat="22.25802078125" lon="113.98218879638672" /><trkpt lat="22.25807378125" lon="113.98228479638672" /><trkpt lat="22.25831178125" lon="113.98258279638672" /><trkpt lat="22.25828978125" lon="113.98277879638673" /><trkpt lat="22.25822378125" lon="113.98316379638672" /><trkpt lat="22.25806078125" lon="113.98369879638672" /><trkpt lat="22.25784078125" lon="113.98412879638671" /><trkpt lat="22.25748578125" lon="113.98458779638672" /><trkpt lat="22.25747878125" lon="113.98481079638672" /><trkpt lat="22.25733478125" lon="113.98504079638671" /><trkpt lat="22.25716578125" lon="113.98533579638672" /><trkpt lat="22.25707578125" lon="113.98570179638672" /><trkpt lat="22.25698678125" lon="113.98590279638672" /><trkpt lat="22.25700778125" lon="113.98598179638672" /><trkpt lat="22.25704178125" lon="113.98617879638672" /><trkpt lat="22.25703078125" lon="113.98634679638671" /><trkpt lat="22.25706178125" lon="113.98656979638672" /><trkpt lat="22.25688478125" lon="113.98668679638672" /><trkpt lat="22.25681478125" lon="113.98678579638671" /><trkpt lat="22.25670378125" lon="113.98715779638673" /><trkpt lat="22.25661478125" lon="113.98741679638673" /><trkpt lat="22.25659278125" lon="113.98756479638672" /><trkpt lat="22.25655178125" lon="113.98769079638672" /><trkpt lat="22.25659278125" lon="113.98783379638672" /><trkpt lat="22.25669878125" lon="113.98791179638671" /><trkpt lat="22.25679778125" lon="113.98797579638672" /><trkpt lat="22.25700078125" lon="113.98810879638671" /><trkpt lat="22.25685878125" lon="113.98820479638673" /><trkpt lat="22.25670878125" lon="113.98827379638672" /><trkpt lat="22.25648678125" lon="113.98828679638672" /><trkpt lat="22.25625378125" lon="113.98829879638672" /><trkpt lat="22.25616178125" lon="113.98837079638672" /><trkpt lat="22.25601178125" lon="113.98881479638672" /><trkpt lat="22.25600878125" lon="113.98896879638671" /><trkpt lat="22.25604678125" lon="113.98912579638672" /><trkpt lat="22.25610078125" lon="113.98924379638672" /><trkpt lat="22.25617778125" lon="113.98934579638671" /><trkpt lat="22.25629278125" lon="113.98944779638671" /><trkpt lat="22.25691578125" lon="113.98979879638672" /><trkpt lat="22.25706378125" lon="113.98990779638672" /><trkpt lat="22.25717278125" lon="113.99003379638673" /><trkpt lat="22.25722578125" lon="113.99016179638672" /><trkpt lat="22.25725578125" lon="113.99026679638672" /><trkpt lat="22.25735478125" lon="113.99092979638672" /><trkpt lat="22.25740778125" lon="113.99114879638672" /><trkpt lat="22.25747578125" lon="113.99134179638672" /><trkpt lat="22.25753978125" lon="113.99147579638672" /><trkpt lat="22.25768578125" lon="113.99170779638672" /><trkpt lat="22.25782178125" lon="113.99186579638672" /><trkpt lat="22.25792678125" lon="113.99198279638672" /><trkpt lat="22.25800078125" lon="113.99203679638671" /><trkpt lat="22.25806878125" lon="113.99207379638672" /><trkpt lat="22.25868878125" lon="113.99231979638672" /><trkpt lat="22.25882478125" lon="113.99239879638672" /><trkpt lat="22.25895378125" lon="113.99251379638672" /><trkpt lat="22.25904578125" lon="113.99264079638672" /><trkpt lat="22.25911578125" lon="113.99279879638672" /><trkpt lat="22.25915678125" lon="113.99301679638671" /><trkpt lat="22.25923578125" lon="113.99430879638672" /><trkpt lat="22.25931778125" lon="113.99449979638672" /><trkpt lat="22.25945278125" lon="113.99468679638672" /><trkpt lat="22.25980278125" lon="113.99501079638672" /><trkpt lat="22.25987578125" lon="113.99513479638672" /><trkpt lat="22.25992478125" lon="113.99531279638671" /><trkpt lat="22.259933781249998" lon="113.99545379638671" /><trkpt lat="22.25989078125" lon="113.99557779638671" /><trkpt lat="22.25961178125" lon="113.99620279638673" /><trkpt lat="22.25959578125" lon="113.99637979638672" /><trkpt lat="22.25965278125" lon="113.99650979638672" /><trkpt lat="22.25968078125" lon="113.99657379638671" /><trkpt lat="22.25984878125" lon="113.99674979638672" /><trkpt lat="22.26004978125" lon="113.99676879638672" /><trkpt lat="22.26020478125" lon="113.99672379638672" /><trkpt lat="22.26052678125" lon="113.99655179638673" /><trkpt lat="22.26114078125" lon="113.99615779638673" /><trkpt lat="22.26126578125" lon="113.99610879638672" /><trkpt lat="22.26138778125" lon="113.99607679638672" /><trkpt lat="22.26151678125" lon="113.99607379638672" /><trkpt lat="22.26164778125" lon="113.99608679638672" /><trkpt lat="22.26173078125" lon="113.99610679638671" /><trkpt lat="22.26181478125" lon="113.99613679638672" /><trkpt lat="22.26188578125" lon="113.99618479638671" /><trkpt lat="22.26195078125" lon="113.99624279638672" /><trkpt lat="22.26213178125" lon="113.99642679638671" /><trkpt lat="22.26230078125" lon="113.99659479638672" /><trkpt lat="22.26261478125" lon="113.99692679638672" /><trkpt lat="22.26277178125" lon="113.99710779638671" /><trkpt lat="22.26290578125" lon="113.99731779638672" /><trkpt lat="22.26299578125" lon="113.99765379638671" /><trkpt lat="22.26306578125" lon="113.99783279638672" /><trkpt lat="22.26310678125" lon="113.99791879638671" /><trkpt lat="22.26332878125" lon="113.99814279638672" /><trkpt lat="22.26349178125" lon="113.99819679638672" /><trkpt lat="22.26364878125" lon="113.99833179638672" /><trkpt lat="22.26372278125" lon="113.99840679638672" /><trkpt lat="22.26378678125" lon="113.99849479638672" /><trkpt lat="22.26401478125" lon="113.99908079638672" /><trkpt lat="22.26405478125" lon="113.99927579638671" /><trkpt lat="22.26406478125" lon="113.99937779638672" /><trkpt lat="22.26406178125" lon="113.99948379638671" /><trkpt lat="22.26402578125" lon="113.99977079638671" /><trkpt lat="22.26401278125" lon="113.99990379638672" /><trkpt lat="22.26402078125" lon="114.00004079638671" /><trkpt lat="22.26406578125" lon="114.00016079638672" /><trkpt lat="22.26414078125" lon="114.00025879638672" /><trkpt lat="22.26421078125" lon="114.00030779638672" /><trkpt lat="22.26430978125" lon="114.00033879638671" /><trkpt lat="22.26441278125" lon="114.00036279638672" /><trkpt lat="22.26502078125" lon="114.00043079638672" /><trkpt lat="22.26517978125" lon="114.00052779638672" /><trkpt lat="22.26520378125" lon="114.00055679638672" /><trkpt lat="22.26519778125" lon="114.00059979638672" /><trkpt lat="22.26518678125" lon="114.00063679638671" /><trkpt lat="22.26518178125" lon="114.00067479638672" /><trkpt lat="22.26518678125" lon="114.00074079638672" /><trkpt lat="22.26521078125" lon="114.00080279638672" /><trkpt lat="22.26524378125" lon="114.00084879638672" /><trkpt lat="22.26528778125" lon="114.00088379638672" /><trkpt lat="22.26533778125" lon="114.00090579638672" /><trkpt lat="22.26538978125" lon="114.00095379638672" /><trkpt lat="22.26540378125" lon="114.00099679638672" /><trkpt lat="22.26541578125" lon="114.00107579638671" /><trkpt lat="22.26539878125" lon="114.00115179638672" /><trkpt lat="22.26536578125" lon="114.00120479638672" /><trkpt lat="22.26530778125" lon="114.00125979638672" /><trkpt lat="22.26520178125" lon="114.00127879638671" /><trkpt lat="22.26500978125" lon="114.00131879638671" /><trkpt lat="22.26496378125" lon="114.00132779638672" /><trkpt lat="22.26489878125" lon="114.00134179638673" /><trkpt lat="22.26481578125" lon="114.00135879638673" /><trkpt lat="22.264865198190318" lon="114.0016030072789" /></trkseg></trk></gpx>