<?xml version='1.0' encoding='UTF-8' ?><gpx version="1.1" creator="HikingTrailHK" xsi:schemaLocation="http://www.topografix.com/GPX/1/1 http://www.topografix.com/GPX/1/1/gpx.xsd" xmlns="http://www.topografix.com/GPX/1/1" xmlns:xsi="http://www.w3.org/2001/XMLSchema-instance"><metadata><name>睇魚岩頂 @ 2017-11-4</name><desc>東壩至西灣亭</desc></metadata><trk><trkseg><trkpt lat="22.365392181400125" lon="114.37374151111601" /><trkpt lat="22.36543378125" lon="114.37389379638672" /><trkpt lat="22.36542178125" lon="114.37409879638672" /><trkpt lat="22.36538678125" lon="114.37411179638671" /><trkpt lat="22.36535778125" lon="114.37413579638672" /><trkpt lat="22.36533778125" lon="114.37416879638671" /><trkpt lat="22.36532878125" lon="114.37420679638672" /><trkpt lat="22.36533178125" lon="114.37424679638671" /><trkpt lat="22.36534578125" lon="114.37428379638672" /><trkpt lat="22.36537178125" lon="114.37431379638672" /><trkpt lat="22.36540378125" lon="114.37433179638671" /><trkpt lat="22.36544078125" lon="114.37433879638672" /><trkpt lat="22.36547778125" lon="114.37433179638671" /><trkpt lat="22.36550978125" lon="114.37431179638672" /><trkpt lat="22.36553478125" lon="114.37428079638671" /><trkpt lat="22.36554878125" lon="114.37424379638672" /><trkpt lat="22.36555078125" lon="114.37420379638672" /><trkpt lat="22.36564378125" lon="114.37406879638672" /><trkpt lat="22.36596178125" lon="114.37366579638672" /><trkpt lat="22.36621878125" lon="114.37356179638672" /><trkpt lat="22.36659578125" lon="114.37366579638672" /><trkpt lat="22.36697178125" lon="114.37407179638672" /><trkpt lat="22.36709278125" lon="114.37420279638673" /><trkpt lat="22.36796578125" lon="114.37454579638671" /><trkpt lat="22.36842178125" lon="114.37466379638671" /><trkpt lat="22.36852278125" lon="114.37466679638672" /><trkpt lat="22.36888678125" lon="114.37444079638672" /><trkpt lat="22.36899578125" lon="114.37441979638672" /><trkpt lat="22.36919078125" lon="114.37423379638672" /><trkpt lat="22.36942778125" lon="114.37395779638672" /><trkpt lat="22.36976978125" lon="114.37372779638672" /><trkpt lat="22.37006778125" lon="114.37377579638672" /><trkpt lat="22.37010178125" lon="114.37367979638672" /><trkpt lat="22.37017678125" lon="114.37346979638671" /><trkpt lat="22.37052378125" lon="114.37336779638672" /><trkpt lat="22.37059778125" lon="114.37324479638671" /><trkpt lat="22.37062778125" lon="114.37306779638672" /><trkpt lat="22.37109378125" lon="114.37277279638671" /><trkpt lat="22.37143678125" lon="114.37225779638672" /><trkpt lat="22.37160978125" lon="114.37203779638672" /><trkpt lat="22.37183878125" lon="114.37174279638671" /><trkpt lat="22.37193278125" lon="114.37172679638672" /><trkpt lat="22.37207178125" lon="114.37157079638672" /><trkpt lat="22.37220078125" lon="114.37141579638671" /><trkpt lat="22.37235378125" lon="114.37122279638672" /><trkpt lat="22.37250278125" lon="114.37102879638672" /><trkpt lat="22.37258778125" lon="114.37090079638672" /><trkpt lat="22.37276578125" lon="114.37069679638672" /><trkpt lat="22.37283578125" lon="114.37059979638671" /><trkpt lat="22.37286478125" lon="114.37044979638672" /><trkpt lat="22.37264178125" lon="114.37020279638672" /><trkpt lat="22.37284478125" lon="114.37040679638672" /><trkpt lat="22.37316778125" lon="114.37035879638672" /><trkpt lat="22.37329178125" lon="114.37023579638672" /><trkpt lat="22.37345878125" lon="114.37029979638672" /><trkpt lat="22.37365078125" lon="114.37021579638672" /><trkpt lat="22.37401578125" lon="114.37029179638672" /><trkpt lat="22.37419478125" lon="114.37033779638672" /><trkpt lat="22.37484978125" lon="114.37009479638672" /><trkpt lat="22.37498378125" lon="114.36996279638672" /><trkpt lat="22.37517678125" lon="114.36993979638672" /><trkpt lat="22.37544278125" lon="114.37010079638672" /><trkpt lat="22.37578478125" lon="114.37022179638672" /><trkpt lat="22.37596378125" lon="114.37013479638672" /><trkpt lat="22.37623478125" lon="114.37024779638672" /><trkpt lat="22.37637778125" lon="114.37023679638672" /><trkpt lat="22.37652878125" lon="114.37036379638671" /><trkpt lat="22.37663778125" lon="114.37055179638672" /><trkpt lat="22.37679978125" lon="114.37066179638671" /><trkpt lat="22.37700078125" lon="114.37101479638672" /><trkpt lat="22.37716978125" lon="114.37111979638672" /><trkpt lat="22.37722478125" lon="114.37131079638672" /><trkpt lat="22.37751878125" lon="114.37157579638672" /><trkpt lat="22.37801478125" lon="114.37180479638671" /><trkpt lat="22.37838078125" lon="114.37175879638671" /><trkpt lat="22.37854278125" lon="114.37184979638671" /><trkpt lat="22.37873478125" lon="114.37183579638672" /><trkpt lat="22.37910678125" lon="114.37201379638672" /><trkpt lat="22.37924078125" lon="114.37247979638671" /><trkpt lat="22.37968578125" lon="114.37309879638671" /><trkpt lat="22.38003978125" lon="114.37321179638671" /><trkpt lat="22.38030278125" lon="114.37348479638672" /><trkpt lat="22.38056878125" lon="114.37344779638671" /><trkpt lat="22.38121978125" lon="114.37412979638673" /><trkpt lat="22.38165678125" lon="114.37434279638671" /><trkpt lat="22.38188278125" lon="114.37451179638671" /><trkpt lat="22.38238078125" lon="114.37537279638671" /><trkpt lat="22.38264078125" lon="114.37611079638671" /><trkpt lat="22.38295978125" lon="114.37657979638672" /><trkpt lat="22.38303278125" lon="114.37675979638672" /><trkpt lat="22.38299078125" lon="114.37714579638671" /><trkpt lat="22.38309178125" lon="114.37730679638672" /><trkpt lat="22.38326478125" lon="114.37736379638672" /><trkpt lat="22.38335178125" lon="114.37753379638671" /><trkpt lat="22.38370078125" lon="114.37763579638671" /><trkpt lat="22.38392478125" lon="114.37761479638672" /><trkpt lat="22.38404378125" lon="114.37784079638672" /><trkpt lat="22.38414978125" lon="114.37789879638672" /><trkpt lat="22.38445478125" lon="114.37800479638672" /><trkpt lat="22.38449178125" lon="114.37799079638671" /><trkpt lat="22.38483078125" lon="114.37810779638671" /><trkpt lat="22.38518778125" lon="114.37802179638672" /><trkpt lat="22.38554578125" lon="114.37823679638672" /><trkpt lat="22.38508578125" lon="114.37837279638671" /><trkpt lat="22.38493878125" lon="114.37851879638671" /><trkpt lat="22.38471278125" lon="114.37857279638672" /><trkpt lat="22.38457878125" lon="114.37871679638671" /><trkpt lat="22.38454978125" lon="114.37894979638672" /><trkpt lat="22.38454578125" lon="114.37912479638672" /><trkpt lat="22.38464078125" lon="114.37923279638672" /><trkpt lat="22.38487278125" lon="114.37928879638672" /><trkpt lat="22.38496078125" lon="114.37936579638672" /><trkpt lat="22.38490478125" lon="114.37960379638672" /><trkpt lat="22.38497478125" lon="114.37984179638671" /><trkpt lat="22.38489878125" lon="114.37998379638672" /><trkpt lat="22.38502578125" lon="114.38020979638672" /><trkpt lat="22.38516178125" lon="114.38062879638672" /><trkpt lat="22.38528678125" lon="114.38085079638672" /><trkpt lat="22.38544578125" lon="114.38099779638672" /><trkpt lat="22.38549478125" lon="114.38163679638672" /><trkpt lat="22.38525078125" lon="114.38228579638672" /><trkpt lat="22.38525778125" lon="114.38246879638672" /><trkpt lat="22.38517878125" lon="114.38249779638672" /><trkpt lat="22.38499578125" lon="114.38273779638672" /><trkpt lat="22.38495478125" lon="114.38289379638672" /><trkpt lat="22.38493578125" lon="114.38309779638672" /><trkpt lat="22.38487578125" lon="114.38324879638672" /><trkpt lat="22.38470678125" lon="114.38341979638672" /><trkpt lat="22.38454878125" lon="114.38356979638672" /><trkpt lat="22.38447878125" lon="114.38379079638672" /><trkpt lat="22.38440778125" lon="114.38407979638671" /><trkpt lat="22.38421278125" lon="114.38437079638672" /><trkpt lat="22.38399078125" lon="114.38491879638671" /><trkpt lat="22.38413478125" lon="114.38525479638672" /><trkpt lat="22.38440878125" lon="114.38536279638672" /><trkpt lat="22.38475378125" lon="114.38579479638672" /><trkpt lat="22.38486278125" lon="114.38613879638672" /><trkpt lat="22.38478178125" lon="114.38641379638672" /><trkpt lat="22.38467478125" lon="114.38662279638672" /><trkpt lat="22.38462878125" lon="114.38669479638672" /><trkpt lat="22.38418378125" lon="114.38696779638671" /><trkpt lat="22.38394378125" lon="114.38713279638672" /><trkpt lat="22.38370478125" lon="114.38716379638672" /><trkpt lat="22.38356078125" lon="114.38728279638671" /><trkpt lat="22.38332778125" lon="114.38734579638673" /><trkpt lat="22.38309678125" lon="114.38735679638671" /><trkpt lat="22.38296778125" lon="114.38745979638672" /><trkpt lat="22.38263978125" lon="114.38757379638672" /><trkpt lat="22.38223478125" lon="114.38763079638672" /><trkpt lat="22.38198078125" lon="114.38772579638672" /><trkpt lat="22.38150878125" lon="114.38802879638672" /><trkpt lat="22.38092878125" lon="114.38817079638672" /><trkpt lat="22.38085278125" lon="114.38810379638672" /><trkpt lat="22.38085978125" lon="114.38806479638671" /><trkpt lat="22.38083978125" lon="114.38800979638673" /><trkpt lat="22.38073978125" lon="114.38790779638671" /><trkpt lat="22.38070878125" lon="114.38792479638671" /><trkpt lat="22.38065778125" lon="114.38788579638671" /><trkpt lat="22.38065778125" lon="114.38784179638672" /><trkpt lat="22.38069378125" lon="114.38781879638672" /><trkpt lat="22.38070378125" lon="114.38778179638672" /><trkpt lat="22.38069378125" lon="114.38772379638672" /><trkpt lat="22.38063078125" lon="114.38765579638672" /><trkpt lat="22.38054678125" lon="114.38752479638671" /><trkpt lat="22.38048678125" lon="114.38755379638671" /><trkpt lat="22.38043778125" lon="114.38754079638672" /><trkpt lat="22.38034578125" lon="114.38752879638672" /><trkpt lat="22.38029778125" lon="114.38746679638672" /><trkpt lat="22.38030478125" lon="114.38743279638672" /><trkpt lat="22.38026678125" lon="114.38741579638672" /><trkpt lat="22.38019678125" lon="114.38749179638671" /><trkpt lat="22.38015378125" lon="114.38751979638671" /><trkpt lat="22.38012278125" lon="114.38748479638672" /><trkpt lat="22.38017678125" lon="114.38741179638671" /><trkpt lat="22.38011578125" lon="114.38730979638672" /><trkpt lat="22.37941078125" lon="114.38690779638672" /><trkpt lat="22.37921878125" lon="114.38685479638671" /><trkpt lat="22.37904678125" lon="114.38687979638672" /><trkpt lat="22.37888378125" lon="114.38685279638672" /><trkpt lat="22.37864478125" lon="114.38684879638672" /><trkpt lat="22.37844978125" lon="114.38676679638672" /><trkpt lat="22.37828478125" lon="114.38658479638671" /><trkpt lat="22.37807878125" lon="114.38625879638671" /><trkpt lat="22.37805278125" lon="114.38621879638671" /><trkpt lat="22.37806078125" lon="114.38604479638671" /><trkpt lat="22.37803178125" lon="114.38580579638672" /><trkpt lat="22.37792478125" lon="114.38558579638672" /><trkpt lat="22.37791478125" lon="114.38549679638672" /><trkpt lat="22.37793978125" lon="114.38542979638672" /><trkpt lat="22.37795478125" lon="114.38531879638671" /><trkpt lat="22.37788078125" lon="114.38519579638672" /><trkpt lat="22.37777278125" lon="114.38517579638672" /><trkpt lat="22.37771878125" lon="114.38518479638672" /><trkpt lat="22.37765178125" lon="114.38518779638672" /><trkpt lat="22.37749978125" lon="114.38512879638672" /><trkpt lat="22.37736878125" lon="114.38504779638671" /><trkpt lat="22.37700478125" lon="114.38492379638672" /><trkpt lat="22.37685078125" lon="114.38506979638672" /><trkpt lat="22.37667378125" lon="114.38509479638672" /><trkpt lat="22.37645778125" lon="114.38524079638673" /><trkpt lat="22.37635378125" lon="114.38526479638672" /><trkpt lat="22.37628278125" lon="114.38531079638672" /><trkpt lat="22.37620078125" lon="114.38533079638673" /><trkpt lat="22.37617878125" lon="114.38534979638672" /><trkpt lat="22.37612478125" lon="114.38537679638672" /><trkpt lat="22.37607378125" lon="114.38541379638671" /><trkpt lat="22.37603578125" lon="114.38546379638672" /><trkpt lat="22.37596778125" lon="114.38550879638672" /><trkpt lat="22.37592578125" lon="114.38552779638673" /><trkpt lat="22.37587378125" lon="114.38552379638672" /><trkpt lat="22.37584178125" lon="114.38551479638672" /><trkpt lat="22.37580578125" lon="114.38552079638671" /><trkpt lat="22.37574478125" lon="114.38552879638672" /><trkpt lat="22.37568978125" lon="114.38555479638671" /><trkpt lat="22.37562178125" lon="114.38557279638673" /><trkpt lat="22.37557378125" lon="114.38558279638671" /><trkpt lat="22.37549478125" lon="114.38563779638672" /><trkpt lat="22.37539778125" lon="114.38567879638671" /><trkpt lat="22.37535478125" lon="114.38572379638671" /><trkpt lat="22.37529478125" lon="114.38575579638672" /><trkpt lat="22.37524978125" lon="114.38580179638672" /><trkpt lat="22.37519278125" lon="114.38583879638672" /><trkpt lat="22.37516578125" lon="114.38583279638672" /><trkpt lat="22.37514078125" lon="114.38580479638672" /><trkpt lat="22.37504778125" lon="114.38580179638672" /><trkpt lat="22.37502478125" lon="114.38579079638671" /><trkpt lat="22.37499378125" lon="114.38579279638672" /><trkpt lat="22.37495278125" lon="114.38582979638672" /><trkpt lat="22.37491778125" lon="114.38590479638673" /><trkpt lat="22.37486478125" lon="114.38591779638672" /><trkpt lat="22.37481278125" lon="114.38591079638672" /><trkpt lat="22.37477678125" lon="114.38593679638672" /><trkpt lat="22.37474878125" lon="114.38592679638671" /><trkpt lat="22.37471278125" lon="114.38587279638672" /><trkpt lat="22.37468478125" lon="114.38586779638672" /><trkpt lat="22.37465378125" lon="114.38584379638672" /><trkpt lat="22.37458178125" lon="114.38588779638673" /><trkpt lat="22.37450578125" lon="114.38588079638672" /><trkpt lat="22.37443878125" lon="114.38589979638672" /><trkpt lat="22.37440978125" lon="114.38590879638672" /><trkpt lat="22.37434078125" lon="114.38596879638672" /><trkpt lat="22.37422278125" lon="114.38599179638672" /><trkpt lat="22.37414978125" lon="114.38598379638672" /><trkpt lat="22.37408578125" lon="114.38592179638673" /><trkpt lat="22.37405078125" lon="114.38592279638672" /><trkpt lat="22.37397278125" lon="114.38594479638672" /><trkpt lat="22.37381378125" lon="114.38594579638672" /><trkpt lat="22.37378778125" lon="114.38593179638671" /><trkpt lat="22.37372078125" lon="114.38594479638672" /><trkpt lat="22.37360978125" lon="114.38592179638673" /><trkpt lat="22.37355678125" lon="114.38592179638673" /><trkpt lat="22.37348678125" lon="114.38594079638672" /><trkpt lat="22.37342978125" lon="114.38599179638672" /><trkpt lat="22.37328078125" lon="114.38599579638672" /><trkpt lat="22.37323678125" lon="114.38601379638672" /><trkpt lat="22.37317578125" lon="114.38602379638672" /><trkpt lat="22.37312478125" lon="114.38599779638672" /><trkpt lat="22.37301878125" lon="114.38595679638672" /><trkpt lat="22.37293078125" lon="114.38598679638672" /><trkpt lat="22.37277078125" lon="114.38597079638672" /><trkpt lat="22.37263478125" lon="114.38600579638671" /><trkpt lat="22.37255878125" lon="114.38602579638672" /><trkpt lat="22.37245878125" lon="114.38611079638672" /><trkpt lat="22.37243078125" lon="114.38611779638671" /><trkpt lat="22.37233478125" lon="114.38619179638673" /><trkpt lat="22.37226278125" lon="114.38623979638672" /><trkpt lat="22.37217878125" lon="114.38631379638672" /><trkpt lat="22.37213878125" lon="114.38639179638672" /><trkpt lat="22.37204378125" lon="114.38648779638672" /><trkpt lat="22.37199278125" lon="114.38655979638672" /><trkpt lat="22.37197678125" lon="114.38659779638672" /><trkpt lat="22.37195878125" lon="114.38663279638672" /><trkpt lat="22.37192078125" lon="114.38661679638672" /><trkpt lat="22.37189978125" lon="114.38663479638672" /><trkpt lat="22.37178478125" lon="114.38679179638672" /><trkpt lat="22.37176878125" lon="114.38686979638672" /><trkpt lat="22.37176078125" lon="114.38694779638672" /><trkpt lat="22.37173378125" lon="114.38697279638671" /><trkpt lat="22.37166678125" lon="114.38699179638672" /><trkpt lat="22.37164378125" lon="114.38703879638672" /><trkpt lat="22.37160878125" lon="114.38705779638671" /><trkpt lat="22.37155978125" lon="114.38711179638672" /><trkpt lat="22.37150978125" lon="114.38717179638672" /><trkpt lat="22.37149778125" lon="114.38719879638671" /><trkpt lat="22.37143878125" lon="114.38723879638673" /><trkpt lat="22.37138778125" lon="114.38724379638671" /><trkpt lat="22.37135278125" lon="114.38723979638672" /><trkpt lat="22.37132678125" lon="114.38725979638672" /><trkpt lat="22.37130178125" lon="114.38726479638672" /><trkpt lat="22.37126778125" lon="114.38726079638671" /><trkpt lat="22.37125278125" lon="114.38727779638671" /><trkpt lat="22.37124478125" lon="114.38731079638671" /><trkpt lat="22.37122978125" lon="114.38732379638672" /><trkpt lat="22.37121278125" lon="114.38732879638673" /><trkpt lat="22.37116578125" lon="114.38740479638672" /><trkpt lat="22.37114978125" lon="114.38750279638671" /><trkpt lat="22.37113578125" lon="114.38751079638672" /><trkpt lat="22.37113078125" lon="114.38754079638672" /><trkpt lat="22.37110178125" lon="114.38754379638672" /><trkpt lat="22.37108278125" lon="114.38757779638672" /><trkpt lat="22.37107678125" lon="114.38760679638672" /><trkpt lat="22.37104178125" lon="114.38762479638672" /><trkpt lat="22.37101278125" lon="114.38765179638672" /><trkpt lat="22.37099678125" lon="114.38770179638672" /><trkpt lat="22.37097878125" lon="114.38770879638672" /><trkpt lat="22.37096978125" lon="114.38775779638672" /><trkpt lat="22.37091778125" lon="114.38777579638672" /><trkpt lat="22.37090178125" lon="114.38782379638671" /><trkpt lat="22.37089478125" lon="114.38784779638672" /><trkpt lat="22.37090278125" lon="114.38788579638671" /><trkpt lat="22.37088578125" lon="114.38792979638671" /><trkpt lat="22.37086878125" lon="114.38794679638671" /><trkpt lat="22.37082678125" lon="114.38795279638671" /><trkpt lat="22.37080678125" lon="114.38799579638672" /><trkpt lat="22.37079678125" lon="114.38803479638672" /><trkpt lat="22.37079278125" lon="114.38809779638672" /><trkpt lat="22.37079378125" lon="114.38815679638672" /><trkpt lat="22.37076078125" lon="114.38819179638672" /><trkpt lat="22.37074778125" lon="114.38827379638671" /><trkpt lat="22.37068478125" lon="114.38830779638671" /><trkpt lat="22.37068978125" lon="114.38836779638672" /><trkpt lat="22.37067078125" lon="114.38840279638671" /><trkpt lat="22.37062478125" lon="114.38840279638671" /><trkpt lat="22.37059478125" lon="114.38841179638672" /><trkpt lat="22.37053778125" lon="114.38835179638671" /><trkpt lat="22.37049178125" lon="114.38834979638672" /><trkpt lat="22.37046378125" lon="114.38838379638672" /><trkpt lat="22.37039078125" lon="114.38831679638672" /><trkpt lat="22.37030378125" lon="114.38837279638672" /><trkpt lat="22.37019578125" lon="114.38840879638671" /><trkpt lat="22.37015478125" lon="114.38838879638672" /><trkpt lat="22.37008178125" lon="114.38839779638671" /><trkpt lat="22.37004878125" lon="114.38837479638671" /><trkpt lat="22.37000278125" lon="114.38842479638672" /><trkpt lat="22.36994378125" lon="114.38845479638672" /><trkpt lat="22.36990778125" lon="114.38849179638672" /><trkpt lat="22.36986378125" lon="114.38845579638672" /><trkpt lat="22.36981778125" lon="114.38844379638672" /><trkpt lat="22.36978678125" lon="114.38846379638672" /><trkpt lat="22.36973278125" lon="114.38844179638672" /><trkpt lat="22.36969678125" lon="114.38842779638672" /><trkpt lat="22.36949578125" lon="114.38846479638671" /><trkpt lat="22.36941578125" lon="114.38847179638672" /><trkpt lat="22.36928778125" lon="114.38845779638672" /><trkpt lat="22.36906378125" lon="114.38838179638672" /><trkpt lat="22.36900578125" lon="114.38841379638671" /><trkpt lat="22.36893578125" lon="114.38842079638673" /><trkpt lat="22.36884778125" lon="114.38844779638671" /><trkpt lat="22.36882178125" lon="114.38848779638671" /><trkpt lat="22.36876378125" lon="114.38852379638672" /><trkpt lat="22.36870678125" lon="114.38850779638672" /><trkpt lat="22.36865778125" lon="114.38850779638672" /><trkpt lat="22.36861978125" lon="114.38855179638672" /><trkpt lat="22.36855378125" lon="114.38854879638671" /><trkpt lat="22.36851778125" lon="114.38858379638671" /><trkpt lat="22.36842778125" lon="114.38856479638672" /><trkpt lat="22.36837578125" lon="114.38859279638672" /><trkpt lat="22.36834778125" lon="114.38858579638672" /><trkpt lat="22.36834078125" lon="114.38856979638672" /><trkpt lat="22.36832378125" lon="114.38856579638671" /><trkpt lat="22.36831078125" lon="114.38858579638672" /><trkpt lat="22.36827878125" lon="114.38854479638673" /><trkpt lat="22.36823878125" lon="114.38854879638671" /><trkpt lat="22.36814678125" lon="114.38854179638672" /><trkpt lat="22.36814478125" lon="114.38858879638671" /><trkpt lat="22.36798778125" lon="114.38858379638671" /><trkpt lat="22.36793678125" lon="114.38862279638671" /><trkpt lat="22.36785178125" lon="114.38861079638671" /><trkpt lat="22.36777478125" lon="114.38862279638671" /><trkpt lat="22.36773578125" lon="114.38865679638671" /><trkpt lat="22.36770678125" lon="114.38866479638672" /><trkpt lat="22.36766578125" lon="114.38865279638672" /><trkpt lat="22.36760378125" lon="114.38860879638672" /><trkpt lat="22.36758578125" lon="114.38856979638672" /><trkpt lat="22.36750978125" lon="114.38852879638672" /><trkpt lat="22.36743778125" lon="114.38845679638672" /><trkpt lat="22.36731578125" lon="114.38840279638671" /><trkpt lat="22.36723978125" lon="114.38841379638671" /><trkpt lat="22.36719778125" lon="114.38844079638672" /><trkpt lat="22.36696678125" lon="114.38850579638672" /><trkpt lat="22.36687878125" lon="114.38858779638672" /><trkpt lat="22.36677978125" lon="114.38865679638671" /><trkpt lat="22.36688878125" lon="114.38908479638673" /><trkpt lat="22.36687078125" lon="114.38973079638671" /><trkpt lat="22.36704778125" lon="114.38962079638672" /><trkpt lat="22.36744478125" lon="114.38949279638672" /><trkpt lat="22.36807978125" lon="114.38927779638672" /><trkpt lat="22.36847278125" lon="114.38909279638672" /><trkpt lat="22.36847878125" lon="114.38905279638672" /><trkpt lat="22.36850878125" lon="114.38902379638672" /><trkpt lat="22.36862178125" lon="114.38862579638672" /><trkpt lat="22.36861978125" lon="114.38855179638672" /><trkpt lat="22.36865778125" lon="114.38850779638672" /><trkpt lat="22.36870678125" lon="114.38850779638672" /><trkpt lat="22.36876378125" lon="114.38852379638672" /><trkpt lat="22.36882178125" lon="114.38848779638671" /><trkpt lat="22.36884778125" lon="114.38844779638671" /><trkpt lat="22.36893578125" lon="114.38842079638673" /><trkpt lat="22.36900578125" lon="114.38841379638671" /><trkpt lat="22.36906378125" lon="114.38838179638672" /><trkpt lat="22.36928778125" lon="114.38845779638672" /><trkpt lat="22.36941578125" lon="114.38847179638672" /><trkpt lat="22.36949578125" lon="114.38846479638671" /><trkpt lat="22.36969678125" lon="114.38842779638672" /><trkpt lat="22.36973278125" lon="114.38844179638672" /><trkpt lat="22.36978678125" lon="114.38846379638672" /><trkpt lat="22.36981778125" lon="114.38844379638672" /><trkpt lat="22.36986378125" lon="114.38845579638672" /><trkpt lat="22.36990778125" lon="114.38849179638672" /><trkpt lat="22.36994378125" lon="114.38845479638672" /><trkpt lat="22.37000278125" lon="114.38842479638672" /><trkpt lat="22.37002578125" lon="114.38844179638672" /><trkpt lat="22.37003878125" lon="114.38846379638672" /><trkpt lat="22.37004178125" lon="114.38852679638671" /><trkpt lat="22.37010378125" lon="114.38856779638672" /><trkpt lat="22.37010078125" lon="114.38861179638671" /><trkpt lat="22.37010778125" lon="114.38863479638673" /><trkpt lat="22.37010078125" lon="114.38866179638671" /><trkpt lat="22.37010378125" lon="114.38868979638671" /><trkpt lat="22.37012078125" lon="114.38869679638672" /><trkpt lat="22.37014978125" lon="114.38870079638671" /><trkpt lat="22.37017478125" lon="114.38873979638672" /><trkpt lat="22.37019378125" lon="114.38874679638671" /><trkpt lat="22.37023978125" lon="114.38872879638672" /><trkpt lat="22.37024978125" lon="114.38870379638672" /><trkpt lat="22.37025678125" lon="114.38867779638672" /><trkpt lat="22.37030078125" lon="114.38867079638672" /><trkpt lat="22.37032478125" lon="114.38863979638671" /><trkpt lat="22.37034478125" lon="114.38863879638672" /><trkpt lat="22.37037078125" lon="114.38862079638672" /><trkpt lat="22.37043178125" lon="114.38859779638672" /><trkpt lat="22.37048678125" lon="114.38856079638671" /><trkpt lat="22.37051678125" lon="114.38852679638671" /><trkpt lat="22.37056278125" lon="114.38850379638671" /><trkpt lat="22.37060178125" lon="114.38847879638672" /><trkpt lat="22.37061478125" lon="114.38845579638672" /><trkpt lat="22.37060978125" lon="114.38844079638672" /><trkpt lat="22.37059478125" lon="114.38841179638672" /><trkpt lat="22.37062478125" lon="114.38840279638671" /><trkpt lat="22.37067078125" lon="114.38840279638671" /><trkpt lat="22.37068978125" lon="114.38836779638672" /><trkpt lat="22.37068478125" lon="114.38830779638671" /><trkpt lat="22.37074778125" lon="114.38827379638671" /><trkpt lat="22.37076078125" lon="114.38819179638672" /><trkpt lat="22.37079378125" lon="114.38815679638672" /><trkpt lat="22.37079278125" lon="114.38809779638672" /><trkpt lat="22.37079678125" lon="114.38803479638672" /><trkpt lat="22.37080678125" lon="114.38799579638672" /><trkpt lat="22.37082678125" lon="114.38795279638671" /><trkpt lat="22.37086878125" lon="114.38794679638671" /><trkpt lat="22.37088578125" lon="114.38792979638671" /><trkpt lat="22.37090278125" lon="114.38788579638671" /><trkpt lat="22.37089478125" lon="114.38784779638672" /><trkpt lat="22.37090178125" lon="114.38782379638671" /><trkpt lat="22.37091778125" lon="114.38777579638672" /><trkpt lat="22.37096978125" lon="114.38775779638672" /><trkpt lat="22.37097878125" lon="114.38770879638672" /><trkpt lat="22.37099678125" lon="114.38770179638672" /><trkpt lat="22.37101278125" lon="114.38765179638672" /><trkpt lat="22.37104178125" lon="114.38762479638672" /><trkpt lat="22.37107678125" lon="114.38760679638672" /><trkpt lat="22.37108278125" lon="114.38757779638672" /><trkpt lat="22.37110178125" lon="114.38754379638672" /><trkpt lat="22.37113078125" lon="114.38754079638672" /><trkpt lat="22.37113578125" lon="114.38751079638672" /><trkpt lat="22.37114978125" lon="114.38750279638671" /><trkpt lat="22.37116578125" lon="114.38740479638672" /><trkpt lat="22.37121278125" lon="114.38732879638673" /><trkpt lat="22.37122978125" lon="114.38732379638672" /><trkpt lat="22.37124478125" lon="114.38731079638671" /><trkpt lat="22.37125278125" lon="114.38727779638671" /><trkpt lat="22.37126778125" lon="114.38726079638671" /><trkpt lat="22.37130178125" lon="114.38726479638672" /><trkpt lat="22.37132678125" lon="114.38725979638672" /><trkpt lat="22.37135278125" lon="114.38723979638672" /><trkpt lat="22.37138778125" lon="114.38724379638671" /><trkpt lat="22.37143878125" lon="114.38723879638673" /><trkpt lat="22.37149778125" lon="114.38719879638671" /><trkpt lat="22.37150978125" lon="114.38717179638672" /><trkpt lat="22.37155978125" lon="114.38711179638672" /><trkpt lat="22.37160878125" lon="114.38705779638671" /><trkpt lat="22.37164378125" lon="114.38703879638672" /><trkpt lat="22.37166678125" lon="114.38699179638672" /><trkpt lat="22.37173378125" lon="114.38697279638671" /><trkpt lat="22.37176078125" lon="114.38694779638672" /><trkpt lat="22.37176878125" lon="114.38686979638672" /><trkpt lat="22.37178478125" lon="114.38679179638672" /><trkpt lat="22.37189978125" lon="114.38663479638672" /><trkpt lat="22.37192078125" lon="114.38661679638672" /><trkpt lat="22.37195878125" lon="114.38663279638672" /><trkpt lat="22.37197678125" lon="114.38659779638672" /><trkpt lat="22.37199278125" lon="114.38655979638672" /><trkpt lat="22.37204378125" lon="114.38648779638672" /><trkpt lat="22.37213878125" lon="114.38639179638672" /><trkpt lat="22.37217878125" lon="114.38631379638672" /><trkpt lat="22.37226278125" lon="114.38623979638672" /><trkpt lat="22.37233478125" lon="114.38619179638673" /><trkpt lat="22.37243078125" lon="114.38611779638671" /><trkpt lat="22.37245878125" lon="114.38611079638672" /><trkpt lat="22.37255878125" lon="114.38602579638672" /><trkpt lat="22.37263478125" lon="114.38600579638671" /><trkpt lat="22.37277078125" lon="114.38597079638672" /><trkpt lat="22.37293078125" lon="114.38598679638672" /><trkpt lat="22.37301878125" lon="114.38595679638672" /><trkpt lat="22.37312478125" lon="114.38599779638672" /><trkpt lat="22.37317578125" lon="114.38602379638672" /><trkpt lat="22.37323678125" lon="114.38601379638672" /><trkpt lat="22.37328078125" lon="114.38599579638672" /><trkpt lat="22.37342978125" lon="114.38599179638672" /><trkpt lat="22.37348678125" lon="114.38594079638672" /><trkpt lat="22.37355678125" lon="114.38592179638673" /><trkpt lat="22.37360978125" lon="114.38592179638673" /><trkpt lat="22.37372078125" lon="114.38594479638672" /><trkpt lat="22.37378778125" lon="114.38593179638671" /><trkpt lat="22.37381378125" lon="114.38594579638672" /><trkpt lat="22.37397278125" lon="114.38594479638672" /><trkpt lat="22.37405078125" lon="114.38592279638672" /><trkpt lat="22.37408578125" lon="114.38592179638673" /><trkpt lat="22.37414978125" lon="114.38598379638672" /><trkpt lat="22.37422278125" lon="114.38599179638672" /><trkpt lat="22.37434078125" lon="114.38596879638672" /><trkpt lat="22.37440978125" lon="114.38590879638672" /><trkpt lat="22.37443878125" lon="114.38589979638672" /><trkpt lat="22.37450578125" lon="114.38588079638672" /><trkpt lat="22.37458178125" lon="114.38588779638673" /><trkpt lat="22.37465378125" lon="114.38584379638672" /><trkpt lat="22.37468478125" lon="114.38586779638672" /><trkpt lat="22.37471278125" lon="114.38587279638672" /><trkpt lat="22.37474878125" lon="114.38592679638671" /><trkpt lat="22.37477678125" lon="114.38593679638672" /><trkpt lat="22.37481278125" lon="114.38591079638672" /><trkpt lat="22.37486478125" lon="114.38591779638672" /><trkpt lat="22.37491778125" lon="114.38590479638673" /><trkpt lat="22.37495278125" lon="114.38582979638672" /><trkpt lat="22.37499378125" lon="114.38579279638672" /><trkpt lat="22.37502478125" lon="114.38579079638671" /><trkpt lat="22.37504778125" lon="114.38580179638672" /><trkpt lat="22.37514078125" lon="114.38580479638672" /><trkpt lat="22.37516578125" lon="114.38583279638672" /><trkpt lat="22.37519278125" lon="114.38583879638672" /><trkpt lat="22.37524978125" lon="114.38580179638672" /><trkpt lat="22.37529478125" lon="114.38575579638672" /><trkpt lat="22.37535478125" lon="114.38572379638671" /><trkpt lat="22.37539778125" lon="114.38567879638671" /><trkpt lat="22.37549478125" lon="114.38563779638672" /><trkpt lat="22.37557378125" lon="114.38558279638671" /><trkpt lat="22.37562178125" lon="114.38557279638673" /><trkpt lat="22.37568978125" lon="114.38555479638671" /><trkpt lat="22.37574478125" lon="114.38552879638672" /><trkpt lat="22.37580578125" lon="114.38552079638671" /><trkpt lat="22.37584178125" lon="114.38551479638672" /><trkpt lat="22.37587378125" lon="114.38552379638672" /><trkpt lat="22.37592578125" lon="114.38552779638673" /><trkpt lat="22.37596778125" lon="114.38550879638672" /><trkpt lat="22.37603578125" lon="114.38546379638672" /><trkpt lat="22.37607378125" lon="114.38541379638671" /><trkpt lat="22.37612478125" lon="114.38537679638672" /><trkpt lat="22.37617878125" lon="114.38534979638672" /><trkpt lat="22.37620078125" lon="114.38533079638673" /><trkpt lat="22.37628278125" lon="114.38531079638672" /><trkpt lat="22.37635378125" lon="114.38526479638672" /><trkpt lat="22.37645778125" lon="114.38524079638673" /><trkpt lat="22.37667378125" lon="114.38509479638672" /><trkpt lat="22.37685078125" lon="114.38506979638672" /><trkpt lat="22.37700478125" lon="114.38492379638672" /><trkpt lat="22.37736878125" lon="114.38504779638671" /><trkpt lat="22.37749978125" lon="114.38512879638672" /><trkpt lat="22.37765178125" lon="114.38518779638672" /><trkpt lat="22.37771878125" lon="114.38518479638672" /><trkpt lat="22.37777278125" lon="114.38517579638672" /><trkpt lat="22.37788078125" lon="114.38519579638672" /><trkpt lat="22.37848678125" lon="114.38506879638672" /><trkpt lat="22.37882878125" lon="114.38497679638672" /><trkpt lat="22.37906278125" lon="114.38487779638672" /><trkpt lat="22.38034978125" lon="114.38472179638671" /><trkpt lat="22.38064278125" lon="114.38459279638671" /><trkpt lat="22.38094778125" lon="114.38462379638672" /><trkpt lat="22.38175878125" lon="114.38457279638672" /><trkpt lat="22.38193678125" lon="114.38441179638671" /><trkpt lat="22.38224578125" lon="114.38437579638672" /><trkpt lat="22.38237278125" lon="114.38471879638672" /><trkpt lat="22.38277478125" lon="114.38486879638671" /><trkpt lat="22.38312978125" lon="114.38459479638672" /><trkpt lat="22.38326878125" lon="114.38463279638673" /><trkpt lat="22.38357678125" lon="114.38485779638673" /><trkpt lat="22.38378478125" lon="114.38494379638672" /><trkpt lat="22.38399078125" lon="114.38491879638671" /><trkpt lat="22.38421278125" lon="114.38437079638672" /><trkpt lat="22.38440778125" lon="114.38407979638671" /><trkpt lat="22.38447878125" lon="114.38379079638672" /><trkpt lat="22.38454878125" lon="114.38356979638672" /><trkpt lat="22.38470678125" lon="114.38341979638672" /><trkpt lat="22.38487578125" lon="114.38324879638672" /><trkpt lat="22.38493578125" lon="114.38309779638672" /><trkpt lat="22.38495478125" lon="114.38289379638672" /><trkpt lat="22.38499578125" lon="114.38273779638672" /><trkpt lat="22.38517878125" lon="114.38249779638672" /><trkpt lat="22.38525778125" lon="114.38246879638672" /><trkpt lat="22.38525078125" lon="114.38228579638672" /><trkpt lat="22.38549478125" lon="114.38163679638672" /><trkpt lat="22.38544578125" lon="114.38099779638672" /><trkpt lat="22.38528678125" lon="114.38085079638672" /><trkpt lat="22.38516178125" lon="114.38062879638672" /><trkpt lat="22.38502578125" lon="114.38020979638672" /><trkpt lat="22.38489878125" lon="114.37998379638672" /><trkpt lat="22.38497478125" lon="114.37984179638671" /><trkpt lat="22.38490478125" lon="114.37960379638672" /><trkpt lat="22.38496078125" lon="114.37936579638672" /><trkpt lat="22.38487278125" lon="114.37928879638672" /><trkpt lat="22.38464078125" lon="114.37923279638672" /><trkpt lat="22.38454578125" lon="114.37912479638672" /><trkpt lat="22.38454978125" lon="114.37894979638672" /><trkpt lat="22.38457878125" lon="114.37871679638671" /><trkpt lat="22.38471278125" lon="114.37857279638672" /><trkpt lat="22.38493878125" lon="114.37851879638671" /><trkpt lat="22.38508578125" lon="114.37837279638671" /><trkpt lat="22.38554578125" lon="114.37823679638672" /><trkpt lat="22.38578378125" lon="114.37812979638672" /><trkpt lat="22.38648278125" lon="114.37800679638671" /><trkpt lat="22.38681178125" lon="114.37782379638672" /><trkpt lat="22.38723178125" lon="114.37767879638672" /><trkpt lat="22.38766878125" lon="114.37742179638671" /><trkpt lat="22.38818378125" lon="114.37720679638672" /><trkpt lat="22.38844178125" lon="114.37705679638673" /><trkpt lat="22.38897778125" lon="114.37701379638672" /><trkpt lat="22.38899778125" lon="114.37677779638672" /><trkpt lat="22.38897778125" lon="114.37639179638671" /><trkpt lat="22.38915678125" lon="114.37600479638672" /><trkpt lat="22.38945378125" lon="114.37598379638672" /><trkpt lat="22.38954478125" lon="114.37586679638672" /><trkpt lat="22.38974178125" lon="114.37570979638672" /><trkpt lat="22.38934778125" lon="114.37536479638672" /><trkpt lat="22.38950578125" lon="114.37518079638672" /><trkpt lat="22.38970478125" lon="114.37520879638672" /><trkpt lat="22.38993478125" lon="114.37492679638672" /><trkpt lat="22.39014878125" lon="114.37472979638672" /><trkpt lat="22.39015378125" lon="114.37445979638672" /><trkpt lat="22.39017978125" lon="114.37400579638671" /><trkpt lat="22.38983078125" lon="114.37385979638672" /><trkpt lat="22.38971178125" lon="114.37357979638672" /><trkpt lat="22.38975678125" lon="114.37301679638672" /><trkpt lat="22.38937478125" lon="114.37274379638671" /><trkpt lat="22.38936078125" lon="114.37232079638672" /><trkpt lat="22.38914078125" lon="114.37223679638672" /><trkpt lat="22.38879978125" lon="114.37221979638672" /><trkpt lat="22.38866378125" lon="114.37197779638672" /><trkpt lat="22.38835678125" lon="114.37190079638673" /><trkpt lat="22.38800578125" lon="114.37143479638672" /><trkpt lat="22.38780678125" lon="114.37117679638672" /><trkpt lat="22.38770778125" lon="114.37105079638673" /><trkpt lat="22.38760878125" lon="114.37085479638672" /><trkpt lat="22.38741078125" lon="114.37074779638672" /><trkpt lat="22.38725178125" lon="114.37036179638672" /><trkpt lat="22.38742978125" lon="114.37001879638672" /><trkpt lat="22.38735078125" lon="114.36954679638671" /><trkpt lat="22.38727178125" lon="114.36915979638673" /><trkpt lat="22.38727178125" lon="114.36870979638672" /><trkpt lat="22.38725878125" lon="114.36828779638672" /><trkpt lat="22.38710978125" lon="114.36816479638672" /><trkpt lat="22.38711278125" lon="114.36797979638672" /><trkpt lat="22.38741078125" lon="114.36783479638672" /><trkpt lat="22.38759478125" lon="114.36758079638672" /><trkpt lat="22.38794278125" lon="114.36725779638672" /><trkpt lat="22.38816678125" lon="114.36731579638672" /><trkpt lat="22.38824178125" lon="114.36722879638671" /><trkpt lat="22.38822178125" lon="114.36686979638672" /><trkpt lat="22.38840778125" lon="114.36676879638672" /><trkpt lat="22.38855078125" lon="114.36666779638672" /><trkpt lat="22.38889178125" lon="114.36667879638672" /><trkpt lat="22.38905678125" lon="114.36656379638671" /><trkpt lat="22.38933878125" lon="114.36644979638672" /><trkpt lat="22.38981078125" lon="114.36630579638671" /><trkpt lat="22.39010178125" lon="114.36647679638672" /><trkpt lat="22.39016778125" lon="114.36619879638671" /><trkpt lat="22.39048478125" lon="114.36613179638672" /><trkpt lat="22.39069678125" lon="114.36609279638672" /><trkpt lat="22.39064578125" lon="114.36590179638672" /><trkpt lat="22.39067478125" lon="114.36586879638672" /><trkpt lat="22.39075678125" lon="114.36587879638672" /><trkpt lat="22.39081378125" lon="114.36584979638671" /><trkpt lat="22.39081078125" lon="114.36580379638671" /><trkpt lat="22.39077878125" lon="114.36572279638672" /><trkpt lat="22.39081878125" lon="114.36560479638672" /><trkpt lat="22.39090178125" lon="114.36555679638671" /><trkpt lat="22.39103778125" lon="114.36559279638672" /><trkpt lat="22.39096478125" lon="114.36545679638672" /><trkpt lat="22.39091478125" lon="114.36535479638673" /><trkpt lat="22.39083078125" lon="114.36520979638672" /><trkpt lat="22.39078578125" lon="114.36507379638672" /><trkpt lat="22.390760781250002" lon="114.36497179638671" /><trkpt lat="22.39075878125" lon="114.36488279638672" /><trkpt lat="22.39076478125" lon="114.36479079638671" /><trkpt lat="22.39068678125" lon="114.36458979638672" /><trkpt lat="22.39059378125" lon="114.36444379638672" /><trkpt lat="22.39054578125" lon="114.36434079638671" /><trkpt lat="22.39048778125" lon="114.36426879638672" /><trkpt lat="22.39041478125" lon="114.36420479638672" /><trkpt lat="22.39036578125" lon="114.36411379638672" /><trkpt lat="22.39031678125" lon="114.36402379638672" /><trkpt lat="22.39028578125" lon="114.36393179638672" /><trkpt lat="22.39025378125" lon="114.36383679638672" /><trkpt lat="22.39021178125" lon="114.36374079638672" /><trkpt lat="22.39015978125" lon="114.36365779638672" /><trkpt lat="22.39011078125" lon="114.36357379638672" /><trkpt lat="22.39010078125" lon="114.36348079638672" /><trkpt lat="22.39008978125" lon="114.36338479638673" /><trkpt lat="22.39012178125" lon="114.36329579638672" /><trkpt lat="22.39007178125" lon="114.36320279638672" /><trkpt lat="22.38998078125" lon="114.36313679638671" /><trkpt lat="22.38987878125" lon="114.36313079638671" /><trkpt lat="22.389813781249998" lon="114.36305479638672" /><trkpt lat="22.38976678125" lon="114.36296279638673" /><trkpt lat="22.38973778125" lon="114.36286179638672" /><trkpt lat="22.38970278125" lon="114.36276479638671" /><trkpt lat="22.38966278125" lon="114.36267279638672" /><trkpt lat="22.38963478125" lon="114.36256679638672" /><trkpt lat="22.38962178125" lon="114.36245979638672" /><trkpt lat="22.38960578125" lon="114.36235679638672" /><trkpt lat="22.38958478125" lon="114.36223979638672" /><trkpt lat="22.38960778125" lon="114.36212079638672" /><trkpt lat="22.38968378125" lon="114.36203879638671" /><trkpt lat="22.38967578125" lon="114.36189779638671" /><trkpt lat="22.38965778125" lon="114.36176879638671" /><trkpt lat="22.38968078125" lon="114.36166579638672" /><trkpt lat="22.38964578125" lon="114.36156579638671" /><trkpt lat="22.38957778125" lon="114.36149179638672" /><trkpt lat="22.38952878125" lon="114.36141379638671" /><trkpt lat="22.38949678125" lon="114.36130679638671" /><trkpt lat="22.38944278125" lon="114.36121579638672" /><trkpt lat="22.38942878125" lon="114.36111379638672" /><trkpt lat="22.38941478125" lon="114.36101579638672" /><trkpt lat="22.38941878125" lon="114.36091379638673" /><trkpt lat="22.38947278125" lon="114.36082079638672" /><trkpt lat="22.38954378125" lon="114.36075279638672" /><trkpt lat="22.38964578125" lon="114.36071179638672" /><trkpt lat="22.38974278125" lon="114.36067379638672" /><trkpt lat="22.38982578125" lon="114.36059579638672" /><trkpt lat="22.38991678125" lon="114.36053679638673" /><trkpt lat="22.39000778125" lon="114.36047579638672" /><trkpt lat="22.39011778125" lon="114.36045179638671" /><trkpt lat="22.39022078125" lon="114.36046479638672" /><trkpt lat="22.39027978125" lon="114.36054079638672" /><trkpt lat="22.39032178125" lon="114.36065879638672" /><trkpt lat="22.39040878125" lon="114.36071079638671" /><trkpt lat="22.39052978125" lon="114.36071379638672" /><trkpt lat="22.39061878125" lon="114.36082079638672" /><trkpt lat="22.39068478125" lon="114.36091779638672" /><trkpt lat="22.39078178125" lon="114.36092979638671" /><trkpt lat="22.39088078125" lon="114.36088279638672" /><trkpt lat="22.39096278125" lon="114.36078579638672" /><trkpt lat="22.39103178125" lon="114.36070279638672" /><trkpt lat="22.39112078125" lon="114.36066779638672" /><trkpt lat="22.39121778125" lon="114.36063379638672" /><trkpt lat="22.39130378125" lon="114.36058379638672" /><trkpt lat="22.39138678125" lon="114.36064079638672" /><trkpt lat="22.39147678125" lon="114.36059379638672" /><trkpt lat="22.39155878125" lon="114.36053279638672" /><trkpt lat="22.39162878125" lon="114.36044079638671" /><trkpt lat="22.39172178125" lon="114.36040779638672" /><trkpt lat="22.39182378125" lon="114.36036679638671" /><trkpt lat="22.39187078125" lon="114.36025979638671" /><trkpt lat="22.39195878125" lon="114.36017879638672" /><trkpt lat="22.39202378125" lon="114.36009479638672" /><trkpt lat="22.39208478125" lon="114.36001079638672" /><trkpt lat="22.39214078125" lon="114.35989879638672" /><trkpt lat="22.39223078125" lon="114.35994579638673" /><trkpt lat="22.39228978125" lon="114.36004179638672" /><trkpt lat="22.39231978125" lon="114.36015579638672" /><trkpt lat="22.39234378125" lon="114.36032979638672" /><trkpt lat="22.39236878125" lon="114.36055379638672" /><trkpt lat="22.39245378125" lon="114.36084179638672" /><trkpt lat="22.39253378125" lon="114.36091779638672" /><trkpt lat="22.39253578125" lon="114.36062479638672" /><trkpt lat="22.39260278125" lon="114.36057179638672" /><trkpt lat="22.39268778125" lon="114.36039079638672" /><trkpt lat="22.39279578125" lon="114.36030479638671" /><trkpt lat="22.39291178125" lon="114.36031679638671" /><trkpt lat="22.39302178125" lon="114.36031079638671" /><trkpt lat="22.39313478125" lon="114.36030579638673" /><trkpt lat="22.39323778125" lon="114.36032579638672" /><trkpt lat="22.39332478125" lon="114.36037679638672" /><trkpt lat="22.39335878125" lon="114.36047179638672" /><trkpt lat="22.39340378125" lon="114.36057279638672" /><trkpt lat="22.39339678125" lon="114.36067479638672" /><trkpt lat="22.39333678125" lon="114.36075479638671" /><trkpt lat="22.39334978125" lon="114.36090179638671" /><trkpt lat="22.39341478125" lon="114.36109579638672" /><trkpt lat="22.39349478125" lon="114.36147679638673" /><trkpt lat="22.39358378125" lon="114.36160379638672" /><trkpt lat="22.39368978125" lon="114.36153479638672" /><trkpt lat="22.39386278125" lon="114.36155079638672" /><trkpt lat="22.39396478125" lon="114.36141279638672" /><trkpt lat="22.39401678125" lon="114.36138779638672" /><trkpt lat="22.39400978125" lon="114.36125179638672" /><trkpt lat="22.39401578125" lon="114.36107879638672" /><trkpt lat="22.39409578125" lon="114.36097179638672" /><trkpt lat="22.39419578125" lon="114.36088479638671" /><trkpt lat="22.39419878125" lon="114.36075979638672" /><trkpt lat="22.39424378125" lon="114.36063679638671" /><trkpt lat="22.39435478125" lon="114.36061979638671" /><trkpt lat="22.39447078125" lon="114.36063279638672" /><trkpt lat="22.39456978125" lon="114.36067179638673" /><trkpt lat="22.39468478125" lon="114.36065979638671" /><trkpt lat="22.39477378125" lon="114.36059579638672" /><trkpt lat="22.39478678125" lon="114.36037679638672" /><trkpt lat="22.39483178125" lon="114.36024179638672" /><trkpt lat="22.39489878125" lon="114.36012379638672" /><trkpt lat="22.394967047007967" lon="114.3600421452662" /></trkseg></trk></gpx>