<?xml version='1.0' encoding='UTF-8' ?><gpx version="1.1" creator="HikingTrailHK" xsi:schemaLocation="http://www.topografix.com/GPX/1/1 http://www.topografix.com/GPX/1/1/gpx.xsd https://hikingtrailhk.appspot.com/xml/gpxextensions/v1 https://hikingtrailhk.appspot.com/xml/gpxextensions/v1/gpxextensions.xsd" xmlns="http://www.topografix.com/GPX/1/1" xmlns:h="https://hikingtrailhk.appspot.com/xml/gpxextensions/v1" xmlns:xsi="http://www.w3.org/2001/XMLSchema-instance"><metadata><name>破邊洲 @ 2017-2-10</name><desc></desc><extensions><h:categoryid>scenery_route</h:categoryid></extensions></metadata><trk><trkseg><trkpt lat="22.3653878217914" lon="114.37372555185843" /><trkpt lat="22.36537778125" lon="114.37368879638672" /><trkpt lat="22.36479178125" lon="114.37303479638672" /><trkpt lat="22.36395678125" lon="114.37235779638672" /><trkpt lat="22.36387678125" lon="114.37231879638672" /><trkpt lat="22.36334978125" lon="114.37331079638672" /><trkpt lat="22.36330478125" lon="114.37327579638672" /><trkpt lat="22.36293778125" lon="114.37313079638672" /><trkpt lat="22.36247178125" lon="114.37294879638672" /><trkpt lat="22.36207478125" lon="114.37286879638671" /><trkpt lat="22.36185778125" lon="114.37308479638672" /><trkpt lat="22.36180672122965" lon="114.37317820864406" /><trkpt lat="22.361758438273753" lon="114.37318833518417" /><trkpt lat="22.361730067770807" lon="114.37322395696297" /><trkpt lat="22.36174495081717" lon="114.37326889877964" /><trkpt lat="22.361790283357763" lon="114.37326462564612" /><trkpt lat="22.361771624900925" lon="114.37321844471568" /><trkpt lat="22.361758593608258" lon="114.37320233279875" /><trkpt lat="22.361784488397866" lon="114.37321888266521" /><trkpt lat="22.36185778125" lon="114.37308479638672" /><trkpt lat="22.36207478125" lon="114.37286879638671" /><trkpt lat="22.36247178125" lon="114.37294879638672" /><trkpt lat="22.36293778125" lon="114.37313079638672" /><trkpt lat="22.36330478125" lon="114.37327579638672" /><trkpt lat="22.36334978125" lon="114.37331079638672" /><trkpt lat="22.36387678125" lon="114.37231879638672" /><trkpt lat="22.36299178125" lon="114.37188879638671" /><trkpt lat="22.36212378125" lon="114.37167179638672" /><trkpt lat="22.36203178125" lon="114.37164879638672" /><trkpt lat="22.36184878125" lon="114.37135179638672" /><trkpt lat="22.36175478125" lon="114.37119879638672" /><trkpt lat="22.36156078125" lon="114.37109579638673" /><trkpt lat="22.36108978125" lon="114.37122979638671" /><trkpt lat="22.36058378125" lon="114.37145579638671" /><trkpt lat="22.36055278125" lon="114.37162579638672" /><trkpt lat="22.36041678125" lon="114.37178379638672" /><trkpt lat="22.36024978125" lon="114.37200079638671" /><trkpt lat="22.36014078125" lon="114.37221579638671" /><trkpt lat="22.36010678125" lon="114.37223179638671" /><trkpt lat="22.35992678125" lon="114.37219079638672" /><trkpt lat="22.35967278125" lon="114.37212579638671" /><trkpt lat="22.35933078125" lon="114.37184079638672" /><trkpt lat="22.35899578125" lon="114.37147779638671" /><trkpt lat="22.358716832098512" lon="114.37122864574461" /><trkpt lat="22.35865878125" lon="114.37117679638672" /><trkpt lat="22.35828178125" lon="114.37102679638672" /><trkpt lat="22.35810278125" lon="114.37096279638672" /><trkpt lat="22.35786478125" lon="114.37145579638671" /><trkpt lat="22.35760678125" lon="114.37197079638672" /><trkpt lat="22.35713078125" lon="114.37244279638672" /><trkpt lat="22.35689278125" lon="114.37266579638671" /><trkpt lat="22.35712478125" lon="114.37282379638671" /><trkpt lat="22.35729678125" lon="114.37306179638672" /><trkpt lat="22.35743578125" lon="114.37308379638672" /><trkpt lat="22.35751478125" lon="114.37329779638672" /><trkpt lat="22.35766478125" lon="114.37345979638673" /><trkpt lat="22.35773378125" lon="114.37353379638672" /><trkpt lat="22.35785278125" lon="114.37372779638672" /><trkpt lat="22.35786678125" lon="114.37377279638672" /><trkpt lat="22.35795778125" lon="114.37405279638672" /><trkpt lat="22.35805778125" lon="114.37422979638671" /><trkpt lat="22.35810478125" lon="114.37439679638672" /><trkpt lat="22.35819679026342" lon="114.37439877944105" /><trkpt lat="22.35833678125" lon="114.37440179638672" /><trkpt lat="22.35840878125" lon="114.37450679638673" /><trkpt lat="22.35842878125" lon="114.37458279638672" /><trkpt lat="22.35848578125" lon="114.37453379638671" /><trkpt lat="22.35848578125" lon="114.37453379638671" /><trkpt lat="22.35842878125" lon="114.37458279638672" /><trkpt lat="22.35839578125" lon="114.37471079638672" /><trkpt lat="22.35830178125" lon="114.37482379638672" /><trkpt lat="22.35828078125" lon="114.37499679638672" /><trkpt lat="22.35824078125" lon="114.37523179638671" /><trkpt lat="22.35828278125" lon="114.37557479638672" /><trkpt lat="22.35825078125" lon="114.37566879638672" /><trkpt lat="22.35814378125" lon="114.37584279638672" /><trkpt lat="22.35819278125" lon="114.37624479638671" /><trkpt lat="22.35814178125" lon="114.37649979638672" /><trkpt lat="22.35808878125" lon="114.37657579638672" /><trkpt lat="22.35817278125" lon="114.37668079638672" /><trkpt lat="22.35825678125" lon="114.37669579638671" /><trkpt lat="22.35819678125" lon="114.37693079638672" /><trkpt lat="22.35822578125" lon="114.37716279638671" /><trkpt lat="22.358213683764923" lon="114.37725716250014" /><trkpt lat="22.358247462820728" lon="114.37726222582597" /><trkpt lat="22.35828709511523" lon="114.37725447685898" /><trkpt lat="22.35829189762036" lon="114.37725089977522" /><trkpt lat="22.358342362557323" lon="114.37740847100406" /><trkpt lat="22.35824578125" lon="114.37754379638672" /><trkpt lat="22.35828678125" lon="114.37735779638672" /><trkpt lat="22.35821078125" lon="114.37727979638672" /><trkpt lat="22.35822578125" lon="114.37716279638671" /><trkpt lat="22.35819678125" lon="114.37693079638672" /><trkpt lat="22.35825678125" lon="114.37669579638671" /><trkpt lat="22.35817278125" lon="114.37668079638672" /><trkpt lat="22.35808878125" lon="114.37657579638672" /><trkpt lat="22.35814178125" lon="114.37649979638672" /><trkpt lat="22.35819278125" lon="114.37624479638671" /><trkpt lat="22.35814378125" lon="114.37584279638672" /><trkpt lat="22.35825078125" lon="114.37566879638672" /><trkpt lat="22.35828278125" lon="114.37557479638672" /><trkpt lat="22.35824078125" lon="114.37523179638671" /><trkpt lat="22.35828078125" lon="114.37499679638672" /><trkpt lat="22.35830178125" lon="114.37482379638672" /><trkpt lat="22.35802678125" lon="114.37488979638673" /><trkpt lat="22.35779478125" lon="114.37481179638672" /><trkpt lat="22.35736478125" lon="114.37452879638671" /><trkpt lat="22.35680278125" lon="114.37442079638672" /><trkpt lat="22.35645578125" lon="114.37453979638671" /><trkpt lat="22.35631578125" lon="114.37429679638672" /><trkpt lat="22.35655778125" lon="114.37397079638671" /><trkpt lat="22.35671078125" lon="114.37386679638672" /><trkpt lat="22.35665878125" lon="114.37367979638672" /><trkpt lat="22.35672478125" lon="114.37329379638672" /><trkpt lat="22.35670978125" lon="114.37324279638672" /><trkpt lat="22.35653678125" lon="114.37301379638672" /><trkpt lat="22.35677578125" lon="114.37285379638672" /><trkpt lat="22.35689278125" lon="114.37266579638671" /><trkpt lat="22.35674578125" lon="114.37259479638672" /><trkpt lat="22.35671378125" lon="114.37253279638672" /><trkpt lat="22.35666578125" lon="114.37243879638672" /><trkpt lat="22.35648378125" lon="114.37222579638672" /><trkpt lat="22.35634478125" lon="114.37205379638672" /><trkpt lat="22.35626378125" lon="114.37184279638672" /><trkpt lat="22.35622578125" lon="114.37168879638672" /><trkpt lat="22.35600678125" lon="114.37149579638672" /><trkpt lat="22.35592378125" lon="114.37131879638672" /><trkpt lat="22.35584778125" lon="114.37104479638671" /><trkpt lat="22.35584778125" lon="114.37089479638672" /><trkpt lat="22.35572878125" lon="114.37076579638672" /><trkpt lat="22.35564978125" lon="114.37063779638672" /><trkpt lat="22.35558978125" lon="114.37040179638672" /><trkpt lat="22.35555078125" lon="114.37016579638671" /><trkpt lat="22.35547078125" lon="114.36997179638672" /><trkpt lat="22.35531278125" lon="114.36984379638672" /><trkpt lat="22.35531278125" lon="114.36969379638671" /><trkpt lat="22.35514578125" lon="114.36952479638671" /><trkpt lat="22.35522578125" lon="114.36924579638672" /><trkpt lat="22.35508678125" lon="114.36885979638672" /><trkpt lat="22.35486878125" lon="114.36874779638671" /><trkpt lat="22.35477178125" lon="114.36827979638672" /><trkpt lat="22.35479378125" lon="114.36782779638672" /><trkpt lat="22.35504678125" lon="114.36750779638672" /><trkpt lat="22.35518578125" lon="114.36707879638672" /><trkpt lat="22.35534478125" lon="114.36669279638672" /><trkpt lat="22.35538478125" lon="114.36641379638672" /><trkpt lat="22.35532478125" lon="114.36624179638672" /><trkpt lat="22.35544378125" lon="114.36606979638672" /><trkpt lat="22.35538478125" lon="114.36594179638672" /><trkpt lat="22.35516678125" lon="114.36573879638672" /><trkpt lat="22.35525278125" lon="114.36533979638672" /><trkpt lat="22.35515478125" lon="114.36489979638672" /><trkpt lat="22.35535178125" lon="114.36471479638672" /><trkpt lat="22.35541178125" lon="114.36447879638672" /><trkpt lat="22.35557078125" lon="114.36439379638672" /><trkpt lat="22.35570978125" lon="114.36435079638672" /><trkpt lat="22.35592778125" lon="114.36424279638672" /><trkpt lat="22.35614578125" lon="114.36413579638672" /><trkpt lat="22.35622774400931" lon="114.3640471326233" /><trkpt lat="22.356198528601055" lon="114.36401183053535" /><trkpt lat="22.35629778125" lon="114.36391579638672" /><trkpt lat="22.35652278125" lon="114.36383579638672" /><trkpt lat="22.35682878125" lon="114.36373979638672" /><trkpt lat="22.35713578125" lon="114.36383679638672" /><trkpt lat="22.35752478125" lon="114.36371179638672" /><trkpt lat="22.35754878125" lon="114.36375379638672" /><trkpt lat="22.35783278125" lon="114.36414579638672" /><trkpt lat="22.35789178125" lon="114.36418379638671" /><trkpt lat="22.357974975300962" lon="114.36434583209977" /><trkpt lat="22.35820478125" lon="114.36484379638672" /><trkpt lat="22.35855678125" lon="114.36520579638672" /><trkpt lat="22.35892378125" lon="114.36519779638672" /><trkpt lat="22.35910878125" lon="114.36531379638672" /><trkpt lat="22.35930378125" lon="114.36543579638672" /><trkpt lat="22.35953978125" lon="114.36539879638671" /><trkpt lat="22.35960178125" lon="114.36536279638672" /><trkpt lat="22.35974978125" lon="114.36527579638671" /><trkpt lat="22.35941778125" lon="114.36468679638672" /><trkpt lat="22.35939678125" lon="114.36447579638671" /><trkpt lat="22.35950478125" lon="114.36429779638672" /><trkpt lat="22.35964978125" lon="114.36404879638673" /><trkpt lat="22.35965078125" lon="114.36377079638672" /><trkpt lat="22.35954578125" lon="114.36343979638671" /><trkpt lat="22.35955078125" lon="114.36316879638672" /><trkpt lat="22.35973678125" lon="114.36274279638671" /><trkpt lat="22.35972578125" lon="114.36253579638672" /><trkpt lat="22.35958278125" lon="114.36239679638672" /><trkpt lat="22.35911478125" lon="114.36219479638672" /><trkpt lat="22.35902978125" lon="114.36206579638672" /><trkpt lat="22.35901178125" lon="114.36189679638672" /><trkpt lat="22.35922978125" lon="114.36119979638671" /><trkpt lat="22.35951878125" lon="114.36100679638672" /><trkpt lat="22.35962478125" lon="114.36082379638673" /><trkpt lat="22.35961278125" lon="114.36060679638672" /><trkpt lat="22.35948178125" lon="114.36034579638672" /><trkpt lat="22.35945278125" lon="114.36014779638671" /><trkpt lat="22.35954778125" lon="114.35988079638672" /><trkpt lat="22.35973978125" lon="114.35972479638671" /><trkpt lat="22.35995178125" lon="114.35959579638671" /><trkpt lat="22.36054578125" lon="114.35943279638671" /><trkpt lat="22.36112978125" lon="114.35913779638672" /><trkpt lat="22.36181678125" lon="114.35878479638671" /><trkpt lat="22.36211678125" lon="114.35845379638671" /><trkpt lat="22.36243378125" lon="114.35810079638672" /><trkpt lat="22.36255278125" lon="114.35788279638672" /><trkpt lat="22.36303278125" lon="114.35731079638671" /><trkpt lat="22.36346578125" lon="114.35672879638672" /><trkpt lat="22.36374878125" lon="114.35623579638671" /><trkpt lat="22.36379678125" lon="114.35592979638672" /><trkpt lat="22.36371378125" lon="114.35559479638673" /><trkpt lat="22.36338178125" lon="114.35536279638671" /><trkpt lat="22.36323278125" lon="114.35513679638672" /><trkpt lat="22.36312178125" lon="114.35450679638672" /><trkpt lat="22.36303278125" lon="114.35423579638672" /><trkpt lat="22.36285178125" lon="114.35406679638672" /><trkpt lat="22.36263178125" lon="114.35404579638671" /><trkpt lat="22.36221578125" lon="114.35416879638672" /><trkpt lat="22.36202078125" lon="114.35410679638672" /><trkpt lat="22.36192278125" lon="114.35398979638671" /><trkpt lat="22.36144178125" lon="114.35338579638672" /><trkpt lat="22.36144378125" lon="114.35323979638672" /><trkpt lat="22.36148378125" lon="114.35311879638672" /><trkpt lat="22.36167478125" lon="114.35301279638672" /><trkpt lat="22.36190578125" lon="114.35306679638671" /><trkpt lat="22.36202578125" lon="114.35300879638672" /><trkpt lat="22.36208478125" lon="114.35290179638672" /><trkpt lat="22.36208478125" lon="114.35275579638672" /><trkpt lat="22.36199578125" lon="114.35260679638672" /><trkpt lat="22.36195078125" lon="114.35248879638672" /><trkpt lat="22.36198378125" lon="114.35191779638672" /><trkpt lat="22.36195078125" lon="114.35176079638671" /><trkpt lat="22.36179778125" lon="114.35166179638672" /><trkpt lat="22.36149378125" lon="114.35162179638672" /><trkpt lat="22.36137378125" lon="114.35151279638671" /><trkpt lat="22.36133978125" lon="114.35132979638672" /><trkpt lat="22.36161578125" lon="114.35087779638671" /><trkpt lat="22.36176378125" lon="114.35048279638671" /><trkpt lat="22.36217078125" lon="114.35032379638672" /><trkpt lat="22.36236678125" lon="114.35004479638671" /><trkpt lat="22.36264178125" lon="114.34969279638672" /><trkpt lat="22.36269378125" lon="114.34959979638671" /><trkpt lat="22.36292478125" lon="114.34946879638672" /><trkpt lat="22.36327278125" lon="114.34937679638672" /><trkpt lat="22.36361678125" lon="114.34922679638672" /><trkpt lat="22.36396678125" lon="114.34901079638672" /><trkpt lat="22.36439978125" lon="114.34873479638672" /><trkpt lat="22.36449878125" lon="114.34860579638672" /><trkpt lat="22.36451678125" lon="114.34829979638671" /><trkpt lat="22.36440578125" lon="114.34806579638672" /><trkpt lat="22.36440578125" lon="114.34778579638672" /><trkpt lat="22.36451978125" lon="114.34761279638671" /><trkpt lat="22.36497278125" lon="114.34760379638672" /><trkpt lat="22.36537378125" lon="114.34753079638672" /><trkpt lat="22.36603478125" lon="114.34722479638671" /><trkpt lat="22.36609978125" lon="114.34716479638672" /><trkpt lat="22.36630778125" lon="114.34683579638671" /><trkpt lat="22.36685378125" lon="114.34650079638672" /><trkpt lat="22.36723078125" lon="114.34587879638671" /><trkpt lat="22.36753978125" lon="114.34559679638672" /><trkpt lat="22.36775778125" lon="114.34556979638671" /><trkpt lat="22.36791078125" lon="114.34542779638672" /><trkpt lat="22.36829478125" lon="114.34475579638672" /><trkpt lat="22.36842278125" lon="114.34450179638672" /><trkpt lat="22.36843378125" lon="114.34433579638672" /><trkpt lat="22.36853078125" lon="114.34417779638672" /><trkpt lat="22.36865378125" lon="114.34411679638671" /><trkpt lat="22.36917578125" lon="114.34421379638673" /><trkpt lat="22.36935278125" lon="114.34414979638672" /><trkpt lat="22.36962978125" lon="114.34382679638672" /><trkpt lat="22.36979778125" lon="114.34380079638672" /><trkpt lat="22.37011378125" lon="114.34383979638672" /><trkpt lat="22.37027578125" lon="114.34370779638672" /><trkpt lat="22.37030478125" lon="114.34359379638671" /><trkpt lat="22.37046078125" lon="114.34332279638672" /><trkpt lat="22.37086878125" lon="114.34271779638672" /><trkpt lat="22.37088478125" lon="114.34257079638672" /><trkpt lat="22.37081478125" lon="114.34232079638672" /><trkpt lat="22.37090378125" lon="114.34216079638672" /><trkpt lat="22.37191278125" lon="114.34178579638672" /><trkpt lat="22.37274978125" lon="114.34141779638672" /><trkpt lat="22.37373978125" lon="114.34087879638672" /><trkpt lat="22.37474178125" lon="114.34022879638673" /><trkpt lat="22.37551378125" lon="114.33964079638672" /><trkpt lat="22.37598178125" lon="114.33920479638672" /><trkpt lat="22.37626678125" lon="114.33895579638671" /><trkpt lat="22.37642378125" lon="114.33885979638671" /><trkpt lat="22.37640878125" lon="114.33877579638671" /><trkpt lat="22.37643878125" lon="114.33872179638672" /><trkpt lat="22.37650278125" lon="114.33867879638672" /><trkpt lat="22.37657278125" lon="114.33867879638672" /><trkpt lat="22.37657778125" lon="114.33879479638672" /><trkpt lat="22.37672178125" lon="114.33883679638672" /><trkpt lat="22.37680778125" lon="114.33887779638673" /><trkpt lat="22.37692278125" lon="114.33906479638672" /><trkpt lat="22.37709478125" lon="114.33918879638672" /><trkpt lat="22.377260411963416" lon="114.33926532551881" /><trkpt lat="22.37727178125" lon="114.33926979638672" /><trkpt lat="22.37740778125" lon="114.33928179638671" /><trkpt lat="22.37754478125" lon="114.33928179638671" /><trkpt lat="22.37774078125" lon="114.33922179638672" /><trkpt lat="22.37791578125" lon="114.33916779638672" /><trkpt lat="22.37813578125" lon="114.33908279638672" /><trkpt lat="22.37817378125" lon="114.33906179638672" /><trkpt lat="22.37825278125" lon="114.33901179638671" /><trkpt lat="22.37830578125" lon="114.33896279638672" /><trkpt lat="22.37839278125" lon="114.33885479638671" /><trkpt lat="22.37844178125" lon="114.33875579638672" /><trkpt lat="22.37863678125" lon="114.33818479638671" /><trkpt lat="22.37872078125" lon="114.33803179638672" /><trkpt lat="22.37888478125" lon="114.33789479638672" /><trkpt lat="22.378936105624543" lon="114.33785953023705" /><trkpt lat="22.37925578125" lon="114.33774579638671" /><trkpt lat="22.37975178125" lon="114.33750979638671" /><trkpt lat="22.37982778125" lon="114.33748479638672" /><trkpt lat="22.38026778125" lon="114.33733879638672" /><trkpt lat="22.38064478125" lon="114.33693079638672" /><trkpt lat="22.38096178125" lon="114.33650179638671" /><trkpt lat="22.38118078125" lon="114.33613679638673" /><trkpt lat="22.38147378125" lon="114.33571079638672" /><trkpt lat="22.38166178125" lon="114.33553479638672" /><trkpt lat="22.38193478125" lon="114.33540679638672" /><trkpt lat="22.38215978125" lon="114.33525379638672" /><trkpt lat="22.38235678125" lon="114.33494479638672" /><trkpt lat="22.38250078125" lon="114.33460779638672" /><trkpt lat="22.38280078125" lon="114.33442379638672" /><trkpt lat="22.38315578125" lon="114.33447379638672" /><trkpt lat="22.38332478125" lon="114.33457079638671" /><trkpt lat="22.38398878125" lon="114.33502479638672" /><trkpt lat="22.38473378125" lon="114.33536079638672" /><trkpt lat="22.38539778125" lon="114.33578679638671" /><trkpt lat="22.38561278125" lon="114.33600979638672" /><trkpt lat="22.38588278125" lon="114.33600179638673" /><trkpt lat="22.38626978125" lon="114.33598579638672" /><trkpt lat="22.38688978125" lon="114.33598079638672" /><trkpt lat="22.38734578125" lon="114.33573879638672" /><trkpt lat="22.38769278125" lon="114.33535779638672" /><trkpt lat="22.38795678125" lon="114.33496179638672" /><trkpt lat="22.38818878125" lon="114.33457379638672" /><trkpt lat="22.38842678125" lon="114.33425279638672" /><trkpt lat="22.38868078125" lon="114.33405979638673" /><trkpt lat="22.38899278125" lon="114.33396879638671" /><trkpt lat="22.389224764520918" lon="114.33397198502593" /><trkpt lat="22.38928378125" lon="114.33397279638672" /><trkpt lat="22.38936778125" lon="114.33394579638671" /><trkpt lat="22.38942678125" lon="114.33385979638672" /><trkpt lat="22.38951878125" lon="114.33367279638672" /><trkpt lat="22.38958778125" lon="114.33320179638672" /><trkpt lat="22.38960778125" lon="114.33311579638672" /><trkpt lat="22.38965278125" lon="114.33306379638672" /><trkpt lat="22.39004978125" lon="114.33298779638672" /><trkpt lat="22.39048778125" lon="114.33277279638672" /><trkpt lat="22.39100178125" lon="114.33248879638671" /><trkpt lat="22.39133878125" lon="114.33228479638672" /><trkpt lat="22.39185478125" lon="114.33201679638672" /><trkpt lat="22.39209278125" lon="114.33171679638671" /><trkpt lat="22.39247478125" lon="114.33132979638673" /><trkpt lat="22.39304678125" lon="114.33109879638671" /><trkpt lat="22.39364078125" lon="114.33097579638672" /><trkpt lat="22.39396778125" lon="114.33070779638672" /><trkpt lat="22.39421578125" lon="114.33058379638672" /><trkpt lat="22.39435578125" lon="114.33053379638672" /><trkpt lat="22.39450578125" lon="114.33043079638672" /><trkpt lat="22.39461078125" lon="114.33048979638671" /><trkpt lat="22.39467178125" lon="114.33035379638672" /><trkpt lat="22.39473978125" lon="114.33030779638672" /><trkpt lat="22.394755574723384" lon="114.33029737824145" /><trkpt lat="22.39483378125" lon="114.33024579638672" /><trkpt lat="22.39492478125" lon="114.33018679638671" /><trkpt lat="22.39507778125" lon="114.33000979638672" /><trkpt lat="22.39517078125" lon="114.32986879638672" /><trkpt lat="22.39549378125" lon="114.32947579638672" /><trkpt lat="22.39567778125" lon="114.32918479638671" /><trkpt lat="22.39573778125" lon="114.32890479638672" /><trkpt lat="22.39578978125" lon="114.32865779638672" /><trkpt lat="22.39582178125" lon="114.32829879638672" /><trkpt lat="22.39590178125" lon="114.32792879638671" /><trkpt lat="22.39595878125" lon="114.32770279638672" /><trkpt lat="22.39610978125" lon="114.32747579638672" /><trkpt lat="22.39628978125" lon="114.32715979638672" /><trkpt lat="22.39646478125" lon="114.32690379638672" /><trkpt lat="22.39677178125" lon="114.32660179638673" /><trkpt lat="22.39699878125" lon="114.32643579638672" /><trkpt lat="22.39723478125" lon="114.32625679638672" /><trkpt lat="22.39746678125" lon="114.32608179638672" /><trkpt lat="22.39764578125" lon="114.32593779638673" /><trkpt lat="22.39775778125" lon="114.32586679638672" /><trkpt lat="22.39805378125" lon="114.32567779638671" /><trkpt lat="22.39834278125" lon="114.32558879638673" /><trkpt lat="22.39862678125" lon="114.32554179638672" /><trkpt lat="22.39895778125" lon="114.32544079638672" /><trkpt lat="22.39917078125" lon="114.32529979638672" /><trkpt lat="22.39935378125" lon="114.32515779638672" /><trkpt lat="22.39954378125" lon="114.32497879638672" /><trkpt lat="22.39973178125" lon="114.32475579638673" /><trkpt lat="22.39987978125" lon="114.32454879638672" /><trkpt lat="22.39997878125" lon="114.32429279638671" /><trkpt lat="22.40002278125" lon="114.32406579638672" /><trkpt lat="22.40002378125" lon="114.32382879638672" /><trkpt lat="22.39998678125" lon="114.32353179638672" /><trkpt lat="22.39976878125" lon="114.32300379638671" /><trkpt lat="22.39970878125" lon="114.32289979638672" /><trkpt lat="22.399241254593353" lon="114.32214092653406" /></trkseg></trk></gpx>