<?xml version='1.0' encoding='UTF-8' ?><gpx version="1.1" creator="HikingTrailHK" xsi:schemaLocation="http://www.topografix.com/GPX/1/1 http://www.topografix.com/GPX/1/1/gpx.xsd" xmlns="http://www.topografix.com/GPX/1/1" xmlns:xsi="http://www.w3.org/2001/XMLSchema-instance"><metadata><name>禾央石林 @ 2017-1</name><desc></desc></metadata><trk><trkseg><trkpt lat="22.373769647772853" lon="114.11723143607948" /><trkpt lat="22.37388978125" lon="114.11695079638672" /><trkpt lat="22.37402078125" lon="114.11666479638671" /><trkpt lat="22.37426878125" lon="114.11618879638672" /><trkpt lat="22.37450078125" lon="114.11579179638672" /><trkpt lat="22.37487878125" lon="114.11530079638672" /><trkpt lat="22.37499978125" lon="114.11514379638672" /><trkpt lat="22.37540578125" lon="114.11464479638671" /><trkpt lat="22.37595878125" lon="114.11488779638672" /><trkpt lat="22.37598678125" lon="114.11504979638671" /><trkpt lat="22.37589578125" lon="114.11554479638671" /><trkpt lat="22.37590878125" lon="114.11567079638672" /><trkpt lat="22.37627078125" lon="114.11581079638673" /><trkpt lat="22.37677478125" lon="114.11572079638673" /><trkpt lat="22.376951254176056" lon="114.11515875504469" /><trkpt lat="22.37695678125" lon="114.11514379638672" /><trkpt lat="22.37697578125" lon="114.11510079638671" /><trkpt lat="22.37699878125" lon="114.11505779638672" /><trkpt lat="22.37702178125" lon="114.11502179638671" /><trkpt lat="22.37704678125" lon="114.11498879638673" /><trkpt lat="22.37707478125" lon="114.11495879638672" /><trkpt lat="22.37710078125" lon="114.11493579638672" /><trkpt lat="22.37713078125" lon="114.11491279638672" /><trkpt lat="22.37716278125" lon="114.11488979638672" /><trkpt lat="22.377219781249998" lon="114.11485279638671" /><trkpt lat="22.37725278125" lon="114.11482779638672" /><trkpt lat="22.37728378125" lon="114.11479979638672" /><trkpt lat="22.37731178125" lon="114.11476679638672" /><trkpt lat="22.37733578125" lon="114.11473479638671" /><trkpt lat="22.37736978125" lon="114.11476079638672" /><trkpt lat="22.37738078125" lon="114.11480779638671" /><trkpt lat="22.37737478125" lon="114.11486479638671" /><trkpt lat="22.37737678125" lon="114.11489479638672" /><trkpt lat="22.37738578125" lon="114.11491779638672" /><trkpt lat="22.37739378125" lon="114.11493879638672" /><trkpt lat="22.37740678125" lon="114.11495479638671" /><trkpt lat="22.37742378125" lon="114.11496079638673" /><trkpt lat="22.37751978125" lon="114.11499579638672" /><trkpt lat="22.37752978125" lon="114.11500679638672" /><trkpt lat="22.37753778125" lon="114.11501779638672" /><trkpt lat="22.37754178125" lon="114.11506279638672" /><trkpt lat="22.37755178125" lon="114.11508479638672" /><trkpt lat="22.37756778125" lon="114.11510279638672" /><trkpt lat="22.37768778125" lon="114.11517079638672" /><trkpt lat="22.37774078125" lon="114.11520479638672" /><trkpt lat="22.37781278125" lon="114.11526479638673" /><trkpt lat="22.37784978125" lon="114.11532979638672" /><trkpt lat="22.37793978125" lon="114.11539479638672" /><trkpt lat="22.37798978125" lon="114.11542279638672" /><trkpt lat="22.37803078125" lon="114.11542879638672" /><trkpt lat="22.37817978125" lon="114.11550979638672" /><trkpt lat="22.37837978125" lon="114.11552779638671" /><trkpt lat="22.37848078125" lon="114.11555679638671" /><trkpt lat="22.37855878125" lon="114.11555879638672" /><trkpt lat="22.37868378125" lon="114.11553479638673" /><trkpt lat="22.37876878125" lon="114.11551079638672" /><trkpt lat="22.37881178125" lon="114.11549179638672" /><trkpt lat="22.37883678125" lon="114.11546579638672" /><trkpt lat="22.37889278125" lon="114.11540179638672" /><trkpt lat="22.37890978125" lon="114.11539279638671" /><trkpt lat="22.37893278125" lon="114.11538779638671" /><trkpt lat="22.37899378125" lon="114.11539379638671" /><trkpt lat="22.37902978125" lon="114.11536579638671" /><trkpt lat="22.37906978125" lon="114.11532579638671" /><trkpt lat="22.37913378125" lon="114.11528079638671" /><trkpt lat="22.37921778125" lon="114.11531579638672" /><trkpt lat="22.37932478125" lon="114.11532379638672" /><trkpt lat="22.37942778125" lon="114.11534679638672" /><trkpt lat="22.37959078125" lon="114.11535179638672" /><trkpt lat="22.37972078125" lon="114.11537879638672" /><trkpt lat="22.37977978125" lon="114.11535279638672" /><trkpt lat="22.37986078125" lon="114.11529079638672" /><trkpt lat="22.37992678125" lon="114.11522679638672" /><trkpt lat="22.38000478125" lon="114.11519879638672" /><trkpt lat="22.38012678125" lon="114.11520479638672" /><trkpt lat="22.38017578125" lon="114.11517479638673" /><trkpt lat="22.38022278125" lon="114.11516379638672" /><trkpt lat="22.38025978125" lon="114.11511379638672" /><trkpt lat="22.38042478125" lon="114.11507379638672" /><trkpt lat="22.38047678125" lon="114.11503479638672" /><trkpt lat="22.38058078125" lon="114.11498179638672" /><trkpt lat="22.38057178125" lon="114.11500479638671" /><trkpt lat="22.38056778125" lon="114.11502879638672" /><trkpt lat="22.38055378125" lon="114.11513979638671" /><trkpt lat="22.38055278125" lon="114.11521479638672" /><trkpt lat="22.38056178125" lon="114.11528579638671" /><trkpt lat="22.38057578125" lon="114.11532679638673" /><trkpt lat="22.38059378125" lon="114.11536579638671" /><trkpt lat="22.38061278125" lon="114.11539379638671" /><trkpt lat="22.38082878125" lon="114.11562279638672" /><trkpt lat="22.38086278125" lon="114.11567479638671" /><trkpt lat="22.38087778125" lon="114.11571479638671" /><trkpt lat="22.38088978125" lon="114.11577079638671" /><trkpt lat="22.38088878125" lon="114.11581879638672" /><trkpt lat="22.38080978125" lon="114.11635079638671" /><trkpt lat="22.38081178125" lon="114.11644779638672" /><trkpt lat="22.38082678125" lon="114.11649779638672" /><trkpt lat="22.38084878125" lon="114.11653979638672" /><trkpt lat="22.38092478125" lon="114.11662879638672" /><trkpt lat="22.38117678125" lon="114.11686979638672" /><trkpt lat="22.38119578125" lon="114.11690379638672" /><trkpt lat="22.38121278125" lon="114.11694179638671" /><trkpt lat="22.38121978125" lon="114.11695979638672" /><trkpt lat="22.38122578125" lon="114.11700479638672" /><trkpt lat="22.38121378125" lon="114.11708979638672" /><trkpt lat="22.38112278125" lon="114.11735779638671" /><trkpt lat="22.38111178125" lon="114.11743379638672" /><trkpt lat="22.38111478125" lon="114.11747979638672" /><trkpt lat="22.38113378125" lon="114.11754579638672" /><trkpt lat="22.38121778125" lon="114.11772179638672" /><trkpt lat="22.38122778125" lon="114.11776679638672" /><trkpt lat="22.38122826517647" lon="114.11777843167921" /><trkpt lat="22.38123378125" lon="114.11795579638672" /><trkpt lat="22.38120878125" lon="114.11812479638672" /><trkpt lat="22.38120678125" lon="114.11818579638671" /><trkpt lat="22.38127078125" lon="114.11831779638672" /><trkpt lat="22.38133878125" lon="114.11835679638672" /><trkpt lat="22.38140978125" lon="114.11839279638671" /><trkpt lat="22.38166078125" lon="114.11847179638671" /><trkpt lat="22.38175178125" lon="114.11855979638672" /><trkpt lat="22.38188778125" lon="114.11877179638672" /><trkpt lat="22.38190678125" lon="114.11930079638672" /><trkpt lat="22.38195478125" lon="114.11959979638672" /><trkpt lat="22.38181178125" lon="114.12004179638672" /><trkpt lat="22.38179478125" lon="114.12021179638671" /><trkpt lat="22.38200478125" lon="114.12053579638672" /><trkpt lat="22.38212378125" lon="114.12063079638672" /><trkpt lat="22.38216678125" lon="114.12066979638672" /><trkpt lat="22.38223478125" lon="114.12072679638672" /><trkpt lat="22.38250778125" lon="114.12075579638672" /><trkpt lat="22.38285978125" lon="114.12054679638672" /><trkpt lat="22.38338778125" lon="114.12046479638671" /><trkpt lat="22.38365878125" lon="114.12065479638672" /><trkpt lat="22.38382078125" lon="114.12068879638672" /><trkpt lat="22.38401578125" lon="114.12069379638672" /><trkpt lat="22.38411678125" lon="114.12072779638672" /><trkpt lat="22.38432678125" lon="114.12082379638672" /><trkpt lat="22.38454378125" lon="114.12086179638672" /><trkpt lat="22.38470278125" lon="114.12081079638672" /><trkpt lat="22.38487678125" lon="114.12082779638672" /><trkpt lat="22.38498478125" lon="114.12087679638672" /><trkpt lat="22.38514978125" lon="114.12085479638672" /><trkpt lat="22.38524678125" lon="114.12080979638672" /><trkpt lat="22.38548378125" lon="114.12059179638672" /><trkpt lat="22.38557678125" lon="114.12062079638672" /><trkpt lat="22.38577378125" lon="114.12078979638672" /><trkpt lat="22.38598278125" lon="114.12080979638672" /><trkpt lat="22.38613378125" lon="114.12081279638672" /><trkpt lat="22.38625178125" lon="114.12084679638672" /><trkpt lat="22.38646778125" lon="114.12109279638672" /><trkpt lat="22.38708678125" lon="114.12190179638672" /><trkpt lat="22.38722078125" lon="114.12196179638671" /><trkpt lat="22.38731278125" lon="114.12195979638672" /><trkpt lat="22.38752578125" lon="114.12191879638672" /><trkpt lat="22.38765278125" lon="114.12197979638673" /><trkpt lat="22.38775878125" lon="114.12213779638672" /><trkpt lat="22.38788878125" lon="114.12225179638672" /><trkpt lat="22.38805278125" lon="114.12239179638672" /><trkpt lat="22.38810778125" lon="114.12250379638672" /><trkpt lat="22.38810678125" lon="114.12268179638671" /><trkpt lat="22.38812678125" lon="114.12292379638671" /><trkpt lat="22.388188820893117" lon="114.12309229894119" /><trkpt lat="22.38831278125" lon="114.12327479638672" /><trkpt lat="22.38833078125" lon="114.12331979638672" /><trkpt lat="22.38833678125" lon="114.12335479638672" /><trkpt lat="22.38833978125" lon="114.12338879638672" /><trkpt lat="22.38833878125" lon="114.12342179638672" /><trkpt lat="22.38833178125" lon="114.12345079638672" /><trkpt lat="22.38821078125" lon="114.12381479638672" /><trkpt lat="22.38822578125" lon="114.12382079638672" /><trkpt lat="22.38827578125" lon="114.12384079638672" /><trkpt lat="22.388601828078965" lon="114.12406922426128" /><trkpt lat="22.38860978125" lon="114.12407479638672" /><trkpt lat="22.38896178125" lon="114.12389479638672" /><trkpt lat="22.38923278125" lon="114.12379879638672" /><trkpt lat="22.38970778125" lon="114.12407079638672" /><trkpt lat="22.38990878125" lon="114.12409279638672" /><trkpt lat="22.39021078125" lon="114.12442079638672" /><trkpt lat="22.39069378125" lon="114.12453979638671" /><trkpt lat="22.39090478125" lon="114.12450779638672" /><trkpt lat="22.39123378125" lon="114.12474179638672" /><trkpt lat="22.39151678125" lon="114.12482179638671" /><trkpt lat="22.39182778125" lon="114.12479379638671" /><trkpt lat="22.39196778125" lon="114.12499279638672" /><trkpt lat="22.391996248594154" lon="114.12500749087798" /><trkpt lat="22.39203325437929" lon="114.12502563696486" /><trkpt lat="22.39211778125" lon="114.12490379638672" /><trkpt lat="22.39214278125" lon="114.12492679638672" /><trkpt lat="22.39265078125" lon="114.12496579638672" /><trkpt lat="22.39283478125" lon="114.12492179638672" /><trkpt lat="22.39302878125" lon="114.12498979638671" /><trkpt lat="22.39315978125" lon="114.12514979638672" /><trkpt lat="22.39339978125" lon="114.12529279638672" /><trkpt lat="22.39357178125" lon="114.12556879638672" /><trkpt lat="22.39350478125" lon="114.12595879638671" /><trkpt lat="22.39353678125" lon="114.12626279638671" /><trkpt lat="22.39371878125" lon="114.12630279638672" /><trkpt lat="22.39382578125" lon="114.12641479638671" /><trkpt lat="22.39375678125" lon="114.12653879638673" /><trkpt lat="22.39376778125" lon="114.12674679638671" /><trkpt lat="22.39365978125" lon="114.12687479638672" /><trkpt lat="22.39363178125" lon="114.12699879638672" /><trkpt lat="22.39347678125" lon="114.12706079638671" /><trkpt lat="22.39342078125" lon="114.12720179638671" /><trkpt lat="22.39325478125" lon="114.12733579638672" /><trkpt lat="22.39319478125" lon="114.12800679638671" /><trkpt lat="22.39333278125" lon="114.12851579638672" /><trkpt lat="22.39323978125" lon="114.12865679638672" /><trkpt lat="22.39311378125" lon="114.12912279638672" /><trkpt lat="22.39324478125" lon="114.12992379638672" /><trkpt lat="22.39345578125" lon="114.13032479638672" /><trkpt lat="22.39348278125" lon="114.13068779638672" /><trkpt lat="22.39358078125" lon="114.13087179638671" /><trkpt lat="22.39377278125" lon="114.13104179638673" /><trkpt lat="22.39458978125" lon="114.13112079638672" /><trkpt lat="22.39468978125" lon="114.13112979638672" /><trkpt lat="22.39480078125" lon="114.13118079638672" /><trkpt lat="22.39492078125" lon="114.13118779638671" /><trkpt lat="22.39497278125" lon="114.13125479638671" /><trkpt lat="22.39518778125" lon="114.13127779638671" /><trkpt lat="22.39534278125" lon="114.13137379638673" /><trkpt lat="22.39541378125" lon="114.13145879638672" /><trkpt lat="22.39586878125" lon="114.13170779638672" /><trkpt lat="22.39616178125" lon="114.13179679638672" /><trkpt lat="22.39631378125" lon="114.13180779638672" /><trkpt lat="22.39644878125" lon="114.13194279638672" /><trkpt lat="22.39656278125" lon="114.13196179638672" /><trkpt lat="22.39686878125" lon="114.13209679638672" /><trkpt lat="22.39700378125" lon="114.13224479638671" /><trkpt lat="22.39737678125" lon="114.13225679638671" /><trkpt lat="22.39761978125" lon="114.13216979638672" /><trkpt lat="22.39788178125" lon="114.13213179638672" /><trkpt lat="22.39819178125" lon="114.13192679638672" /><trkpt lat="22.39838778125" lon="114.13201179638672" /><trkpt lat="22.39856678125" lon="114.13205279638672" /><trkpt lat="22.39869578125" lon="114.13203179638671" /><trkpt lat="22.39881178125" lon="114.13191879638671" /><trkpt lat="22.39889478125" lon="114.13209379638671" /><trkpt lat="22.39904378125" lon="114.13209679638672" /><trkpt lat="22.39920278125" lon="114.13198579638672" /><trkpt lat="22.39929678125" lon="114.13180279638672" /><trkpt lat="22.39953678125" lon="114.13177179638672" /><trkpt lat="22.39968878125" lon="114.13167379638672" /><trkpt lat="22.39975478125" lon="114.13148079638673" /><trkpt lat="22.40019678125" lon="114.13111679638672" /><trkpt lat="22.40036778125" lon="114.13103079638672" /><trkpt lat="22.40066478125" lon="114.13100679638671" /><trkpt lat="22.40082778125" lon="114.13095879638672" /><trkpt lat="22.40094278125" lon="114.13086679638671" /><trkpt lat="22.40104578125" lon="114.13062979638671" /><trkpt lat="22.40125878125" lon="114.13052879638671" /><trkpt lat="22.40131978125" lon="114.13041879638672" /><trkpt lat="22.40142778125" lon="114.13034979638672" /><trkpt lat="22.40148578125" lon="114.13028179638673" /><trkpt lat="22.40149578125" lon="114.13022979638671" /><trkpt lat="22.40187078125" lon="114.13016379638673" /><trkpt lat="22.40203978125" lon="114.13020179638671" /><trkpt lat="22.40233678125" lon="114.13008379638671" /><trkpt lat="22.40248578125" lon="114.12989079638672" /><trkpt lat="22.40257978125" lon="114.12970279638672" /><trkpt lat="22.40261978125" lon="114.12950979638671" /><trkpt lat="22.40275878125" lon="114.12942879638672" /><trkpt lat="22.40305578125" lon="114.12892479638671" /><trkpt lat="22.40290878125" lon="114.12875579638671" /><trkpt lat="22.40262578125" lon="114.12873379638671" /><trkpt lat="22.40238078125" lon="114.12884979638672" /><trkpt lat="22.40218278125" lon="114.12883879638672" /><trkpt lat="22.40204978125" lon="114.12901079638672" /><trkpt lat="22.40196578125" lon="114.12909779638672" /><trkpt lat="22.40191378125" lon="114.12893379638672" /><trkpt lat="22.40177978125" lon="114.12876379638672" /><trkpt lat="22.40171578125" lon="114.12860379638671" /><trkpt lat="22.40174078125" lon="114.12801179638672" /><trkpt lat="22.40196378125" lon="114.12771979638671" /><trkpt lat="22.40201278125" lon="114.12731679638672" /><trkpt lat="22.40218578125" lon="114.12705579638671" /><trkpt lat="22.40237978125" lon="114.12686579638672" /><trkpt lat="22.40246378125" lon="114.12663679638672" /><trkpt lat="22.40292978125" lon="114.12612079638672" /><trkpt lat="22.40353778125" lon="114.12588579638673" /><trkpt lat="22.40368578125" lon="114.12563379638672" /><trkpt lat="22.40397078125" lon="114.12541579638672" /><trkpt lat="22.40399778125" lon="114.12524179638672" /><trkpt lat="22.40403978125" lon="114.12506679638672" /><trkpt lat="22.40401878125" lon="114.12482379638672" /><trkpt lat="22.40387878125" lon="114.12472579638671" /><trkpt lat="22.40373978125" lon="114.12461679638672" /><trkpt lat="22.40358778125" lon="114.12420379638672" /><trkpt lat="22.40351178125" lon="114.12408179638672" /><trkpt lat="22.40348878125" lon="114.12381679638672" /><trkpt lat="22.40345878125" lon="114.12349979638672" /><trkpt lat="22.40358878125" lon="114.12311079638671" /><trkpt lat="22.40353978125" lon="114.12290879638672" /><trkpt lat="22.40354478125" lon="114.12283279638672" /><trkpt lat="22.40354978125" lon="114.12275279638672" /><trkpt lat="22.40362278125" lon="114.12252179638672" /><trkpt lat="22.40372278125" lon="114.12235379638672" /><trkpt lat="22.40409678125" lon="114.12198179638672" /><trkpt lat="22.40411278125" lon="114.12194279638672" /><trkpt lat="22.40403578125" lon="114.12178879638672" /><trkpt lat="22.40386578125" lon="114.12167779638672" /><trkpt lat="22.40375778125" lon="114.12164079638671" /><trkpt lat="22.40372478125" lon="114.12159079638671" /><trkpt lat="22.40369778125" lon="114.12142379638672" /><trkpt lat="22.40371878125" lon="114.12129179638671" /><trkpt lat="22.40363378125" lon="114.12116179638672" /><trkpt lat="22.40357878125" lon="114.12102279638673" /><trkpt lat="22.40349778125" lon="114.12102179638671" /><trkpt lat="22.40343578125" lon="114.12100279638672" /><trkpt lat="22.40337778125" lon="114.12084879638672" /><trkpt lat="22.40332178125" lon="114.12088279638672" /><trkpt lat="22.40316778125" lon="114.12074779638672" /><trkpt lat="22.40309678125" lon="114.12061279638672" /><trkpt lat="22.40301978125" lon="114.12060379638672" /><trkpt lat="22.40298978125" lon="114.12053079638672" /><trkpt lat="22.40289078125" lon="114.12048479638672" /><trkpt lat="22.40288178125" lon="114.12029679638673" /><trkpt lat="22.40273678125" lon="114.12023679638672" /><trkpt lat="22.40271978125" lon="114.12014579638672" /><trkpt lat="22.40265578125" lon="114.12014579638672" /><trkpt lat="22.40263478125" lon="114.11999179638671" /><trkpt lat="22.40259978125" lon="114.11993779638672" /><trkpt lat="22.40262278125" lon="114.11983179638672" /><trkpt lat="22.40254178125" lon="114.11979079638672" /><trkpt lat="22.40253278125" lon="114.11967779638672" /><trkpt lat="22.40237078125" lon="114.11935679638673" /><trkpt lat="22.40211378125" lon="114.11915779638672" /><trkpt lat="22.40178178125" lon="114.11890279638672" /><trkpt lat="22.40152578125" lon="114.11878279638672" /><trkpt lat="22.40119378125" lon="114.11853379638671" /><trkpt lat="22.40103978125" lon="114.11832879638672" /><trkpt lat="22.40085178125" lon="114.11832479638672" /><trkpt lat="22.40069178125" lon="114.11827779638672" /><trkpt lat="22.40049278125" lon="114.11831479638671" /><trkpt lat="22.40037778125" lon="114.11825179638672" /><trkpt lat="22.40025678125" lon="114.11826579638672" /><trkpt lat="22.40006578125" lon="114.11837279638672" /><trkpt lat="22.39989678125" lon="114.11840079638672" /><trkpt lat="22.39960078125" lon="114.11826079638672" /><trkpt lat="22.39943478125" lon="114.11831179638672" /><trkpt lat="22.39924378125" lon="114.11819779638672" /><trkpt lat="22.39914878125" lon="114.11786779638672" /><trkpt lat="22.39926978125" lon="114.11771379638672" /><trkpt lat="22.39889078125" lon="114.11729479638672" /><trkpt lat="22.39871778125" lon="114.11710179638672" /><trkpt lat="22.39883878125" lon="114.11708279638673" /><trkpt lat="22.39906578125" lon="114.11702779638672" /><trkpt lat="22.39920178125" lon="114.11688779638672" /><trkpt lat="22.39955778125" lon="114.11677179638671" /><trkpt lat="22.39995578125" lon="114.11629479638673" /><trkpt lat="22.40035878125" lon="114.11614579638672" /><trkpt lat="22.40059078125" lon="114.11599779638672" /><trkpt lat="22.40136878125" lon="114.11518179638672" /><trkpt lat="22.40154078125" lon="114.11488279638672" /><trkpt lat="22.40155978125" lon="114.11479479638672" /><trkpt lat="22.40152078125" lon="114.11477579638672" /><trkpt lat="22.40108378125" lon="114.11514579638671" /><trkpt lat="22.40049278125" lon="114.11548979638673" /><trkpt lat="22.40027978125" lon="114.11549879638672" /><trkpt lat="22.40003578125" lon="114.11534179638672" /><trkpt lat="22.40001178125" lon="114.11516979638672" /><trkpt lat="22.39986278125" lon="114.11510779638672" /><trkpt lat="22.39974578125" lon="114.11517579638672" /><trkpt lat="22.39961178125" lon="114.11536379638672" /><trkpt lat="22.39943978125" lon="114.11538579638672" /><trkpt lat="22.39919878125" lon="114.11523179638672" /><trkpt lat="22.39903278125" lon="114.11537379638672" /><trkpt lat="22.39861978125" lon="114.11551079638672" /><trkpt lat="22.39832378125" lon="114.11551279638672" /><trkpt lat="22.39800078125" lon="114.11533679638671" /><trkpt lat="22.39804678125" lon="114.11517779638672" /><trkpt lat="22.39802378125" lon="114.11505079638673" /><trkpt lat="22.39792378125" lon="114.11482479638671" /><trkpt lat="22.39787778125" lon="114.11451079638672" /><trkpt lat="22.39782778125" lon="114.11437379638672" /><trkpt lat="22.39768878125" lon="114.11428179638672" /><trkpt lat="22.39755978125" lon="114.11411579638671" /><trkpt lat="22.39733678125" lon="114.11382379638673" /><trkpt lat="22.39723178125" lon="114.11359879638673" /><trkpt lat="22.39707978125" lon="114.11337779638671" /><trkpt lat="22.39675978125" lon="114.11298179638672" /><trkpt lat="22.39674978125" lon="114.11246879638672" /><trkpt lat="22.39664678125" lon="114.11224379638672" /><trkpt lat="22.39657678125" lon="114.11174479638672" /><trkpt lat="22.39640778125" lon="114.11136579638672" /><trkpt lat="22.39623478125" lon="114.11132879638672" /><trkpt lat="22.39619878125" lon="114.11118879638671" /><trkpt lat="22.39594878125" lon="114.11128679638672" /><trkpt lat="22.39582978125" lon="114.11125879638672" /><trkpt lat="22.39576578125" lon="114.11118279638671" /><trkpt lat="22.39566978125" lon="114.11098479638672" /><trkpt lat="22.39566578125" lon="114.11090679638671" /><trkpt lat="22.39557078125" lon="114.11073379638673" /><trkpt lat="22.39548878125" lon="114.11061579638672" /><trkpt lat="22.39546878125" lon="114.11049679638671" /><trkpt lat="22.39538378125" lon="114.11039179638672" /><trkpt lat="22.39524278125" lon="114.11035779638672" /><trkpt lat="22.39517178125" lon="114.11033679638672" /><trkpt lat="22.39523178125" lon="114.11026679638672" /><trkpt lat="22.39531978125" lon="114.11010079638672" /><trkpt lat="22.39537678125" lon="114.10990479638672" /><trkpt lat="22.39541378125" lon="114.10954679638672" /><trkpt lat="22.39540478125" lon="114.10942879638672" /><trkpt lat="22.39534978125" lon="114.10931479638671" /><trkpt lat="22.39522278125" lon="114.10920579638672" /><trkpt lat="22.39512678125" lon="114.10911979638672" /><trkpt lat="22.39510178125" lon="114.10902679638671" /><trkpt lat="22.39511878125" lon="114.10888979638672" /><trkpt lat="22.39518778125" lon="114.10864279638672" /><trkpt lat="22.39513478125" lon="114.10844279638673" /><trkpt lat="22.395129420070376" lon="114.10843313378216" /></trkseg></trk></gpx>