<?xml version='1.0' encoding='UTF-8' ?><gpx version="1.1" creator="HikingTrailHK" xsi:schemaLocation="http://www.topografix.com/GPX/1/1 http://www.topografix.com/GPX/1/1/gpx.xsd" xmlns="http://www.topografix.com/GPX/1/1" xmlns:xsi="http://www.w3.org/2001/XMLSchema-instance"><metadata><name>秋楓石澗</name><desc></desc></metadata><trk><trkseg><trkpt lat="22.405144670515156" lon="114.325056540736" /><trkpt lat="22.40538778125" lon="114.32525179638672" /><trkpt lat="22.40556678125" lon="114.32541079638672" /><trkpt lat="22.40567678125" lon="114.32551079638672" /><trkpt lat="22.40572978125" lon="114.32555379638671" /><trkpt lat="22.40579078125" lon="114.32560279638672" /><trkpt lat="22.40594078125" lon="114.32572479638672" /><trkpt lat="22.40608778125" lon="114.32577179638672" /><trkpt lat="22.40621978125" lon="114.32576579638672" /><trkpt lat="22.40626078125" lon="114.32580279638672" /><trkpt lat="22.40621378125" lon="114.32588179638672" /><trkpt lat="22.40591178125" lon="114.32579779638672" /><trkpt lat="22.405850779202243" lon="114.32584251699807" /><trkpt lat="22.40585178125" lon="114.32584579638672" /><trkpt lat="22.40590278125" lon="114.32591779638672" /><trkpt lat="22.40594978125" lon="114.32605579638673" /><trkpt lat="22.40600778125" lon="114.32625379638672" /><trkpt lat="22.40611078125" lon="114.32673279638672" /><trkpt lat="22.40622778125" lon="114.32731079638671" /><trkpt lat="22.40647778125" lon="114.32792779638672" /><trkpt lat="22.40672878125" lon="114.32841979638673" /><trkpt lat="22.40704778125" lon="114.32845679638672" /><trkpt lat="22.40735578125" lon="114.32848179638673" /><trkpt lat="22.40768578125" lon="114.32854379638673" /><trkpt lat="22.40786778125" lon="114.32870379638672" /><trkpt lat="22.40805078125" lon="114.32875279638672" /><trkpt lat="22.40822078125" lon="114.32893779638673" /><trkpt lat="22.40869978125" lon="114.32913479638673" /><trkpt lat="22.40882478125" lon="114.32957879638671" /><trkpt lat="22.40875678125" lon="114.32968979638672" /><trkpt lat="22.40885878125" lon="114.32992379638672" /><trkpt lat="22.40930378125" lon="114.33035479638671" /><trkpt lat="22.40930378125" lon="114.33051579638672" /><trkpt lat="22.40913278125" lon="114.33099579638672" /><trkpt lat="22.40916678125" lon="114.33113179638671" /><trkpt lat="22.40907578125" lon="114.33129179638672" /><trkpt lat="22.40922378125" lon="114.33148879638672" /><trkpt lat="22.40925778125" lon="114.33182179638672" /><trkpt lat="22.40941778125" lon="114.33206779638672" /><trkpt lat="22.40951078125" lon="114.33214679638672" /><trkpt lat="22.40955678125" lon="114.33220179638671" /><trkpt lat="22.40965378125" lon="114.33222679638672" /><trkpt lat="22.40964178125" lon="114.33236879638672" /><trkpt lat="22.40957478125" lon="114.33242179638673" /><trkpt lat="22.40944878125" lon="114.33252279638671" /><trkpt lat="22.40933978125" lon="114.33281279638672" /><trkpt lat="22.40921478125" lon="114.33300979638672" /><trkpt lat="22.40924278125" lon="114.33314479638672" /><trkpt lat="22.40916378125" lon="114.33324379638672" /><trkpt lat="22.40914678125" lon="114.33340379638672" /><trkpt lat="22.40903278125" lon="114.33381079638671" /><trkpt lat="22.40903278125" lon="114.33406279638672" /><trkpt lat="22.40892978125" lon="114.33413079638672" /><trkpt lat="22.40899278125" lon="114.33426079638672" /><trkpt lat="22.40884978125" lon="114.33490079638672" /><trkpt lat="22.40831478125" lon="114.33559179638672" /><trkpt lat="22.40816678125" lon="114.33575179638672" /><trkpt lat="22.40808678125" lon="114.33597379638672" /><trkpt lat="22.40813778125" lon="114.33632479638672" /><trkpt lat="22.40824078125" lon="114.33647879638671" /><trkpt lat="22.40822878125" lon="114.33690379638672" /><trkpt lat="22.40817778125" lon="114.33706379638672" /><trkpt lat="22.40812078125" lon="114.33710679638672" /><trkpt lat="22.40814978125" lon="114.33742179638672" /><trkpt lat="22.40806978125" lon="114.33759379638671" /><trkpt lat="22.40806378125" lon="114.33813679638672" /><trkpt lat="22.40815578125" lon="114.33820379638672" /><trkpt lat="22.40817378125" lon="114.33809979638671" /><trkpt lat="22.40815578125" lon="114.33796179638672" /><trkpt lat="22.40814278125" lon="114.33777679638672" /><trkpt lat="22.40813478125" lon="114.33761579638671" /><trkpt lat="22.40816078125" lon="114.33753779638671" /><trkpt lat="22.40827178125" lon="114.33741679638672" /><trkpt lat="22.40827778125" lon="114.33727579638672" /><trkpt lat="22.40832478125" lon="114.33720879638672" /><trkpt lat="22.40837778125" lon="114.33715379638672" /><trkpt lat="22.40844878125" lon="114.33707879638672" /><trkpt lat="22.40852978125" lon="114.33699479638672" /><trkpt lat="22.40847078125" lon="114.33689179638672" /><trkpt lat="22.40842978125" lon="114.33679979638671" /><trkpt lat="22.40837878125" lon="114.33659279638673" /><trkpt lat="22.40839078125" lon="114.33641679638671" /><trkpt lat="22.40839178125" lon="114.33626679638672" /><trkpt lat="22.40836678125" lon="114.33599679638672" /><trkpt lat="22.40840178125" lon="114.33581079638672" /><trkpt lat="22.40854278125" lon="114.33563279638672" /><trkpt lat="22.40858878125" lon="114.33548779638672" /><trkpt lat="22.40864078125" lon="114.33534679638672" /><trkpt lat="22.40871378125" lon="114.33530779638672" /><trkpt lat="22.40879978125" lon="114.33526379638671" /><trkpt lat="22.40887078125" lon="114.33515379638672" /><trkpt lat="22.40893678125" lon="114.33509679638672" /><trkpt lat="22.40899978125" lon="114.33497779638672" /><trkpt lat="22.40902778125" lon="114.33489279638673" /><trkpt lat="22.40906778125" lon="114.33485379638672" /><trkpt lat="22.40904478125" lon="114.33472279638671" /><trkpt lat="22.40906678125" lon="114.33445179638672" /><trkpt lat="22.40906178125" lon="114.33434079638671" /><trkpt lat="22.40910878125" lon="114.33418279638671" /><trkpt lat="22.40910578125" lon="114.33396379638671" /><trkpt lat="22.40913778125" lon="114.33379879638672" /><trkpt lat="22.40917578125" lon="114.33363979638672" /><trkpt lat="22.40922478125" lon="114.33344079638672" /><trkpt lat="22.40929378125" lon="114.33329179638672" /><trkpt lat="22.40948778125" lon="114.33310779638671" /><trkpt lat="22.40955578125" lon="114.33300479638672" /><trkpt lat="22.40967378125" lon="114.33290179638672" /><trkpt lat="22.40979978125" lon="114.33286479638672" /><trkpt lat="22.40989278125" lon="114.33280379638671" /><trkpt lat="22.40999578125" lon="114.33272579638673" /><trkpt lat="22.41000078125" lon="114.33264679638671" /><trkpt lat="22.41000478125" lon="114.33255779638672" /><trkpt lat="22.40993378125" lon="114.33244679638672" /><trkpt lat="22.40992278125" lon="114.33232379638672" /><trkpt lat="22.40988078125" lon="114.33222179638672" /><trkpt lat="22.40984478125" lon="114.33215479638672" /><trkpt lat="22.40976178125" lon="114.33212979638672" /><trkpt lat="22.40967978125" lon="114.33209879638672" /><trkpt lat="22.40962178125" lon="114.33213479638673" /><trkpt lat="22.40955478125" lon="114.33210079638671" /><trkpt lat="22.40950778125" lon="114.33198279638673" /><trkpt lat="22.40945578125" lon="114.33180479638672" /><trkpt lat="22.40948678125" lon="114.33170479638672" /><trkpt lat="22.40952178125" lon="114.33167479638672" /><trkpt lat="22.40964378125" lon="114.33162379638672" /><trkpt lat="22.40977578125" lon="114.33156679638672" /><trkpt lat="22.40976178125" lon="114.33151179638672" /><trkpt lat="22.40975178125" lon="114.33134479638672" /><trkpt lat="22.40973178125" lon="114.33123179638672" /><trkpt lat="22.40968478125" lon="114.33114579638672" /><trkpt lat="22.40961178125" lon="114.33100679638672" /><trkpt lat="22.40960778125" lon="114.33080279638672" /><trkpt lat="22.40967778125" lon="114.33063579638672" /><trkpt lat="22.40961178125" lon="114.33054879638672" /><trkpt lat="22.40959178125" lon="114.33040179638672" /><trkpt lat="22.40943378125" lon="114.33036179638673" /><trkpt lat="22.40926478125" lon="114.33011579638672" /><trkpt lat="22.40916678125" lon="114.32997479638672" /><trkpt lat="22.40905478125" lon="114.32983779638671" /><trkpt lat="22.40901578125" lon="114.32971279638672" /><trkpt lat="22.40897878125" lon="114.32954979638671" /><trkpt lat="22.40901578125" lon="114.32925579638672" /><trkpt lat="22.40886778125" lon="114.32912379638672" /><trkpt lat="22.40879578125" lon="114.32899579638672" /><trkpt lat="22.40865378125" lon="114.32884579638672" /><trkpt lat="22.40849878125" lon="114.32876479638672" /><trkpt lat="22.40838678125" lon="114.32870779638672" /><trkpt lat="22.40814278125" lon="114.32856779638672" /><trkpt lat="22.40805578125" lon="114.32844979638672" /><trkpt lat="22.40798078125" lon="114.32818579638672" /><trkpt lat="22.40784578125" lon="114.32805279638671" /><trkpt lat="22.40761878125" lon="114.32776879638672" /><trkpt lat="22.40754378125" lon="114.32739579638672" /><trkpt lat="22.40751678125" lon="114.32736879638672" /><trkpt lat="22.40729878125" lon="114.32720679638672" /><trkpt lat="22.40714778125" lon="114.32704379638672" /><trkpt lat="22.40706478125" lon="114.32689879638671" /><trkpt lat="22.40696578125" lon="114.32667179638672" /><trkpt lat="22.40673278125" lon="114.32649779638672" /><trkpt lat="22.40667678125" lon="114.32636579638672" /><trkpt lat="22.40659978125" lon="114.32617379638671" /><trkpt lat="22.40652578125" lon="114.32602079638671" /><trkpt lat="22.40639078125" lon="114.32592079638673" /><trkpt lat="22.40626078125" lon="114.32580279638672" /><trkpt lat="22.40621978125" lon="114.32576579638672" /><trkpt lat="22.40608778125" lon="114.32577179638672" /><trkpt lat="22.40594078125" lon="114.32572479638672" /><trkpt lat="22.40579078125" lon="114.32560279638672" /><trkpt lat="22.40572978125" lon="114.32555379638671" /><trkpt lat="22.40567678125" lon="114.32551079638672" /><trkpt lat="22.40556678125" lon="114.32541079638672" /><trkpt lat="22.40538778125" lon="114.32525179638672" /><trkpt lat="22.405267294721057" lon="114.32515502690846" /></trkseg></trk></gpx>