<?xml version='1.0' encoding='UTF-8' ?><gpx version="1.1" creator="HikingTrailHK" xsi:schemaLocation="http://www.topografix.com/GPX/1/1 http://www.topografix.com/GPX/1/1/gpx.xsd" xmlns="http://www.topografix.com/GPX/1/1" xmlns:xsi="http://www.w3.org/2001/XMLSchema-instance"><metadata><name>秦石 @ 2021-12-24</name><desc></desc></metadata><trk><trkseg><trkpt lat="22.376542758746602" lon="114.19416806503041" /><trkpt lat="22.37662778125" lon="114.19409579638672" /><trkpt lat="22.37669178125" lon="114.19404079638672" /><trkpt lat="22.37672378125" lon="114.19401179638672" /><trkpt lat="22.37669678125" lon="114.19397479638671" /><trkpt lat="22.37665678125" lon="114.19392279638672" /><trkpt lat="22.37660178125" lon="114.19384479638671" /><trkpt lat="22.37654978125" lon="114.19372679638671" /><trkpt lat="22.37654378125" lon="114.19371279638672" /><trkpt lat="22.37649878125" lon="114.19365079638672" /><trkpt lat="22.37651578125" lon="114.19363879638672" /><trkpt lat="22.37633878125" lon="114.19336879638672" /><trkpt lat="22.37616678125" lon="114.19308179638672" /><trkpt lat="22.37594378125" lon="114.19264179638672" /><trkpt lat="22.37590078125" lon="114.19265479638672" /><trkpt lat="22.37584978125" lon="114.19251979638672" /><trkpt lat="22.37578478125" lon="114.19239079638672" /><trkpt lat="22.37574678125" lon="114.19241079638672" /><trkpt lat="22.37568078125" lon="114.19243879638672" /><trkpt lat="22.37555678125" lon="114.19250279638672" /><trkpt lat="22.37530478125" lon="114.19185279638671" /><trkpt lat="22.37528378125" lon="114.19179779638672" /><trkpt lat="22.37504578125" lon="114.19118879638673" /><trkpt lat="22.37501878125" lon="114.19111679638672" /><trkpt lat="22.37486678125" lon="114.19098379638672" /><trkpt lat="22.37482278125" lon="114.19094479638672" /><trkpt lat="22.37471278125" lon="114.19084779638672" /><trkpt lat="22.37455078125" lon="114.19099979638672" /><trkpt lat="22.37425678125" lon="114.19108779638673" /><trkpt lat="22.37411086081505" lon="114.19054707073383" /><trkpt lat="22.374024934993216" lon="114.1905878860324" /><trkpt lat="22.373784863614063" lon="114.19064645474356" /><trkpt lat="22.373766638553036" lon="114.19060836722139" /><trkpt lat="22.373804605354223" lon="114.19058545748112" /><trkpt lat="22.37389861308735" lon="114.1905561710991" /><trkpt lat="22.373939135731064" lon="114.19055736520647" /><trkpt lat="22.373979188972115" lon="114.1905468225251" /><trkpt lat="22.374108141928883" lon="114.19053616270635" /><trkpt lat="22.37402300409768" lon="114.19018055455763" /><trkpt lat="22.374087140672714" lon="114.19024304420475" /><trkpt lat="22.374057269461684" lon="114.19034736554056" /><trkpt lat="22.37425678125" lon="114.19108779638673" /><trkpt lat="22.37455078125" lon="114.19099979638672" /><trkpt lat="22.37471278125" lon="114.19084779638672" /><trkpt lat="22.37457578125" lon="114.19071179638672" /><trkpt lat="22.37448778125" lon="114.19062879638672" /><trkpt lat="22.37437978125" lon="114.19046079638672" /><trkpt lat="22.37425578125" lon="114.19009479638672" /><trkpt lat="22.37418278125" lon="114.18988879638673" /><trkpt lat="22.37409378125" lon="114.18991579638671" /><trkpt lat="22.37409478125" lon="114.18986179638672" /><trkpt lat="22.37411478125" lon="114.18980679638672" /><trkpt lat="22.37413078125" lon="114.18970379638672" /><trkpt lat="22.37415378125" lon="114.18967279638672" /><trkpt lat="22.37412478125" lon="114.18964579638671" /><trkpt lat="22.37409678125" lon="114.18960979638672" /><trkpt lat="22.37384178125" lon="114.18940179638672" /><trkpt lat="22.37376978125" lon="114.18934279638673" /><trkpt lat="22.374459388371896" lon="114.188537326802" /><trkpt lat="22.374477700286008" lon="114.18838234062497" /><trkpt lat="22.374175743795163" lon="114.18775385607233" /><trkpt lat="22.374135470142278" lon="114.18770709391259" /><trkpt lat="22.37408246749918" lon="114.18767404583394" /><trkpt lat="22.373828586178675" lon="114.18762731548304" /><trkpt lat="22.373768309141965" lon="114.18765181218669" /><trkpt lat="22.373676895758663" lon="114.1877173486996" /><trkpt lat="22.37363190589167" lon="114.18777954519663" /><trkpt lat="22.373627449597876" lon="114.18784377785374" /><trkpt lat="22.37364506070682" lon="114.18790252768525" /><trkpt lat="22.373687840515515" lon="114.18794117777276" /><trkpt lat="22.37376636104257" lon="114.18797279960307" /><trkpt lat="22.37389869272775" lon="114.1879895211037" /><trkpt lat="22.3739905101161" lon="114.18798483309854" /><trkpt lat="22.374077134001936" lon="114.18799426594688" /><trkpt lat="22.374195071302807" lon="114.18803857949581" /><trkpt lat="22.37429561075362" lon="114.18810384437131" /><trkpt lat="22.374365035758018" lon="114.18817214570254" /><trkpt lat="22.374487074514562" lon="114.18834417336609" /><trkpt lat="22.374532033154495" lon="114.18837918390352" /><trkpt lat="22.37453516690188" lon="114.18837983223278" /><trkpt lat="22.374537513792447" lon="114.1883821858159" /><trkpt lat="22.374539629268966" lon="114.18838241618744" /><trkpt lat="22.37454236591762" lon="114.18838586129573" /><trkpt lat="22.374544247907934" lon="114.18838501717636" /><trkpt lat="22.374581070325515" lon="114.1883951994804" /><trkpt lat="22.37475778125" lon="114.18818879638673" /><trkpt lat="22.37470078125" lon="114.18809079638672" /><trkpt lat="22.37455878125" lon="114.18784579638672" /><trkpt lat="22.37442978125" lon="114.18757879638672" /><trkpt lat="22.37428678125" lon="114.18728479638672" /><trkpt lat="22.37419478125" lon="114.18691479638672" /><trkpt lat="22.37417678125" lon="114.18681279638672" /><trkpt lat="22.37415478125" lon="114.18662579638672" /><trkpt lat="22.37414078125" lon="114.18624579638671" /><trkpt lat="22.37412678125" lon="114.18594279638671" /><trkpt lat="22.37414978125" lon="114.18571679638671" /><trkpt lat="22.37415378125" lon="114.18566779638672" /><trkpt lat="22.37409678125" lon="114.18566179638673" /><trkpt lat="22.37409678125" lon="114.18560279638672" /><trkpt lat="22.37413378125" lon="114.18560379638672" /><trkpt lat="22.37415178125" lon="114.18560279638672" /><trkpt lat="22.37417578125" lon="114.18557279638672" /><trkpt lat="22.37419878125" lon="114.18527279638671" /><trkpt lat="22.37420378125" lon="114.18520479638671" /><trkpt lat="22.37420478125" lon="114.18519779638672" /><trkpt lat="22.37426378125" lon="114.18470879638672" /><trkpt lat="22.37427078125" lon="114.18465379638671" /><trkpt lat="22.37428778125" lon="114.18448379638671" /><trkpt lat="22.37428778125" lon="114.18436579638671" /><trkpt lat="22.37428478125" lon="114.18425279638672" /><trkpt lat="22.37425278125" lon="114.18382479638672" /><trkpt lat="22.374183587131206" lon="114.18359703311981" /><trkpt lat="22.374083373629276" lon="114.18364948034628" /><trkpt lat="22.374032669995856" lon="114.18366144427648" /><trkpt lat="22.37388197338359" lon="114.18372924535674" /><trkpt lat="22.37382186551814" lon="114.183727691316" /><trkpt lat="22.37379027408697" lon="114.18368813895484" /><trkpt lat="22.373773285085505" lon="114.18363384183476" /><trkpt lat="22.373775177048927" lon="114.18357978563029" /><trkpt lat="22.373804691345356" lon="114.1835448552867" /><trkpt lat="22.373846272917405" lon="114.18353805225524" /><trkpt lat="22.37395805604494" lon="114.1835865738455" /><trkpt lat="22.374094421011776" lon="114.18360321569247" /><trkpt lat="22.37417959728873" lon="114.18358490616302" /><trkpt lat="22.37404478125" lon="114.18325579638672" /><trkpt lat="22.37401478125" lon="114.18318979638671" /><trkpt lat="22.37396478125" lon="114.18309179638672" /><trkpt lat="22.37390778125" lon="114.18300479638671" /><trkpt lat="22.37381778125" lon="114.18289979638672" /><trkpt lat="22.37348578125" lon="114.18240979638672" /><trkpt lat="22.37348578125" lon="114.18237479638672" /><trkpt lat="22.37313578125" lon="114.18181779638672" /><trkpt lat="22.373087139693872" lon="114.18174061568594" /><trkpt lat="22.37305578125" lon="114.18176279638672" /><trkpt lat="22.37262978125" lon="114.18207079638672" /><trkpt lat="22.37259778125" lon="114.18208979638672" /><trkpt lat="22.37243978125" lon="114.18218979638672" /><trkpt lat="22.37242678125" lon="114.18218279638671" /><trkpt lat="22.37237978125" lon="114.18216479638672" /><trkpt lat="22.37228578125" lon="114.18221879638672" /><trkpt lat="22.37156578125" lon="114.18258779638671" /><trkpt lat="22.37149878125" lon="114.18263179638672" /><trkpt lat="22.37080578125" lon="114.18298079638672" /><trkpt lat="22.37076978125" lon="114.18300379638671" /><trkpt lat="22.37033878125" lon="114.18327479638671" /><trkpt lat="22.37025078125" lon="114.18334779638671" /><trkpt lat="22.37022678125" lon="114.18336879638672" /><trkpt lat="22.37032678125" lon="114.18351979638672" /><trkpt lat="22.370484892533327" lon="114.18361513534995" /><trkpt lat="22.371758185364328" lon="114.18387505309357" /><trkpt lat="22.37184287787734" lon="114.1838785777058" /><trkpt lat="22.37198040385664" lon="114.18394444590967" /><trkpt lat="22.3720708126056" lon="114.18395429076378" /><trkpt lat="22.372137487473395" lon="114.18397750228877" /><trkpt lat="22.37221238167716" lon="114.18398831621579" /><trkpt lat="22.372356781364587" lon="114.18404125947688" /><trkpt lat="22.372327921970935" lon="114.18412717689318" /><trkpt lat="22.372258552692543" lon="114.1841369034525" /><trkpt lat="22.37218657155357" lon="114.1840346880353" /><trkpt lat="22.372131960569305" lon="114.18398753447485" /><trkpt lat="22.371942238346634" lon="114.18387145475981" /><trkpt lat="22.37159019762582" lon="114.18379295645929" /><trkpt lat="22.37147742001038" lon="114.18379928537422" /><trkpt lat="22.37141047353991" lon="114.1838318730504" /><trkpt lat="22.371310985086254" lon="114.1838473013596" /><trkpt lat="22.3711787459213" lon="114.1838385418036" /><trkpt lat="22.370559253453806" lon="114.18365410964873" /><trkpt lat="22.37045170294475" lon="114.18359454511108" /><trkpt lat="22.370276330433015" lon="114.18341859648325" /><trkpt lat="22.370276203739635" lon="114.18341612165597" /><trkpt lat="22.370267467092006" lon="114.18340433884856" /><trkpt lat="22.37026771216756" lon="114.18340170693676" /><trkpt lat="22.370264206842847" lon="114.18340132522223" /><trkpt lat="22.37026563043284" lon="114.18339766292456" /><trkpt lat="22.370263679408012" lon="114.1833959508524" /><trkpt lat="22.370262117920603" lon="114.18339578079787" /></trkseg></trk></gpx>