<?xml version='1.0' encoding='UTF-8' ?><gpx version="1.1" creator="HikingTrailHK" xsi:schemaLocation="http://www.topografix.com/GPX/1/1 http://www.topografix.com/GPX/1/1/gpx.xsd" xmlns="http://www.topografix.com/GPX/1/1" xmlns:xsi="http://www.w3.org/2001/XMLSchema-instance"><metadata><name>窩仔山及嘉頓山 @ 2016-8-28</name><desc></desc></metadata><trk><trkseg><trkpt lat="22.331580781848643" lon="114.16905246252391" /><trkpt lat="22.33158178125" lon="114.17016879638672" /><trkpt lat="22.33158178125" lon="114.17022779638671" /><trkpt lat="22.33157878125" lon="114.17033779638672" /><trkpt lat="22.33153778125" lon="114.17034979638672" /><trkpt lat="22.33150078125" lon="114.17036379638672" /><trkpt lat="22.33146878125" lon="114.17037479638672" /><trkpt lat="22.33134578125" lon="114.17039779638672" /><trkpt lat="22.33088178125" lon="114.17041079638672" /><trkpt lat="22.33082478125" lon="114.17041079638672" /><trkpt lat="22.33076578125" lon="114.17041379638673" /><trkpt lat="22.33069078125" lon="114.17042179638672" /><trkpt lat="22.33068778125" lon="114.16991779638671" /><trkpt lat="22.33070378125" lon="114.16989279638672" /><trkpt lat="22.33077678125" lon="114.16979379638671" /><trkpt lat="22.33081178125" lon="114.16960579638672" /><trkpt lat="22.33089078125" lon="114.16948279638672" /><trkpt lat="22.33074678125" lon="114.16929179638672" /><trkpt lat="22.33068078125" lon="114.16924879638673" /><trkpt lat="22.33058978125" lon="114.16884879638671" /><trkpt lat="22.33070378125" lon="114.16888079638672" /><trkpt lat="22.33070678125" lon="114.16877779638672" /><trkpt lat="22.33072678125" lon="114.16862279638671" /><trkpt lat="22.33052078125" lon="114.16850579638673" /><trkpt lat="22.33044478125" lon="114.16848679638672" /><trkpt lat="22.33025878125" lon="114.16855379638672" /><trkpt lat="22.33021578125" lon="114.16854279638672" /><trkpt lat="22.33022878125" lon="114.16868979638672" /><trkpt lat="22.33015378125" lon="114.16887779638672" /><trkpt lat="22.32999678125" lon="114.16893079638672" /><trkpt lat="22.32984978125" lon="114.16885579638672" /><trkpt lat="22.32977378125" lon="114.16874679638671" /><trkpt lat="22.329784148061663" lon="114.16859489363775" /><trkpt lat="22.32979678125" lon="114.16859079638672" /><trkpt lat="22.32994078125" lon="114.16840979638671" /><trkpt lat="22.33008478125" lon="114.16838579638672" /><trkpt lat="22.330151787657343" lon="114.16843246412009" /><trkpt lat="22.330161837474108" lon="114.16845003421395" /><trkpt lat="22.330174987150585" lon="114.1684635793572" /><trkpt lat="22.330202333617237" lon="114.16848274291306" /><trkpt lat="22.330211953589398" lon="114.16850590006925" /><trkpt lat="22.33021578125" lon="114.16854279638672" /><trkpt lat="22.33025878125" lon="114.16855379638672" /><trkpt lat="22.33045178125" lon="114.16846379638672" /><trkpt lat="22.33040178125" lon="114.16824579638671" /><trkpt lat="22.33033378125" lon="114.16782179638672" /><trkpt lat="22.33021078125" lon="114.16745179638671" /><trkpt lat="22.33032878125" lon="114.16736079638672" /><trkpt lat="22.33041778125" lon="114.16738179638672" /><trkpt lat="22.33051078125" lon="114.16730479638672" /><trkpt lat="22.33065678125" lon="114.16718379638672" /><trkpt lat="22.33072678125" lon="114.16713279638672" /><trkpt lat="22.33074978125" lon="114.16712779638672" /><trkpt lat="22.33078378125" lon="114.16711079638672" /><trkpt lat="22.33081778125" lon="114.16708479638672" /><trkpt lat="22.33090178125" lon="114.16699479638672" /><trkpt lat="22.33117278125" lon="114.16670179638672" /><trkpt lat="22.33122378125" lon="114.16665179638672" /><trkpt lat="22.33129578125" lon="114.16657279638672" /><trkpt lat="22.33118178125" lon="114.16645379638672" /><trkpt lat="22.33122078125" lon="114.16647179638672" /><trkpt lat="22.33124878125" lon="114.16647979638672" /><trkpt lat="22.33128678125" lon="114.16648479638671" /><trkpt lat="22.33131678125" lon="114.16648079638672" /><trkpt lat="22.33133678125" lon="114.16647479638672" /><trkpt lat="22.33135378125" lon="114.16646779638671" /><trkpt lat="22.33139986596884" lon="114.16645581002" /><trkpt lat="22.33141578125" lon="114.16642079638672" /><trkpt lat="22.33180278125" lon="114.16592079638671" /><trkpt lat="22.33183778125" lon="114.16587479638672" /><trkpt lat="22.33195078125" lon="114.16572879638672" /><trkpt lat="22.33200678125" lon="114.16565679638671" /><trkpt lat="22.33205178125" lon="114.16559879638672" /><trkpt lat="22.33260878125" lon="114.16486479638672" /><trkpt lat="22.33269378125" lon="114.16475179638672" /><trkpt lat="22.33333178125" lon="114.16391379638672" /><trkpt lat="22.33336078125" lon="114.16384279638672" /><trkpt lat="22.33358778125" lon="114.16354679638673" /><trkpt lat="22.33406978125" lon="114.16400979638672" /><trkpt lat="22.33413478125" lon="114.16404279638672" /><trkpt lat="22.33428978125" lon="114.16393479638671" /><trkpt lat="22.33438578125" lon="114.16382579638672" /><trkpt lat="22.33445678125" lon="114.16395679638671" /><trkpt lat="22.33447778125" lon="114.16407579638673" /><trkpt lat="22.33454978125" lon="114.16403479638672" /><trkpt lat="22.33463378125" lon="114.16384979638671" /><trkpt lat="22.33470778125" lon="114.16379879638671" /><trkpt lat="22.33493878125" lon="114.16398179638672" /><trkpt lat="22.33505678125" lon="114.16384879638672" /><trkpt lat="22.33521878125" lon="114.16384979638671" /><trkpt lat="22.33525878125" lon="114.16382879638672" /><trkpt lat="22.33538178125" lon="114.16390279638672" /><trkpt lat="22.33546378125" lon="114.16391679638672" /><trkpt lat="22.33562878125" lon="114.16389079638672" /><trkpt lat="22.33580218508044" lon="114.1638233855715" /><trkpt lat="22.335821615768126" lon="114.16382673833277" /><trkpt lat="22.335839851093823" lon="114.16382581218977" /><trkpt lat="22.335865753887276" lon="114.16383679661658" /><trkpt lat="22.33588017035028" lon="114.16385115611001" /><trkpt lat="22.335915993485386" lon="114.16385781960025" /><trkpt lat="22.33592689723349" lon="114.1639146629418" /><trkpt lat="22.33596029235513" lon="114.16396699577884" /><trkpt lat="22.33598078125" lon="114.16397579638672" /><trkpt lat="22.33608986956733" lon="114.16402533192559" /><trkpt lat="22.33637778125" lon="114.16409279638673" /><trkpt lat="22.33635978125" lon="114.16413879638672" /><trkpt lat="22.33635678125" lon="114.16436579638672" /><trkpt lat="22.33644178125" lon="114.16455379638671" /><trkpt lat="22.33653678125" lon="114.16446179638672" /><trkpt lat="22.33688178125" lon="114.16455979638671" /><trkpt lat="22.33694978125" lon="114.16460279638672" /><trkpt lat="22.33699378125" lon="114.16469079638672" /><trkpt lat="22.33701178125" lon="114.16473679638672" /><trkpt lat="22.33722778125" lon="114.16473979638671" /><trkpt lat="22.33730478125" lon="114.16469679638672" /><trkpt lat="22.33765878125" lon="114.16487379638671" /><trkpt lat="22.33784178125" lon="114.16485879638672" /><trkpt lat="22.33801778125" lon="114.16479279638672" /><trkpt lat="22.33818178125" lon="114.16444279638672" /><trkpt lat="22.33822878125" lon="114.16443779638672" /><trkpt lat="22.33826978125" lon="114.16436879638673" /><trkpt lat="22.33842078125" lon="114.16449179638671" /><trkpt lat="22.33850578125" lon="114.16467379638672" /><trkpt lat="22.33853978125" lon="114.16481079638672" /><trkpt lat="22.33846578125" lon="114.16488479638672" /><trkpt lat="22.33839178125" lon="114.16501379638672" /><trkpt lat="22.33836678125" lon="114.16515879638672" /><trkpt lat="22.33837578125" lon="114.16532279638672" /><trkpt lat="22.33841978125" lon="114.16545179638672" /><trkpt lat="22.33852578125" lon="114.16563779638672" /><trkpt lat="22.33855478125" lon="114.16566579638672" /><trkpt lat="22.33903078125" lon="114.16611679638672" /><trkpt lat="22.33899578125" lon="114.16616579638672" /><trkpt lat="22.33894478125" lon="114.16625179638672" /><trkpt lat="22.33889778125" lon="114.16635879638672" /><trkpt lat="22.33886478125" lon="114.16644079638672" /><trkpt lat="22.33883678125" lon="114.16657179638672" /><trkpt lat="22.33870778125" lon="114.16710279638671" /><trkpt lat="22.33862578125" lon="114.16742079638672" /><trkpt lat="22.33859078125" lon="114.16770679638672" /><trkpt lat="22.33854078125" lon="114.16822279638671" /><trkpt lat="22.33850178125" lon="114.16843279638672" /><trkpt lat="22.33847678125" lon="114.16853379638673" /><trkpt lat="22.33841878125" lon="114.16871479638672" /><trkpt lat="22.33836278125" lon="114.16886379638672" /><trkpt lat="22.33833978125" lon="114.16890679638672" /><trkpt lat="22.33828978125" lon="114.16900079638671" /><trkpt lat="22.33820078125" lon="114.16912279638672" /><trkpt lat="22.33807078125" lon="114.16923279638672" /><trkpt lat="22.33793378125" lon="114.16930679638672" /><trkpt lat="22.33780578125" lon="114.16935079638672" /><trkpt lat="22.33765578125" lon="114.16937179638671" /><trkpt lat="22.33746478125" lon="114.16936679638673" /><trkpt lat="22.33710378125" lon="114.16929879638671" /><trkpt lat="22.33654778125" lon="114.16918679638673" /><trkpt lat="22.33633478125" lon="114.16913579638671" /><trkpt lat="22.33613178125" lon="114.16909479638672" /><trkpt lat="22.33571978125" lon="114.16899279638672" /><trkpt lat="22.33553478125" lon="114.16891079638673" /><trkpt lat="22.33541078125" lon="114.16883279638672" /><trkpt lat="22.33488178125" lon="114.16836179638672" /><trkpt lat="22.33468478125" lon="114.16819579638671" /><trkpt lat="22.33453978125" lon="114.16807979638672" /><trkpt lat="22.33443378125" lon="114.16800279638672" /><trkpt lat="22.33428078125" lon="114.16785279638673" /><trkpt lat="22.33421478125" lon="114.16778979638671" /><trkpt lat="22.33396378125" lon="114.16754479638672" /><trkpt lat="22.33389278125" lon="114.16747579638673" /><trkpt lat="22.33378078125" lon="114.16737379638671" /><trkpt lat="22.33365478125" lon="114.16753979638672" /><trkpt lat="22.33362378125" lon="114.16757979638672" /><trkpt lat="22.33354678125" lon="114.16767879638672" /><trkpt lat="22.33306678125" lon="114.16830079638672" /><trkpt lat="22.33282378125" lon="114.16862079638672" /><trkpt lat="22.33275878125" lon="114.16868479638671" /><trkpt lat="22.33273678125" lon="114.16870679638672" /><trkpt lat="22.33269178125" lon="114.16873179638672" /><trkpt lat="22.33265578125" lon="114.16874479638672" /><trkpt lat="22.33260478125" lon="114.16875479638672" /><trkpt lat="22.33255978125" lon="114.16876079638672" /><trkpt lat="22.33251778125" lon="114.16876279638672" /><trkpt lat="22.33168478125" lon="114.16875879638673" /><trkpt lat="22.3316455636407" lon="114.16875879638671" /></trkseg></trk></gpx>