<?xml version='1.0' encoding='UTF-8' ?><gpx version="1.1" creator="HikingTrailHK" xsi:schemaLocation="http://www.topografix.com/GPX/1/1 http://www.topografix.com/GPX/1/1/gpx.xsd" xmlns="http://www.topografix.com/GPX/1/1" xmlns:xsi="http://www.w3.org/2001/XMLSchema-instance"><metadata><name>筆架山 @ 2023-09-23</name><desc></desc></metadata><wpt lat="22.350560395329182" lon="114.17014867549017"><name>竹林脊</name></wpt><trk><trkseg><trkpt lat="22.336985901114094" lon="114.17554552594483" /><trkpt lat="22.33708578125" lon="114.17548779638672" /><trkpt lat="22.33720378125" lon="114.17539579638672" /><trkpt lat="22.33730278125" lon="114.17526879638672" /><trkpt lat="22.33746178125" lon="114.17520679638672" /><trkpt lat="22.33763478125" lon="114.17517779638672" /><trkpt lat="22.33772578125" lon="114.17512479638673" /><trkpt lat="22.33810278125" lon="114.17484579638672" /><trkpt lat="22.33832278125" lon="114.17469079638671" /><trkpt lat="22.33854578125" lon="114.17453079638672" /><trkpt lat="22.33921678125" lon="114.17405079638672" /><trkpt lat="22.33952078125" lon="114.17387079638672" /><trkpt lat="22.339935695546504" lon="114.17370652408296" /><trkpt lat="22.34005378125" lon="114.17421879638673" /><trkpt lat="22.34009178125" lon="114.17442779638672" /><trkpt lat="22.34010878125" lon="114.17457279638671" /><trkpt lat="22.34011878125" lon="114.17469979638672" /><trkpt lat="22.34012578125" lon="114.17486479638671" /><trkpt lat="22.34012278125" lon="114.17533879638673" /><trkpt lat="22.34010778125" lon="114.17580679638672" /><trkpt lat="22.34014378125" lon="114.17580479638671" /><trkpt lat="22.34025478125" lon="114.17580679638672" /><trkpt lat="22.34028978125" lon="114.17580479638671" /><trkpt lat="22.34031378125" lon="114.17494679638672" /><trkpt lat="22.34041878125" lon="114.17490979638671" /><trkpt lat="22.34039378125" lon="114.17484879638671" /><trkpt lat="22.34043178125" lon="114.17483079638671" /><trkpt lat="22.34057278125" lon="114.17473179638672" /><trkpt lat="22.34064638339352" lon="114.17467439375032" /><trkpt lat="22.34064878125" lon="114.17467179638672" /><trkpt lat="22.34070278125" lon="114.17456879638672" /><trkpt lat="22.34072678125" lon="114.17446579638671" /><trkpt lat="22.34073078125" lon="114.17437279638672" /><trkpt lat="22.34071678125" lon="114.17428179638672" /><trkpt lat="22.34067778125" lon="114.17417579638672" /><trkpt lat="22.34056178125" lon="114.17397879638672" /><trkpt lat="22.34038678125" lon="114.17368079638672" /><trkpt lat="22.34032978125" lon="114.17353679638671" /><trkpt lat="22.34032878125" lon="114.17338479638671" /><trkpt lat="22.34035278125" lon="114.17329179638672" /><trkpt lat="22.34040878125" lon="114.17319779638672" /><trkpt lat="22.34046778125" lon="114.17313279638672" /><trkpt lat="22.34057678125" lon="114.17307079638672" /><trkpt lat="22.34068978125" lon="114.17305479638672" /><trkpt lat="22.34077078125" lon="114.17306379638671" /><trkpt lat="22.34081678125" lon="114.17307779638672" /><trkpt lat="22.34085478125" lon="114.17309179638671" /><trkpt lat="22.34089778125" lon="114.17311779638672" /><trkpt lat="22.34093578125" lon="114.17314479638672" /><trkpt lat="22.34109878125" lon="114.17331579638672" /><trkpt lat="22.34122678125" lon="114.17345179638671" /><trkpt lat="22.34129778125" lon="114.17352679638672" /><trkpt lat="22.34152278125" lon="114.17339979638672" /><trkpt lat="22.34173278125" lon="114.17340979638672" /><trkpt lat="22.34191778125" lon="114.17346079638672" /><trkpt lat="22.34207578125" lon="114.17337679638672" /><trkpt lat="22.34212678125" lon="114.17319779638672" /><trkpt lat="22.34212678125" lon="114.17307879638672" /><trkpt lat="22.34219578125" lon="114.17294479638672" /><trkpt lat="22.34242111234043" lon="114.17306751835895" /><trkpt lat="22.34254078125" lon="114.17278979638672" /><trkpt lat="22.34267678125" lon="114.17270179638672" /><trkpt lat="22.34305978125" lon="114.17296179638672" /><trkpt lat="22.34304178125" lon="114.17300879638672" /><trkpt lat="22.34303978125" lon="114.17305879638671" /><trkpt lat="22.343049913125128" lon="114.17311890608256" /><trkpt lat="22.34323278125" lon="114.17327079638672" /><trkpt lat="22.343513065779845" lon="114.17354781326111" /><trkpt lat="22.34387878125" lon="114.17382679638672" /><trkpt lat="22.34405178125" lon="114.17395979638673" /><trkpt lat="22.34407078125" lon="114.17397379638672" /><trkpt lat="22.34412978125" lon="114.17400479638673" /><trkpt lat="22.34417478125" lon="114.17401379638672" /><trkpt lat="22.34422178125" lon="114.17401279638672" /><trkpt lat="22.34424678125" lon="114.17400379638671" /><trkpt lat="22.34426978125" lon="114.17398879638672" /><trkpt lat="22.34428978125" lon="114.17396679638672" /><trkpt lat="22.34431278125" lon="114.17393579638671" /><trkpt lat="22.34433378125" lon="114.17388279638672" /><trkpt lat="22.34435478125" lon="114.17380679638671" /><trkpt lat="22.34435878125" lon="114.17379379638672" /><trkpt lat="22.34440578125" lon="114.17356979638672" /><trkpt lat="22.34442478125" lon="114.17348279638672" /><trkpt lat="22.34444478125" lon="114.17335879638672" /><trkpt lat="22.34446278125" lon="114.17315979638671" /><trkpt lat="22.34447278125" lon="114.17300679638672" /><trkpt lat="22.34448178125" lon="114.17287379638672" /><trkpt lat="22.34450778125" lon="114.17273979638672" /><trkpt lat="22.34456278125" lon="114.17260079638672" /><trkpt lat="22.34458578125" lon="114.17256179638672" /><trkpt lat="22.34468878125" lon="114.17241079638671" /><trkpt lat="22.34477278125" lon="114.17229479638672" /><trkpt lat="22.34487778125" lon="114.17215379638672" /><trkpt lat="22.34512578125" lon="114.17184479638672" /><trkpt lat="22.34523278125" lon="114.17171979638672" /><trkpt lat="22.34549778125" lon="114.17145679638672" /><trkpt lat="22.34554078125" lon="114.17139579638672" /><trkpt lat="22.34556878125" lon="114.17134979638672" /><trkpt lat="22.34559478125" lon="114.17128079638672" /><trkpt lat="22.34561178125" lon="114.17123079638672" /><trkpt lat="22.34563578125" lon="114.17117279638671" /><trkpt lat="22.34566678125" lon="114.17110879638672" /><trkpt lat="22.34567778125" lon="114.17103979638672" /><trkpt lat="22.34566278125" lon="114.17097979638672" /><trkpt lat="22.34559378125" lon="114.17093579638671" /><trkpt lat="22.34536478125" lon="114.17083679638672" /><trkpt lat="22.34529178125" lon="114.17079779638672" /><trkpt lat="22.34526778125" lon="114.17076479638672" /><trkpt lat="22.34526778125" lon="114.17072479638672" /><trkpt lat="22.34527578125" lon="114.17068379638673" /><trkpt lat="22.34530578125" lon="114.17062779638673" /><trkpt lat="22.34544178125" lon="114.17037979638671" /><trkpt lat="22.34552378125" lon="114.17021179638672" /><trkpt lat="22.345537781250002" lon="114.17017279638672" /><trkpt lat="22.34554378125" lon="114.17012379638672" /><trkpt lat="22.34567278125" lon="114.17009679638672" /><trkpt lat="22.34581678125" lon="114.16993779638672" /><trkpt lat="22.34600978125" lon="114.16984879638672" /><trkpt lat="22.34609278125" lon="114.16972579638671" /><trkpt lat="22.34619178125" lon="114.16965179638672" /><trkpt lat="22.346222848993555" lon="114.16965573290832" /><trkpt lat="22.34625112856115" lon="114.16956239631179" /><trkpt lat="22.346259595639864" lon="114.16950035050888" /><trkpt lat="22.346283040371276" lon="114.16947913118099" /><trkpt lat="22.346456496227773" lon="114.16947399054357" /><trkpt lat="22.346530139437405" lon="114.1694966596931" /><trkpt lat="22.346562245119927" lon="114.16948560396264" /><trkpt lat="22.34660191015159" lon="114.16948350431306" /><trkpt lat="22.346625971674555" lon="114.16950083306318" /><trkpt lat="22.34662707734367" lon="114.16950096435289" /><trkpt lat="22.34662901148488" lon="114.16950351770788" /><trkpt lat="22.34663028334282" lon="114.16950413480066" /><trkpt lat="22.346630995747972" lon="114.16950621732184" /><trkpt lat="22.346632259970207" lon="114.16950681235141" /><trkpt lat="22.346632637411147" lon="114.1695079157202" /><trkpt lat="22.34663399808322" lon="114.16950737158203" /><trkpt lat="22.346634745785778" lon="114.16950821946523" /><trkpt lat="22.346635315308603" lon="114.16950799171815" /><trkpt lat="22.346636126911662" lon="114.1695088140425" /><trkpt lat="22.346637060020797" lon="114.16950844089985" /><trkpt lat="22.34664963940652" lon="114.16951968631679" /><trkpt lat="22.34664998452628" lon="114.16952069518169" /><trkpt lat="22.346650105956286" lon="114.1695194997352" /><trkpt lat="22.34664954614219" lon="114.16951972359612" /><trkpt lat="22.346648528231853" lon="114.1695195389268" /><trkpt lat="22.346647966116578" lon="114.16951806177798" /><trkpt lat="22.34664689447085" lon="114.16951786366104" /><trkpt lat="22.34664685938263" lon="114.16951621066409" /><trkpt lat="22.34664527252953" lon="114.16951622320698" /><trkpt lat="22.34664518465685" lon="114.16951458661867" /><trkpt lat="22.34672378125" lon="114.16955579638672" /><trkpt lat="22.34671478125" lon="114.16970879638671" /><trkpt lat="22.34673378125" lon="114.16981979638672" /><trkpt lat="22.34660278125" lon="114.16998679638672" /><trkpt lat="22.34660378125" lon="114.17020979638671" /><trkpt lat="22.34659178125" lon="114.17041779638672" /><trkpt lat="22.34662378125" lon="114.17046179638672" /><trkpt lat="22.34668978125" lon="114.17047679638672" /><trkpt lat="22.34676378125" lon="114.17036979638672" /><trkpt lat="22.34702478125" lon="114.17032179638672" /><trkpt lat="22.34732778125" lon="114.17028979638673" /><trkpt lat="22.34748678125" lon="114.17023679638672" /><trkpt lat="22.34787578125" lon="114.16998079638672" /><trkpt lat="22.34803578125" lon="114.16963679638671" /><trkpt lat="22.34856378125" lon="114.16927779638672" /><trkpt lat="22.34870278125" lon="114.16933379638672" /><trkpt lat="22.34879978125" lon="114.16935679638672" /><trkpt lat="22.34890378125" lon="114.16931179638672" /><trkpt lat="22.34901878125" lon="114.16929879638671" /><trkpt lat="22.34917078125" lon="114.16928379638672" /><trkpt lat="22.34927478125" lon="114.16928479638672" /><trkpt lat="22.34938478125" lon="114.16932979638672" /><trkpt lat="22.34949378125" lon="114.16941279638672" /><trkpt lat="22.34960278125" lon="114.16948779638672" /><trkpt lat="22.34977278125" lon="114.16976379638672" /><trkpt lat="22.35001378125" lon="114.17016079638672" /><trkpt lat="22.35003778125" lon="114.17022479638672" /><trkpt lat="22.35004578125" lon="114.17028879638671" /><trkpt lat="22.350023691335423" lon="114.17036216525484" /><trkpt lat="22.350141234953668" lon="114.17036522763334" /><trkpt lat="22.350261887167918" lon="114.17034876210232" /><trkpt lat="22.35028905361507" lon="114.1702622322776" /><trkpt lat="22.350346343215435" lon="114.17021125854757" /><trkpt lat="22.350459130315926" lon="114.17024642774663" /><trkpt lat="22.35060410727553" lon="114.17016851081223" /><trkpt lat="22.350674154958767" lon="114.17008836458302" /><trkpt lat="22.350966633682916" lon="114.16992780187195" /><trkpt lat="22.351124320204775" lon="114.1699622234184" /><trkpt lat="22.35118997788916" lon="114.16991507968521" /><trkpt lat="22.35173078125" lon="114.17035979638672" /><trkpt lat="22.35187778125" lon="114.17044979638672" /><trkpt lat="22.35198478125" lon="114.17050079638672" /><trkpt lat="22.35213578125" lon="114.17064279638672" /><trkpt lat="22.35206178125" lon="114.17099079638672" /><trkpt lat="22.35162378125" lon="114.17116879638672" /><trkpt lat="22.35157878125" lon="114.17144479638672" /><trkpt lat="22.35144078125" lon="114.17188679638672" /><trkpt lat="22.35131778125" lon="114.17204179638672" /><trkpt lat="22.35121878125" lon="114.17227779638672" /><trkpt lat="22.35091278125" lon="114.17323479638672" /><trkpt lat="22.35060478125" lon="114.17356579638673" /><trkpt lat="22.35036478125" lon="114.17415879638672" /><trkpt lat="22.35038978125" lon="114.17428479638671" /><trkpt lat="22.35054478125" lon="114.17449879638671" /><trkpt lat="22.35056478125" lon="114.17473479638672" /><trkpt lat="22.35063378125" lon="114.17499279638672" /><trkpt lat="22.35062678125" lon="114.17504879638672" /><trkpt lat="22.35059378125" lon="114.17529279638671" /><trkpt lat="22.35058078125" lon="114.17553779638672" /><trkpt lat="22.35057478125" lon="114.17564679638672" /><trkpt lat="22.35051478125" lon="114.17587279638671" /><trkpt lat="22.35054378125" lon="114.17601479638672" /><trkpt lat="22.35056478125" lon="114.17611879638672" /><trkpt lat="22.35060978125" lon="114.17614379638673" /><trkpt lat="22.35066178125" lon="114.17619979638671" /><trkpt lat="22.35075878125" lon="114.17620679638672" /><trkpt lat="22.35105878125" lon="114.17631279638672" /><trkpt lat="22.35140978125" lon="114.17661579638671" /><trkpt lat="22.35164478125" lon="114.17657979638672" /><trkpt lat="22.35178778125" lon="114.17662979638672" /><trkpt lat="22.35184678125" lon="114.17668579638672" /><trkpt lat="22.35193778125" lon="114.17669279638672" /><trkpt lat="22.35202878125" lon="114.17679879638672" /><trkpt lat="22.35212678125" lon="114.17678379638672" /><trkpt lat="22.35231478125" lon="114.17669979638671" /><trkpt lat="22.35241278125" lon="114.17669279638672" /><trkpt lat="22.35273178125" lon="114.17658679638672" /><trkpt lat="22.35282978125" lon="114.17659379638671" /><trkpt lat="22.35298578125" lon="114.17654479638672" /><trkpt lat="22.35320678125" lon="114.17638279638672" /><trkpt lat="22.35327178125" lon="114.17638279638672" /><trkpt lat="22.35336378125" lon="114.17640379638672" /><trkpt lat="22.35352578125" lon="114.17617879638672" /><trkpt lat="22.35376678125" lon="114.17610179638672" /><trkpt lat="22.35397478125" lon="114.17594179638672" /><trkpt lat="22.35403378125" lon="114.17589779638672" /><trkpt lat="22.35409878125" lon="114.17579879638672" /><trkpt lat="22.35439178125" lon="114.17567179638672" /><trkpt lat="22.35473678125" lon="114.17567879638672" /><trkpt lat="22.35480878125" lon="114.17576379638672" /><trkpt lat="22.35487978125" lon="114.17579879638672" /><trkpt lat="22.35504978125" lon="114.17585479638672" /><trkpt lat="22.35523178125" lon="114.17586179638671" /><trkpt lat="22.35553678125" lon="114.17584679638672" /><trkpt lat="22.35560878125" lon="114.17579379638671" /><trkpt lat="22.35570778125" lon="114.17583479638672" /><trkpt lat="22.35579978125" lon="114.17580479638671" /><trkpt lat="22.35596578125" lon="114.17597379638671" /><trkpt lat="22.35595778125" lon="114.17617779638672" /><trkpt lat="22.35580778125" lon="114.17637879638671" /><trkpt lat="22.35571378125" lon="114.17654379638672" /><trkpt lat="22.35567178125" lon="114.17671479638672" /><trkpt lat="22.35564278125" lon="114.17694779638671" /><trkpt lat="22.35563978125" lon="114.17709879638672" /><trkpt lat="22.35564478125" lon="114.17725279638672" /><trkpt lat="22.35568078125" lon="114.17737279638672" /><trkpt lat="22.35573378125" lon="114.17745279638672" /><trkpt lat="22.35590878125" lon="114.17765179638671" /><trkpt lat="22.35593178125" lon="114.17761679638672" /><trkpt lat="22.35593778125" lon="114.17760979638672" /><trkpt lat="22.35598078125" lon="114.17756279638672" /><trkpt lat="22.35604578125" lon="114.17758979638671" /><trkpt lat="22.35612678125" lon="114.17760279638672" /><trkpt lat="22.35624178125" lon="114.17759679638672" /><trkpt lat="22.35628378125" lon="114.17757379638672" /><trkpt lat="22.35629578125" lon="114.17755279638672" /><trkpt lat="22.35635378125" lon="114.17748779638671" /><trkpt lat="22.35641578125" lon="114.17745579638672" /><trkpt lat="22.35648878125" lon="114.17741679638672" /><trkpt lat="22.35679078125" lon="114.17729279638672" /><trkpt lat="22.35706878125" lon="114.17720979638672" /><trkpt lat="22.35709678125" lon="114.17718379638671" /><trkpt lat="22.35713578125" lon="114.17712579638672" /><trkpt lat="22.35718278125" lon="114.17709879638672" /><trkpt lat="22.35724378125" lon="114.17709279638672" /><trkpt lat="22.35743878125" lon="114.17713579638672" /><trkpt lat="22.35746778125" lon="114.17712379638672" /><trkpt lat="22.35768878125" lon="114.17693279638672" /><trkpt lat="22.35774378125" lon="114.17690679638672" /><trkpt lat="22.35780278125" lon="114.17690879638671" /><trkpt lat="22.35786878125" lon="114.17692779638672" /><trkpt lat="22.35794778125" lon="114.17700079638672" /><trkpt lat="22.35799078125" lon="114.17701879638672" /><trkpt lat="22.35803078125" lon="114.17702379638672" /><trkpt lat="22.35816278125" lon="114.17695679638672" /><trkpt lat="22.35823778125" lon="114.17696379638672" /><trkpt lat="22.35841878125" lon="114.17699779638671" /><trkpt lat="22.35850478125" lon="114.17700179638672" /><trkpt lat="22.35857878125" lon="114.17698779638671" /><trkpt lat="22.35871178125" lon="114.17692279638672" /><trkpt lat="22.35910578125" lon="114.17686179638672" /><trkpt lat="22.35920678125" lon="114.17685679638672" /><trkpt lat="22.35926578125" lon="114.17687679638672" /><trkpt lat="22.35929378125" lon="114.17690279638671" /><trkpt lat="22.35931078125" lon="114.17693879638672" /><trkpt lat="22.35932478125" lon="114.17699679638672" /><trkpt lat="22.35931578125" lon="114.17711279638672" /><trkpt lat="22.35929978125" lon="114.17719679638672" /><trkpt lat="22.35930078125" lon="114.17725079638672" /><trkpt lat="22.35934178125" lon="114.17741879638672" /><trkpt lat="22.35935678125" lon="114.17755879638672" /><trkpt lat="22.35935778125" lon="114.17760679638671" /><trkpt lat="22.35934378125" lon="114.17765979638672" /><trkpt lat="22.35923778125" lon="114.17783979638672" /><trkpt lat="22.35923578125" lon="114.17788679638672" /><trkpt lat="22.35924678125" lon="114.17792079638672" /><trkpt lat="22.35927578125" lon="114.17797279638671" /><trkpt lat="22.35937578125" lon="114.17809079638671" /><trkpt lat="22.35942678125" lon="114.17811979638672" /><trkpt lat="22.35955578125" lon="114.17817079638672" /><trkpt lat="22.35964978125" lon="114.17821579638672" /><trkpt lat="22.35991578125" lon="114.17844079638672" /><trkpt lat="22.36017178125" lon="114.17873079638672" /><trkpt lat="22.36020578125" lon="114.17875579638672" /><trkpt lat="22.36033378125" lon="114.17881179638673" /><trkpt lat="22.36040178125" lon="114.17882579638672" /><trkpt lat="22.36054278125" lon="114.17884979638671" /><trkpt lat="22.36057078125" lon="114.17886679638671" /><trkpt lat="22.36058878125" lon="114.17892179638672" /><trkpt lat="22.36058978125" lon="114.17897979638671" /><trkpt lat="22.36053278125" lon="114.17919179638672" /><trkpt lat="22.36049578125" lon="114.17941879638671" /><trkpt lat="22.36051178125" lon="114.17950079638672" /><trkpt lat="22.36053278125" lon="114.17956379638672" /><trkpt lat="22.36056078125" lon="114.17961879638672" /><trkpt lat="22.36064978125" lon="114.17971379638672" /><trkpt lat="22.36068578125" lon="114.17980879638672" /><trkpt lat="22.36069778125" lon="114.17990779638671" /><trkpt lat="22.36069978125" lon="114.18000479638673" /><trkpt lat="22.36061778125" lon="114.18052179638671" /><trkpt lat="22.36058278125" lon="114.18064779638672" /><trkpt lat="22.36054978125" lon="114.18073179638672" /><trkpt lat="22.36040378125" lon="114.18101079638672" /><trkpt lat="22.36031978125" lon="114.18112679638672" /><trkpt lat="22.36021178125" lon="114.18124579638672" /><trkpt lat="22.36015378125" lon="114.18146779638671" /><trkpt lat="22.36016178125" lon="114.18150279638672" /><trkpt lat="22.36019378125" lon="114.18157679638672" /><trkpt lat="22.36026078125" lon="114.18163779638672" /><trkpt lat="22.36037078125" lon="114.18167579638671" /><trkpt lat="22.36047178125" lon="114.18170179638672" /><trkpt lat="22.36058078125" lon="114.18173979638672" /><trkpt lat="22.36067778125" lon="114.18179179638672" /><trkpt lat="22.36072478125" lon="114.18183979638673" /><trkpt lat="22.36076478125" lon="114.18194679638673" /><trkpt lat="22.36079678125" lon="114.18209979638672" /><trkpt lat="22.36079878125" lon="114.18219679638672" /><trkpt lat="22.36080878125" lon="114.18230879638672" /><trkpt lat="22.36087678125" lon="114.18244779638673" /><trkpt lat="22.36097078125" lon="114.18277879638671" /><trkpt lat="22.36110478125" lon="114.18294579638672" /><trkpt lat="22.36129078125" lon="114.18289079638672" /><trkpt lat="22.36183678125" lon="114.18231679638671" /><trkpt lat="22.36201478125" lon="114.18234879638672" /><trkpt lat="22.36216378125" lon="114.18244579638672" /><trkpt lat="22.36229478125" lon="114.18251079638672" /><trkpt lat="22.36225978125" lon="114.18289779638671" /><trkpt lat="22.36228178125" lon="114.18302679638671" /><trkpt lat="22.36254078125" lon="114.18319679638672" /><trkpt lat="22.36272978125" lon="114.18321779638671" /><trkpt lat="22.36303178125" lon="114.18344879638671" /><trkpt lat="22.36313178125" lon="114.18362579638672" /><trkpt lat="22.36322178125" lon="114.18383579638672" /><trkpt lat="22.36333578125" lon="114.18394479638673" /><trkpt lat="22.36334478125" lon="114.18409079638671" /><trkpt lat="22.36314678125" lon="114.18420179638672" /><trkpt lat="22.36284878125" lon="114.18439479638671" /><trkpt lat="22.36283378125" lon="114.18463479638672" /><trkpt lat="22.36292778125" lon="114.18479579638672" /><trkpt lat="22.36297278125" lon="114.18493479638671" /><trkpt lat="22.36289278125" lon="114.18511279638672" /><trkpt lat="22.36266678125" lon="114.18522879638672" /><trkpt lat="22.36237478125" lon="114.18516779638672" /><trkpt lat="22.36220878125" lon="114.18518179638671" /><trkpt lat="22.36210478125" lon="114.18531079638672" /><trkpt lat="22.36212378125" lon="114.18575579638672" /><trkpt lat="22.36186078125" lon="114.18613679638672" /><trkpt lat="22.36190078125" lon="114.18633479638672" /><trkpt lat="22.36210478125" lon="114.18644379638671" /><trkpt lat="22.36229378125" lon="114.18656379638672" /><trkpt lat="22.36241678125" lon="114.18657679638672" /><trkpt lat="22.36258078125" lon="114.18663679638672" /><trkpt lat="22.36271478125" lon="114.18666179638672" /><trkpt lat="22.36287878125" lon="114.18666479638672" /><trkpt lat="22.36308678125" lon="114.18663779638672" /><trkpt lat="22.36333478125" lon="114.18668379638672" /><trkpt lat="22.36341878125" lon="114.18676679638672" /><trkpt lat="22.36353778125" lon="114.18676979638671" /><trkpt lat="22.36374878125" lon="114.18673479638672" /><trkpt lat="22.36389978125" lon="114.18667279638672" /><trkpt lat="22.36403878125" lon="114.18649079638672" /><trkpt lat="22.36427678125" lon="114.18640479638673" /><trkpt lat="22.36443578125" lon="114.18656579638672" /><trkpt lat="22.36445578125" lon="114.18694779638672" /><trkpt lat="22.36444078125" lon="114.18726879638672" /><trkpt lat="22.36438678125" lon="114.18739979638671" /><trkpt lat="22.36437378125" lon="114.18761679638672" /><trkpt lat="22.36445578125" lon="114.18769179638672" /><trkpt lat="22.36461478125" lon="114.18768779638671" /><trkpt lat="22.36476378125" lon="114.18765579638672" /><trkpt lat="22.36497178125" lon="114.18773079638672" /><trkpt lat="22.36505078125" lon="114.18781279638672" /><trkpt lat="22.36495978125" lon="114.18801979638671" /><trkpt lat="22.36497178125" lon="114.18822479638672" /><trkpt lat="22.36522778125" lon="114.18821379638672" /><trkpt lat="22.36547678125" lon="114.18832579638672" /><trkpt lat="22.36565278125" lon="114.18861579638671" /><trkpt lat="22.36606678125" lon="114.18868379638671" /><trkpt lat="22.36622278125" lon="114.18883379638672" /><trkpt lat="22.36652478125" lon="114.18905779638672" /><trkpt lat="22.36692878125" lon="114.18900079638672" /><trkpt lat="22.36723178125" lon="114.18915179638672" /><trkpt lat="22.36735878125" lon="114.18912179638671" /><trkpt lat="22.36755778125" lon="114.18905679638672" /><trkpt lat="22.36782278125" lon="114.18918979638671" /><trkpt lat="22.36804478125" lon="114.18935179638672" /><trkpt lat="22.36817678125" lon="114.18926679638672" /><trkpt lat="22.36839378125" lon="114.18948579638672" /><trkpt lat="22.36860178125" lon="114.18965779638671" /><trkpt lat="22.36878078125" lon="114.18966879638671" /><trkpt lat="22.36891578125" lon="114.18964179638672" /><trkpt lat="22.36913078125" lon="114.18959379638672" /><trkpt lat="22.36918678125" lon="114.18950679638672" /><trkpt lat="22.36923078125" lon="114.18948079638672" /><trkpt lat="22.36927878125" lon="114.18947579638672" /><trkpt lat="22.36938678125" lon="114.18950979638672" /><trkpt lat="22.36949678125" lon="114.18955179638672" /><trkpt lat="22.36971778125" lon="114.18957879638671" /><trkpt lat="22.36976078125" lon="114.18952879638672" /><trkpt lat="22.36980478125" lon="114.18952279638673" /><trkpt lat="22.36985578125" lon="114.18954979638671" /><trkpt lat="22.36993278125" lon="114.18961879638672" /><trkpt lat="22.37000478125" lon="114.18962879638671" /><trkpt lat="22.37007278125" lon="114.18962779638672" /><trkpt lat="22.37021278125" lon="114.18966379638672" /><trkpt lat="22.37025678125" lon="114.18966779638671" /><trkpt lat="22.37028978125" lon="114.18966079638672" /><trkpt lat="22.37039178125" lon="114.18961179638671" /><trkpt lat="22.37047778125" lon="114.18955179638672" /><trkpt lat="22.37053578125" lon="114.18949879638672" /><trkpt lat="22.37057878125" lon="114.18942579638671" /><trkpt lat="22.37060278125" lon="114.18936379638671" /><trkpt lat="22.37060478125" lon="114.18929779638673" /><trkpt lat="22.37057878125" lon="114.18920479638672" /><trkpt lat="22.37056778125" lon="114.18913579638672" /><trkpt lat="22.37060378125" lon="114.18905879638672" /><trkpt lat="22.37075878125" lon="114.18920579638672" /><trkpt lat="22.37086678125" lon="114.18928679638672" /><trkpt lat="22.37097678125" lon="114.18935879638671" /><trkpt lat="22.37105878125" lon="114.18940979638671" /><trkpt lat="22.37199178125" lon="114.18994879638672" /><trkpt lat="22.37214778125" lon="114.19002879638671" /><trkpt lat="22.372200302264268" lon="114.19004889710118" /><trkpt lat="22.37222871451911" lon="114.19007800832219" /><trkpt lat="22.372256282090532" lon="114.19012656778307" /><trkpt lat="22.37240778125" lon="114.19028179638671" /><trkpt lat="22.37283878125" lon="114.19036879638672" /><trkpt lat="22.37309078125" lon="114.19034179638672" /><trkpt lat="22.37337078125" lon="114.19021379638671" /><trkpt lat="22.373756781250002" lon="114.19001779638671" /><trkpt lat="22.37409378125" lon="114.18991579638671" /><trkpt lat="22.374168842005027" lon="114.18989302555944" /></trkseg></trk></gpx>