<?xml version='1.0' encoding='UTF-8' ?><gpx version="1.1" creator="HikingTrailHK" xsi:schemaLocation="http://www.topografix.com/GPX/1/1 http://www.topografix.com/GPX/1/1/gpx.xsd https://hikingtrailhk.appspot.com/xml/gpxextensions/v1 https://hikingtrailhk.appspot.com/xml/gpxextensions/v1/gpxextensions.xsd" xmlns="http://www.topografix.com/GPX/1/1" xmlns:h="https://hikingtrailhk.appspot.com/xml/gpxextensions/v1" xmlns:xsi="http://www.w3.org/2001/XMLSchema-instance"><metadata><name>紫羅蘭山 @ 2015-12-23</name><desc></desc><extensions><h:categoryid>scenery_route</h:categoryid></extensions></metadata><trk><trkseg><trkpt lat="22.25750972877056" lon="114.19266119974296" /><trkpt lat="22.25740278125" lon="114.19280379638671" /><trkpt lat="22.25720178125" lon="114.19304679638672" /><trkpt lat="22.25714478125" lon="114.19315679638672" /><trkpt lat="22.25712378125" lon="114.19337479638672" /><trkpt lat="22.25712178125" lon="114.19340679638672" /><trkpt lat="22.25714178125" lon="114.19368779638671" /><trkpt lat="22.25712878125" lon="114.19386679638671" /><trkpt lat="22.25708278125" lon="114.19421379638672" /><trkpt lat="22.25707178125" lon="114.19438779638672" /><trkpt lat="22.25707178125" lon="114.19446179638672" /><trkpt lat="22.25702078125" lon="114.19446979638671" /><trkpt lat="22.25694378125" lon="114.19447979638672" /><trkpt lat="22.25641578125" lon="114.19446779638672" /><trkpt lat="22.25637078125" lon="114.19444079638671" /><trkpt lat="22.25632778125" lon="114.19436679638672" /><trkpt lat="22.25620278125" lon="114.19425679638672" /><trkpt lat="22.25615778125" lon="114.19430979638672" /><trkpt lat="22.25627278125" lon="114.19441279638671" /><trkpt lat="22.25608278125" lon="114.19457279638672" /><trkpt lat="22.25595878125" lon="114.19447179638672" /><trkpt lat="22.25583678125" lon="114.19453079638672" /><trkpt lat="22.25548678125" lon="114.19467679638672" /><trkpt lat="22.25518978125" lon="114.19476579638672" /><trkpt lat="22.25504378125" lon="114.19489479638672" /><trkpt lat="22.25490378125" lon="114.19497079638671" /><trkpt lat="22.25453578125" lon="114.19504879638671" /><trkpt lat="22.25438478125" lon="114.19518479638671" /><trkpt lat="22.25424378125" lon="114.19524079638671" /><trkpt lat="22.25399078125" lon="114.19534579638672" /><trkpt lat="22.25396078125" lon="114.19547479638672" /><trkpt lat="22.25385578125" lon="114.19572179638672" /><trkpt lat="22.25368378125" lon="114.19582779638672" /><trkpt lat="22.25355078125" lon="114.19655779638671" /><trkpt lat="22.25339278125" lon="114.19694579638671" /><trkpt lat="22.25239678125" lon="114.19722379638672" /><trkpt lat="22.25229478125" lon="114.19716279638672" /><trkpt lat="22.25164878125" lon="114.19766179638673" /><trkpt lat="22.25136878125" lon="114.19798879638672" /><trkpt lat="22.25072378125" lon="114.19811979638672" /><trkpt lat="22.25041478125" lon="114.19843779638671" /><trkpt lat="22.25020178125" lon="114.19847979638672" /><trkpt lat="22.25011778125" lon="114.19855579638671" /><trkpt lat="22.25011778125" lon="114.19855379638672" /><trkpt lat="22.24987578125" lon="114.19855279638672" /><trkpt lat="22.24967178125" lon="114.19855179638672" /><trkpt lat="22.24974678125" lon="114.19883579638672" /><trkpt lat="22.24966678125" lon="114.19900279638672" /><trkpt lat="22.24951678125" lon="114.19915179638672" /><trkpt lat="22.24945578125" lon="114.19921279638672" /><trkpt lat="22.24946678125" lon="114.19926279638672" /><trkpt lat="22.24948078125" lon="114.19932179638671" /><trkpt lat="22.25019978125" lon="114.19971679638672" /><trkpt lat="22.24997578125" lon="114.19984979638672" /><trkpt lat="22.24967278125" lon="114.19992979638671" /><trkpt lat="22.24955978125" lon="114.20002279638672" /><trkpt lat="22.24932978125" lon="114.20008379638672" /><trkpt lat="22.24918678125" lon="114.20009479638672" /><trkpt lat="22.24897178125" lon="114.20006679638672" /><trkpt lat="22.24873978125" lon="114.20005279638671" /><trkpt lat="22.24862278125" lon="114.19999779638673" /><trkpt lat="22.24848278125" lon="114.19991779638671" /><trkpt lat="22.24814678125" lon="114.19982279638671" /><trkpt lat="22.24807478125" lon="114.19974879638671" /><trkpt lat="22.24794178125" lon="114.19932779638673" /><trkpt lat="22.24787678125" lon="114.19924179638672" /><trkpt lat="22.24778878125" lon="114.19920879638671" /><trkpt lat="22.24706678125" lon="114.19922779638672" /><trkpt lat="22.24679078125" lon="114.19916179638672" /><trkpt lat="22.24653278125" lon="114.19909679638671" /><trkpt lat="22.24626678125" lon="114.19908079638672" /><trkpt lat="22.24600078125" lon="114.19907479638672" /><trkpt lat="22.24573278125" lon="114.19898679638672" /><trkpt lat="22.24547678125" lon="114.19889979638671" /><trkpt lat="22.24523378125" lon="114.19879379638672" /><trkpt lat="22.24508778125" lon="114.19875379638673" /><trkpt lat="22.24483778125" lon="114.19875379638673" /><trkpt lat="22.24480478125" lon="114.19873779638672" /><trkpt lat="22.24461478125" lon="114.19868679638672" /><trkpt lat="22.24443578125" lon="114.19869379638672" /><trkpt lat="22.24414478125" lon="114.19879679638672" /><trkpt lat="22.24399878125" lon="114.19880479638672" /><trkpt lat="22.24376478125" lon="114.19877679638672" /><trkpt lat="22.24364178125" lon="114.19878779638672" /><trkpt lat="22.24331078125" lon="114.19899679638672" /><trkpt lat="22.24322878125" lon="114.19906379638672" /><trkpt lat="22.24316278125" lon="114.19926479638671" /><trkpt lat="22.24308678125" lon="114.19936279638672" /><trkpt lat="22.24298978125" lon="114.19940579638671" /><trkpt lat="22.24279978125" lon="114.19946579638672" /><trkpt lat="22.24269578125" lon="114.19959979638672" /><trkpt lat="22.24266478125" lon="114.19977079638672" /><trkpt lat="22.24270378125" lon="114.19988679638672" /><trkpt lat="22.24266978125" lon="114.20007279638672" /><trkpt lat="22.24257178125" lon="114.20030679638671" /><trkpt lat="22.24260078125" lon="114.20055579638672" /><trkpt lat="22.24263678125" lon="114.20071679638671" /><trkpt lat="22.24268178125" lon="114.20083779638672" /><trkpt lat="22.24275378125" lon="114.20095479638672" /><trkpt lat="22.24278978125" lon="114.20120579638672" /><trkpt lat="22.24274378125" lon="114.20131279638672" /><trkpt lat="22.24259378125" lon="114.20149279638672" /><trkpt lat="22.24252678125" lon="114.20163179638672" /><trkpt lat="22.24252878125" lon="114.20180079638672" /><trkpt lat="22.24251978125" lon="114.20192779638671" /><trkpt lat="22.24244778125" lon="114.20218279638672" /><trkpt lat="22.24237878125" lon="114.20227279638672" /><trkpt lat="22.24231678125" lon="114.20234079638672" /><trkpt lat="22.24220378125" lon="114.20243579638672" /><trkpt lat="22.24219078125" lon="114.20250879638672" /><trkpt lat="22.24219878125" lon="114.20258379638672" /><trkpt lat="22.24225678125" lon="114.20276279638672" /><trkpt lat="22.24224278125" lon="114.20287379638673" /><trkpt lat="22.24224178125" lon="114.20296779638672" /><trkpt lat="22.24220778125" lon="114.20304979638672" /><trkpt lat="22.24203878125" lon="114.20317779638673" /><trkpt lat="22.24189778125" lon="114.20322979638672" /><trkpt lat="22.24173978125" lon="114.20327279638671" /><trkpt lat="22.24112878125" lon="114.20374379638672" /><trkpt lat="22.24107278125" lon="114.20382579638672" /><trkpt lat="22.24106178125" lon="114.20401579638671" /><trkpt lat="22.24103878125" lon="114.20418079638672" /><trkpt lat="22.24096878125" lon="114.20429979638672" /><trkpt lat="22.24055778125" lon="114.20447679638671" /><trkpt lat="22.24017578125" lon="114.20467879638672" /><trkpt lat="22.24007178125" lon="114.20479379638672" /><trkpt lat="22.23992078125" lon="114.20492379638672" /><trkpt lat="22.23972278125" lon="114.20502579638672" /><trkpt lat="22.23925678125" lon="114.20518479638672" /><trkpt lat="22.23910578125" lon="114.20518379638672" /><trkpt lat="22.23891378125" lon="114.20526179638672" /><trkpt lat="22.23862478125" lon="114.20530679638672" /><trkpt lat="22.23848678125" lon="114.20538779638672" /><trkpt lat="22.23834178125" lon="114.20542179638672" /><trkpt lat="22.23824278125" lon="114.20548979638671" /><trkpt lat="22.23808278125" lon="114.20552479638671" /><trkpt lat="22.23794378125" lon="114.20558679638673" /><trkpt lat="22.23775378125" lon="114.20564979638672" /><trkpt lat="22.23684378125" lon="114.20600279638671" /><trkpt lat="22.23672478125" lon="114.20608879638672" /><trkpt lat="22.23621378125" lon="114.20636179638672" /><trkpt lat="22.23604778125" lon="114.20645479638672" /><trkpt lat="22.23590978125" lon="114.20653179638671" /><trkpt lat="22.23578878125" lon="114.20654379638673" /><trkpt lat="22.23574278125" lon="114.20652779638672" /><trkpt lat="22.23567078125" lon="114.20647179638672" /><trkpt lat="22.23557378125" lon="114.20640879638673" /><trkpt lat="22.23546178125" lon="114.20637579638672" /><trkpt lat="22.23536978125" lon="114.20638179638672" /><trkpt lat="22.23520578125" lon="114.20644179638671" /><trkpt lat="22.23477078125" lon="114.20648079638671" /><trkpt lat="22.23464178125" lon="114.20647479638671" /><trkpt lat="22.23453178125" lon="114.20641479638672" /><trkpt lat="22.23441478125" lon="114.20639779638672" /><trkpt lat="22.23427478125" lon="114.20640979638672" /><trkpt lat="22.23364578125" lon="114.20656679638672" /><trkpt lat="22.23357478125" lon="114.20658179638671" /><trkpt lat="22.23336878125" lon="114.20672679638672" /><trkpt lat="22.23328278125" lon="114.20675879638672" /><trkpt lat="22.23316178125" lon="114.20677179638672" /><trkpt lat="22.23300278125" lon="114.20676979638672" /><trkpt lat="22.23290478125" lon="114.20673479638671" /><trkpt lat="22.23257778125" lon="114.20648179638673" /><trkpt lat="22.23251278125" lon="114.20644379638672" /><trkpt lat="22.23240778125" lon="114.20641379638671" /><trkpt lat="22.23227478125" lon="114.20634479638672" /><trkpt lat="22.23219078125" lon="114.20627379638672" /><trkpt lat="22.23201678125" lon="114.20610179638672" /><trkpt lat="22.23184178125" lon="114.20597679638672" /><trkpt lat="22.23163078125" lon="114.20592179638672" /><trkpt lat="22.23152778125" lon="114.20586379638672" /><trkpt lat="22.23139078125" lon="114.20585579638671" /><trkpt lat="22.23121178125" lon="114.20584579638673" /><trkpt lat="22.23108878125" lon="114.20581179638671" /><trkpt lat="22.23087478125" lon="114.20582679638672" /><trkpt lat="22.23079378125" lon="114.20578979638672" /><trkpt lat="22.23073378125" lon="114.20577179638671" /><trkpt lat="22.23066978125" lon="114.20579679638672" /><trkpt lat="22.23059878125" lon="114.20586579638672" /><trkpt lat="22.23053378125" lon="114.20593179638672" /><trkpt lat="22.23025578125" lon="114.20604979638672" /><trkpt lat="22.23018378125" lon="114.20609479638672" /><trkpt lat="22.22994478125" lon="114.20629179638672" /><trkpt lat="22.22969378125" lon="114.20657179638673" /><trkpt lat="22.22935378125" lon="114.20676579638672" /><trkpt lat="22.22905678125" lon="114.20685679638672" /><trkpt lat="22.22871978125" lon="114.20692479638672" /><trkpt lat="22.22862578125" lon="114.20697979638672" /><trkpt lat="22.22835078125" lon="114.20715379638672" /><trkpt lat="22.22797978125" lon="114.20721479638672" /><trkpt lat="22.22665578125" lon="114.20719879638672" /><trkpt lat="22.22617778125" lon="114.20730779638671" /><trkpt lat="22.22593678125" lon="114.20747979638672" /><trkpt lat="22.22558378125" lon="114.20754679638672" /><trkpt lat="22.22531078125" lon="114.20754479638671" /><trkpt lat="22.22525578125" lon="114.20757379638673" /><trkpt lat="22.22524078125" lon="114.20762179638672" /><trkpt lat="22.22520778125" lon="114.20767479638671" /><trkpt lat="22.22512878125" lon="114.20766379638673" /><trkpt lat="22.22507678125" lon="114.20769779638673" /><trkpt lat="22.22502578125" lon="114.20783879638672" /><trkpt lat="22.22490978125" lon="114.20784879638671" /><trkpt lat="22.22484778125" lon="114.20793279638671" /><trkpt lat="22.22484278125" lon="114.20800379638672" /><trkpt lat="22.22474778125" lon="114.20806379638672" /><trkpt lat="22.22465578125" lon="114.20820379638671" /><trkpt lat="22.22458578125" lon="114.20824079638672" /><trkpt lat="22.22452078125" lon="114.20827579638672" /><trkpt lat="22.22448578125" lon="114.20828279638671" /><trkpt lat="22.22445178125" lon="114.20834579638672" /><trkpt lat="22.22435178125" lon="114.20836579638672" /><trkpt lat="22.22410178125" lon="114.20856479638672" /><trkpt lat="22.22404678125" lon="114.20862079638673" /><trkpt lat="22.22381078125" lon="114.20858779638672" /><trkpt lat="22.22368878125" lon="114.20852379638671" /><trkpt lat="22.22356778125" lon="114.20860079638672" /><trkpt lat="22.22360278125" lon="114.20873779638671" /><trkpt lat="22.22361578125" lon="114.20878879638671" /><trkpt lat="22.223637245627906" lon="114.20882962531405" /></trkseg></trk></gpx>