<?xml version='1.0' encoding='UTF-8' ?><gpx version="1.1" creator="HikingTrailHK" xsi:schemaLocation="http://www.topografix.com/GPX/1/1 http://www.topografix.com/GPX/1/1/gpx.xsd https://hikingtrailhk.appspot.com/xml/gpxextensions/v1 https://hikingtrailhk.appspot.com/xml/gpxextensions/v1/gpxextensions.xsd" xmlns="http://www.topografix.com/GPX/1/1" xmlns:h="https://hikingtrailhk.appspot.com/xml/gpxextensions/v1" xmlns:xsi="http://www.w3.org/2001/XMLSchema-instance"><metadata><name>羌山至大澳 @ 2016-7-17</name><desc></desc><extensions><h:categoryid>scenery_route</h:categoryid></extensions></metadata><trk><trkseg><trkpt lat="22.244520086130965" lon="113.89185596504501" /><trkpt lat="22.24449878125" lon="113.89186879638672" /><trkpt lat="22.24430578125" lon="113.89191279638672" /><trkpt lat="22.24421278125" lon="113.89193279638671" /><trkpt lat="22.24413078125" lon="113.89197379638672" /><trkpt lat="22.24408178125" lon="113.89191379638672" /><trkpt lat="22.24399278125" lon="113.89180679638672" /><trkpt lat="22.24402278125" lon="113.89165679638671" /><trkpt lat="22.24409678125" lon="113.89156579638671" /><trkpt lat="22.24414178125" lon="113.89131879638671" /><trkpt lat="22.24416678125" lon="113.89116679638671" /><trkpt lat="22.24393778125" lon="113.89114979638671" /><trkpt lat="22.24378878125" lon="113.89123079638672" /><trkpt lat="22.24364478125" lon="113.89122579638672" /><trkpt lat="22.24358078125" lon="113.89113379638673" /><trkpt lat="22.24350078125" lon="113.89116679638671" /><trkpt lat="22.24352578125" lon="113.89103179638671" /><trkpt lat="22.24351078125" lon="113.89087179638672" /><trkpt lat="22.24361578125" lon="113.89070679638672" /><trkpt lat="22.24357578125" lon="113.89047979638671" /><trkpt lat="22.24348678125" lon="113.89027579638672" /><trkpt lat="22.24337678125" lon="113.89004479638672" /><trkpt lat="22.24308378125" lon="113.89027779638671" /><trkpt lat="22.24298478125" lon="113.89034279638672" /><trkpt lat="22.24286578125" lon="113.89030479638672" /><trkpt lat="22.24281078125" lon="113.89008279638672" /><trkpt lat="22.24267178125" lon="113.88961579638672" /><trkpt lat="22.24257778125" lon="113.88952979638673" /><trkpt lat="22.24239878125" lon="113.88943079638672" /><trkpt lat="22.24224478125" lon="113.88937479638672" /><trkpt lat="22.24207078125" lon="113.88923479638672" /><trkpt lat="22.24193678125" lon="113.88906879638672" /><trkpt lat="22.24182778125" lon="113.88890279638672" /><trkpt lat="22.24162978125" lon="113.88878979638672" /><trkpt lat="22.24158978125" lon="113.88887079638671" /><trkpt lat="22.24145578125" lon="113.88878479638672" /><trkpt lat="22.24136578125" lon="113.88864479638671" /><trkpt lat="22.24132178125" lon="113.88853279638671" /><trkpt lat="22.24126678125" lon="113.88862379638672" /><trkpt lat="22.24120178125" lon="113.88851079638673" /><trkpt lat="22.24118278125" lon="113.88863979638671" /><trkpt lat="22.24101878125" lon="113.88872579638672" /><trkpt lat="22.24069878125" lon="113.88871979638672" /><trkpt lat="22.24063078125" lon="113.88868279638672" /><trkpt lat="22.24038778125" lon="113.88853779638671" /><trkpt lat="22.24025578125" lon="113.88835279638671" /><trkpt lat="22.24018978125" lon="113.88825879638672" /><trkpt lat="22.24009478125" lon="113.88805179638672" /><trkpt lat="22.23996078125" lon="113.88783679638672" /><trkpt lat="22.23978278125" lon="113.88771379638672" /><trkpt lat="22.23957378125" lon="113.88760079638672" /><trkpt lat="22.23923578125" lon="113.88755079638672" /><trkpt lat="22.23913678125" lon="113.88753179638672" /><trkpt lat="22.23894278125" lon="113.88738679638672" /><trkpt lat="22.23882378125" lon="113.88728979638672" /><trkpt lat="22.23863578125" lon="113.88722079638671" /><trkpt lat="22.23841678125" lon="113.88708579638671" /><trkpt lat="22.23827778125" lon="113.88691479638672" /><trkpt lat="22.23820378125" lon="113.88686679638671" /><trkpt lat="22.23810878125" lon="113.88677779638672" /><trkpt lat="22.23792978125" lon="113.88674079638672" /><trkpt lat="22.23777578125" lon="113.88661779638672" /><trkpt lat="22.23764678125" lon="113.88648279638672" /><trkpt lat="22.23749778125" lon="113.88640479638671" /><trkpt lat="22.23741378125" lon="113.88625979638672" /><trkpt lat="22.23728478125" lon="113.88615579638672" /><trkpt lat="22.23714078125" lon="113.88609179638672" /><trkpt lat="22.23704178125" lon="113.88610779638672" /><trkpt lat="22.23687778125" lon="113.88597879638672" /><trkpt lat="22.23671378125" lon="113.88579379638672" /><trkpt lat="22.23662478125" lon="113.88571279638671" /><trkpt lat="22.23647578125" lon="113.88557379638672" /><trkpt lat="22.23628678125" lon="113.88548779638671" /><trkpt lat="22.23612778125" lon="113.88541579638672" /><trkpt lat="22.23603778125" lon="113.88545879638671" /><trkpt lat="22.23580978125" lon="113.88544279638671" /><trkpt lat="22.23571078125" lon="113.88542079638673" /><trkpt lat="22.23557678125" lon="113.88529279638672" /><trkpt lat="22.23555678125" lon="113.88514779638672" /><trkpt lat="22.23547178125" lon="113.88513179638672" /><trkpt lat="22.23530878125" lon="113.88513179638672" /><trkpt lat="22.23541778125" lon="113.88491879638671" /><trkpt lat="22.23533778125" lon="113.88482279638671" /><trkpt lat="22.23521378125" lon="113.88472079638672" /><trkpt lat="22.23508478125" lon="113.88459179638672" /><trkpt lat="22.23490178125" lon="113.88446879638671" /><trkpt lat="22.23470278125" lon="113.88433979638671" /><trkpt lat="22.23451878125" lon="113.88426479638672" /><trkpt lat="22.23440978125" lon="113.88409779638671" /><trkpt lat="22.23430078125" lon="113.88395379638672" /><trkpt lat="22.23415178125" lon="113.88370679638672" /><trkpt lat="22.23403678125" lon="113.88346279638672" /><trkpt lat="22.23392778125" lon="113.88333079638672" /><trkpt lat="22.23384878125" lon="113.88320279638671" /><trkpt lat="22.23375878125" lon="113.88308479638673" /><trkpt lat="22.23364978125" lon="113.88299879638672" /><trkpt lat="22.23354578125" lon="113.88280579638672" /><trkpt lat="22.23345578125" lon="113.88266379638672" /><trkpt lat="22.23333178125" lon="113.88263679638672" /><trkpt lat="22.23322278125" lon="113.88255379638672" /><trkpt lat="22.23312878125" lon="113.88248879638672" /><trkpt lat="22.23294478125" lon="113.88236879638671" /><trkpt lat="22.23264178125" lon="113.88235279638671" /><trkpt lat="22.23229878125" lon="113.88230979638672" /><trkpt lat="22.23225978125" lon="113.88224579638671" /><trkpt lat="22.23207578125" lon="113.88213979638672" /><trkpt lat="22.23188178125" lon="113.88202179638672" /><trkpt lat="22.23182278125" lon="113.88190379638672" /><trkpt lat="22.23187678125" lon="113.88174879638672" /><trkpt lat="22.23192178125" lon="113.88147479638671" /><trkpt lat="22.23196678125" lon="113.88129579638672" /><trkpt lat="22.23197678125" lon="113.88119379638673" /><trkpt lat="22.23181778125" lon="113.88110779638671" /><trkpt lat="22.23177778125" lon="113.88097979638673" /><trkpt lat="22.23165378125" lon="113.88081879638672" /><trkpt lat="22.23158878125" lon="113.88063579638671" /><trkpt lat="22.23153978125" lon="113.88039479638672" /><trkpt lat="22.23155978125" lon="113.88020679638672" /><trkpt lat="22.23154978125" lon="113.88000279638672" /><trkpt lat="22.23155478125" lon="113.87975879638672" /><trkpt lat="22.23147978125" lon="113.87962479638672" /><trkpt lat="22.23150478125" lon="113.87940979638672" /><trkpt lat="22.23154478125" lon="113.87924879638672" /><trkpt lat="22.23158878125" lon="113.87907179638673" /><trkpt lat="22.23168878125" lon="113.87897479638671" /><trkpt lat="22.23173778125" lon="113.87888379638672" /><trkpt lat="22.23177778125" lon="113.87870179638672" /><trkpt lat="22.23169378125" lon="113.87866979638672" /><trkpt lat="22.23160378125" lon="113.87855179638672" /><trkpt lat="22.23152978125" lon="113.87846579638672" /><trkpt lat="22.23144078125" lon="113.87844379638672" /><trkpt lat="22.23140078125" lon="113.87839079638673" /><trkpt lat="22.23141578125" lon="113.87829379638671" /><trkpt lat="22.23141578125" lon="113.87814379638672" /><trkpt lat="22.23136578125" lon="113.87804679638671" /><trkpt lat="22.23127178125" lon="113.87802079638672" /><trkpt lat="22.23119678125" lon="113.87796679638672" /><trkpt lat="22.23110278125" lon="113.87792879638671" /><trkpt lat="22.23106278125" lon="113.87786979638672" /><trkpt lat="22.23105278125" lon="113.87773079638671" /><trkpt lat="22.23104778125" lon="113.87762379638671" /><trkpt lat="22.23109278125" lon="113.87749979638672" /><trkpt lat="22.23117678125" lon="113.87734979638672" /><trkpt lat="22.23126178125" lon="113.87723679638673" /><trkpt lat="22.23129178125" lon="113.87711879638672" /><trkpt lat="22.23127678125" lon="113.87699079638672" /><trkpt lat="22.23123678125" lon="113.87683479638672" /><trkpt lat="22.23113978125" lon="113.87669679638672" /><trkpt lat="22.23101078125" lon="113.87649279638671" /><trkpt lat="22.23089378125" lon="113.87640079638672" /><trkpt lat="22.23078978125" lon="113.87633079638672" /><trkpt lat="22.23073478125" lon="113.87628279638672" /><trkpt lat="22.23075478125" lon="113.87609979638673" /><trkpt lat="22.23079478125" lon="113.87593379638672" /><trkpt lat="22.23070578125" lon="113.87576179638671" /><trkpt lat="22.23062578125" lon="113.87554779638671" /><trkpt lat="22.23056678125" lon="113.87524179638672" /><trkpt lat="22.23055678125" lon="113.87506979638673" /><trkpt lat="22.23056178125" lon="113.87483379638672" /><trkpt lat="22.23061078125" lon="113.87468879638672" /><trkpt lat="22.2306402476276" lon="113.87451708409334" /><trkpt lat="22.23066878125" lon="113.87446879638672" /><trkpt lat="22.23071078125" lon="113.87427579638671" /><trkpt lat="22.23070578125" lon="113.87408979638671" /><trkpt lat="22.23065278125" lon="113.87401679638671" /><trkpt lat="22.23061478125" lon="113.87384079638672" /><trkpt lat="22.23053578125" lon="113.87366979638672" /><trkpt lat="22.23040778125" lon="113.87362179638671" /><trkpt lat="22.23037378125" lon="113.87350279638672" /><trkpt lat="22.23026578125" lon="113.87343279638672" /><trkpt lat="22.23012178125" lon="113.87339579638672" /><trkpt lat="22.22996378125" lon="113.87314779638672" /><trkpt lat="22.22998878125" lon="113.87304279638671" /><trkpt lat="22.22994678125" lon="113.87291079638672" /><trkpt lat="22.22989278125" lon="113.87279179638672" /><trkpt lat="22.22980678125" lon="113.87262379638672" /><trkpt lat="22.22980978125" lon="113.87252879638672" /><trkpt lat="22.22965478125" lon="113.87247779638672" /><trkpt lat="22.22957278125" lon="113.87248779638672" /><trkpt lat="22.22938378125" lon="113.87264779638672" /><trkpt lat="22.22928978125" lon="113.87275879638672" /><trkpt lat="22.22915178125" lon="113.87283579638672" /><trkpt lat="22.22895778125" lon="113.87284579638671" /><trkpt lat="22.22888878125" lon="113.87267279638672" /><trkpt lat="22.22882678125" lon="113.87255279638671" /><trkpt lat="22.22869478125" lon="113.87256979638671" /><trkpt lat="22.22863778125" lon="113.87256179638672" /><trkpt lat="22.22850678125" lon="113.87262879638672" /><trkpt lat="22.22835078125" lon="113.87271579638671" /><trkpt lat="22.22825578125" lon="113.87276179638671" /><trkpt lat="22.22813178125" lon="113.87273679638672" /><trkpt lat="22.22790478125" lon="113.87261879638672" /><trkpt lat="22.22773578125" lon="113.87251779638672" /><trkpt lat="22.22755078125" lon="113.87251979638671" /><trkpt lat="22.22743678125" lon="113.87259679638672" /><trkpt lat="22.22725178125" lon="113.87248779638672" /><trkpt lat="22.22695678125" lon="113.87238979638671" /><trkpt lat="22.22676778125" lon="113.87229779638672" /><trkpt lat="22.22670878125" lon="113.87222479638672" /><trkpt lat="22.22669878125" lon="113.87192379638672" /><trkpt lat="22.22661178125" lon="113.87176779638672" /><trkpt lat="22.22646478125" lon="113.87172579638671" /><trkpt lat="22.22628378125" lon="113.87161779638672" /><trkpt lat="22.22620778125" lon="113.87161979638672" /><trkpt lat="22.22615278125" lon="113.87155779638672" /><trkpt lat="22.22588678125" lon="113.87155779638672" /><trkpt lat="22.22564278125" lon="113.87152279638671" /><trkpt lat="22.22535678125" lon="113.87155579638672" /><trkpt lat="22.22523078125" lon="113.87164079638671" /><trkpt lat="22.22507278125" lon="113.87175179638672" /><trkpt lat="22.22498978125" lon="113.87160479638672" /><trkpt lat="22.22494478125" lon="113.87157979638671" /><trkpt lat="22.22496378125" lon="113.87126479638673" /><trkpt lat="22.22496078125" lon="113.87104879638672" /><trkpt lat="22.22481478125" lon="113.87085279638671" /><trkpt lat="22.22473178125" lon="113.87071379638672" /><trkpt lat="22.22458778125" lon="113.87054279638672" /><trkpt lat="22.22451878125" lon="113.87039779638671" /><trkpt lat="22.22445578125" lon="113.87017079638672" /><trkpt lat="22.22429478125" lon="113.86994179638671" /><trkpt lat="22.22420278125" lon="113.86986479638672" /><trkpt lat="22.22407778125" lon="113.86980879638672" /><trkpt lat="22.22397278125" lon="113.86974079638672" /><trkpt lat="22.22381378125" lon="113.86978779638672" /><trkpt lat="22.22368378125" lon="113.86983079638672" /><trkpt lat="22.22358378125" lon="113.86985779638673" /><trkpt lat="22.22346678125" lon="113.86982879638671" /><trkpt lat="22.22322578125" lon="113.86987079638672" /><trkpt lat="22.22302978125" lon="113.86983679638672" /><trkpt lat="22.22287978125" lon="113.86967179638673" /><trkpt lat="22.22273078125" lon="113.86945879638672" /><trkpt lat="22.22255178125" lon="113.86932779638671" /><trkpt lat="22.22240378125" lon="113.86924379638671" /><trkpt lat="22.22229278125" lon="113.86911879638672" /><trkpt lat="22.22222978125" lon="113.86904579638671" /><trkpt lat="22.22219378125" lon="113.86890579638671" /><trkpt lat="22.22222278125" lon="113.86874579638672" /><trkpt lat="22.22221578125" lon="113.86862579638672" /><trkpt lat="22.22220778125" lon="113.86843779638671" /><trkpt lat="22.22210278125" lon="113.86836679638672" /><trkpt lat="22.22199678125" lon="113.86826779638672" /><trkpt lat="22.22189778125" lon="113.86817979638671" /><trkpt lat="22.22172178125" lon="113.86807179638672" /><trkpt lat="22.22153178125" lon="113.86794279638671" /><trkpt lat="22.22148578125" lon="113.86777279638672" /><trkpt lat="22.22141878125" lon="113.86762379638672" /><trkpt lat="22.22154078125" lon="113.86748579638672" /><trkpt lat="22.22144078125" lon="113.86740779638671" /><trkpt lat="22.22150178125" lon="113.86732479638673" /><trkpt lat="22.22136978125" lon="113.86727579638672" /><trkpt lat="22.22131478125" lon="113.86727579638672" /><trkpt lat="22.22135078125" lon="113.86718679638672" /><trkpt lat="22.22128978125" lon="113.86710879638672" /><trkpt lat="22.22123078125" lon="113.86702379638672" /><trkpt lat="22.22123978125" lon="113.86695279638671" /><trkpt lat="22.22110078125" lon="113.86668979638672" /><trkpt lat="22.22093178125" lon="113.86656679638672" /><trkpt lat="22.22081878125" lon="113.86644379638672" /><trkpt lat="22.22071878125" lon="113.86635279638672" /><trkpt lat="22.22060978125" lon="113.86609279638672" /><trkpt lat="22.22049778125" lon="113.86599179638672" /><trkpt lat="22.22035478125" lon="113.86585479638671" /><trkpt lat="22.22025378125" lon="113.86571679638672" /><trkpt lat="22.22025578125" lon="113.86562379638671" /><trkpt lat="22.22025178125" lon="113.86544179638672" /><trkpt lat="22.22017278125" lon="113.86530079638672" /><trkpt lat="22.22013278125" lon="113.86515279638672" /><trkpt lat="22.22007778125" lon="113.86489979638672" /><trkpt lat="22.21999178125" lon="113.86484279638672" /><trkpt lat="22.21987178125" lon="113.86475679638671" /><trkpt lat="22.21980878125" lon="113.86464279638672" /><trkpt lat="22.21976778125" lon="113.86449779638671" /><trkpt lat="22.21989378125" lon="113.86453079638672" /><trkpt lat="22.21998578125" lon="113.86437179638672" /><trkpt lat="22.22004078125" lon="113.86414379638671" /><trkpt lat="22.22013878125" lon="113.86406079638672" /><trkpt lat="22.22035878125" lon="113.86410179638672" /><trkpt lat="22.22049678125" lon="113.86410279638672" /><trkpt lat="22.22059378125" lon="113.86408979638672" /><trkpt lat="22.22071678125" lon="113.86410679638672" /><trkpt lat="22.22079378125" lon="113.86416279638672" /><trkpt lat="22.22090878125" lon="113.86416079638671" /><trkpt lat="22.22111078125" lon="113.86407879638672" /><trkpt lat="22.22122678125" lon="113.86405979638671" /><trkpt lat="22.22132078125" lon="113.86407579638671" /><trkpt lat="22.22139478125" lon="113.86412779638673" /><trkpt lat="22.22150578125" lon="113.86428979638671" /><trkpt lat="22.22159278125" lon="113.86438379638672" /><trkpt lat="22.22193978125" lon="113.86462879638673" /><trkpt lat="22.22207078125" lon="113.86475379638672" /><trkpt lat="22.22216878125" lon="113.86501179638672" /><trkpt lat="22.22228178125" lon="113.86510879638672" /><trkpt lat="22.22249578125" lon="113.86514179638672" /><trkpt lat="22.22266478125" lon="113.86529979638672" /><trkpt lat="22.22294178125" lon="113.86526779638672" /><trkpt lat="22.22329678125" lon="113.86529979638672" /><trkpt lat="22.22365578125" lon="113.86523579638671" /><trkpt lat="22.22383778125" lon="113.86525179638672" /><trkpt lat="22.22397078125" lon="113.86522579638672" /><trkpt lat="22.22409478125" lon="113.86522379638672" /><trkpt lat="22.22421778125" lon="113.86519579638671" /><trkpt lat="22.22436978125" lon="113.86525079638672" /><trkpt lat="22.22438778125" lon="113.86528279638672" /><trkpt lat="22.22435778125" lon="113.86539979638673" /><trkpt lat="22.22444478125" lon="113.86560079638672" /><trkpt lat="22.22457078125" lon="113.86573179638673" /><trkpt lat="22.22459278125" lon="113.86579779638672" /><trkpt lat="22.22462478125" lon="113.86594879638672" /><trkpt lat="22.22483578125" lon="113.86622979638672" /><trkpt lat="22.22479178125" lon="113.86638279638672" /><trkpt lat="22.22466578125" lon="113.86648679638672" /><trkpt lat="22.22455178125" lon="113.86661879638672" /><trkpt lat="22.22464778125" lon="113.86676979638672" /><trkpt lat="22.22486178125" lon="113.86676479638672" /><trkpt lat="22.22506178125" lon="113.86707879638672" /><trkpt lat="22.22504578125" lon="113.86720979638672" /><trkpt lat="22.22509278125" lon="113.86732379638671" /><trkpt lat="22.22520178125" lon="113.86736679638672" /><trkpt lat="22.22529878125" lon="113.86730479638672" /><trkpt lat="22.22535778125" lon="113.86736079638672" /><trkpt lat="22.22564878125" lon="113.86714279638672" /><trkpt lat="22.22584778125" lon="113.86710879638672" /><trkpt lat="22.22601678125" lon="113.86701279638672" /><trkpt lat="22.22614578125" lon="113.86698679638671" /><trkpt lat="22.22636578125" lon="113.86689979638672" /><trkpt lat="22.22634978125" lon="113.86700479638672" /><trkpt lat="22.22631278125" lon="113.86723779638672" /><trkpt lat="22.22647178125" lon="113.86758079638672" /><trkpt lat="22.22651378125" lon="113.86777479638671" /><trkpt lat="22.22719178125" lon="113.86744379638672" /><trkpt lat="22.22733578125" lon="113.86756279638672" /><trkpt lat="22.22752078125" lon="113.86753279638671" /><trkpt lat="22.22767378125" lon="113.86741179638672" /><trkpt lat="22.22785378125" lon="113.86743979638672" /><trkpt lat="22.22792978125" lon="113.86725279638672" /><trkpt lat="22.22810378125" lon="113.86717679638672" /><trkpt lat="22.22884278125" lon="113.86712179638671" /><trkpt lat="22.22869178125" lon="113.86768079638672" /><trkpt lat="22.22889378125" lon="113.86783479638672" /><trkpt lat="22.22906578125" lon="113.86783879638672" /><trkpt lat="22.22929378125" lon="113.86806279638672" /><trkpt lat="22.22938978125" lon="113.86838179638671" /><trkpt lat="22.22956078125" lon="113.86840179638672" /><trkpt lat="22.22980378125" lon="113.86829779638671" /><trkpt lat="22.22986978125" lon="113.86777379638671" /><trkpt lat="22.23016778125" lon="113.86774179638672" /><trkpt lat="22.23044578125" lon="113.86776379638673" /><trkpt lat="22.23075378125" lon="113.86761279638672" /><trkpt lat="22.23079978125" lon="113.86760479638671" /><trkpt lat="22.23083178125" lon="113.86759879638672" /><trkpt lat="22.23094578125" lon="113.86757879638672" /><trkpt lat="22.23105178125" lon="113.86755979638671" /><trkpt lat="22.23141878125" lon="113.86754879638671" /><trkpt lat="22.23174678125" lon="113.86755979638671" /><trkpt lat="22.23217378125" lon="113.86743079638671" /><trkpt lat="22.23249978125" lon="113.86730279638672" /><trkpt lat="22.23296478125" lon="113.86718779638672" /><trkpt lat="22.23309978125" lon="113.86711279638672" /><trkpt lat="22.23327378125" lon="113.86702779638672" /><trkpt lat="22.23348678125" lon="113.86702279638672" /><trkpt lat="22.23371578125" lon="113.86698979638672" /><trkpt lat="22.23391378125" lon="113.86692579638672" /><trkpt lat="22.23399878125" lon="113.86692579638672" /><trkpt lat="22.23420178125" lon="113.86687179638672" /><trkpt lat="22.23436578125" lon="113.86687779638672" /><trkpt lat="22.23442078125" lon="113.86689379638672" /><trkpt lat="22.23447078125" lon="113.86680779638672" /><trkpt lat="22.23472878125" lon="113.86672179638671" /><trkpt lat="22.23494678125" lon="113.86672179638671" /><trkpt lat="22.23508078125" lon="113.86678679638672" /><trkpt lat="22.23521478125" lon="113.86671679638673" /><trkpt lat="22.23526478125" lon="113.86658279638672" /><trkpt lat="22.23536378125" lon="113.86637879638671" /><trkpt lat="22.23559278125" lon="113.86615879638671" /><trkpt lat="22.23583578125" lon="113.86601379638672" /><trkpt lat="22.23601978125" lon="113.86587979638672" /><trkpt lat="22.23626778125" lon="113.86577279638672" /><trkpt lat="22.23649578125" lon="113.86577279638672" /><trkpt lat="22.23673478125" lon="113.86587979638672" /><trkpt lat="22.23684378125" lon="113.86603579638673" /><trkpt lat="22.23685378125" lon="113.86628779638671" /><trkpt lat="22.23686378125" lon="113.86643279638672" /><trkpt lat="22.23752978125" lon="113.86645379638672" /><trkpt lat="22.23801678125" lon="113.86682979638672" /><trkpt lat="22.23838378125" lon="113.86681879638672" /><trkpt lat="22.23872178125" lon="113.86699079638672" /><trkpt lat="22.23888078125" lon="113.86700179638672" /><trkpt lat="22.23924778125" lon="113.86751679638672" /><trkpt lat="22.23990378125" lon="113.86799879638671" /><trkpt lat="22.24004278125" lon="113.86841779638672" /><trkpt lat="22.24051878125" lon="113.86856779638671" /><trkpt lat="22.24075778125" lon="113.86878279638672" /><trkpt lat="22.24127378125" lon="113.86894279638672" /><trkpt lat="22.24142278125" lon="113.86921179638672" /><trkpt lat="22.24175078125" lon="113.86926479638672" /><trkpt lat="22.24241578125" lon="113.86958679638671" /><trkpt lat="22.24263478125" lon="113.86969479638672" /><trkpt lat="22.24265578125" lon="113.86982979638672" /><trkpt lat="22.24277778125" lon="113.86980479638672" /><trkpt lat="22.24304178125" lon="113.86967279638672" /><trkpt lat="22.24323578125" lon="113.86964579638672" /><trkpt lat="22.24363178125" lon="113.86928779638671" /><trkpt lat="22.24408178125" lon="113.86927479638672" /><trkpt lat="22.24469478125" lon="113.86956379638671" /><trkpt lat="22.24509778125" lon="113.86927379638672" /><trkpt lat="22.24545678125" lon="113.86894679638672" /><trkpt lat="22.24546978125" lon="113.86864579638672" /><trkpt lat="22.24557078125" lon="113.86848579638672" /><trkpt lat="22.24557178125" lon="113.86836579638671" /><trkpt lat="22.24574478125" lon="113.86806679638671" /><trkpt lat="22.24587878125" lon="113.86781479638672" /><trkpt lat="22.24593378125" lon="113.86760579638671" /><trkpt lat="22.24609278125" lon="113.86729479638672" /><trkpt lat="22.24611178125" lon="113.86718179638672" /><trkpt lat="22.24628078125" lon="113.86704779638671" /><trkpt lat="22.24642478125" lon="113.86679579638673" /><trkpt lat="22.24658878125" lon="113.86658079638671" /><trkpt lat="22.24668778125" lon="113.86669879638671" /><trkpt lat="22.24670778125" lon="113.86651179638672" /><trkpt lat="22.24675778125" lon="113.86638279638672" /><trkpt lat="22.24687178125" lon="113.86609879638672" /><trkpt lat="22.24685678125" lon="113.86606079638672" /><trkpt lat="22.24678178125" lon="113.86587079638672" /><trkpt lat="22.24689978125" lon="113.86570079638672" /><trkpt lat="22.24706078125" lon="113.86556179638671" /><trkpt lat="22.24724878125" lon="113.86540079638672" /><trkpt lat="22.24744778125" lon="113.86501479638672" /><trkpt lat="22.24757678125" lon="113.86485879638671" /><trkpt lat="22.24785478125" lon="113.86463979638673" /><trkpt lat="22.24792978125" lon="113.86448879638672" /><trkpt lat="22.24811078125" lon="113.86426779638671" /><trkpt lat="22.24811278125" lon="113.86409179638672" /><trkpt lat="22.24795978125" lon="113.86360379638671" /><trkpt lat="22.24829178125" lon="113.86356679638672" /><trkpt lat="22.24837078125" lon="113.86360479638672" /><trkpt lat="22.24860378125" lon="113.86344679638673" /><trkpt lat="22.24880778125" lon="113.86337979638672" /><trkpt lat="22.24896778125" lon="113.86335579638671" /><trkpt lat="22.24939378125" lon="113.86329379638671" /><trkpt lat="22.25007878125" lon="113.86320779638672" /><trkpt lat="22.25094278125" lon="113.86305779638671" /><trkpt lat="22.25202478125" lon="113.86291779638672" /><trkpt lat="22.25225578125" lon="113.86295879638672" /><trkpt lat="22.25250778125" lon="113.86303479638671" /><trkpt lat="22.25266258472376" lon="113.8630596893997" /></trkseg></trk></gpx>