<?xml version='1.0' encoding='UTF-8' ?><gpx version="1.1" creator="HikingTrailHK" xsi:schemaLocation="http://www.topografix.com/GPX/1/1 http://www.topografix.com/GPX/1/1/gpx.xsd" xmlns="http://www.topografix.com/GPX/1/1" xmlns:xsi="http://www.w3.org/2001/XMLSchema-instance"><metadata><name>我的路徑 @ 2021-08-20 19:11:35</name><desc></desc></metadata><trk><trkseg><trkpt lat="22.23007078125" lon="114.21805579638672" /><trkpt lat="22.23018978125" lon="114.21795779638671" /><trkpt lat="22.23062878125" lon="114.21787579638672" /><trkpt lat="22.23088578125" lon="114.21777579638672" /><trkpt lat="22.23120278125" lon="114.21743379638671" /><trkpt lat="22.23174578125" lon="114.21724279638671" /><trkpt lat="22.23188278125" lon="114.21694179638672" /><trkpt lat="22.23196978125" lon="114.21668279638672" /><trkpt lat="22.23220078125" lon="114.21620979638672" /><trkpt lat="22.232201464918433" lon="114.21617863280994" /><trkpt lat="22.23223278125" lon="114.21613479638673" /><trkpt lat="22.23231478125" lon="114.21597579638672" /><trkpt lat="22.23232578125" lon="114.21589679638672" /><trkpt lat="22.23233478125" lon="114.21583479638672" /><trkpt lat="22.23230278125" lon="114.21564779638672" /><trkpt lat="22.23217578125" lon="114.21546979638671" /><trkpt lat="22.23181378125" lon="114.21519679638672" /><trkpt lat="22.23148678125" lon="114.21476079638671" /><trkpt lat="22.23087178125" lon="114.21436579638672" /><trkpt lat="22.23042878125" lon="114.21422679638673" /><trkpt lat="22.23029178125" lon="114.21383879638672" /><trkpt lat="22.23020478125" lon="114.21331879638672" /><trkpt lat="22.23013478125" lon="114.21303779638671" /><trkpt lat="22.23028578125" lon="114.21268079638672" /><trkpt lat="22.23061378125" lon="114.21230279638672" /><trkpt lat="22.23080878125" lon="114.21192679638672" /><trkpt lat="22.23075578125" lon="114.21194079638671" /><trkpt lat="22.23071778125" lon="114.21185579638671" /><trkpt lat="22.23085578125" lon="114.21165079638672" /><trkpt lat="22.23100678125" lon="114.21155579638672" /><trkpt lat="22.23107578125" lon="114.21153779638672" /><trkpt lat="22.23151378125" lon="114.21132379638672" /><trkpt lat="22.23157878125" lon="114.21116379638671" /><trkpt lat="22.23171578125" lon="114.21097279638671" /><trkpt lat="22.23267878125" lon="114.20994379638672" /><trkpt lat="22.23278978125" lon="114.20969479638671" /><trkpt lat="22.23276278125" lon="114.20957379638672" /><trkpt lat="22.23266878125" lon="114.20955079638672" /><trkpt lat="22.23247578125" lon="114.20935679638671" /><trkpt lat="22.23238378125" lon="114.20932779638672" /><trkpt lat="22.23231878125" lon="114.20923279638671" /><trkpt lat="22.23209578125" lon="114.20913679638672" /><trkpt lat="22.23195478125" lon="114.20911179638672" /><trkpt lat="22.23180078125" lon="114.20904479638672" /><trkpt lat="22.23173278125" lon="114.20895279638673" /><trkpt lat="22.23160478125" lon="114.20882579638672" /><trkpt lat="22.23148678125" lon="114.20880479638672" /><trkpt lat="22.23141778125" lon="114.20874079638672" /><trkpt lat="22.23136578125" lon="114.20864879638673" /><trkpt lat="22.23136578125" lon="114.20844679638672" /><trkpt lat="22.23141478125" lon="114.20831979638672" /><trkpt lat="22.23150578125" lon="114.20821379638672" /><trkpt lat="22.23196278125" lon="114.20770979638672" /><trkpt lat="22.23218478125" lon="114.20730979638672" /><trkpt lat="22.23242578125" lon="114.20716579638672" /><trkpt lat="22.23252578125" lon="114.20699879638671" /><trkpt lat="22.23272478125" lon="114.20659679638672" /><trkpt lat="22.23257778125" lon="114.20648179638673" /><trkpt lat="22.23251278125" lon="114.20644379638672" /><trkpt lat="22.23240778125" lon="114.20641379638671" /><trkpt lat="22.23227478125" lon="114.20634479638672" /><trkpt lat="22.23219078125" lon="114.20627379638672" /><trkpt lat="22.23201678125" lon="114.20610179638672" /><trkpt lat="22.23184178125" lon="114.20597679638672" /><trkpt lat="22.23163078125" lon="114.20592179638672" /><trkpt lat="22.23152778125" lon="114.20586379638672" /><trkpt lat="22.23139078125" lon="114.20585579638671" /><trkpt lat="22.23121178125" lon="114.20584579638673" /><trkpt lat="22.23108878125" lon="114.20581179638671" /><trkpt lat="22.23087478125" lon="114.20582679638672" /><trkpt lat="22.23079378125" lon="114.20578979638672" /><trkpt lat="22.23073378125" lon="114.20577179638671" /><trkpt lat="22.23066978125" lon="114.20579679638672" /><trkpt lat="22.23059878125" lon="114.20586579638672" /><trkpt lat="22.23053378125" lon="114.20593179638672" /><trkpt lat="22.23025578125" lon="114.20604979638672" /><trkpt lat="22.23018378125" lon="114.20609479638672" /><trkpt lat="22.22994478125" lon="114.20629179638672" /><trkpt lat="22.22969378125" lon="114.20657179638673" /><trkpt lat="22.22935378125" lon="114.20676579638672" /><trkpt lat="22.22905678125" lon="114.20685679638672" /><trkpt lat="22.22871978125" lon="114.20692479638672" /><trkpt lat="22.22862578125" lon="114.20697979638672" /><trkpt lat="22.22835078125" lon="114.20715379638672" /><trkpt lat="22.22797978125" lon="114.20721479638672" /><trkpt lat="22.22665578125" lon="114.20719879638672" /><trkpt lat="22.22617778125" lon="114.20730779638671" /><trkpt lat="22.22593678125" lon="114.20747979638672" /><trkpt lat="22.22558378125" lon="114.20754679638672" /><trkpt lat="22.22531078125" lon="114.20754479638671" /><trkpt lat="22.22525578125" lon="114.20757379638673" /><trkpt lat="22.22524078125" lon="114.20762179638672" /><trkpt lat="22.22520778125" lon="114.20767479638671" /><trkpt lat="22.22512878125" lon="114.20766379638673" /><trkpt lat="22.22507678125" lon="114.20769779638673" /><trkpt lat="22.22502578125" lon="114.20783879638672" /><trkpt lat="22.22490978125" lon="114.20784879638671" /><trkpt lat="22.22484778125" lon="114.20793279638671" /><trkpt lat="22.22484278125" lon="114.20800379638672" /><trkpt lat="22.22474778125" lon="114.20806379638672" /><trkpt lat="22.22465578125" lon="114.20820379638671" /><trkpt lat="22.22458578125" lon="114.20824079638672" /><trkpt lat="22.22452078125" lon="114.20827579638672" /><trkpt lat="22.22448578125" lon="114.20828279638671" /><trkpt lat="22.22445178125" lon="114.20834579638672" /><trkpt lat="22.22435178125" lon="114.20836579638672" /><trkpt lat="22.22410178125" lon="114.20856479638672" /><trkpt lat="22.22404678125" lon="114.20862079638673" /><trkpt lat="22.22381078125" lon="114.20858779638672" /><trkpt lat="22.22368878125" lon="114.20852379638671" /><trkpt lat="22.22356778125" lon="114.20860079638672" /><trkpt lat="22.22360278125" lon="114.20873779638671" /><trkpt lat="22.22361578125" lon="114.20878879638671" /><trkpt lat="22.2236590503465" lon="114.20887110107405" /></trkseg></trk></gpx>