<?xml version='1.0' encoding='UTF-8' ?><gpx version="1.1" creator="HikingTrailHK" xsi:schemaLocation="http://www.topografix.com/GPX/1/1 http://www.topografix.com/GPX/1/1/gpx.xsd" xmlns="http://www.topografix.com/GPX/1/1" xmlns:xsi="http://www.w3.org/2001/XMLSchema-instance"><metadata><name>自殺崖 @ 2016-10-27</name><desc></desc></metadata><trk><trkseg><trkpt lat="22.33390036442798" lon="114.22150699399918" /><trkpt lat="22.33390378125" lon="114.22154079638672" /><trkpt lat="22.33394478125" lon="114.22182879638672" /><trkpt lat="22.33412978125" lon="114.22254079638672" /><trkpt lat="22.33446578125" lon="114.22377179638671" /><trkpt lat="22.33449678125" lon="114.22393479638671" /><trkpt lat="22.33449478125" lon="114.22408079638672" /><trkpt lat="22.33446278125" lon="114.22419879638672" /><trkpt lat="22.33438778125" lon="114.22439479638672" /><trkpt lat="22.33430578125" lon="114.22455379638672" /><trkpt lat="22.33424178125" lon="114.22467779638671" /><trkpt lat="22.33418978125" lon="114.22482979638671" /><trkpt lat="22.33417778125" lon="114.22492779638672" /><trkpt lat="22.33417978125" lon="114.22501679638673" /><trkpt lat="22.33427178125" lon="114.22519179638672" /><trkpt lat="22.33428478125" lon="114.22521879638671" /><trkpt lat="22.33433578125" lon="114.22550879638672" /><trkpt lat="22.33434578125" lon="114.22553179638672" /><trkpt lat="22.33443678125" lon="114.22571779638672" /><trkpt lat="22.33469378125" lon="114.22612679638672" /><trkpt lat="22.33471378125" lon="114.22615179638672" /><trkpt lat="22.33477378125" lon="114.22608479638671" /><trkpt lat="22.33478378125" lon="114.22605279638672" /><trkpt lat="22.33477678125" lon="114.22601679638672" /><trkpt lat="22.33472078125" lon="114.22589179638672" /><trkpt lat="22.33470778125" lon="114.22580979638671" /><trkpt lat="22.33487178125" lon="114.22566879638671" /><trkpt lat="22.33500078125" lon="114.22549679638672" /><trkpt lat="22.33507978125" lon="114.22535779638672" /><trkpt lat="22.33528078125" lon="114.22538879638672" /><trkpt lat="22.33535778125" lon="114.22540079638672" /><trkpt lat="22.33571578125" lon="114.22541179638672" /><trkpt lat="22.33596678125" lon="114.22543879638671" /><trkpt lat="22.33614178125" lon="114.22545479638671" /><trkpt lat="22.33635078125" lon="114.22532579638671" /><trkpt lat="22.33647978125" lon="114.22532579638671" /><trkpt lat="22.33653478125" lon="114.22528779638672" /><trkpt lat="22.33669778125" lon="114.22517579638672" /><trkpt lat="22.33688878125" lon="114.22507679638672" /><trkpt lat="22.33698878125" lon="114.22498379638672" /><trkpt lat="22.33703778125" lon="114.22495579638672" /><trkpt lat="22.33711378125" lon="114.22494379638673" /><trkpt lat="22.33720078125" lon="114.22488679638671" /><trkpt lat="22.33727878125" lon="114.22487579638671" /><trkpt lat="22.33733778125" lon="114.22483179638672" /><trkpt lat="22.33737478125" lon="114.22473879638672" /><trkpt lat="22.33749478125" lon="114.22462979638672" /><trkpt lat="22.33751678125" lon="114.22471179638671" /><trkpt lat="22.33754878125" lon="114.22462779638671" /><trkpt lat="22.33767578125" lon="114.22456579638671" /><trkpt lat="22.33773378125" lon="114.22441079638672" /><trkpt lat="22.33765178125" lon="114.22423279638672" /><trkpt lat="22.33768878125" lon="114.22417979638672" /><trkpt lat="22.33765978125" lon="114.22411379638672" /><trkpt lat="22.33773678125" lon="114.22388979638671" /><trkpt lat="22.33774578125" lon="114.22386579638672" /><trkpt lat="22.33784210580999" lon="114.22373226658604" /><trkpt lat="22.33788078125" lon="114.22373279638671" /><trkpt lat="22.33792378125" lon="114.22369979638673" /><trkpt lat="22.33798578125" lon="114.22361679638672" /><trkpt lat="22.33803278125" lon="114.22357679638672" /><trkpt lat="22.33801278125" lon="114.22351479638672" /><trkpt lat="22.33802278125" lon="114.22343479638671" /><trkpt lat="22.33809478125" lon="114.22334379638671" /><trkpt lat="22.33816678125" lon="114.22331379638672" /><trkpt lat="22.33820878125" lon="114.22331679638671" /><trkpt lat="22.33823178125" lon="114.22324679638672" /><trkpt lat="22.338297021512417" lon="114.22313132973937" /><trkpt lat="22.338344159079426" lon="114.22326649725943" /><trkpt lat="22.338329180413485" lon="114.22334697061807" /><trkpt lat="22.33835278125" lon="114.22332179638671" /><trkpt lat="22.33839978125" lon="114.22337579638672" /><trkpt lat="22.33845478125" lon="114.22327879638672" /><trkpt lat="22.33847678125" lon="114.22319279638671" /><trkpt lat="22.33849178125" lon="114.22314279638672" /><trkpt lat="22.33852578125" lon="114.22313979638672" /><trkpt lat="22.33856578125" lon="114.22316379638671" /><trkpt lat="22.33860578125" lon="114.22317479638672" /><trkpt lat="22.33867778125" lon="114.22319279638671" /><trkpt lat="22.33871778125" lon="114.22323879638672" /><trkpt lat="22.33879878125" lon="114.22323379638672" /><trkpt lat="22.33888378125" lon="114.22320179638672" /><trkpt lat="22.33895278125" lon="114.22315279638671" /><trkpt lat="22.33897278125" lon="114.22319579638672" /><trkpt lat="22.33903778125" lon="114.22320179638672" /><trkpt lat="22.33907978125" lon="114.22318279638672" /><trkpt lat="22.33917578125" lon="114.22319079638672" /><trkpt lat="22.33923078125" lon="114.22317979638672" /><trkpt lat="22.33934778125" lon="114.22309179638673" /><trkpt lat="22.33937978125" lon="114.22309679638671" /><trkpt lat="22.33945878125" lon="114.22307479638671" /><trkpt lat="22.33965278125" lon="114.22304879638672" /><trkpt lat="22.33969678125" lon="114.22309979638672" /><trkpt lat="22.33974478125" lon="114.22310979638672" /><trkpt lat="22.33979178125" lon="114.22307479638671" /><trkpt lat="22.33983878125" lon="114.22305879638672" /><trkpt lat="22.33991078125" lon="114.22309679638671" /><trkpt lat="22.33994078125" lon="114.22314279638672" /><trkpt lat="22.33998978125" lon="114.22319079638672" /><trkpt lat="22.34009378125" lon="114.22323879638672" /><trkpt lat="22.34023278125" lon="114.22330879638672" /><trkpt lat="22.34040878125" lon="114.22333779638672" /><trkpt lat="22.34052078125" lon="114.22334579638672" /><trkpt lat="22.34059578125" lon="114.22334579638672" /><trkpt lat="22.34064778125" lon="114.22334779638672" /><trkpt lat="22.34066178125" lon="114.22329779638672" /><trkpt lat="22.34075678125" lon="114.22329179638672" /><trkpt lat="22.34080878125" lon="114.22326779638672" /><trkpt lat="22.34086378125" lon="114.22321379638672" /><trkpt lat="22.34092978125" lon="114.22317979638672" /><trkpt lat="22.34098578125" lon="114.22312579638673" /><trkpt lat="22.34103378125" lon="114.22303279638672" /><trkpt lat="22.34109178125" lon="114.22296779638671" /><trkpt lat="22.34115578125" lon="114.22294379638672" /><trkpt lat="22.34121978125" lon="114.22290479638671" /><trkpt lat="22.34134078125" lon="114.22294279638672" /><trkpt lat="22.34142178125" lon="114.22290779638672" /><trkpt lat="22.34146778125" lon="114.22287079638672" /><trkpt lat="22.34155078125" lon="114.22278679638671" /><trkpt lat="22.34160178125" lon="114.22276479638671" /><trkpt lat="22.34164078125" lon="114.22279179638672" /><trkpt lat="22.34168778125" lon="114.22283679638672" /><trkpt lat="22.34172778125" lon="114.22285979638671" /><trkpt lat="22.34184978125" lon="114.22282179638673" /><trkpt lat="22.34189178125" lon="114.22281479638671" /><trkpt lat="22.34202878125" lon="114.22281879638672" /><trkpt lat="22.34217778125" lon="114.22281279638672" /><trkpt lat="22.34228378125" lon="114.22280679638672" /><trkpt lat="22.34237878125" lon="114.22276979638671" /><trkpt lat="22.34246978125" lon="114.22276279638672" /><trkpt lat="22.34255078125" lon="114.22278479638672" /><trkpt lat="22.34261978125" lon="114.22273079638671" /><trkpt lat="22.34268978125" lon="114.22277679638673" /><trkpt lat="22.34276378125" lon="114.22273079638671" /><trkpt lat="22.34284078125" lon="114.22276479638671" /><trkpt lat="22.34296478125" lon="114.22276779638672" /><trkpt lat="22.34304878125" lon="114.22277779638672" /><trkpt lat="22.34310978125" lon="114.22275279638671" /><trkpt lat="22.34317378125" lon="114.22274379638672" /><trkpt lat="22.34333978125" lon="114.22265779638671" /><trkpt lat="22.34341078125" lon="114.22261579638672" /><trkpt lat="22.34347078125" lon="114.22258479638671" /><trkpt lat="22.34354378125" lon="114.22257579638672" /><trkpt lat="22.34362678125" lon="114.22253779638672" /><trkpt lat="22.34368578125" lon="114.22254079638672" /><trkpt lat="22.34379078125" lon="114.22252779638671" /><trkpt lat="22.34397378125" lon="114.22245779638672" /><trkpt lat="22.34408978125" lon="114.22245079638672" /><trkpt lat="22.34415578125" lon="114.22243379638672" /><trkpt lat="22.34424378125" lon="114.22242079638671" /><trkpt lat="22.34429878125" lon="114.22239879638671" /><trkpt lat="22.34434778125" lon="114.22238479638672" /><trkpt lat="22.34441578125" lon="114.22234579638672" /><trkpt lat="22.34445278125" lon="114.22232979638672" /><trkpt lat="22.34450878125" lon="114.22231979638671" /><trkpt lat="22.34455878125" lon="114.22230779638672" /><trkpt lat="22.34458978125" lon="114.22226479638672" /><trkpt lat="22.34463578125" lon="114.22220479638672" /><trkpt lat="22.34474178125" lon="114.22213579638672" /><trkpt lat="22.34480978125" lon="114.22213879638672" /><trkpt lat="22.34484478125" lon="114.22215879638672" /><trkpt lat="22.34487578125" lon="114.22221479638672" /><trkpt lat="22.34497378125" lon="114.22223579638671" /><trkpt lat="22.34505878125" lon="114.22225979638672" /><trkpt lat="22.34510078125" lon="114.22226879638671" /><trkpt lat="22.34516278125" lon="114.22224679638671" /><trkpt lat="22.34528178125" lon="114.22223579638671" /><trkpt lat="22.34540778125" lon="114.22219479638672" /><trkpt lat="22.34548178125" lon="114.22218379638672" /><trkpt lat="22.34558878125" lon="114.22219379638672" /><trkpt lat="22.34566378125" lon="114.22217379638671" /><trkpt lat="22.34572078125" lon="114.22216879638673" /><trkpt lat="22.34576178125" lon="114.22216579638672" /><trkpt lat="22.34584378125" lon="114.22214179638672" /><trkpt lat="22.34589578125" lon="114.22213479638671" /><trkpt lat="22.34595678125" lon="114.22212579638672" /><trkpt lat="22.34604478125" lon="114.22211779638671" /><trkpt lat="22.34610078125" lon="114.22213079638672" /><trkpt lat="22.34618978125" lon="114.22212879638671" /><trkpt lat="22.34629778125" lon="114.22213879638672" /><trkpt lat="22.34637478125" lon="114.22215879638672" /><trkpt lat="22.34645578125" lon="114.22219179638672" /><trkpt lat="22.34657778125" lon="114.22219579638671" /><trkpt lat="22.34667578125" lon="114.22220879638672" /><trkpt lat="22.34672878125" lon="114.22221579638672" /><trkpt lat="22.34679678125" lon="114.22220479638672" /><trkpt lat="22.34685878125" lon="114.22219979638672" /><trkpt lat="22.34690078125" lon="114.22218379638672" /><trkpt lat="22.34703278125" lon="114.22218179638672" /><trkpt lat="22.34716978125" lon="114.22221679638672" /><trkpt lat="22.34725478125" lon="114.22225079638672" /><trkpt lat="22.34729778125" lon="114.22230979638672" /><trkpt lat="22.34746478125" lon="114.22239179638672" /><trkpt lat="22.34756078125" lon="114.22242179638671" /><trkpt lat="22.34758778125" lon="114.22249679638672" /><trkpt lat="22.34766378125" lon="114.22251979638672" /><trkpt lat="22.34770978125" lon="114.22252679638672" /><trkpt lat="22.34784778125" lon="114.22248279638671" /><trkpt lat="22.34789578125" lon="114.22244879638671" /><trkpt lat="22.34794878125" lon="114.22238879638672" /><trkpt lat="22.34795978125" lon="114.22233879638672" /><trkpt lat="22.34802178125" lon="114.22229679638671" /><trkpt lat="22.34814078125" lon="114.22224279638672" /><trkpt lat="22.34820378125" lon="114.22223079638673" /><trkpt lat="22.34830678125" lon="114.22217679638672" /><trkpt lat="22.34845378125" lon="114.22213679638672" /><trkpt lat="22.34851278125" lon="114.22216579638672" /><trkpt lat="22.34860778125" lon="114.22217579638672" /><trkpt lat="22.34865478125" lon="114.22218279638672" /><trkpt lat="22.34880678125" lon="114.22219279638672" /><trkpt lat="22.34891278125" lon="114.22220579638672" /><trkpt lat="22.34901178125" lon="114.22225479638672" /><trkpt lat="22.34907978125" lon="114.22224479638672" /><trkpt lat="22.34929678125" lon="114.22218979638671" /><trkpt lat="22.34942478125" lon="114.22219779638672" /><trkpt lat="22.34960778125" lon="114.22218179638672" /><trkpt lat="22.34970478125" lon="114.22213379638671" /><trkpt lat="22.34977678125" lon="114.22214379638672" /><trkpt lat="22.34985178125" lon="114.22209079638672" /><trkpt lat="22.34988278125" lon="114.22203479638672" /><trkpt lat="22.34992978125" lon="114.22200179638672" /><trkpt lat="22.35000178125" lon="114.22196479638671" /><trkpt lat="22.35003378125" lon="114.22195779638672" /><trkpt lat="22.35008178125" lon="114.22198079638672" /><trkpt lat="22.35016178125" lon="114.22201979638672" /><trkpt lat="22.35020478125" lon="114.22204079638672" /><trkpt lat="22.350220781250002" lon="114.22208379638671" /><trkpt lat="22.35024978125" lon="114.22211079638672" /><trkpt lat="22.35028078125" lon="114.22212279638671" /><trkpt lat="22.35033878125" lon="114.22214379638672" /><trkpt lat="22.35043478125" lon="114.22214579638671" /><trkpt lat="22.35053078125" lon="114.22210879638672" /><trkpt lat="22.35057678125" lon="114.22210279638672" /><trkpt lat="22.35063978125" lon="114.22208179638672" /><trkpt lat="22.35069678125" lon="114.22207479638672" /><trkpt lat="22.35081378125" lon="114.22201379638672" /><trkpt lat="22.35090478125" lon="114.22201279638672" /><trkpt lat="22.35098278125" lon="114.22202679638671" /><trkpt lat="22.35107378125" lon="114.22201279638672" /><trkpt lat="22.35117678125" lon="114.22200979638671" /><trkpt lat="22.35125078125" lon="114.22200879638672" /><trkpt lat="22.35135478125" lon="114.22204279638672" /><trkpt lat="22.35152978125" lon="114.22208679638672" /><trkpt lat="22.35160078125" lon="114.22211579638672" /><trkpt lat="22.35173578125" lon="114.22200779638672" /><trkpt lat="22.35186678125" lon="114.22188479638672" /><trkpt lat="22.35198478125" lon="114.22182479638671" /><trkpt lat="22.35207278125" lon="114.22176979638672" /><trkpt lat="22.35218678125" lon="114.22165279638672" /><trkpt lat="22.35227078125" lon="114.22152379638672" /><trkpt lat="22.35230078125" lon="114.22147379638672" /><trkpt lat="22.35233578125" lon="114.22142679638672" /><trkpt lat="22.35237078125" lon="114.22138679638672" /><trkpt lat="22.35241078125" lon="114.22135379638672" /><trkpt lat="22.35245078125" lon="114.22132679638672" /><trkpt lat="22.35252378125" lon="114.22132279638672" /><trkpt lat="22.35256578125" lon="114.22131879638673" /><trkpt lat="22.35267878125" lon="114.22119179638672" /><trkpt lat="22.35278978125" lon="114.22114579638672" /><trkpt lat="22.35289978125" lon="114.22114979638671" /><trkpt lat="22.35308278125" lon="114.22120679638672" /><trkpt lat="22.35313478125" lon="114.22108179638671" /><trkpt lat="22.35318678125" lon="114.22106879638672" /><trkpt lat="22.35318178125" lon="114.22096579638672" /><trkpt lat="22.35320878125" lon="114.22086079638672" /><trkpt lat="22.35324878125" lon="114.22074979638671" /><trkpt lat="22.35333178125" lon="114.22062179638672" /><trkpt lat="22.35345078125" lon="114.22053479638672" /><trkpt lat="22.35369578125" lon="114.22047879638671" /><trkpt lat="22.35390278125" lon="114.22043779638672" /><trkpt lat="22.35398878125" lon="114.22039779638672" /><trkpt lat="22.35406078125" lon="114.22033679638672" /><trkpt lat="22.35420078125" lon="114.22016179638672" /><trkpt lat="22.35449178125" lon="114.21965479638672" /><trkpt lat="22.35461778125" lon="114.21946679638671" /><trkpt lat="22.35472378125" lon="114.21948479638672" /><trkpt lat="22.35480278125" lon="114.21948479638672" /><trkpt lat="22.35495678125" lon="114.21946879638672" /><trkpt lat="22.35504478125" lon="114.21944579638672" /><trkpt lat="22.35512078125" lon="114.21951179638671" /><trkpt lat="22.35518578125" lon="114.21956879638672" /><trkpt lat="22.35530778125" lon="114.21962279638672" /><trkpt lat="22.35540778125" lon="114.21962379638671" /><trkpt lat="22.35547578125" lon="114.21959879638672" /><trkpt lat="22.35564478125" lon="114.21939179638672" /><trkpt lat="22.35576878125" lon="114.21928179638672" /><trkpt lat="22.35587578125" lon="114.21924979638672" /><trkpt lat="22.35597978125" lon="114.21923879638672" /><trkpt lat="22.35612078125" lon="114.21925279638671" /><trkpt lat="22.35625978125" lon="114.21925779638671" /><trkpt lat="22.35639378125" lon="114.21922879638672" /><trkpt lat="22.35652078125" lon="114.21916979638672" /><trkpt lat="22.35666678125" lon="114.21900879638672" /><trkpt lat="22.35676278125" lon="114.21876479638672" /><trkpt lat="22.35681578125" lon="114.21856379638672" /><trkpt lat="22.35684278125" lon="114.21849279638671" /><trkpt lat="22.35690278125" lon="114.21837079638672" /><trkpt lat="22.35694478125" lon="114.21820879638672" /><trkpt lat="22.35696678125" lon="114.21794879638672" /><trkpt lat="22.35698178125" lon="114.21764579638672" /><trkpt lat="22.35698678125" lon="114.21750379638672" /><trkpt lat="22.35697178125" lon="114.21740479638672" /><trkpt lat="22.35686078125" lon="114.21728379638672" /><trkpt lat="22.35669978125" lon="114.21720979638671" /><trkpt lat="22.35653378125" lon="114.21715679638672" /><trkpt lat="22.35636978125" lon="114.21703779638672" /><trkpt lat="22.35631678125" lon="114.21687579638672" /><trkpt lat="22.35632978125" lon="114.21676879638672" /><trkpt lat="22.35639678125" lon="114.21654579638673" /><trkpt lat="22.35638378125" lon="114.21637179638672" /><trkpt lat="22.35633178125" lon="114.21622679638672" /><trkpt lat="22.35625778125" lon="114.21608779638672" /><trkpt lat="22.35611778125" lon="114.21585079638672" /><trkpt lat="22.35595478125" lon="114.21565579638671" /><trkpt lat="22.35587778125" lon="114.21559979638671" /><trkpt lat="22.35578178125" lon="114.21554079638672" /><trkpt lat="22.35572178125" lon="114.21542779638672" /><trkpt lat="22.35572378125" lon="114.21528579638672" /><trkpt lat="22.35578178125" lon="114.21515379638672" /><trkpt lat="22.35583378125" lon="114.21497079638672" /><trkpt lat="22.35577678125" lon="114.21484279638672" /><trkpt lat="22.35575678125" lon="114.21472479638672" /><trkpt lat="22.35575678125" lon="114.21454779638673" /><trkpt lat="22.35576378125" lon="114.21437379638672" /><trkpt lat="22.35577778125" lon="114.21403679638672" /><trkpt lat="22.35566478125" lon="114.21409279638672" /><trkpt lat="22.35558978125" lon="114.21430279638672" /><trkpt lat="22.35544978125" lon="114.21469679638672" /><trkpt lat="22.35545078125" lon="114.21490679638671" /><trkpt lat="22.35542178125" lon="114.21506479638671" /><trkpt lat="22.35535878125" lon="114.21517779638671" /><trkpt lat="22.35516178125" lon="114.21535179638671" /><trkpt lat="22.35509078125" lon="114.21561279638672" /><trkpt lat="22.35509278125" lon="114.21593579638672" /><trkpt lat="22.35514578125" lon="114.21601879638672" /><trkpt lat="22.35524378125" lon="114.21611479638672" /><trkpt lat="22.35527278125" lon="114.21627379638672" /><trkpt lat="22.35523078125" lon="114.21638379638672" /><trkpt lat="22.35510378125" lon="114.21656179638671" /><trkpt lat="22.35509578125" lon="114.21685979638671" /><trkpt lat="22.35502978125" lon="114.21700579638672" /><trkpt lat="22.35493878125" lon="114.21707979638671" /><trkpt lat="22.35475078125" lon="114.21713979638672" /><trkpt lat="22.35445578125" lon="114.21713879638672" /><trkpt lat="22.35429578125" lon="114.21701379638672" /><trkpt lat="22.35381378125" lon="114.21708179638672" /><trkpt lat="22.35286278125" lon="114.21729079638672" /><trkpt lat="22.35278678125" lon="114.21735579638671" /><trkpt lat="22.35272278125" lon="114.21747879638671" /><trkpt lat="22.35267878125" lon="114.21758479638672" /><trkpt lat="22.35249378125" lon="114.21776479638672" /><trkpt lat="22.35231478125" lon="114.21789579638671" /><trkpt lat="22.35219078125" lon="114.21793879638672" /><trkpt lat="22.35195578125" lon="114.21794779638672" /><trkpt lat="22.35185278125" lon="114.21794179638673" /><trkpt lat="22.35176778125" lon="114.21788479638671" /><trkpt lat="22.35132578125" lon="114.21769379638671" /><trkpt lat="22.35119178125" lon="114.21753479638672" /><trkpt lat="22.35109178125" lon="114.21723879638672" /><trkpt lat="22.35100078125" lon="114.21716779638672" /><trkpt lat="22.35090378125" lon="114.21715879638671" /><trkpt lat="22.35074678125" lon="114.21722979638672" /><trkpt lat="22.35057278125" lon="114.21748179638672" /><trkpt lat="22.35050878125" lon="114.21760879638671" /><trkpt lat="22.35040978125" lon="114.21770379638671" /><trkpt lat="22.35016278125" lon="114.21786479638672" /><trkpt lat="22.35007478125" lon="114.21802779638672" /><trkpt lat="22.34997978125" lon="114.21827379638673" /><trkpt lat="22.34988378125" lon="114.21838579638671" /><trkpt lat="22.34969178125" lon="114.21848679638671" /><trkpt lat="22.34953078125" lon="114.21852479638672" /><trkpt lat="22.34938878125" lon="114.21851079638672" /><trkpt lat="22.34930078125" lon="114.21843779638672" /><trkpt lat="22.34923278125" lon="114.21826579638672" /><trkpt lat="22.34907778125" lon="114.21779879638672" /><trkpt lat="22.34899378125" lon="114.21771579638671" /><trkpt lat="22.34882078125" lon="114.21765479638673" /><trkpt lat="22.34869278125" lon="114.21763779638673" /><trkpt lat="22.34852878125" lon="114.21762779638672" /><trkpt lat="22.34835178125" lon="114.21752179638672" /><trkpt lat="22.34820478125" lon="114.21730179638672" /><trkpt lat="22.34804678125" lon="114.21712279638672" /><trkpt lat="22.34788778125" lon="114.21707579638672" /><trkpt lat="22.34750478125" lon="114.21703379638672" /><trkpt lat="22.34705778125" lon="114.21698779638672" /><trkpt lat="22.34689878125" lon="114.21692679638672" /><trkpt lat="22.34681378125" lon="114.21684079638672" /><trkpt lat="22.34651378125" lon="114.21607079638672" /><trkpt lat="22.34649178125" lon="114.21595979638671" /><trkpt lat="22.34640578125" lon="114.21567079638672" /><trkpt lat="22.34631078125" lon="114.21550579638672" /><trkpt lat="22.34585278125" lon="114.21518879638671" /><trkpt lat="22.34563878125" lon="114.21515379638672" /><trkpt lat="22.34549278125" lon="114.21519779638672" /><trkpt lat="22.34533578125" lon="114.21533579638673" /><trkpt lat="22.34526178125" lon="114.21547779638672" /><trkpt lat="22.34524778125" lon="114.21576579638672" /><trkpt lat="22.34517078125" lon="114.21591779638672" /><trkpt lat="22.34508178125" lon="114.21599779638672" /><trkpt lat="22.34492778125" lon="114.21606479638672" /><trkpt lat="22.34472678125" lon="114.21607879638673" /><trkpt lat="22.34448978125" lon="114.21598479638672" /><trkpt lat="22.34433878125" lon="114.21596079638672" /><trkpt lat="22.34423778125" lon="114.21596779638672" /><trkpt lat="22.34407878125" lon="114.21602579638672" /><trkpt lat="22.34391378125" lon="114.21605079638672" /><trkpt lat="22.34351278125" lon="114.21602579638672" /><trkpt lat="22.34335878125" lon="114.21603279638671" /><trkpt lat="22.34324078125" lon="114.21606679638671" /><trkpt lat="22.34296578125" lon="114.21631079638672" /><trkpt lat="22.34278578125" lon="114.21637779638672" /><trkpt lat="22.34210278125" lon="114.21637879638672" /><trkpt lat="22.34201678125" lon="114.21631779638672" /><trkpt lat="22.34195678125" lon="114.21619779638672" /><trkpt lat="22.34189078125" lon="114.21586279638672" /><trkpt lat="22.34182978125" lon="114.21560879638672" /><trkpt lat="22.34169278125" lon="114.21541779638672" /><trkpt lat="22.34161078125" lon="114.21538479638672" /><trkpt lat="22.34168878125" lon="114.21504679638672" /><trkpt lat="22.34177178125" lon="114.21471879638672" /><trkpt lat="22.34166978125" lon="114.21441779638671" /><trkpt lat="22.34122478125" lon="114.21394279638672" /><trkpt lat="22.34082478125" lon="114.21334079638672" /><trkpt lat="22.34042378125" lon="114.21289379638672" /><trkpt lat="22.34016178125" lon="114.21249879638673" /><trkpt lat="22.33990278125" lon="114.21233479638671" /><trkpt lat="22.33969078125" lon="114.21239579638672" /><trkpt lat="22.33959078125" lon="114.21256579638671" /><trkpt lat="22.33952978125" lon="114.21265979638672" /><trkpt lat="22.33964978125" lon="114.21291179638672" /><trkpt lat="22.33962778125" lon="114.21303079638672" /><trkpt lat="22.33959378125" lon="114.21299279638671" /><trkpt lat="22.33943478125" lon="114.21271979638672" /><trkpt lat="22.33926078125" lon="114.21258279638671" /><trkpt lat="22.33914878125" lon="114.21255579638672" /><trkpt lat="22.33908078125" lon="114.21256579638671" /><trkpt lat="22.33902778125" lon="114.21261179638672" /><trkpt lat="22.33902778125" lon="114.21269179638672" /><trkpt lat="22.33897278125" lon="114.21272379638671" /><trkpt lat="22.33900778125" lon="114.21279879638672" /><trkpt lat="22.33890278125" lon="114.21284579638672" /><trkpt lat="22.33877778125" lon="114.21283179638672" /><trkpt lat="22.33870178125" lon="114.21281979638673" /><trkpt lat="22.33859878125" lon="114.21282979638671" /><trkpt lat="22.33853378125" lon="114.21288079638671" /><trkpt lat="22.33850178125" lon="114.21295079638672" /><trkpt lat="22.33846678125" lon="114.21303279638671" /><trkpt lat="22.33840878125" lon="114.21309079638672" /><trkpt lat="22.33834578125" lon="114.21314679638672" /><trkpt lat="22.33830978125" lon="114.21321479638672" /><trkpt lat="22.33830578125" lon="114.21326979638673" /><trkpt lat="22.33831978125" lon="114.21333079638671" /><trkpt lat="22.33833078125" lon="114.21338979638672" /><trkpt lat="22.33830678125" lon="114.21342879638672" /><trkpt lat="22.33827278125" lon="114.21348479638672" /><trkpt lat="22.33822378125" lon="114.21350879638672" /><trkpt lat="22.33816378125" lon="114.21351479638672" /><trkpt lat="22.33812378125" lon="114.21352079638672" /><trkpt lat="22.33807278125" lon="114.21354679638672" /><trkpt lat="22.33802778125" lon="114.21358579638672" /><trkpt lat="22.33800178125" lon="114.21361279638671" /><trkpt lat="22.33796978125" lon="114.21361279638671" /><trkpt lat="22.33789278125" lon="114.21358079638672" /><trkpt lat="22.33785178125" lon="114.21352779638671" /><trkpt lat="22.33783778125" lon="114.21347979638672" /><trkpt lat="22.33760278125" lon="114.21339879638671" /><trkpt lat="22.33750778125" lon="114.21339679638672" /><trkpt lat="22.33744078125" lon="114.21343179638671" /><trkpt lat="22.33737178125" lon="114.21346479638672" /><trkpt lat="22.33734578125" lon="114.21343179638671" /><trkpt lat="22.33728778125" lon="114.21338779638671" /><trkpt lat="22.33723178125" lon="114.21337779638672" /><trkpt lat="22.33715778125" lon="114.21338979638672" /><trkpt lat="22.33704978125" lon="114.21344079638672" /><trkpt lat="22.33694178125" lon="114.21350379638672" /><trkpt lat="22.33684078125" lon="114.21353479638672" /><trkpt lat="22.33678478125" lon="114.21360679638671" /><trkpt lat="22.33678078125" lon="114.21367479638671" /><trkpt lat="22.33670478125" lon="114.21367679638672" /><trkpt lat="22.33648678125" lon="114.21366979638672" /><trkpt lat="22.33644978125" lon="114.21363879638672" /><trkpt lat="22.33637478125" lon="114.21365679638672" /><trkpt lat="22.33630978125" lon="114.21392879638672" /><trkpt lat="22.33626078125" lon="114.21380679638672" /><trkpt lat="22.33618078125" lon="114.21371779638672" /><trkpt lat="22.33611278125" lon="114.21367279638672" /><trkpt lat="22.33605178125" lon="114.21366379638673" /><trkpt lat="22.33602078125" lon="114.21368179638672" /><trkpt lat="22.33598078125" lon="114.21376879638672" /><trkpt lat="22.33597478125" lon="114.21386679638672" /><trkpt lat="22.33599178125" lon="114.21392779638671" /><trkpt lat="22.33600378125" lon="114.21396379638672" /><trkpt lat="22.33593978125" lon="114.21406279638671" /><trkpt lat="22.33580278125" lon="114.21424579638672" /><trkpt lat="22.33578978125" lon="114.21431779638672" /><trkpt lat="22.33573478125" lon="114.21431079638671" /><trkpt lat="22.33563778125" lon="114.21432779638671" /><trkpt lat="22.33561678125" lon="114.21421779638672" /><trkpt lat="22.33554078125" lon="114.21408279638672" /><trkpt lat="22.33534178125" lon="114.21376079638672" /><trkpt lat="22.33529278125" lon="114.21372779638672" /><trkpt lat="22.33515778125" lon="114.21366379638673" /><trkpt lat="22.33504878125" lon="114.21346079638671" /><trkpt lat="22.33510478125" lon="114.21343679638672" /><trkpt lat="22.33513478125" lon="114.21341079638673" /><trkpt lat="22.33516478125" lon="114.21337479638672" /><trkpt lat="22.33518078125" lon="114.21333879638672" /><trkpt lat="22.33519078125" lon="114.21328579638671" /><trkpt lat="22.33524278125" lon="114.21264579638672" /><trkpt lat="22.33526278125" lon="114.21238979638672" /><trkpt lat="22.33521278125" lon="114.21201179638672" /><trkpt lat="22.33515578125" lon="114.21178879638671" /><trkpt lat="22.33504278125" lon="114.21159279638673" /><trkpt lat="22.33500178125" lon="114.21151479638672" /><trkpt lat="22.33494678125" lon="114.21140879638672" /><trkpt lat="22.33495978125" lon="114.21130979638671" /><trkpt lat="22.33489378125" lon="114.21123979638672" /><trkpt lat="22.33485878125" lon="114.21122979638672" /><trkpt lat="22.33482778125" lon="114.21122979638672" /><trkpt lat="22.33447778125" lon="114.21117979638672" /><trkpt lat="22.33449478125" lon="114.21099679638672" /><trkpt lat="22.33450078125" lon="114.21089279638672" /><trkpt lat="22.33450078125" lon="114.21079479638672" /><trkpt lat="22.33449278125" lon="114.21068179638672" /><trkpt lat="22.33447778125" lon="114.21058879638672" /><trkpt lat="22.33442878125" lon="114.21032879638672" /><trkpt lat="22.33437478125" lon="114.21001979638672" /><trkpt lat="22.33430778125" lon="114.20970979638672" /><trkpt lat="22.33419478125" lon="114.20918579638672" /><trkpt lat="22.33417678125" lon="114.20904779638671" /><trkpt lat="22.33418578125" lon="114.20888879638672" /><trkpt lat="22.33420678125" lon="114.20878179638672" /><trkpt lat="22.33433778125" lon="114.20858779638672" /><trkpt lat="22.33452478125" lon="114.20837279638671" /><trkpt lat="22.33456378125" lon="114.20832479638672" /><trkpt lat="22.33460978125" lon="114.20828279638671" /><trkpt lat="22.334817473013224" lon="114.20826222314668" /></trkseg></trk></gpx>