<?xml version='1.0' encoding='UTF-8' ?><gpx version="1.1" creator="HikingTrailHK" xsi:schemaLocation="http://www.topografix.com/GPX/1/1 http://www.topografix.com/GPX/1/1/gpx.xsd" xmlns="http://www.topografix.com/GPX/1/1" xmlns:xsi="http://www.w3.org/2001/XMLSchema-instance"><metadata><name>舂坎角 @ 2022-03-13</name><desc></desc></metadata><trk><trkseg><trkpt lat="22.218988538306355" lon="114.2096553249855" /><trkpt lat="22.21883978125" lon="114.20948679638671" /><trkpt lat="22.21840178125" lon="114.20993679638671" /><trkpt lat="22.21831478125" lon="114.21003079638672" /><trkpt lat="22.21777178125" lon="114.20996579638671" /><trkpt lat="22.21772678125" lon="114.20969479638671" /><trkpt lat="22.21746278125" lon="114.20940279638671" /><trkpt lat="22.21743078125" lon="114.20888179638672" /><trkpt lat="22.21735378125" lon="114.20881879638672" /><trkpt lat="22.21713078125" lon="114.20882379638672" /><trkpt lat="22.21703278125" lon="114.20873979638672" /><trkpt lat="22.216929418983113" lon="114.20870797041056" /><trkpt lat="22.216979615148688" lon="114.20861166438806" /><trkpt lat="22.21700771734899" lon="114.20871460732873" /><trkpt lat="22.21703278125" lon="114.20873979638672" /><trkpt lat="22.21704678125" lon="114.20876579638671" /><trkpt lat="22.21713078125" lon="114.20882379638672" /><trkpt lat="22.21735378125" lon="114.20881879638672" /><trkpt lat="22.21751378125" lon="114.20872879638672" /><trkpt lat="22.21736678125" lon="114.20867079638671" /><trkpt lat="22.21737978125" lon="114.20856679638672" /><trkpt lat="22.21720078125" lon="114.20819679638672" /><trkpt lat="22.21739578125" lon="114.20785079638672" /><trkpt lat="22.21736578125" lon="114.20767079638672" /><trkpt lat="22.21729678125" lon="114.20720879638672" /><trkpt lat="22.21660178125" lon="114.20700579638672" /><trkpt lat="22.21642878125" lon="114.20681179638672" /><trkpt lat="22.21621878125" lon="114.20661879638672" /><trkpt lat="22.21615478125" lon="114.20638279638672" /><trkpt lat="22.21608478125" lon="114.20632879638671" /><trkpt lat="22.21602578125" lon="114.20614079638672" /><trkpt lat="22.21594978125" lon="114.20601679638672" /><trkpt lat="22.21593278125" lon="114.20589579638671" /><trkpt lat="22.21593478125" lon="114.20578279638671" /><trkpt lat="22.21593578125" lon="114.20565279638672" /><trkpt lat="22.21599078125" lon="114.20536379638672" /><trkpt lat="22.21596078125" lon="114.20532079638672" /><trkpt lat="22.21602578125" lon="114.20521879638672" /><trkpt lat="22.21604278125" lon="114.20508379638672" /><trkpt lat="22.21601878125" lon="114.20509279638672" /><trkpt lat="22.21599178125" lon="114.20509179638672" /><trkpt lat="22.21596778125" lon="114.20508279638672" /><trkpt lat="22.21594678125" lon="114.20506579638672" /><trkpt lat="22.21593278125" lon="114.20504179638672" /><trkpt lat="22.21592678125" lon="114.20498679638672" /><trkpt lat="22.21582178125" lon="114.20495479638672" /><trkpt lat="22.21575578125" lon="114.20491279638672" /><trkpt lat="22.21570878125" lon="114.20485879638672" /><trkpt lat="22.21568678125" lon="114.20477279638672" /><trkpt lat="22.21568278125" lon="114.20466479638672" /><trkpt lat="22.21553578125" lon="114.20448379638673" /><trkpt lat="22.21533578125" lon="114.20449979638671" /><trkpt lat="22.21525678125" lon="114.20442079638671" /><trkpt lat="22.21523078125" lon="114.20423879638672" /><trkpt lat="22.21529778125" lon="114.20409879638672" /><trkpt lat="22.21488078125" lon="114.20375079638671" /><trkpt lat="22.21471678125" lon="114.20337479638673" /><trkpt lat="22.21476678125" lon="114.20332779638672" /><trkpt lat="22.21475578125" lon="114.20321279638672" /><trkpt lat="22.21492978125" lon="114.20324679638672" /><trkpt lat="22.21485378125" lon="114.20309279638671" /><trkpt lat="22.21488678125" lon="114.20278679638672" /><trkpt lat="22.21483078125" lon="114.20266379638672" /><trkpt lat="22.21492078125" lon="114.20260279638671" /><trkpt lat="22.21494978125" lon="114.20244679638672" /><trkpt lat="22.21495578125" lon="114.20213479638672" /><trkpt lat="22.21488378125" lon="114.20192979638672" /><trkpt lat="22.21495478125" lon="114.20162579638672" /><trkpt lat="22.21497778125" lon="114.20157379638673" /><trkpt lat="22.21512978125" lon="114.20150279638672" /><trkpt lat="22.21511978125" lon="114.20142179638673" /><trkpt lat="22.21514678125" lon="114.20140179638672" /><trkpt lat="22.21519478125" lon="114.20141079638672" /><trkpt lat="22.21522578125" lon="114.20129979638672" /><trkpt lat="22.21526278125" lon="114.20136479638671" /><trkpt lat="22.21533578125" lon="114.20131379638671" /><trkpt lat="22.21540778125" lon="114.20138679638671" /><trkpt lat="22.21543778125" lon="114.20132879638672" /><trkpt lat="22.21551978125" lon="114.20135479638672" /><trkpt lat="22.21557178125" lon="114.20131579638672" /><trkpt lat="22.21562078125" lon="114.20135179638672" /><trkpt lat="22.21560078125" lon="114.20144579638672" /><trkpt lat="22.21565178125" lon="114.20144079638672" /><trkpt lat="22.21562978125" lon="114.20161079638672" /><trkpt lat="22.215755232296658" lon="114.20165229560098" /><trkpt lat="22.21575678779807" lon="114.20150284123719" /><trkpt lat="22.215637477269443" lon="114.20144219924454" /><trkpt lat="22.21560078125" lon="114.20144579638672" /><trkpt lat="22.21562078125" lon="114.20135179638672" /><trkpt lat="22.21557178125" lon="114.20131579638672" /><trkpt lat="22.21551978125" lon="114.20135479638672" /><trkpt lat="22.21543778125" lon="114.20132879638672" /><trkpt lat="22.21540778125" lon="114.20138679638671" /><trkpt lat="22.21533578125" lon="114.20131379638671" /><trkpt lat="22.21526278125" lon="114.20136479638671" /><trkpt lat="22.21522578125" lon="114.20129979638672" /><trkpt lat="22.21519478125" lon="114.20141079638672" /><trkpt lat="22.21514678125" lon="114.20140179638672" /><trkpt lat="22.21511978125" lon="114.20142179638673" /><trkpt lat="22.21512978125" lon="114.20150279638672" /><trkpt lat="22.21497778125" lon="114.20157379638673" /><trkpt lat="22.21485978125" lon="114.20128879638672" /><trkpt lat="22.21485278125" lon="114.20102879638672" /><trkpt lat="22.21476578125" lon="114.20084879638672" /><trkpt lat="22.21447778125" lon="114.20056679638672" /><trkpt lat="22.21422678125" lon="114.20009679638672" /><trkpt lat="22.21419778125" lon="114.20007079638673" /><trkpt lat="22.21399978125" lon="114.19989579638671" /><trkpt lat="22.21393478125" lon="114.19973379638672" /><trkpt lat="22.21372578125" lon="114.19962879638672" /><trkpt lat="22.21339478125" lon="114.19951179638672" /><trkpt lat="22.21325378125" lon="114.19934679638672" /><trkpt lat="22.21306178125" lon="114.19933979638672" /><trkpt lat="22.21286878125" lon="114.19905079638671" /><trkpt lat="22.21254278125" lon="114.19898179638672" /><trkpt lat="22.21234278125" lon="114.19901579638672" /><trkpt lat="22.21231978125" lon="114.19902179638672" /><trkpt lat="22.21224778125" lon="114.19910379638672" /><trkpt lat="22.21209178125" lon="114.19872279638672" /><trkpt lat="22.21191078125" lon="114.19866079638672" /><trkpt lat="22.21184078125" lon="114.19861279638671" /><trkpt lat="22.21180178125" lon="114.19832179638672" /><trkpt lat="22.21178978125" lon="114.19817279638671" /><trkpt lat="22.21158578125" lon="114.19808879638671" /><trkpt lat="22.21150978125" lon="114.19796379638672" /><trkpt lat="22.21144978125" lon="114.19796679638672" /><trkpt lat="22.21138178125" lon="114.19772879638671" /><trkpt lat="22.21131778125" lon="114.19779379638672" /><trkpt lat="22.21129578125" lon="114.19782979638671" /><trkpt lat="22.21115578125" lon="114.19777179638672" /><trkpt lat="22.21111878125" lon="114.19755779638672" /><trkpt lat="22.21102478125" lon="114.19755179638672" /><trkpt lat="22.21101478125" lon="114.19738779638672" /><trkpt lat="22.21089178125" lon="114.19732079638672" /><trkpt lat="22.21084878125" lon="114.19749179638671" /><trkpt lat="22.21089878125" lon="114.19753979638672" /><trkpt lat="22.21083578125" lon="114.19760779638672" /><trkpt lat="22.21078578125" lon="114.19779479638672" /><trkpt lat="22.21081178125" lon="114.19784679638671" /><trkpt lat="22.21076478125" lon="114.19797879638672" /><trkpt lat="22.21067378125" lon="114.19814179638672" /><trkpt lat="22.21065578125" lon="114.19817379638671" /><trkpt lat="22.21040878125" lon="114.19832579638671" /><trkpt lat="22.21040678125" lon="114.19827279638672" /><trkpt lat="22.21044707724799" lon="114.19821049178347" /><trkpt lat="22.210464951087964" lon="114.19829123052966" /><trkpt lat="22.21065578125" lon="114.19817379638671" /><trkpt lat="22.21067378125" lon="114.19814179638672" /><trkpt lat="22.21058678125" lon="114.19800979638671" /><trkpt lat="22.21061478125" lon="114.19789979638672" /><trkpt lat="22.21066978125" lon="114.19783479638672" /><trkpt lat="22.21078578125" lon="114.19779479638672" /><trkpt lat="22.21083578125" lon="114.19760779638672" /><trkpt lat="22.21089878125" lon="114.19753979638672" /><trkpt lat="22.210848881437467" lon="114.1974913970869" /><trkpt lat="22.210732996594686" lon="114.19750861142103" /><trkpt lat="22.21068615599353" lon="114.19748793571102" /><trkpt lat="22.21073054772262" lon="114.19745562577685" /><trkpt lat="22.21079317610304" lon="114.19748298015242" /><trkpt lat="22.210851294664348" lon="114.19748180032244" /><trkpt lat="22.21089178125" lon="114.19732079638672" /><trkpt lat="22.21101478125" lon="114.19738779638672" /><trkpt lat="22.21102478125" lon="114.19755179638672" /><trkpt lat="22.21111878125" lon="114.19755779638672" /><trkpt lat="22.21115578125" lon="114.19777179638672" /><trkpt lat="22.21129578125" lon="114.19782979638671" /><trkpt lat="22.21131778125" lon="114.19779379638672" /><trkpt lat="22.21138178125" lon="114.19772879638671" /><trkpt lat="22.21180778125" lon="114.19757979638672" /><trkpt lat="22.21186678125" lon="114.19755979638671" /><trkpt lat="22.21191478125" lon="114.19754279638671" /><trkpt lat="22.21194578125" lon="114.19753179638671" /><trkpt lat="22.21195878125" lon="114.19753179638671" /><trkpt lat="22.21204478125" lon="114.19753379638672" /><trkpt lat="22.21214978125" lon="114.19760579638672" /><trkpt lat="22.21241178125" lon="114.19777579638672" /><trkpt lat="22.21244178125" lon="114.19779579638671" /><trkpt lat="22.21259578125" lon="114.19784679638671" /><trkpt lat="22.21273378125" lon="114.19783379638672" /><trkpt lat="22.21289478125" lon="114.19775179638673" /><trkpt lat="22.21300878125" lon="114.19767879638673" /><trkpt lat="22.21314278125" lon="114.19761979638672" /><trkpt lat="22.21327278125" lon="114.19760379638672" /><trkpt lat="22.21342178125" lon="114.19760379638672" /><trkpt lat="22.21348678125" lon="114.19760879638672" /><trkpt lat="22.21371078125" lon="114.19771379638672" /><trkpt lat="22.21392678125" lon="114.19780979638672" /><trkpt lat="22.21405378125" lon="114.19787579638673" /><trkpt lat="22.21451278125" lon="114.19838079638672" /><trkpt lat="22.21466478125" lon="114.19869379638672" /><trkpt lat="22.21470278125" lon="114.19886279638672" /><trkpt lat="22.21479478125" lon="114.19899079638672" /><trkpt lat="22.21487778125" lon="114.19907379638671" /><trkpt lat="22.21492878125" lon="114.19909879638672" /><trkpt lat="22.21497978125" lon="114.19912279638672" /><trkpt lat="22.21513378125" lon="114.19928179638671" /><trkpt lat="22.21518078125" lon="114.19940879638672" /><trkpt lat="22.21523078125" lon="114.19955679638672" /><trkpt lat="22.21526378125" lon="114.19969779638672" /><trkpt lat="22.21528278125" lon="114.19987479638672" /><trkpt lat="22.21534078125" lon="114.20007979638672" /><trkpt lat="22.21543878125" lon="114.20024679638672" /><trkpt lat="22.21554578125" lon="114.20031379638672" /><trkpt lat="22.21590778125" lon="114.20048079638671" /><trkpt lat="22.21600378125" lon="114.20053779638671" /><trkpt lat="22.21612978125" lon="114.20070979638672" /><trkpt lat="22.21614478125" lon="114.20088779638672" /><trkpt lat="22.21606578125" lon="114.20121779638671" /><trkpt lat="22.21604678125" lon="114.20143879638673" /><trkpt lat="22.21601478125" lon="114.20194879638672" /><trkpt lat="22.21598378125" lon="114.20219979638672" /><trkpt lat="22.21595978125" lon="114.20244179638672" /><trkpt lat="22.21583278125" lon="114.20367279638671" /><trkpt lat="22.21578678125" lon="114.20403279638671" /><trkpt lat="22.215695781249998" lon="114.20440479638673" /><trkpt lat="22.21568278125" lon="114.20453179638672" /><trkpt lat="22.21568278125" lon="114.20466479638672" /><trkpt lat="22.21568678125" lon="114.20477279638672" /><trkpt lat="22.21570878125" lon="114.20485879638672" /><trkpt lat="22.21575578125" lon="114.20491279638672" /><trkpt lat="22.21582178125" lon="114.20495479638672" /><trkpt lat="22.21592678125" lon="114.20498679638672" /><trkpt lat="22.21592578125" lon="114.20501479638672" /><trkpt lat="22.21593278125" lon="114.20504179638672" /><trkpt lat="22.21594678125" lon="114.20506579638672" /><trkpt lat="22.21596778125" lon="114.20508279638672" /><trkpt lat="22.21599178125" lon="114.20509179638672" /><trkpt lat="22.21604278125" lon="114.20508379638672" /><trkpt lat="22.21606478125" lon="114.20506679638672" /><trkpt lat="22.21607320914428" lon="114.205053873648" /></trkseg></trk></gpx>