<?xml version='1.0' encoding='UTF-8' ?><gpx version="1.1" creator="HikingTrailHK" xsi:schemaLocation="http://www.topografix.com/GPX/1/1 http://www.topografix.com/GPX/1/1/gpx.xsd https://hikingtrailhk.appspot.com/xml/gpxextensions/v1 https://hikingtrailhk.appspot.com/xml/gpxextensions/v1/gpxextensions.xsd" xmlns="http://www.topografix.com/GPX/1/1" xmlns:h="https://hikingtrailhk.appspot.com/xml/gpxextensions/v1" xmlns:xsi="http://www.w3.org/2001/XMLSchema-instance"><metadata><name>良田坳 @ 2015-6-19</name><desc></desc><extensions><h:categoryid>scenery_route</h:categoryid></extensions></metadata><trk><trkseg><trkpt lat="22.406538499775536" lon="113.96349128708198" /><trkpt lat="22.40646578125" lon="113.96342279638672" /><trkpt lat="22.40644078125" lon="113.96344879638671" /><trkpt lat="22.40639178125" lon="113.96350079638673" /><trkpt lat="22.40629778125" lon="113.96360279638672" /><trkpt lat="22.40619978125" lon="113.96351079638671" /><trkpt lat="22.40611178125" lon="113.96343779638671" /><trkpt lat="22.40602678125" lon="113.96340279638672" /><trkpt lat="22.40589178125" lon="113.96338979638672" /><trkpt lat="22.405794781250002" lon="113.96340879638672" /><trkpt lat="22.40570478125" lon="113.96344479638672" /><trkpt lat="22.40563278125" lon="113.96348579638672" /><trkpt lat="22.40560178125" lon="113.96340679638672" /><trkpt lat="22.405597781250002" lon="113.96339579638672" /><trkpt lat="22.40558478125" lon="113.96334879638673" /><trkpt lat="22.40554578125" lon="113.96313279638672" /><trkpt lat="22.40538578125" lon="113.96295379638671" /><trkpt lat="22.40426978125" lon="113.96190479638672" /><trkpt lat="22.40374778125" lon="113.96147379638671" /><trkpt lat="22.40371578125" lon="113.96142279638671" /><trkpt lat="22.40371878125" lon="113.96134579638672" /><trkpt lat="22.40390978125" lon="113.96106579638672" /><trkpt lat="22.40409578125" lon="113.96083879638672" /><trkpt lat="22.40433178125" lon="113.96061579638672" /><trkpt lat="22.40439578125" lon="113.96055479638672" /><trkpt lat="22.40456778125" lon="113.96030279638671" /><trkpt lat="22.40476778125" lon="113.95994679638672" /><trkpt lat="22.40484878125" lon="113.95989179638671" /><trkpt lat="22.40493078125" lon="113.95985679638672" /><trkpt lat="22.40493478125" lon="113.95957679638671" /><trkpt lat="22.40491778125" lon="113.95949479638672" /><trkpt lat="22.40477778125" lon="113.95930379638672" /><trkpt lat="22.40463578125" lon="113.95899579638672" /><trkpt lat="22.40463978125" lon="113.95848079638672" /><trkpt lat="22.40458878125" lon="113.95818579638672" /><trkpt lat="22.40459778125" lon="113.95799879638672" /><trkpt lat="22.40463578125" lon="113.95775879638671" /><trkpt lat="22.40463378125" lon="113.95756879638672" /><trkpt lat="22.40443778125" lon="113.95714879638672" /><trkpt lat="22.40429278125" lon="113.95662579638672" /><trkpt lat="22.40393878125" lon="113.95642479638671" /><trkpt lat="22.40381678125" lon="113.95627679638672" /><trkpt lat="22.40379078125" lon="113.95603879638672" /><trkpt lat="22.40390878125" lon="113.95589679638672" /><trkpt lat="22.40421978125" lon="113.95557379638672" /><trkpt lat="22.40442278125" lon="113.95542679638672" /><trkpt lat="22.40459378125" lon="113.95526479638671" /><trkpt lat="22.40471378125" lon="113.95503879638672" /><trkpt lat="22.40480178125" lon="113.95473879638672" /><trkpt lat="22.40490178125" lon="113.95451579638672" /><trkpt lat="22.40502578125" lon="113.95443779638671" /><trkpt lat="22.40506478125" lon="113.95437479638672" /><trkpt lat="22.40501578125" lon="113.95421579638672" /><trkpt lat="22.40496078125" lon="113.95412379638672" /><trkpt lat="22.40488678125" lon="113.95396079638672" /><trkpt lat="22.40487078125" lon="113.95382679638672" /><trkpt lat="22.40491278125" lon="113.95369279638672" /><trkpt lat="22.40501478125" lon="113.95364079638672" /><trkpt lat="22.40523078125" lon="113.95359879638671" /><trkpt lat="22.40549078125" lon="113.95349279638671" /><trkpt lat="22.40572278125" lon="113.95310679638672" /><trkpt lat="22.40575078125" lon="113.95308679638671" /><trkpt lat="22.405794781250002" lon="113.95308679638671" /><trkpt lat="22.40594278125" lon="113.95312079638671" /><trkpt lat="22.40605278125" lon="113.95313779638671" /><trkpt lat="22.40607478125" lon="113.95312079638671" /><trkpt lat="22.40608978125" lon="113.95309179638672" /><trkpt lat="22.40609678125" lon="113.95303879638672" /><trkpt lat="22.40608378125" lon="113.95296779638672" /><trkpt lat="22.40603478125" lon="113.95281879638672" /><trkpt lat="22.40598078125" lon="113.95267679638673" /><trkpt lat="22.40597278125" lon="113.95265379638671" /><trkpt lat="22.40596778125" lon="113.95262479638671" /><trkpt lat="22.40598278125" lon="113.95258479638672" /><trkpt lat="22.40602778125" lon="113.95256679638672" /><trkpt lat="22.40605178125" lon="113.95256879638671" /><trkpt lat="22.40610078125" lon="113.95258879638672" /><trkpt lat="22.40625478125" lon="113.95271779638672" /><trkpt lat="22.40644778125" lon="113.95289479638672" /><trkpt lat="22.40655478125" lon="113.95301679638672" /><trkpt lat="22.40662578125" lon="113.95309979638672" /><trkpt lat="22.40664378125" lon="113.95312079638671" /><trkpt lat="22.40667678125" lon="113.95313479638672" /><trkpt lat="22.40689978125" lon="113.95316979638672" /><trkpt lat="22.40692778125" lon="113.95317679638671" /><trkpt lat="22.40700778125" lon="113.95319279638672" /><trkpt lat="22.40706678125" lon="113.95322979638672" /><trkpt lat="22.40713178125" lon="113.95328879638672" /><trkpt lat="22.40718078125" lon="113.95331079638672" /><trkpt lat="22.40733078125" lon="113.95331879638672" /><trkpt lat="22.40740178125" lon="113.95331879638672" /><trkpt lat="22.40748378125" lon="113.95329779638672" /><trkpt lat="22.40757678125" lon="113.95323279638671" /><trkpt lat="22.40766978125" lon="113.95309279638671" /><trkpt lat="22.40777078125" lon="113.95298079638673" /><trkpt lat="22.40789978125" lon="113.95288979638671" /><trkpt lat="22.40794578125" lon="113.95278179638672" /><trkpt lat="22.40795678125" lon="113.95270179638672" /><trkpt lat="22.40802378125" lon="113.95264279638671" /><trkpt lat="22.40824778125" lon="113.95246079638672" /><trkpt lat="22.40836178125" lon="113.95236779638672" /><trkpt lat="22.40847178125" lon="113.95230479638671" /><trkpt lat="22.40853678125" lon="113.95222979638672" /><trkpt lat="22.40856278125" lon="113.95214879638672" /><trkpt lat="22.40856678125" lon="113.95209579638671" /><trkpt lat="22.40863378125" lon="113.95203079638672" /><trkpt lat="22.40882778125" lon="113.95199079638672" /><trkpt lat="22.40907778125" lon="113.95194379638671" /><trkpt lat="22.40916778125" lon="113.95200379638672" /><trkpt lat="22.40916678125" lon="113.95212179638672" /><trkpt lat="22.40909178125" lon="113.95227079638671" /><trkpt lat="22.40908778125" lon="113.95233279638671" /><trkpt lat="22.40912278125" lon="113.95249479638672" /><trkpt lat="22.40933578125" lon="113.95276279638672" /><trkpt lat="22.40935078125" lon="113.95280979638672" /><trkpt lat="22.40934378125" lon="113.95322879638672" /><trkpt lat="22.40941978125" lon="113.95350679638672" /><trkpt lat="22.40962978125" lon="113.95368779638672" /><trkpt lat="22.40981478125" lon="113.95368979638671" /><trkpt lat="22.40992678125" lon="113.95364179638672" /><trkpt lat="22.41004578125" lon="113.95344279638672" /><trkpt lat="22.41021978125" lon="113.95318579638672" /><trkpt lat="22.41033878125" lon="113.95305679638672" /><trkpt lat="22.41060678125" lon="113.95292279638672" /><trkpt lat="22.41073078125" lon="113.95276179638672" /><trkpt lat="22.41086478125" lon="113.95245579638672" /><trkpt lat="22.41089778125" lon="113.95223679638671" /><trkpt lat="22.41086978125" lon="113.95177979638672" /><trkpt lat="22.41082478125" lon="113.95150679638672" /><trkpt lat="22.41069578125" lon="113.95115779638672" /><trkpt lat="22.41062178125" lon="113.95098579638672" /><trkpt lat="22.41065578125" lon="113.95084679638671" /><trkpt lat="22.41081278125" lon="113.95079879638672" /><trkpt lat="22.41098678125" lon="113.95068079638672" /><trkpt lat="22.41101678125" lon="113.95055179638672" /><trkpt lat="22.41104778125" lon="113.95028279638672" /><trkpt lat="22.41114978125" lon="113.95006879638672" /><trkpt lat="22.41141978125" lon="113.94980579638671" /><trkpt lat="22.41158178125" lon="113.94950579638672" /><trkpt lat="22.41177978125" lon="113.94896379638672" /><trkpt lat="22.41184678125" lon="113.94890479638671" /><trkpt lat="22.41196078125" lon="113.94884579638672" /><trkpt lat="22.41213678125" lon="113.94877679638672" /><trkpt lat="22.41236278125" lon="113.94865879638672" /><trkpt lat="22.41247678125" lon="113.94851079638671" /><trkpt lat="22.41257978125" lon="113.94835179638672" /><trkpt lat="22.41266278125" lon="113.94822979638671" /><trkpt lat="22.41272678125" lon="113.94819479638672" /><trkpt lat="22.41281878125" lon="113.94816179638671" /><trkpt lat="22.41294778125" lon="113.94810279638672" /><trkpt lat="22.41308378125" lon="113.94799579638672" /><trkpt lat="22.41312878125" lon="113.94789979638672" /><trkpt lat="22.41323778125" lon="113.94784279638672" /><trkpt lat="22.41342878125" lon="113.94778679638672" /><trkpt lat="22.41348578125" lon="113.94773879638672" /><trkpt lat="22.41351078125" lon="113.94765779638672" /><trkpt lat="22.41351078125" lon="113.94759379638671" /><trkpt lat="22.41349778125" lon="113.94751479638671" /><trkpt lat="22.41362978125" lon="113.94715679638672" /><trkpt lat="22.41368878125" lon="113.94703079638671" /><trkpt lat="22.41378578125" lon="113.94689579638671" /><trkpt lat="22.41392478125" lon="113.94682879638673" /><trkpt lat="22.41417778125" lon="113.94674079638672" /><trkpt lat="22.41421878125" lon="113.94669879638671" /><trkpt lat="22.41425778125" lon="113.94662679638672" /><trkpt lat="22.41425778125" lon="113.94655679638672" /><trkpt lat="22.41420478125" lon="113.94640879638672" /><trkpt lat="22.41418078125" lon="113.94631079638671" /><trkpt lat="22.41418278125" lon="113.94622979638672" /><trkpt lat="22.41423078125" lon="113.94613979638672" /><trkpt lat="22.41429778125" lon="113.94606079638672" /><trkpt lat="22.41436878125" lon="113.94598079638672" /><trkpt lat="22.41455278125" lon="113.94589779638672" /><trkpt lat="22.41484778125" lon="113.94577879638672" /><trkpt lat="22.41500278125" lon="113.94564179638672" /><trkpt lat="22.41522578125" lon="113.94552979638672" /><trkpt lat="22.41546678125" lon="113.94544379638671" /><trkpt lat="22.41564278125" lon="113.94539479638672" /><trkpt lat="22.41571978125" lon="113.94534379638672" /><trkpt lat="22.41580078125" lon="113.94527579638672" /><trkpt lat="22.41595178125" lon="113.94507379638672" /><trkpt lat="22.41615178125" lon="113.94493379638672" /><trkpt lat="22.41633378125" lon="113.94485879638673" /><trkpt lat="22.41650178125" lon="113.94479679638673" /><trkpt lat="22.41661178125" lon="113.94476579638672" /><trkpt lat="22.41675978125" lon="113.94471179638671" /><trkpt lat="22.41688178125" lon="113.94461279638672" /><trkpt lat="22.41709278125" lon="113.94446179638672" /><trkpt lat="22.41737878125" lon="113.94426579638672" /><trkpt lat="22.41770778125" lon="113.94403779638672" /><trkpt lat="22.41787478125" lon="113.94396179638672" /><trkpt lat="22.41805778125" lon="113.94388379638671" /><trkpt lat="22.41816078125" lon="113.94385579638671" /><trkpt lat="22.41827178125" lon="113.94378279638671" /><trkpt lat="22.41834378125" lon="113.94372379638672" /><trkpt lat="22.41841278125" lon="113.94366479638671" /><trkpt lat="22.41846378125" lon="113.94358479638672" /><trkpt lat="22.41869178125" lon="113.94316579638672" /><trkpt lat="22.41872978125" lon="113.94314379638672" /><trkpt lat="22.41877278125" lon="113.94315279638671" /><trkpt lat="22.41880278125" lon="113.94317979638672" /><trkpt lat="22.41888678125" lon="113.94328579638672" /><trkpt lat="22.41900078125" lon="113.94336579638671" /><trkpt lat="22.41905078125" lon="113.94337679638672" /><trkpt lat="22.41921078125" lon="113.94337579638672" /><trkpt lat="22.41936178125" lon="113.94345979638672" /><trkpt lat="22.41945778125" lon="113.94355679638672" /><trkpt lat="22.41952878125" lon="113.94374879638671" /><trkpt lat="22.41956478125" lon="113.94381479638672" /><trkpt lat="22.41961178125" lon="113.94386379638672" /><trkpt lat="22.41971378125" lon="113.94386079638672" /><trkpt lat="22.41978078125" lon="113.94386179638671" /><trkpt lat="22.41991778125" lon="113.94390279638672" /><trkpt lat="22.42003878125" lon="113.94390479638672" /><trkpt lat="22.42012078125" lon="113.94384579638673" /><trkpt lat="22.42022078125" lon="113.94374579638672" /><trkpt lat="22.42049178125" lon="113.94355779638671" /><trkpt lat="22.42064578125" lon="113.94341779638673" /><trkpt lat="22.42068178125" lon="113.94337579638672" /><trkpt lat="22.42070678125" lon="113.94332179638671" /><trkpt lat="22.42071678125" lon="113.94325579638672" /><trkpt lat="22.42066178125" lon="113.94313579638671" /><trkpt lat="22.42042378125" lon="113.94282179638672" /><trkpt lat="22.42039578125" lon="113.94269679638671" /><trkpt lat="22.42039478125" lon="113.94257979638672" /><trkpt lat="22.42045878125" lon="113.94248379638672" /><trkpt lat="22.42054178125" lon="113.94241779638672" /><trkpt lat="22.42064178125" lon="113.94234679638672" /><trkpt lat="22.42074478125" lon="113.94230479638672" /><trkpt lat="22.42081578125" lon="113.94229579638672" /><trkpt lat="22.42096978125" lon="113.94228379638672" /><trkpt lat="22.42105178125" lon="113.94224979638672" /><trkpt lat="22.42114278125" lon="113.94220279638672" /><trkpt lat="22.42121378125" lon="113.94212979638672" /><trkpt lat="22.42128378125" lon="113.94203279638671" /><trkpt lat="22.42134578125" lon="113.94191479638671" /><trkpt lat="22.42139278125" lon="113.94185979638672" /><trkpt lat="22.42145378125" lon="113.94184779638672" /><trkpt lat="22.42163778125" lon="113.94181079638672" /><trkpt lat="22.42175678125" lon="113.94177079638672" /><trkpt lat="22.42183378125" lon="113.94168379638671" /><trkpt lat="22.42183478125" lon="113.94153679638671" /><trkpt lat="22.42178178125" lon="113.94138179638672" /><trkpt lat="22.42169278125" lon="113.94127379638672" /><trkpt lat="22.42167878125" lon="113.94118779638671" /><trkpt lat="22.42172078125" lon="113.94105379638673" /><trkpt lat="22.42184178125" lon="113.94118179638672" /><trkpt lat="22.42229378125" lon="113.94172279638671" /><trkpt lat="22.42233178125" lon="113.94182779638672" /><trkpt lat="22.42235478125" lon="113.94219379638672" /><trkpt lat="22.42239678125" lon="113.94230079638672" /><trkpt lat="22.42243978125" lon="113.94236079638672" /><trkpt lat="22.42258678125" lon="113.94244879638671" /><trkpt lat="22.42306178125" lon="113.94265779638671" /><trkpt lat="22.42315078125" lon="113.94272079638672" /><trkpt lat="22.42319578125" lon="113.94280079638672" /><trkpt lat="22.42317978125" lon="113.94293879638671" /><trkpt lat="22.42309678125" lon="113.94319979638672" /><trkpt lat="22.42324578125" lon="113.94304379638672" /><trkpt lat="22.42333678125" lon="113.94293779638672" /><trkpt lat="22.42344178125" lon="113.94282379638672" /><trkpt lat="22.42349378125" lon="113.94274579638672" /><trkpt lat="22.42355978125" lon="113.94261179638671" /><trkpt lat="22.42370978125" lon="113.94247679638671" /><trkpt lat="22.42388678125" lon="113.94242779638672" /><trkpt lat="22.42406378125" lon="113.94244879638671" /><trkpt lat="22.42422078125" lon="113.94242779638672" /><trkpt lat="22.42427678125" lon="113.94235079638672" /><trkpt lat="22.42431078125" lon="113.94226479638672" /><trkpt lat="22.42462178125" lon="113.94233179638672" /><trkpt lat="22.42480778125" lon="113.94229879638672" /><trkpt lat="22.42503778125" lon="113.94249079638672" /><trkpt lat="22.42538178125" lon="113.94265479638672" /><trkpt lat="22.42619978125" lon="113.94318079638671" /><trkpt lat="22.42628878125" lon="113.94318979638672" /><trkpt lat="22.42646178125" lon="113.94294979638671" /><trkpt lat="22.42670378125" lon="113.94286279638672" /><trkpt lat="22.42685678125" lon="113.94304779638672" /><trkpt lat="22.42691178125" lon="113.94310179638671" /><trkpt lat="22.42694412472085" lon="113.9431227638581" /></trkseg></trk></gpx>