<?xml version='1.0' encoding='UTF-8' ?><gpx version="1.1" creator="HikingTrailHK" xsi:schemaLocation="http://www.topografix.com/GPX/1/1 http://www.topografix.com/GPX/1/1/gpx.xsd" xmlns="http://www.topografix.com/GPX/1/1" xmlns:xsi="http://www.w3.org/2001/XMLSchema-instance"><metadata><name>茶壺咀脊 @ 2023-12-23</name><desc></desc></metadata><trk><trkseg><trkpt lat="22.22626378125" lon="113.92967279638673" /><trkpt lat="22.22652278125" lon="113.92940979638672" /><trkpt lat="22.22669178125" lon="113.92922279638672" /><trkpt lat="22.22687578125" lon="113.92905479638672" /><trkpt lat="22.22701478125" lon="113.92897079638672" /><trkpt lat="22.22717978125" lon="113.92891379638672" /><trkpt lat="22.22735778125" lon="113.92883679638672" /><trkpt lat="22.22743578125" lon="113.92881079638671" /><trkpt lat="22.22757678125" lon="113.92877379638672" /><trkpt lat="22.22777178125" lon="113.92876179638672" /><trkpt lat="22.22788178125" lon="113.92877179638671" /><trkpt lat="22.22798578125" lon="113.92878979638672" /><trkpt lat="22.22810078125" lon="113.92881779638672" /><trkpt lat="22.22818978125" lon="113.92885779638672" /><trkpt lat="22.22845978125" lon="113.92898879638672" /><trkpt lat="22.22857478125" lon="113.92902379638672" /><trkpt lat="22.22868478125" lon="113.92903679638673" /><trkpt lat="22.22881378125" lon="113.92904579638672" /><trkpt lat="22.22894378125" lon="113.92903479638672" /><trkpt lat="22.22904178125" lon="113.92901479638672" /><trkpt lat="22.22914078125" lon="113.92897979638671" /><trkpt lat="22.22933778125" lon="113.92888979638671" /><trkpt lat="22.22950178125" lon="113.92878079638672" /><trkpt lat="22.22964078125" lon="113.92866079638672" /><trkpt lat="22.22970178125" lon="113.92856779638672" /><trkpt lat="22.22974478125" lon="113.92844279638672" /><trkpt lat="22.22979578125" lon="113.92822079638673" /><trkpt lat="22.22988478125" lon="113.92778979638672" /><trkpt lat="22.22992678125" lon="113.92759979638672" /><trkpt lat="22.22998478125" lon="113.92741579638673" /><trkpt lat="22.23008378125" lon="113.92691579638672" /><trkpt lat="22.23007678125" lon="113.92678279638672" /><trkpt lat="22.23004478125" lon="113.92666279638672" /><trkpt lat="22.22977478125" lon="113.92632379638673" /><trkpt lat="22.22911178125" lon="113.92609579638672" /><trkpt lat="22.22928378125" lon="113.92603179638672" /><trkpt lat="22.22942378125" lon="113.92594479638672" /><trkpt lat="22.22981778125" lon="113.92589279638672" /><trkpt lat="22.230127955057313" lon="113.92579202747801" /><trkpt lat="22.23016878125" lon="113.92579279638672" /><trkpt lat="22.23027978125" lon="113.92574779638672" /><trkpt lat="22.23037678125" lon="113.92569479638672" /><trkpt lat="22.23045878125" lon="113.92560879638671" /><trkpt lat="22.23059678125" lon="113.92539779638672" /><trkpt lat="22.23068478125" lon="113.92528879638672" /><trkpt lat="22.23076978125" lon="113.92527579638671" /><trkpt lat="22.23086278125" lon="113.92531979638672" /><trkpt lat="22.23109778125" lon="113.92558679638672" /><trkpt lat="22.23116278125" lon="113.92560379638672" /><trkpt lat="22.23125978125" lon="113.92558579638671" /><trkpt lat="22.23136278125" lon="113.92556179638672" /><trkpt lat="22.23142678125" lon="113.92558279638672" /><trkpt lat="22.23149978125" lon="113.92562179638672" /><trkpt lat="22.23157278125" lon="113.92569579638672" /><trkpt lat="22.23166878125" lon="113.92573679638672" /><trkpt lat="22.23174978125" lon="113.92572979638672" /><trkpt lat="22.23182378125" lon="113.92568579638672" /><trkpt lat="22.23189078125" lon="113.92564979638672" /><trkpt lat="22.23196678125" lon="113.92563879638672" /><trkpt lat="22.23210378125" lon="113.92569979638672" /><trkpt lat="22.23219078125" lon="113.92581979638672" /><trkpt lat="22.23223278125" lon="113.92586579638672" /><trkpt lat="22.23229178125" lon="113.92590379638672" /><trkpt lat="22.23241078125" lon="113.92594279638672" /><trkpt lat="22.23252478125" lon="113.92594879638672" /><trkpt lat="22.23261578125" lon="113.92593179638672" /><trkpt lat="22.23294478125" lon="113.92598379638672" /><trkpt lat="22.23298678125" lon="113.92603579638671" /><trkpt lat="22.23301278125" lon="113.92615279638672" /><trkpt lat="22.23305978125" lon="113.92636579638672" /><trkpt lat="22.23309178125" lon="113.92643579638671" /><trkpt lat="22.23314778125" lon="113.92649779638671" /><trkpt lat="22.23321178125" lon="113.92655479638672" /><trkpt lat="22.23330578125" lon="113.92658679638672" /><trkpt lat="22.23348978125" lon="113.92659879638671" /><trkpt lat="22.23358778125" lon="113.92661979638672" /><trkpt lat="22.23363278125" lon="113.92669779638672" /><trkpt lat="22.23364378125" lon="113.92677279638671" /><trkpt lat="22.23362878125" lon="113.92700679638672" /><trkpt lat="22.23362578125" lon="113.92723979638671" /><trkpt lat="22.23370578125" lon="113.92731279638672" /><trkpt lat="22.23381078125" lon="113.92738079638671" /><trkpt lat="22.23402578125" lon="113.92752079638672" /><trkpt lat="22.23408378125" lon="113.92760579638671" /><trkpt lat="22.23411378125" lon="113.92771179638672" /><trkpt lat="22.23412378125" lon="113.92786079638672" /><trkpt lat="22.23420378125" lon="113.92788779638671" /><trkpt lat="22.23424478125" lon="113.92792079638672" /><trkpt lat="22.23434278125" lon="113.92794079638672" /><trkpt lat="22.23438078125" lon="113.92790879638672" /><trkpt lat="22.23446678125" lon="113.92782879638672" /><trkpt lat="22.23452978125" lon="113.92787979638672" /><trkpt lat="22.23487978125" lon="113.92783979638672" /><trkpt lat="22.23501978125" lon="113.92763979638671" /><trkpt lat="22.23520978125" lon="113.92755979638672" /><trkpt lat="22.23519978125" lon="113.92745979638671" /><trkpt lat="22.23527978125" lon="113.92739979638672" /><trkpt lat="22.23542978125" lon="113.92740979638671" /><trkpt lat="22.23557978125" lon="113.92726979638672" /><trkpt lat="22.23579978125" lon="113.92732979638672" /><trkpt lat="22.23602978125" lon="113.92724979638672" /><trkpt lat="22.23604978125" lon="113.92719979638672" /><trkpt lat="22.23608978125" lon="113.92722979638671" /><trkpt lat="22.23637978125" lon="113.92714979638671" /><trkpt lat="22.23650978125" lon="113.92700979638671" /><trkpt lat="22.23678978125" lon="113.92689979638672" /><trkpt lat="22.23706978125" lon="113.92670979638672" /><trkpt lat="22.23709978125" lon="113.92661979638672" /><trkpt lat="22.23738978125" lon="113.92634979638672" /><trkpt lat="22.23748978125" lon="113.92633979638671" /><trkpt lat="22.23763978125" lon="113.92619979638671" /><trkpt lat="22.23769978125" lon="113.92600979638672" /><trkpt lat="22.23767978125" lon="113.92573979638672" /><trkpt lat="22.23783978125" lon="113.92555979638672" /><trkpt lat="22.23797978125" lon="113.92548979638671" /><trkpt lat="22.23800978125" lon="113.92538979638672" /><trkpt lat="22.23821978125" lon="113.92524979638672" /><trkpt lat="22.23820978125" lon="113.92515979638672" /><trkpt lat="22.23828978125" lon="113.92503979638671" /><trkpt lat="22.23842978125" lon="113.92500979638672" /><trkpt lat="22.23837978125" lon="113.92499979638671" /><trkpt lat="22.23842978125" lon="113.92485979638671" /><trkpt lat="22.23866978125" lon="113.92472979638671" /><trkpt lat="22.23887978125" lon="113.92450979638672" /><trkpt lat="22.23901978125" lon="113.92448979638672" /><trkpt lat="22.23907978125" lon="113.92454979638671" /><trkpt lat="22.23935978125" lon="113.92440979638671" /><trkpt lat="22.23958978125" lon="113.92438979638672" /><trkpt lat="22.23981978125" lon="113.92415979638672" /><trkpt lat="22.23983978125" lon="113.92405979638671" /><trkpt lat="22.24007778125" lon="113.92399279638671" /><trkpt lat="22.24026478125" lon="113.92373179638672" /><trkpt lat="22.24057978125" lon="113.92351679638672" /><trkpt lat="22.24073578125" lon="113.92351179638672" /><trkpt lat="22.24077478125" lon="113.92344679638671" /><trkpt lat="22.24087378125" lon="113.92339479638672" /><trkpt lat="22.24094678125" lon="113.92326279638672" /><trkpt lat="22.24103678125" lon="113.92318079638672" /><trkpt lat="22.24109878125" lon="113.92303079638671" /><trkpt lat="22.24125478125" lon="113.92296579638672" /><trkpt lat="22.24139278125" lon="113.92282079638672" /><trkpt lat="22.24152678125" lon="113.92284379638672" /><trkpt lat="22.24160478125" lon="113.92274579638672" /><trkpt lat="22.24168278125" lon="113.92270879638671" /><trkpt lat="22.24181678125" lon="113.92252179638672" /><trkpt lat="22.24186378125" lon="113.92254079638671" /><trkpt lat="22.24203278125" lon="113.92227479638672" /><trkpt lat="22.24207978125" lon="113.92226079638672" /><trkpt lat="22.24215378125" lon="113.92213879638672" /><trkpt lat="22.24216178125" lon="113.92209679638673" /><trkpt lat="22.24226178125" lon="113.92197579638672" /><trkpt lat="22.24248978125" lon="113.92185979638671" /><trkpt lat="22.24262478125" lon="113.92189179638672" /><trkpt lat="22.24270678125" lon="113.92190079638672" /><trkpt lat="22.24282778125" lon="113.92188679638672" /><trkpt lat="22.24339378125" lon="113.92198979638673" /><trkpt lat="22.24358978125" lon="113.92208979638671" /><trkpt lat="22.24360978125" lon="113.92219979638672" /><trkpt lat="22.24396978125" lon="113.92225979638673" /><trkpt lat="22.24409978125" lon="113.92239979638671" /><trkpt lat="22.24414978125" lon="113.92238979638672" /><trkpt lat="22.24423978125" lon="113.92255979638672" /><trkpt lat="22.24423978125" lon="113.92253979638672" /><trkpt lat="22.24424978125" lon="113.92250979638672" /><trkpt lat="22.24427978125" lon="113.92251979638672" /><trkpt lat="22.24444978125" lon="113.92263979638672" /><trkpt lat="22.24450978125" lon="113.92276979638672" /><trkpt lat="22.24469978125" lon="113.92285979638672" /><trkpt lat="22.24479978125" lon="113.92283979638673" /><trkpt lat="22.24519978125" lon="113.92275979638671" /><trkpt lat="22.24549978125" lon="113.92279979638671" /><trkpt lat="22.24558978125" lon="113.92268979638672" /><trkpt lat="22.24580978125" lon="113.92265979638672" /><trkpt lat="22.24606978125" lon="113.92262879638672" /><trkpt lat="22.24613578125" lon="113.92258279638672" /><trkpt lat="22.24625578125" lon="113.92259879638672" /><trkpt lat="22.24631978125" lon="113.92258479638672" /><trkpt lat="22.24637278125" lon="113.92252479638672" /><trkpt lat="22.24641678125" lon="113.92247779638672" /><trkpt lat="22.24641578125" lon="113.92238679638672" /><trkpt lat="22.24645278125" lon="113.92230779638672" /><trkpt lat="22.24652178125" lon="113.92219679638671" /><trkpt lat="22.24649478125" lon="113.92207679638672" /><trkpt lat="22.24650178125" lon="113.92198179638672" /><trkpt lat="22.24653878125" lon="113.92187379638672" /><trkpt lat="22.24655578125" lon="113.92184579638672" /><trkpt lat="22.24670278125" lon="113.92190979638671" /><trkpt lat="22.24682178125" lon="113.92200079638671" /><trkpt lat="22.24689078125" lon="113.92208879638672" /><trkpt lat="22.24694678125" lon="113.92216979638673" /><trkpt lat="22.24716078125" lon="113.92221279638672" /><trkpt lat="22.24734178125" lon="113.92220279638671" /><trkpt lat="22.24755678125" lon="113.92229379638673" /><trkpt lat="22.24769478125" lon="113.92235279638672" /><trkpt lat="22.24787478125" lon="113.92233079638672" /><trkpt lat="22.24805278125" lon="113.92233079638672" /><trkpt lat="22.24829678125" lon="113.92230379638671" /><trkpt lat="22.24846978125" lon="113.92249179638672" /><trkpt lat="22.24872978125" lon="113.92272879638672" /><trkpt lat="22.24886078125" lon="113.92277079638671" /><trkpt lat="22.24886578125" lon="113.92262079638672" /><trkpt lat="22.24887378125" lon="113.92253779638672" /><trkpt lat="22.24885778125" lon="113.92247879638671" /><trkpt lat="22.24884278125" lon="113.92241379638672" /><trkpt lat="22.24883678125" lon="113.92236979638672" /><trkpt lat="22.24883578125" lon="113.92232879638672" /><trkpt lat="22.24881778125" lon="113.92228479638672" /><trkpt lat="22.24878078125" lon="113.92220979638672" /><trkpt lat="22.24875778125" lon="113.92213379638672" /><trkpt lat="22.24875578125" lon="113.92205979638672" /><trkpt lat="22.24876978125" lon="113.92199379638672" /><trkpt lat="22.24880578125" lon="113.92187279638672" /><trkpt lat="22.24882078125" lon="113.92177079638672" /><trkpt lat="22.24883578125" lon="113.92171579638672" /><trkpt lat="22.24886478125" lon="113.92168179638672" /><trkpt lat="22.24882678125" lon="113.92165779638673" /><trkpt lat="22.24885578125" lon="113.92161979638672" /><trkpt lat="22.24884478125" lon="113.92159579638673" /><trkpt lat="22.24884678125" lon="113.92157879638673" /><trkpt lat="22.24884878125" lon="113.92156379638672" /><trkpt lat="22.24883578125" lon="113.92152279638672" /><trkpt lat="22.24884178125" lon="113.92149879638671" /><trkpt lat="22.24885178125" lon="113.92148479638672" /><trkpt lat="22.24885478125" lon="113.92146679638672" /><trkpt lat="22.24887278125" lon="113.92144279638671" /><trkpt lat="22.24887178125" lon="113.92141879638672" /><trkpt lat="22.24888378125" lon="113.92139879638673" /><trkpt lat="22.24889278125" lon="113.92137079638673" /><trkpt lat="22.24895078125" lon="113.92130179638671" /><trkpt lat="22.24898478125" lon="113.92128079638672" /><trkpt lat="22.24902578125" lon="113.92125579638672" /><trkpt lat="22.24905278125" lon="113.92124279638672" /><trkpt lat="22.24907578125" lon="113.92124179638672" /><trkpt lat="22.24908978125" lon="113.92122379638671" /><trkpt lat="22.24908178125" lon="113.92119179638672" /><trkpt lat="22.24906478125" lon="113.92117079638672" /><trkpt lat="22.24905378125" lon="113.92115779638672" /><trkpt lat="22.24906978125" lon="113.92111979638672" /><trkpt lat="22.24909578125" lon="113.92108879638671" /><trkpt lat="22.24908378125" lon="113.92106279638672" /><trkpt lat="22.24908178125" lon="113.92104579638672" /><trkpt lat="22.24910078125" lon="113.92102779638672" /><trkpt lat="22.24911778125" lon="113.92100679638672" /><trkpt lat="22.24911578125" lon="113.92098979638672" /><trkpt lat="22.24910378125" lon="113.92097579638671" /><trkpt lat="22.24910678125" lon="113.92095679638672" /><trkpt lat="22.24910078125" lon="113.92093979638672" /><trkpt lat="22.24910678125" lon="113.92091879638672" /><trkpt lat="22.24911478125" lon="113.92090879638671" /><trkpt lat="22.24911178125" lon="113.92088679638672" /><trkpt lat="22.24912678125" lon="113.92086179638672" /><trkpt lat="22.24914878125" lon="113.92084079638671" /><trkpt lat="22.24914878125" lon="113.92082079638672" /><trkpt lat="22.24915578125" lon="113.92078379638671" /><trkpt lat="22.24917178125" lon="113.92077279638671" /><trkpt lat="22.24918678125" lon="113.92074979638672" /><trkpt lat="22.24918278125" lon="113.92070679638672" /><trkpt lat="22.24917678125" lon="113.92066679638671" /><trkpt lat="22.24918678125" lon="113.92060579638672" /><trkpt lat="22.24919278125" lon="113.92053379638672" /><trkpt lat="22.24922778125" lon="113.92049579638672" /><trkpt lat="22.24922578125" lon="113.92046079638672" /><trkpt lat="22.24922878125" lon="113.92041979638672" /><trkpt lat="22.24923778125" lon="113.92039679638673" /><trkpt lat="22.24924478125" lon="113.92035379638672" /><trkpt lat="22.24925178125" lon="113.92031679638671" /><trkpt lat="22.24923978125" lon="113.92028279638672" /><trkpt lat="22.24924778125" lon="113.92023579638672" /><trkpt lat="22.24923978125" lon="113.92018879638673" /><trkpt lat="22.24923578125" lon="113.92014379638672" /><trkpt lat="22.24924378125" lon="113.92007379638672" /><trkpt lat="22.24916678125" lon="113.92009179638671" /><trkpt lat="22.24911478125" lon="113.92007679638672" /><trkpt lat="22.24909378125" lon="113.92000579638672" /><trkpt lat="22.24902178125" lon="113.91998979638672" /><trkpt lat="22.24894678125" lon="113.91993879638672" /><trkpt lat="22.24878778125" lon="113.91984379638671" /><trkpt lat="22.24870278125" lon="113.91982879638672" /><trkpt lat="22.24858478125" lon="113.91978479638672" /><trkpt lat="22.24847878125" lon="113.91976779638672" /><trkpt lat="22.24835678125" lon="113.91979279638672" /><trkpt lat="22.24818978125" lon="113.91968979638672" /><trkpt lat="22.24810978125" lon="113.91967979638672" /><trkpt lat="22.24800778125" lon="113.91961979638671" /><trkpt lat="22.24796778125" lon="113.91959079638671" /><trkpt lat="22.24795878125" lon="113.91951979638672" /><trkpt lat="22.24787478125" lon="113.91943679638672" /><trkpt lat="22.24780978125" lon="113.91923879638672" /><trkpt lat="22.24768578125" lon="113.91902079638672" /><trkpt lat="22.24763678125" lon="113.91899679638672" /><trkpt lat="22.24759278125" lon="113.91902179638672" /><trkpt lat="22.24750978125" lon="113.91893079638672" /><trkpt lat="22.24733078125" lon="113.91866379638672" /><trkpt lat="22.24723578125" lon="113.91856379638672" /><trkpt lat="22.24715878125" lon="113.91843379638672" /><trkpt lat="22.24707378125" lon="113.91834279638672" /><trkpt lat="22.24702278125" lon="113.91832879638672" /><trkpt lat="22.24691578125" lon="113.91816079638672" /><trkpt lat="22.24683878125" lon="113.91814579638672" /><trkpt lat="22.24675878125" lon="113.91810479638671" /><trkpt lat="22.24677178125" lon="113.91807079638671" /><trkpt lat="22.24677178125" lon="113.91793779638672" /><trkpt lat="22.24672678125" lon="113.91782579638672" /><trkpt lat="22.24672178125" lon="113.91777479638672" /><trkpt lat="22.24676178125" lon="113.91761279638672" /><trkpt lat="22.24679178125" lon="113.91743979638672" /><trkpt lat="22.24682678125" lon="113.91733879638672" /><trkpt lat="22.24691178125" lon="113.91725479638671" /><trkpt lat="22.24694978125" lon="113.91707279638672" /><trkpt lat="22.24702178125" lon="113.91698179638672" /><trkpt lat="22.24745978125" lon="113.91638079638672" /><trkpt lat="22.24744578125" lon="113.91627279638672" /><trkpt lat="22.24737378125" lon="113.91617579638672" /><trkpt lat="22.24745778125" lon="113.91611979638672" /><trkpt lat="22.24739478125" lon="113.91602579638672" /><trkpt lat="22.24748578125" lon="113.91600679638672" /><trkpt lat="22.24744878125" lon="113.91592979638672" /><trkpt lat="22.24756178125" lon="113.91592279638672" /><trkpt lat="22.24758478125" lon="113.91590479638671" /><trkpt lat="22.24755078125" lon="113.91585579638672" /><trkpt lat="22.24755678125" lon="113.91579379638672" /><trkpt lat="22.24761778125" lon="113.91578079638671" /><trkpt lat="22.24774178125" lon="113.91575979638672" /><trkpt lat="22.24783078125" lon="113.91575779638671" /><trkpt lat="22.24787378125" lon="113.91575679638672" /><trkpt lat="22.24796678125" lon="113.91568679638672" /><trkpt lat="22.24806278125" lon="113.91567579638672" /><trkpt lat="22.24810078125" lon="113.91566879638673" /><trkpt lat="22.24812878125" lon="113.91566879638673" /><trkpt lat="22.24817078125" lon="113.91563779638672" /><trkpt lat="22.24827978125" lon="113.91551279638672" /><trkpt lat="22.24829878125" lon="113.91538679638671" /><trkpt lat="22.24838978125" lon="113.91532579638672" /><trkpt lat="22.24840478125" lon="113.91531379638671" /><trkpt lat="22.24846178125" lon="113.91525179638671" /><trkpt lat="22.24849378125" lon="113.91514879638672" /><trkpt lat="22.24848878125" lon="113.91496179638672" /><trkpt lat="22.24848678125" lon="113.91491279638672" /><trkpt lat="22.24854378125" lon="113.91475079638671" /><trkpt lat="22.24855278125" lon="113.91464979638671" /><trkpt lat="22.24855678125" lon="113.91458979638672" /><trkpt lat="22.24855678125" lon="113.91452579638671" /><trkpt lat="22.24858578125" lon="113.91445079638672" /><trkpt lat="22.24867178125" lon="113.91444479638672" /><trkpt lat="22.24872578125" lon="113.91440279638672" /><trkpt lat="22.24877778125" lon="113.91435979638672" /><trkpt lat="22.24884178125" lon="113.91430379638672" /><trkpt lat="22.24892378125" lon="113.91418979638672" /><trkpt lat="22.24901178125" lon="113.91409379638672" /><trkpt lat="22.24906378125" lon="113.91399079638671" /><trkpt lat="22.24912978125" lon="113.91390379638672" /><trkpt lat="22.24929378125" lon="113.91390379638672" /><trkpt lat="22.24965878125" lon="113.91386979638672" /><trkpt lat="22.24985678125" lon="113.91382979638672" /><trkpt lat="22.25001378125" lon="113.91376279638672" /><trkpt lat="22.25018178125" lon="113.91371579638673" /><trkpt lat="22.25026378125" lon="113.91369379638672" /><trkpt lat="22.25045878125" lon="113.91354379638672" /><trkpt lat="22.25056078125" lon="113.91350879638672" /><trkpt lat="22.25063378125" lon="113.91344779638672" /><trkpt lat="22.25104478125" lon="113.91327679638673" /><trkpt lat="22.25125478125" lon="113.91331679638672" /><trkpt lat="22.25137878125" lon="113.91330579638672" /><trkpt lat="22.25152878125" lon="113.91339879638672" /><trkpt lat="22.25162678125" lon="113.91335779638672" /><trkpt lat="22.25170178125" lon="113.91333079638672" /><trkpt lat="22.25177978125" lon="113.91332279638672" /><trkpt lat="22.25193878125" lon="113.91330679638672" /><trkpt lat="22.25199278125" lon="113.91330179638672" /><trkpt lat="22.25211578125" lon="113.91323379638672" /><trkpt lat="22.25214078125" lon="113.91314879638672" /><trkpt lat="22.25214178125" lon="113.91308079638672" /><trkpt lat="22.25208278125" lon="113.91298879638671" /><trkpt lat="22.25205978125" lon="113.91289279638671" /><trkpt lat="22.25207678125" lon="113.91273779638672" /><trkpt lat="22.25209378125" lon="113.91269979638672" /><trkpt lat="22.25215178125" lon="113.91265879638672" /><trkpt lat="22.25220378125" lon="113.91263179638672" /><trkpt lat="22.25223778125" lon="113.91261779638671" /><trkpt lat="22.25227978125" lon="113.91259179638672" /><trkpt lat="22.25236878125" lon="113.91254279638672" /><trkpt lat="22.25241978125" lon="113.91249979638673" /><trkpt lat="22.25251878125" lon="113.91243179638671" /><trkpt lat="22.25266178125" lon="113.91232579638672" /><trkpt lat="22.25265878125" lon="113.91232079638672" /><trkpt lat="22.25265478125" lon="113.91231679638672" /><trkpt lat="22.25263578125" lon="113.91228479638671" /><trkpt lat="22.25268478125" lon="113.91221479638672" /><trkpt lat="22.25271278125" lon="113.91216979638672" /><trkpt lat="22.25275978125" lon="113.91209879638672" /><trkpt lat="22.25312178125" lon="113.91178879638672" /><trkpt lat="22.25331778125" lon="113.91165179638672" /><trkpt lat="22.25339278125" lon="113.91157179638672" /><trkpt lat="22.25346478125" lon="113.91147179638672" /><trkpt lat="22.25354678125" lon="113.91136879638672" /><trkpt lat="22.25359978125" lon="113.91122679638671" /><trkpt lat="22.25370678125" lon="113.91087979638672" /><trkpt lat="22.25383778125" lon="113.91032979638672" /><trkpt lat="22.25378378125" lon="113.91003879638671" /><trkpt lat="22.25383878125" lon="113.90999279638672" /><trkpt lat="22.25392578125" lon="113.90982279638672" /><trkpt lat="22.25398378125" lon="113.90965179638673" /><trkpt lat="22.25402478125" lon="113.90956079638671" /><trkpt lat="22.25407478125" lon="113.90948179638671" /><trkpt lat="22.25406578125" lon="113.90944279638671" /><trkpt lat="22.25401578125" lon="113.90922979638673" /><trkpt lat="22.25395978125" lon="113.90902679638671" /><trkpt lat="22.25390178125" lon="113.90881479638672" /><trkpt lat="22.25389678125" lon="113.90871679638671" /><trkpt lat="22.25387378125" lon="113.90858579638672" /><trkpt lat="22.25381278125" lon="113.90845879638672" /><trkpt lat="22.25378178125" lon="113.90837979638673" /><trkpt lat="22.25382578125" lon="113.90832579638672" /><trkpt lat="22.25388278125" lon="113.90828079638672" /><trkpt lat="22.25399778125" lon="113.90824479638673" /><trkpt lat="22.25410278125" lon="113.90820379638672" /><trkpt lat="22.25422978125" lon="113.90813379638672" /><trkpt lat="22.25430278125" lon="113.90807279638672" /><trkpt lat="22.25436978125" lon="113.90799779638672" /><trkpt lat="22.25442678125" lon="113.90794679638672" /><trkpt lat="22.25445278125" lon="113.90774979638672" /><trkpt lat="22.25445978125" lon="113.90758779638672" /><trkpt lat="22.25443078125" lon="113.90737879638672" /><trkpt lat="22.25441678125" lon="113.90716679638672" /><trkpt lat="22.25439678125" lon="113.90692579638672" /><trkpt lat="22.25441378125" lon="113.90673979638672" /><trkpt lat="22.25443278125" lon="113.90661279638672" /><trkpt lat="22.25452078125" lon="113.90642279638672" /><trkpt lat="22.25456578125" lon="113.90641879638672" /><trkpt lat="22.25474978125" lon="113.90629579638671" /><trkpt lat="22.25481278125" lon="113.90625379638672" /><trkpt lat="22.25486178125" lon="113.90620279638672" /><trkpt lat="22.25502578125" lon="113.90606179638672" /><trkpt lat="22.25509578125" lon="113.90601079638672" /><trkpt lat="22.25516778125" lon="113.90598079638671" /><trkpt lat="22.25525178125" lon="113.90599479638672" /><trkpt lat="22.25527178125" lon="113.90586679638672" /><trkpt lat="22.25535378125" lon="113.90461779638672" /><trkpt lat="22.25545178125" lon="113.90455679638671" /><trkpt lat="22.25548378125" lon="113.90453679638672" /><trkpt lat="22.25550978125" lon="113.90446879638672" /><trkpt lat="22.25554478125" lon="113.90424279638673" /><trkpt lat="22.25554178125" lon="113.90369879638672" /><trkpt lat="22.25554478125" lon="113.90363479638673" /><trkpt lat="22.25557078125" lon="113.90359479638671" /><trkpt lat="22.25565378125" lon="113.90351179638672" /><trkpt lat="22.25598778125" lon="113.90323179638672" /><trkpt lat="22.25617778125" lon="113.90302679638671" /><trkpt lat="22.25607478125" lon="113.90292079638672" /><trkpt lat="22.25604578125" lon="113.90289079638671" /><trkpt lat="22.25594978125" lon="113.90298779638672" /><trkpt lat="22.25583078125" lon="113.90287079638672" /><trkpt lat="22.25564078125" lon="113.90265579638672" /><trkpt lat="22.255592998667726" lon="113.90259718156157" /></trkseg></trk></gpx>