<?xml version='1.0' encoding='UTF-8' ?><gpx version="1.1" creator="HikingTrailHK" xsi:schemaLocation="http://www.topografix.com/GPX/1/1 http://www.topografix.com/GPX/1/1/gpx.xsd" xmlns="http://www.topografix.com/GPX/1/1" xmlns:xsi="http://www.w3.org/2001/XMLSchema-instance"><metadata><name>菠蘿輋--水浪窩 @ 2016-6-25 11:28:57</name><desc></desc></metadata><trk><trkseg><trkpt lat="22.3784255933739" lon="114.26545120235753" /><trkpt lat="22.37827778125" lon="114.26534979638672" /><trkpt lat="22.37773578125" lon="114.26497879638671" /><trkpt lat="22.37778478125" lon="114.26488879638671" /><trkpt lat="22.37792778125" lon="114.26454679638672" /><trkpt lat="22.37801778125" lon="114.26446179638671" /><trkpt lat="22.37810578125" lon="114.26438679638672" /><trkpt lat="22.37822078125" lon="114.26436079638673" /><trkpt lat="22.37835378125" lon="114.26437579638672" /><trkpt lat="22.37855278125" lon="114.26447579638672" /><trkpt lat="22.37870678125" lon="114.26451879638672" /><trkpt lat="22.37879878125" lon="114.26453379638671" /><trkpt lat="22.37887178125" lon="114.26449779638672" /><trkpt lat="22.37893178125" lon="114.26444379638671" /><trkpt lat="22.37896878125" lon="114.26438179638671" /><trkpt lat="22.37903178125" lon="114.26427879638672" /><trkpt lat="22.37911778125" lon="114.26415079638672" /><trkpt lat="22.37925978125" lon="114.26396279638672" /><trkpt lat="22.37928078125" lon="114.26393679638672" /><trkpt lat="22.37936478125" lon="114.26383779638672" /><trkpt lat="22.37942778125" lon="114.26372579638672" /><trkpt lat="22.37943078125" lon="114.26361779638673" /><trkpt lat="22.37939278125" lon="114.26349279638671" /><trkpt lat="22.37937378125" lon="114.26336079638672" /><trkpt lat="22.37940978125" lon="114.26325779638672" /><trkpt lat="22.37946478125" lon="114.26317379638672" /><trkpt lat="22.37954778125" lon="114.26310379638672" /><trkpt lat="22.37964878125" lon="114.26302879638672" /><trkpt lat="22.37975578125" lon="114.26292579638672" /><trkpt lat="22.37985378125" lon="114.26279879638672" /><trkpt lat="22.37997778125" lon="114.26265979638671" /><trkpt lat="22.38008078125" lon="114.26260979638671" /><trkpt lat="22.38016778125" lon="114.26260979638671" /><trkpt lat="22.38025978125" lon="114.26264179638672" /><trkpt lat="22.38034778125" lon="114.26269779638672" /><trkpt lat="22.38045378125" lon="114.26281279638673" /><trkpt lat="22.38050178125" lon="114.26287479638673" /><trkpt lat="22.38054878125" lon="114.26294579638672" /><trkpt lat="22.38059778125" lon="114.26306179638672" /><trkpt lat="22.38064978125" lon="114.26322479638672" /><trkpt lat="22.38070678125" lon="114.26341379638671" /><trkpt lat="22.38078178125" lon="114.26354879638671" /><trkpt lat="22.38106578125" lon="114.26373579638671" /><trkpt lat="22.38118878125" lon="114.26382379638672" /><trkpt lat="22.38134478125" lon="114.26394079638672" /><trkpt lat="22.38142578125" lon="114.26399679638672" /><trkpt lat="22.38151878125" lon="114.26405679638673" /><trkpt lat="22.38160678125" lon="114.26410879638672" /><trkpt lat="22.38168378125" lon="114.26414979638672" /><trkpt lat="22.38176378125" lon="114.26418779638672" /><trkpt lat="22.38185478125" lon="114.26422979638672" /><trkpt lat="22.38194278125" lon="114.26427379638672" /><trkpt lat="22.38211078125" lon="114.26434079638672" /><trkpt lat="22.38226278125" lon="114.26440579638673" /><trkpt lat="22.38242178125" lon="114.26447879638671" /><trkpt lat="22.38250378125" lon="114.26450079638671" /><trkpt lat="22.38270778125" lon="114.26447179638672" /><trkpt lat="22.38264478125" lon="114.26440579638673" /><trkpt lat="22.38262078125" lon="114.26431779638672" /><trkpt lat="22.38267478125" lon="114.26418479638671" /><trkpt lat="22.38278978125" lon="114.26399279638672" /><trkpt lat="22.38318678125" lon="114.26374579638671" /><trkpt lat="22.38325478125" lon="114.26367579638672" /><trkpt lat="22.38343978125" lon="114.26348579638672" /><trkpt lat="22.38383578125" lon="114.26296279638672" /><trkpt lat="22.38411878125" lon="114.26270579638671" /><trkpt lat="22.38431378125" lon="114.26252779638672" /><trkpt lat="22.38450878125" lon="114.26235079638671" /><trkpt lat="22.38476178125" lon="114.26205179638671" /><trkpt lat="22.38492878125" lon="114.26191579638672" /><trkpt lat="22.38508278125" lon="114.26179279638671" /><trkpt lat="22.38521678125" lon="114.26166179638672" /><trkpt lat="22.38531578125" lon="114.26154479638672" /><trkpt lat="22.38552378125" lon="114.26126179638672" /><trkpt lat="22.38559178125" lon="114.26110379638672" /><trkpt lat="22.38555578125" lon="114.26089179638672" /><trkpt lat="22.38564978125" lon="114.26075779638671" /><trkpt lat="22.38556978125" lon="114.26058479638672" /><trkpt lat="22.38548878125" lon="114.26056379638672" /><trkpt lat="22.38541578125" lon="114.26033679638672" /><trkpt lat="22.38543278125" lon="114.26028579638673" /><trkpt lat="22.38526178125" lon="114.26003379638672" /><trkpt lat="22.38523778125" lon="114.26000679638672" /><trkpt lat="22.38531078125" lon="114.25989779638672" /><trkpt lat="22.38539578125" lon="114.25979579638671" /><trkpt lat="22.38551478125" lon="114.25960879638671" /><trkpt lat="22.38547578125" lon="114.25938679638672" /><trkpt lat="22.38538878125" lon="114.25920079638672" /><trkpt lat="22.38533178125" lon="114.25910279638671" /><trkpt lat="22.38531178125" lon="114.25898579638672" /><trkpt lat="22.38532978125" lon="114.25888279638671" /><trkpt lat="22.38535578125" lon="114.25878279638673" /><trkpt lat="22.38534778125" lon="114.25872679638672" /><trkpt lat="22.38534478125" lon="114.25867779638672" /><trkpt lat="22.38536878125" lon="114.25858479638671" /><trkpt lat="22.38545978125" lon="114.25840779638672" /><trkpt lat="22.38546778125" lon="114.25832979638672" /><trkpt lat="22.38545078125" lon="114.25818779638672" /><trkpt lat="22.38553078125" lon="114.25798879638671" /><trkpt lat="22.38570878125" lon="114.25784579638672" /><trkpt lat="22.38577178125" lon="114.25776279638671" /><trkpt lat="22.38581878125" lon="114.25754079638672" /><trkpt lat="22.38588478125" lon="114.25745279638672" /><trkpt lat="22.38593378125" lon="114.25736779638672" /><trkpt lat="22.38603478125" lon="114.25728479638671" /><trkpt lat="22.38622378125" lon="114.25719379638672" /><trkpt lat="22.38633278125" lon="114.25706479638671" /><trkpt lat="22.38656478125" lon="114.25695579638672" /><trkpt lat="22.38664478125" lon="114.25673179638672" /><trkpt lat="22.38672378125" lon="114.25646479638672" /><trkpt lat="22.38685878125" lon="114.25622879638672" /><trkpt lat="22.38690278125" lon="114.25606679638672" /><trkpt lat="22.38684378125" lon="114.25593279638672" /><trkpt lat="22.38666478125" lon="114.25590379638672" /><trkpt lat="22.38653578125" lon="114.25566479638672" /><trkpt lat="22.38647478125" lon="114.25552279638671" /><trkpt lat="22.38645678125" lon="114.25533679638671" /><trkpt lat="22.38647178125" lon="114.25522979638671" /><trkpt lat="22.38642678125" lon="114.25510079638671" /><trkpt lat="22.386585781249998" lon="114.25495079638672" /><trkpt lat="22.38667478125" lon="114.25494579638672" /><trkpt lat="22.38669978125" lon="114.25485479638672" /><trkpt lat="22.38681878125" lon="114.25470379638672" /><trkpt lat="22.38692278125" lon="114.25462379638672" /><trkpt lat="22.38704678125" lon="114.25466679638672" /><trkpt lat="22.38730178125" lon="114.25439679638671" /><trkpt lat="22.38739078125" lon="114.25434379638672" /><trkpt lat="22.38749778125" lon="114.25419379638672" /><trkpt lat="22.38754378125" lon="114.25398979638672" /><trkpt lat="22.38762278125" lon="114.25389379638672" /><trkpt lat="22.38769178125" lon="114.25384079638673" /><trkpt lat="22.38775078125" lon="114.25378079638672" /><trkpt lat="22.38781578125" lon="114.25364179638672" /><trkpt lat="22.38785578125" lon="114.25353479638672" /><trkpt lat="22.38794978125" lon="114.25344879638672" /><trkpt lat="22.38800878125" lon="114.25335279638672" /><trkpt lat="22.38812778125" lon="114.25326079638671" /><trkpt lat="22.38820778125" lon="114.25318079638672" /><trkpt lat="22.38834178125" lon="114.25305279638673" /><trkpt lat="22.38835678125" lon="114.25294379638672" /><trkpt lat="22.38837878125" lon="114.25284779638672" /><trkpt lat="22.38836378125" lon="114.25273879638672" /><trkpt lat="22.38838178125" lon="114.25263479638672" /><trkpt lat="22.38845678125" lon="114.25247079638672" /><trkpt lat="22.38847078125" lon="114.25229679638672" /><trkpt lat="22.38849078125" lon="114.25218379638672" /><trkpt lat="22.38855478125" lon="114.25201679638671" /><trkpt lat="22.38864478125" lon="114.25196879638672" /><trkpt lat="22.38872978125" lon="114.25191479638671" /><trkpt lat="22.38880178125" lon="114.25185279638671" /><trkpt lat="22.38889178125" lon="114.25182479638671" /><trkpt lat="22.38898078125" lon="114.25177879638672" /><trkpt lat="22.38915978125" lon="114.25172379638671" /><trkpt lat="22.38933178125" lon="114.25164079638672" /><trkpt lat="22.38939578125" lon="114.25156979638672" /><trkpt lat="22.38949378125" lon="114.25140579638672" /><trkpt lat="22.38955778125" lon="114.25133479638671" /><trkpt lat="22.38963178125" lon="114.25131579638672" /><trkpt lat="22.38975378125" lon="114.25132679638672" /><trkpt lat="22.38999078125" lon="114.25161179638671" /><trkpt lat="22.39005278125" lon="114.25178579638671" /><trkpt lat="22.39010778125" lon="114.25190279638672" /><trkpt lat="22.39031078125" lon="114.25198179638672" /><trkpt lat="22.39067178125" lon="114.25199279638672" /><trkpt lat="22.39102778125" lon="114.25214879638672" /><trkpt lat="22.39115378125" lon="114.25220979638672" /><trkpt lat="22.39145478125" lon="114.25227579638671" /><trkpt lat="22.39176278125" lon="114.25225879638671" /><trkpt lat="22.39188278125" lon="114.25219779638672" /><trkpt lat="22.39223678125" lon="114.25219579638672" /><trkpt lat="22.39233478125" lon="114.25219479638672" /><trkpt lat="22.39258078125" lon="114.25209479638671" /><trkpt lat="22.39287978125" lon="114.25203379638671" /><trkpt lat="22.39315378125" lon="114.25207079638672" /><trkpt lat="22.39330478125" lon="114.25200779638672" /><trkpt lat="22.39345378125" lon="114.25207279638671" /><trkpt lat="22.39357078125" lon="114.25206579638672" /><trkpt lat="22.39377478125" lon="114.25205279638672" /><trkpt lat="22.39383878125" lon="114.25203279638671" /><trkpt lat="22.39411378125" lon="114.25217979638671" /><trkpt lat="22.39422278125" lon="114.25223379638672" /><trkpt lat="22.39431478125" lon="114.25231679638672" /><trkpt lat="22.39459578125" lon="114.25240879638672" /><trkpt lat="22.39481678125" lon="114.25235179638672" /><trkpt lat="22.39500078125" lon="114.25228579638672" /><trkpt lat="22.39516678125" lon="114.25228979638672" /><trkpt lat="22.39527378125" lon="114.25228879638672" /><trkpt lat="22.39545978125" lon="114.25224279638672" /><trkpt lat="22.39559878125" lon="114.25223779638672" /><trkpt lat="22.39568778125" lon="114.25227379638672" /><trkpt lat="22.39577878125" lon="114.25236779638672" /><trkpt lat="22.39594678125" lon="114.25234479638672" /><trkpt lat="22.39603078125" lon="114.25237779638672" /><trkpt lat="22.39608478125" lon="114.25246079638671" /><trkpt lat="22.39612778125" lon="114.25249679638672" /><trkpt lat="22.39618978125" lon="114.25249379638672" /><trkpt lat="22.39620478125" lon="114.25255079638671" /><trkpt lat="22.39628678125" lon="114.25260979638672" /><trkpt lat="22.39641378125" lon="114.25262679638672" /><trkpt lat="22.39653878125" lon="114.25275979638671" /><trkpt lat="22.39679878125" lon="114.25283279638671" /><trkpt lat="22.39684678125" lon="114.25285479638671" /><trkpt lat="22.39694178125" lon="114.25291779638673" /><trkpt lat="22.39759378125" lon="114.25296679638672" /><trkpt lat="22.39847878125" lon="114.25271179638672" /><trkpt lat="22.39880578125" lon="114.25272579638671" /><trkpt lat="22.39893378125" lon="114.25277179638672" /><trkpt lat="22.39903678125" lon="114.25282879638672" /><trkpt lat="22.39909178125" lon="114.25283479638672" /><trkpt lat="22.39915678125" lon="114.25282779638673" /><trkpt lat="22.39922978125" lon="114.25280079638672" /><trkpt lat="22.39929478125" lon="114.25277879638672" /><trkpt lat="22.39935878125" lon="114.25273879638672" /><trkpt lat="22.39944378125" lon="114.25268679638671" /><trkpt lat="22.39949678125" lon="114.25266879638671" /><trkpt lat="22.39962278125" lon="114.25260479638672" /><trkpt lat="22.39982878125" lon="114.25261279638671" /><trkpt lat="22.39989178125" lon="114.25262979638671" /><trkpt lat="22.39999678125" lon="114.25268179638672" /><trkpt lat="22.40003878125" lon="114.25275179638672" /><trkpt lat="22.40009378125" lon="114.25279579638672" /><trkpt lat="22.40014278125" lon="114.25285879638672" /><trkpt lat="22.40025478125" lon="114.25287779638671" /><trkpt lat="22.40034778125" lon="114.25291179638671" /><trkpt lat="22.40033778125" lon="114.25295879638672" /><trkpt lat="22.40030078125" lon="114.25299579638671" /><trkpt lat="22.40026178125" lon="114.25304479638672" /><trkpt lat="22.40021278125" lon="114.25309279638672" /><trkpt lat="22.40015478125" lon="114.25312479638671" /><trkpt lat="22.40001078125" lon="114.25315679638672" /><trkpt lat="22.39993578125" lon="114.25315279638671" /><trkpt lat="22.39990078125" lon="114.25317579638671" /><trkpt lat="22.39996878125" lon="114.25323479638672" /><trkpt lat="22.40000078125" lon="114.25326079638671" /><trkpt lat="22.40004778125" lon="114.25332779638671" /><trkpt lat="22.40010478125" lon="114.25333379638671" /><trkpt lat="22.40017078125" lon="114.25336579638672" /><trkpt lat="22.40022878125" lon="114.25341479638672" /><trkpt lat="22.40033278125" lon="114.25352879638672" /><trkpt lat="22.40041878125" lon="114.25357779638672" /><trkpt lat="22.40045978125" lon="114.25363479638672" /><trkpt lat="22.40049478125" lon="114.25365079638672" /><trkpt lat="22.40054878125" lon="114.25375579638671" /><trkpt lat="22.40058678125" lon="114.25379779638672" /><trkpt lat="22.40075478125" lon="114.25387079638672" /><trkpt lat="22.40081978125" lon="114.25391079638672" /><trkpt lat="22.40087678125" lon="114.25399179638671" /><trkpt lat="22.40090178125" lon="114.25407679638671" /><trkpt lat="22.40098278125" lon="114.25418179638672" /><trkpt lat="22.40106778125" lon="114.25430779638671" /><trkpt lat="22.40115678125" lon="114.25443379638672" /><trkpt lat="22.40120378125" lon="114.25453079638672" /><trkpt lat="22.40126078125" lon="114.25451179638672" /><trkpt lat="22.40133978125" lon="114.25451179638672" /><trkpt lat="22.40142278125" lon="114.25447579638671" /><trkpt lat="22.40147678125" lon="114.25442579638671" /><trkpt lat="22.40151878125" lon="114.25443979638672" /><trkpt lat="22.40156578125" lon="114.25439079638672" /><trkpt lat="22.40177178125" lon="114.25425979638672" /><trkpt lat="22.40182378125" lon="114.25421179638671" /><trkpt lat="22.40194978125" lon="114.25414679638672" /><trkpt lat="22.40206478125" lon="114.25405579638672" /><trkpt lat="22.40218378125" lon="114.25395079638672" /><trkpt lat="22.40227278125" lon="114.25390379638672" /><trkpt lat="22.40232478125" lon="114.25382279638671" /><trkpt lat="22.40236078125" lon="114.25370779638672" /><trkpt lat="22.40242378125" lon="114.25365479638671" /><trkpt lat="22.40254578125" lon="114.25352679638672" /><trkpt lat="22.40274078125" lon="114.25346879638671" /><trkpt lat="22.40282878125" lon="114.25334679638672" /><trkpt lat="22.40288578125" lon="114.25324879638671" /><trkpt lat="22.40298778125" lon="114.25313379638672" /><trkpt lat="22.40309778125" lon="114.25312279638672" /><trkpt lat="22.40314978125" lon="114.25322679638671" /><trkpt lat="22.40337578125" lon="114.25328379638673" /><trkpt lat="22.40340978125" lon="114.25332979638672" /><trkpt lat="22.40352178125" lon="114.25342779638672" /><trkpt lat="22.40367378125" lon="114.25343379638672" /><trkpt lat="22.40379578125" lon="114.25358379638672" /><trkpt lat="22.40397478125" lon="114.25366479638672" /><trkpt lat="22.40408078125" lon="114.25365679638672" /><trkpt lat="22.40422378125" lon="114.25370779638672" /><trkpt lat="22.40471378125" lon="114.25356179638672" /><trkpt lat="22.40503078125" lon="114.25335979638672" /><trkpt lat="22.40519778125" lon="114.25305079638672" /><trkpt lat="22.40522178125" lon="114.25287079638672" /><trkpt lat="22.40526878125" lon="114.25277079638671" /><trkpt lat="22.40535578125" lon="114.25271579638672" /><trkpt lat="22.40543478125" lon="114.25264379638672" /><trkpt lat="22.40560278125" lon="114.25269979638672" /><trkpt lat="22.40578778125" lon="114.25275979638671" /><trkpt lat="22.40597078125" lon="114.25278079638672" /><trkpt lat="22.40616278125" lon="114.25276079638672" /><trkpt lat="22.40635278125" lon="114.25280579638672" /><trkpt lat="22.40650378125" lon="114.25296879638672" /><trkpt lat="22.40665278125" lon="114.25302279638672" /><trkpt lat="22.40671878125" lon="114.25312279638672" /><trkpt lat="22.40672378125" lon="114.25332979638672" /><trkpt lat="22.40676278125" lon="114.25347379638671" /><trkpt lat="22.40683878125" lon="114.25361979638672" /><trkpt lat="22.40691578125" lon="114.25370979638672" /><trkpt lat="22.40697778125" lon="114.25390579638672" /><trkpt lat="22.40706078125" lon="114.25408579638672" /><trkpt lat="22.40704478125" lon="114.25417079638672" /><trkpt lat="22.40698878125" lon="114.25433079638672" /><trkpt lat="22.40702478125" lon="114.25448579638672" /><trkpt lat="22.40700678125" lon="114.25453779638671" /><trkpt lat="22.40703278125" lon="114.25468179638672" /><trkpt lat="22.40701078125" lon="114.25475679638672" /><trkpt lat="22.40708678125" lon="114.25483279638672" /><trkpt lat="22.40699878125" lon="114.25506279638672" /><trkpt lat="22.40707878125" lon="114.25530279638672" /><trkpt lat="22.40708878125" lon="114.25545379638672" /><trkpt lat="22.40703278125" lon="114.25556679638672" /><trkpt lat="22.40704278125" lon="114.25567979638672" /><trkpt lat="22.40700578125" lon="114.25593779638672" /><trkpt lat="22.40723978125" lon="114.25604879638672" /><trkpt lat="22.40723278125" lon="114.25613879638672" /><trkpt lat="22.40723978125" lon="114.25632379638672" /><trkpt lat="22.40708478125" lon="114.25645979638672" /><trkpt lat="22.40703978125" lon="114.25671479638672" /><trkpt lat="22.40707578125" lon="114.25683679638672" /><trkpt lat="22.40700378125" lon="114.25711579638671" /><trkpt lat="22.40694378125" lon="114.25726579638672" /><trkpt lat="22.40701378125" lon="114.25742679638672" /><trkpt lat="22.40698678125" lon="114.25753979638672" /><trkpt lat="22.40688478125" lon="114.25797479638672" /><trkpt lat="22.40687778125" lon="114.25815479638672" /><trkpt lat="22.40692278125" lon="114.25836179638672" /><trkpt lat="22.40683878125" lon="114.25851279638673" /><trkpt lat="22.40673178125" lon="114.25862279638672" /><trkpt lat="22.40659378125" lon="114.25879479638672" /><trkpt lat="22.40655678125" lon="114.25887379638672" /><trkpt lat="22.40658878125" lon="114.25907279638672" /><trkpt lat="22.40660578125" lon="114.25959879638671" /><trkpt lat="22.40672378125" lon="114.25977079638672" /><trkpt lat="22.40679678125" lon="114.25995479638672" /><trkpt lat="22.40664378125" lon="114.26009679638672" /><trkpt lat="22.40664678125" lon="114.26013279638671" /><trkpt lat="22.40673678125" lon="114.26012979638672" /><trkpt lat="22.40662078125" lon="114.26022079638672" /><trkpt lat="22.40677678125" lon="114.26019279638672" /><trkpt lat="22.40692478125" lon="114.26020879638672" /><trkpt lat="22.40689878125" lon="114.26031379638673" /><trkpt lat="22.40677178125" lon="114.26044579638672" /><trkpt lat="22.40660578125" lon="114.26058279638671" /><trkpt lat="22.40657278125" lon="114.26071179638672" /><trkpt lat="22.40658678125" lon="114.26088979638672" /><trkpt lat="22.40651178125" lon="114.26095179638672" /><trkpt lat="22.40635578125" lon="114.26104979638671" /><trkpt lat="22.40630778125" lon="114.26106779638671" /><trkpt lat="22.40623478125" lon="114.26116879638671" /><trkpt lat="22.40620878125" lon="114.26131679638672" /><trkpt lat="22.40609578125" lon="114.26141979638672" /><trkpt lat="22.40595578125" lon="114.26153479638671" /><trkpt lat="22.40591178125" lon="114.26165279638671" /><trkpt lat="22.40595978125" lon="114.26177679638671" /><trkpt lat="22.40604678125" lon="114.26195879638672" /><trkpt lat="22.40611478125" lon="114.26215579638672" /><trkpt lat="22.40615778125" lon="114.26233979638671" /><trkpt lat="22.40611578125" lon="114.26248579638671" /><trkpt lat="22.40604078125" lon="114.26257179638672" /><trkpt lat="22.40593178125" lon="114.26250279638671" /><trkpt lat="22.40575078125" lon="114.26252379638672" /><trkpt lat="22.40561078125" lon="114.26259879638671" /><trkpt lat="22.40546578125" lon="114.26271779638672" /><trkpt lat="22.40530478125" lon="114.26278179638672" /><trkpt lat="22.40520778125" lon="114.26276079638671" /><trkpt lat="22.40500578125" lon="114.26271779638672" /><trkpt lat="22.40489178125" lon="114.26273379638671" /><trkpt lat="22.40479378125" lon="114.26276479638672" /><trkpt lat="22.40470178125" lon="114.26274979638671" /><trkpt lat="22.40456778125" lon="114.26276079638671" /><trkpt lat="22.40442278125" lon="114.26270079638672" /><trkpt lat="22.40429378125" lon="114.26266879638672" /><trkpt lat="22.40384178125" lon="114.26282979638673" /><trkpt lat="22.40376678125" lon="114.26295379638673" /><trkpt lat="22.40368078125" lon="114.26303479638672" /><trkpt lat="22.40360578125" lon="114.26313679638672" /><trkpt lat="22.40342778125" lon="114.26328679638672" /><trkpt lat="22.40325578125" lon="114.26338979638672" /><trkpt lat="22.40326678125" lon="114.26366379638672" /><trkpt lat="22.40335278125" lon="114.26377079638672" /><trkpt lat="22.40333078125" lon="114.26384079638672" /><trkpt lat="22.40336878125" lon="114.26392679638671" /><trkpt lat="22.40349778125" lon="114.26395379638672" /><trkpt lat="22.40360578125" lon="114.26399179638672" /><trkpt lat="22.40358378125" lon="114.26405579638671" /><trkpt lat="22.40364278125" lon="114.26412579638672" /><trkpt lat="22.40367478125" lon="114.26427679638672" /><trkpt lat="22.40369178125" lon="114.26445379638672" /><trkpt lat="22.40361578125" lon="114.26462579638672" /><trkpt lat="22.40349278125" lon="114.26463179638672" /><trkpt lat="22.40327778125" lon="114.26464779638673" /><trkpt lat="22.40310678125" lon="114.26465579638672" /><trkpt lat="22.40279878125" lon="114.26452879638671" /><trkpt lat="22.40265578125" lon="114.26430179638672" /><trkpt lat="22.40246578125" lon="114.26436779638672" /><trkpt lat="22.40244278125" lon="114.26438379638672" /><trkpt lat="22.40231978125" lon="114.26446979638672" /><trkpt lat="22.40216978125" lon="114.26464179638671" /><trkpt lat="22.40213178125" lon="114.26491079638672" /><trkpt lat="22.40213778125" lon="114.26538979638671" /><trkpt lat="22.40205678125" lon="114.26558879638672" /><trkpt lat="22.40185778125" lon="114.26572779638671" /><trkpt lat="22.40169078125" lon="114.26600779638672" /><trkpt lat="22.40148678125" lon="114.26612079638672" /><trkpt lat="22.40121278125" lon="114.26657779638671" /><trkpt lat="22.40120178125" lon="114.26690079638672" /><trkpt lat="22.40128778125" lon="114.26711579638672" /><trkpt lat="22.40140678125" lon="114.26728279638672" /><trkpt lat="22.40152478125" lon="114.26744879638672" /><trkpt lat="22.40165878125" lon="114.26766879638672" /><trkpt lat="22.40168078125" lon="114.26793279638672" /><trkpt lat="22.40154578125" lon="114.26843279638672" /><trkpt lat="22.40137978125" lon="114.26861579638671" /><trkpt lat="22.40126078125" lon="114.26888479638671" /><trkpt lat="22.40118078125" lon="114.26907279638672" /><trkpt lat="22.40107778125" lon="114.26930379638672" /><trkpt lat="22.40095978125" lon="114.26956679638671" /><trkpt lat="22.40078278125" lon="114.26974979638672" /><trkpt lat="22.40062078125" lon="114.26995479638671" /><trkpt lat="22.40064778125" lon="114.27023979638672" /><trkpt lat="22.40061278125" lon="114.27036279638672" /><trkpt lat="22.40058378125" lon="114.27040179638672" /><trkpt lat="22.40048678125" lon="114.27047379638672" /><trkpt lat="22.40023578125" lon="114.27034479638672" /><trkpt lat="22.40010678125" lon="114.27028079638671" /><trkpt lat="22.39985878125" lon="114.27010879638672" /><trkpt lat="22.39972978125" lon="114.27001279638672" /><trkpt lat="22.39955178125" lon="114.26990579638672" /><trkpt lat="22.39928378125" lon="114.27013079638672" /><trkpt lat="22.39909578125" lon="114.27044979638671" /><trkpt lat="22.39907578125" lon="114.27048479638673" /><trkpt lat="22.39899278125" lon="114.27056579638672" /><trkpt lat="22.39886978125" lon="114.27061379638671" /><trkpt lat="22.39876778125" lon="114.27061779638672" /><trkpt lat="22.39872978125" lon="114.27061879638671" /><trkpt lat="22.39835878125" lon="114.27060079638672" /><trkpt lat="22.39814778125" lon="114.27060779638671" /><trkpt lat="22.39800578125" lon="114.27064979638672" /><trkpt lat="22.39792478125" lon="114.27072179638672" /><trkpt lat="22.39790778125" lon="114.27077679638671" /><trkpt lat="22.39790578125" lon="114.27085079638672" /><trkpt lat="22.39792978125" lon="114.27092979638672" /><trkpt lat="22.39800078125" lon="114.27108779638672" /><trkpt lat="22.39801978125" lon="114.27117679638671" /><trkpt lat="22.39799978125" lon="114.27131079638671" /><trkpt lat="22.39801278125" lon="114.27138279638672" /><trkpt lat="22.39804778125" lon="114.27148079638673" /><trkpt lat="22.39813978125" lon="114.27167179638671" /><trkpt lat="22.39814778125" lon="114.27172979638672" /><trkpt lat="22.39807978125" lon="114.27194079638672" /><trkpt lat="22.39806878125" lon="114.27209579638672" /><trkpt lat="22.39806278125" lon="114.27219279638672" /><trkpt lat="22.398045388285464" lon="114.27226500202615" /><trkpt lat="22.39807478125" lon="114.27224779638672" /><trkpt lat="22.39810978125" lon="114.27223279638672" /><trkpt lat="22.39814678125" lon="114.27222779638672" /><trkpt lat="22.39818478125" lon="114.27223479638671" /><trkpt lat="22.39840278125" lon="114.27233679638672" /><trkpt lat="22.39858478125" lon="114.27257579638672" /><trkpt lat="22.39860178125" lon="114.27261979638672" /><trkpt lat="22.39866878125" lon="114.27279979638672" /><trkpt lat="22.39880278125" lon="114.27288279638672" /><trkpt lat="22.39884578125" lon="114.27290979638671" /><trkpt lat="22.39908478125" lon="114.27299279638672" /><trkpt lat="22.39928278125" lon="114.27309179638672" /><trkpt lat="22.39931978125" lon="114.27311979638672" /><trkpt lat="22.39946478125" lon="114.27323279638672" /><trkpt lat="22.39963678125" lon="114.27335179638672" /><trkpt lat="22.39981978125" lon="114.27346179638671" /><trkpt lat="22.39997578125" lon="114.27353979638671" /><trkpt lat="22.40015778125" lon="114.27362779638672" /><trkpt lat="22.40059478125" lon="114.27357579638672" /><trkpt lat="22.40090778125" lon="114.27362279638672" /><trkpt lat="22.40112078125" lon="114.27372679638673" /><trkpt lat="22.40138178125" lon="114.27367979638672" /><trkpt lat="22.40161578125" lon="114.27362279638672" /><trkpt lat="22.40195978125" lon="114.27365379638672" /><trkpt lat="22.40228778125" lon="114.27379979638673" /><trkpt lat="22.40259978125" lon="114.27394079638673" /><trkpt lat="22.40282378125" lon="114.27416979638672" /><trkpt lat="22.40281878125" lon="114.27445079638672" /><trkpt lat="22.40267778125" lon="114.27492979638671" /><trkpt lat="22.40246978125" lon="114.27518479638672" /><trkpt lat="22.40226678125" lon="114.27543979638672" /><trkpt lat="22.40207378125" lon="114.27567979638673" /><trkpt lat="22.40207478125" lon="114.27580579638672" /><trkpt lat="22.40257378125" lon="114.27643379638671" /><trkpt lat="22.40275878125" lon="114.27660679638672" /><trkpt lat="22.40282078125" lon="114.27673179638671" /><trkpt lat="22.40285978125" lon="114.27691379638672" /><trkpt lat="22.40284178125" lon="114.27697379638671" /><trkpt lat="22.40282078125" lon="114.27704779638673" /><trkpt lat="22.40276678125" lon="114.27719479638672" /><trkpt lat="22.40254278125" lon="114.27777979638672" /><trkpt lat="22.40253178125" lon="114.27787679638672" /><trkpt lat="22.40254778125" lon="114.27793979638672" /><trkpt lat="22.40262078125" lon="114.27804879638671" /><trkpt lat="22.40276678125" lon="114.27819479638671" /><trkpt lat="22.40292778125" lon="114.27830379638672" /><trkpt lat="22.40308378125" lon="114.27840779638672" /><trkpt lat="22.40332378125" lon="114.27855379638672" /><trkpt lat="22.40357878125" lon="114.27869479638672" /><trkpt lat="22.40360478125" lon="114.27881379638671" /><trkpt lat="22.40360178125" lon="114.27895279638672" /><trkpt lat="22.40359978125" lon="114.27904279638672" /><trkpt lat="22.40356278125" lon="114.27916779638672" /><trkpt lat="22.40353178125" lon="114.27941279638672" /><trkpt lat="22.40347478125" lon="114.27963179638672" /><trkpt lat="22.40351078125" lon="114.27975179638672" /><trkpt lat="22.40371378125" lon="114.27980879638672" /><trkpt lat="22.40397978125" lon="114.27977179638673" /><trkpt lat="22.40426578125" lon="114.27966779638672" /><trkpt lat="22.40438678125" lon="114.27961179638672" /><trkpt lat="22.40448978125" lon="114.27956379638673" /><trkpt lat="22.40452478125" lon="114.27952679638672" /><trkpt lat="22.40463578125" lon="114.27940779638672" /><trkpt lat="22.40475278125" lon="114.27925779638672" /><trkpt lat="22.40477378125" lon="114.27925779638672" /><trkpt lat="22.40487478125" lon="114.27927279638672" /><trkpt lat="22.404857524610694" lon="114.27928775214473" /></trkseg></trk></gpx>