<?xml version='1.0' encoding='UTF-8' ?><gpx version="1.1" creator="HikingTrailHK" xsi:schemaLocation="http://www.topografix.com/GPX/1/1 http://www.topografix.com/GPX/1/1/gpx.xsd https://hikingtrailhk.appspot.com/xml/gpxextensions/v1 https://hikingtrailhk.appspot.com/xml/gpxextensions/v1/gpxextensions.xsd" xmlns="http://www.topografix.com/GPX/1/1" xmlns:h="https://hikingtrailhk.appspot.com/xml/gpxextensions/v1" xmlns:xsi="http://www.w3.org/2001/XMLSchema-instance"><metadata><name>萬丈布 @ 2017-5-17 11:30</name><desc></desc><extensions><h:categoryid>stream</h:categoryid></extensions></metadata><trk><trkseg><trkpt lat="22.25288478125" lon="113.86224079638671" /><trkpt lat="22.25294278125" lon="113.86225079638672" /><trkpt lat="22.25299978125" lon="113.86200279638672" /><trkpt lat="22.25301978125" lon="113.86195079638672" /><trkpt lat="22.25300678125" lon="113.86186179638672" /><trkpt lat="22.25298478125" lon="113.86181979638671" /><trkpt lat="22.25297078125" lon="113.86179879638672" /><trkpt lat="22.25284778125" lon="113.86156479638672" /><trkpt lat="22.25275978125" lon="113.86149779638671" /><trkpt lat="22.25220678125" lon="113.86045679638671" /><trkpt lat="22.25155078125" lon="113.86056679638672" /><trkpt lat="22.25110878125" lon="113.86065579638672" /><trkpt lat="22.25033078125" lon="113.86077079638672" /><trkpt lat="22.24964578125" lon="113.86091079638672" /><trkpt lat="22.24849878125" lon="113.86114179638672" /><trkpt lat="22.24780478125" lon="113.86126479638672" /><trkpt lat="22.24716178125" lon="113.86138679638672" /><trkpt lat="22.24722678125" lon="113.86170979638672" /><trkpt lat="22.24729678125" lon="113.86200979638672" /><trkpt lat="22.24713378125" lon="113.86206579638672" /><trkpt lat="22.24690778125" lon="113.86199279638672" /><trkpt lat="22.24675078125" lon="113.86174479638672" /><trkpt lat="22.24662278125" lon="113.86147479638672" /><trkpt lat="22.24643078125" lon="113.86131079638672" /><trkpt lat="22.24622678125" lon="113.86103779638673" /><trkpt lat="22.24615778125" lon="113.86097979638672" /><trkpt lat="22.24606178125" lon="113.86090979638672" /><trkpt lat="22.24594778125" lon="113.86068979638672" /><trkpt lat="22.24587178125" lon="113.86041279638673" /><trkpt lat="22.24581378125" lon="113.86033979638673" /><trkpt lat="22.24574678125" lon="113.86012479638671" /><trkpt lat="22.24569778125" lon="113.85998879638672" /><trkpt lat="22.24564578125" lon="113.85978979638672" /><trkpt lat="22.24558378125" lon="113.85955879638672" /><trkpt lat="22.24552178125" lon="113.85926979638671" /><trkpt lat="22.24538678125" lon="113.85906579638672" /><trkpt lat="22.24529778125" lon="113.85902779638671" /><trkpt lat="22.24519878125" lon="113.85880279638671" /><trkpt lat="22.24521878125" lon="113.85869579638671" /><trkpt lat="22.24509478125" lon="113.85826079638672" /><trkpt lat="22.24485078125" lon="113.85737579638672" /><trkpt lat="22.24490078125" lon="113.85728479638672" /><trkpt lat="22.24487078125" lon="113.85690879638672" /><trkpt lat="22.24480678125" lon="113.85658179638672" /><trkpt lat="22.24486578125" lon="113.85643179638672" /><trkpt lat="22.24478678125" lon="113.85579879638672" /><trkpt lat="22.24463778125" lon="113.85544979638672" /><trkpt lat="22.24460778125" lon="113.85488679638672" /><trkpt lat="22.24449378125" lon="113.85468879638672" /><trkpt lat="22.24441378125" lon="113.85457079638672" /><trkpt lat="22.24434478125" lon="113.85432379638672" /><trkpt lat="22.24423078125" lon="113.85416779638672" /><trkpt lat="22.24410078125" lon="113.85378679638671" /><trkpt lat="22.24408678125" lon="113.85355079638671" /><trkpt lat="22.24394278125" lon="113.85325579638672" /><trkpt lat="22.24390278125" lon="113.85309479638671" /><trkpt lat="22.24357478125" lon="113.85268179638672" /><trkpt lat="22.24349078125" lon="113.85263879638671" /><trkpt lat="22.24341078125" lon="113.85240279638671" /><trkpt lat="22.24309878125" lon="113.85207079638671" /><trkpt lat="22.24299478125" lon="113.85201679638672" /><trkpt lat="22.24289978125" lon="113.85180779638672" /><trkpt lat="22.24281578125" lon="113.85171079638671" /><trkpt lat="22.24247878125" lon="113.85151779638672" /><trkpt lat="22.24218578125" lon="113.85151279638671" /><trkpt lat="22.24196178125" lon="113.85151779638672" /><trkpt lat="22.24171278125" lon="113.85153979638672" /><trkpt lat="22.24156978125" lon="113.85159279638673" /><trkpt lat="22.24122178125" lon="113.85150179638671" /><trkpt lat="22.24103778125" lon="113.85148579638673" /><trkpt lat="22.24069578125" lon="113.85158279638672" /><trkpt lat="22.24046778125" lon="113.85163579638672" /><trkpt lat="22.24005478125" lon="113.85172179638671" /><trkpt lat="22.23972178125" lon="113.85200079638672" /><trkpt lat="22.23949378125" lon="113.85223679638672" /><trkpt lat="22.23909178125" lon="113.85240279638671" /><trkpt lat="22.23893778125" lon="113.85252679638671" /><trkpt lat="22.23877378125" lon="113.85262279638673" /><trkpt lat="22.23856978125" lon="113.85263879638671" /><trkpt lat="22.23830178125" lon="113.85246779638672" /><trkpt lat="22.23781978125" lon="113.85238679638672" /><trkpt lat="22.23735878125" lon="113.85246179638672" /><trkpt lat="22.23703078125" lon="113.85259579638672" /><trkpt lat="22.23685678125" lon="113.85261279638672" /><trkpt lat="22.23668878125" lon="113.85269779638672" /><trkpt lat="22.23636978125" lon="113.85273079638672" /><trkpt lat="22.23616178125" lon="113.85275179638671" /><trkpt lat="22.23576478125" lon="113.85268779638672" /><trkpt lat="22.23542178125" lon="113.85273579638672" /><trkpt lat="22.23527778125" lon="113.85270879638672" /><trkpt lat="22.23516378125" lon="113.85276279638671" /><trkpt lat="22.23499478125" lon="113.85275679638671" /><trkpt lat="22.23471678125" lon="113.85275679638671" /><trkpt lat="22.23458778125" lon="113.85276779638671" /><trkpt lat="22.23441378125" lon="113.85276779638671" /><trkpt lat="22.23403678125" lon="113.85282179638672" /><trkpt lat="22.23367878125" lon="113.85279479638672" /><trkpt lat="22.23353478125" lon="113.85276279638671" /><trkpt lat="22.23337078125" lon="113.85264979638671" /><trkpt lat="22.23317278125" lon="113.85271379638672" /><trkpt lat="22.23299378125" lon="113.85267179638672" /><trkpt lat="22.23291578125" lon="113.85261079638671" /><trkpt lat="22.23271878125" lon="113.85298979638672" /><trkpt lat="22.23248478125" lon="113.85316079638672" /><trkpt lat="22.23242078125" lon="113.85332979638672" /><trkpt lat="22.23238378125" lon="113.85339579638672" /><trkpt lat="22.23231911125292" lon="113.8534254556461" /><trkpt lat="22.23231414564009" lon="113.85343082006413" /><trkpt lat="22.232302976950564" lon="113.85343618448216" /><trkpt lat="22.232301731607222" lon="113.85343741606532" /><trkpt lat="22.232301731607222" lon="113.85344557221372" /><trkpt lat="22.232303676452247" lon="113.85344423110921" /><trkpt lat="22.232345872006825" lon="113.85345548751033" /><trkpt lat="22.23220678125" lon="113.85376979638671" /><trkpt lat="22.23193878125" lon="113.85397979638672" /><trkpt lat="22.23164078125" lon="113.85439279638672" /><trkpt lat="22.23154678125" lon="113.85479979638671" /><trkpt lat="22.23156178125" lon="113.85493379638672" /><trkpt lat="22.23151178125" lon="113.85526179638671" /><trkpt lat="22.23146678125" lon="113.85557779638673" /><trkpt lat="22.23135278125" lon="113.85589979638672" /><trkpt lat="22.23115478125" lon="113.85611479638672" /><trkpt lat="22.23098578125" lon="113.85629679638672" /><trkpt lat="22.23095078125" lon="113.85647379638672" /><trkpt lat="22.23097078125" lon="113.85668279638672" /><trkpt lat="22.23100078125" lon="113.85691879638672" /><trkpt lat="22.23092078125" lon="113.85710679638672" /><trkpt lat="22.23085678125" lon="113.85735879638672" /><trkpt lat="22.23093278125" lon="113.85765179638672" /><trkpt lat="22.23091778125" lon="113.85791779638672" /><trkpt lat="22.23094978125" lon="113.85803479638672" /><trkpt lat="22.23098578125" lon="113.85813279638671" /><trkpt lat="22.23100878125" lon="113.85833179638672" /><trkpt lat="22.23105222743432" lon="113.85834989448169" /><trkpt lat="22.23110100897532" lon="113.85837875321303" /><trkpt lat="22.23111378125" lon="113.85852279638672" /><trkpt lat="22.23100678125" lon="113.85856879638672" /><trkpt lat="22.23092878125" lon="113.85858979638672" /><trkpt lat="22.23090778125" lon="113.85873779638672" /><trkpt lat="22.23075578125" lon="113.85881579638672" /><trkpt lat="22.23071978125" lon="113.85914279638672" /><trkpt lat="22.23081378125" lon="113.85929079638672" /><trkpt lat="22.23073478125" lon="113.85950179638672" /><trkpt lat="22.23083878125" lon="113.85977679638673" /><trkpt lat="22.23057378125" lon="113.86009079638671" /><trkpt lat="22.23061078125" lon="113.86015379638673" /><trkpt lat="22.23065578125" lon="113.86029679638672" /><trkpt lat="22.23043578125" lon="113.86064179638672" /><trkpt lat="22.23041978125" lon="113.86080279638672" /><trkpt lat="22.23035978125" lon="113.86090779638671" /><trkpt lat="22.23034678125" lon="113.86107379638672" /><trkpt lat="22.23039878125" lon="113.86124779638672" /><trkpt lat="22.23048878125" lon="113.86125079638671" /><trkpt lat="22.23054578125" lon="113.86129079638673" /><trkpt lat="22.23064378125" lon="113.86153579638672" /><trkpt lat="22.23070078125" lon="113.86161579638672" /><trkpt lat="22.23067378125" lon="113.86177579638672" /><trkpt lat="22.23071578125" lon="113.86203479638672" /><trkpt lat="22.23071278125" lon="113.86241679638673" /><trkpt lat="22.23076678125" lon="113.86252879638671" /><trkpt lat="22.23072078125" lon="113.86266979638673" /><trkpt lat="22.23073478125" lon="113.86283179638671" /><trkpt lat="22.23077578125" lon="113.86296179638671" /><trkpt lat="22.23067578125" lon="113.86319479638672" /><trkpt lat="22.23067578125" lon="113.86352579638672" /><trkpt lat="22.23073378125" lon="113.86376279638672" /><trkpt lat="22.23065078125" lon="113.86397479638671" /><trkpt lat="22.23060078125" lon="113.86429679638672" /><trkpt lat="22.23067578125" lon="113.86446179638672" /><trkpt lat="22.23082678125" lon="113.86456779638672" /><trkpt lat="22.23096678125" lon="113.86490679638672" /><trkpt lat="22.23110178125" lon="113.86510479638672" /><trkpt lat="22.23132778125" lon="113.86480779638671" /><trkpt lat="22.23139978125" lon="113.86454279638671" /><trkpt lat="22.23143878125" lon="113.86408379638672" /><trkpt lat="22.23150278125" lon="113.86363879638672" /><trkpt lat="22.23152078125" lon="113.86337279638671" /><trkpt lat="22.23169078125" lon="113.86300379638672" /><trkpt lat="22.23184778125" lon="113.86270879638671" /><trkpt lat="22.23191878125" lon="113.86247079638672" /><trkpt lat="22.23200178125" lon="113.86219579638671" /><trkpt lat="22.23213178125" lon="113.86200379638672" /><trkpt lat="22.23233278125" lon="113.86178379638672" /><trkpt lat="22.23235978125" lon="113.86168779638672" /><trkpt lat="22.23236778125" lon="113.86144579638672" /><trkpt lat="22.23241878125" lon="113.86130979638672" /><trkpt lat="22.23246778125" lon="113.86121479638672" /><trkpt lat="22.23252678125" lon="113.86107079638671" /><trkpt lat="22.23264778125" lon="113.86096679638672" /><trkpt lat="22.23281778125" lon="113.86096079638672" /><trkpt lat="22.23317178125" lon="113.86108879638672" /><trkpt lat="22.23351778125" lon="113.86122379638672" /><trkpt lat="22.23393278125" lon="113.86134779638672" /><trkpt lat="22.23431378125" lon="113.86143279638672" /><trkpt lat="22.23452378125" lon="113.86142879638672" /><trkpt lat="22.23468778125" lon="113.86135879638672" /><trkpt lat="22.23483278125" lon="113.86112979638672" /><trkpt lat="22.23490678125" lon="113.86109379638673" /><trkpt lat="22.23502778125" lon="113.86111479638672" /><trkpt lat="22.23509278125" lon="113.86109979638672" /><trkpt lat="22.23524578125" lon="113.86109479638672" /><trkpt lat="22.23541878125" lon="113.86100979638672" /><trkpt lat="22.23550978125" lon="113.86088179638672" /><trkpt lat="22.23553978125" lon="113.86073579638672" /><trkpt lat="22.23551878125" lon="113.86065179638672" /><trkpt lat="22.23560678125" lon="113.86062179638672" /><trkpt lat="22.23579678125" lon="113.86028879638671" /><trkpt lat="22.23611478125" lon="113.86023879638672" /><trkpt lat="22.23647178125" lon="113.86039379638672" /><trkpt lat="22.23675378125" lon="113.86065479638673" /><trkpt lat="22.23695378125" lon="113.86069179638672" /><trkpt lat="22.23711078125" lon="113.86083079638672" /><trkpt lat="22.23705706911926" lon="113.86105728636805" /><trkpt lat="22.23706203456406" lon="113.86145977799144" /><trkpt lat="22.237120130618848" lon="113.86173597447025" /><trkpt lat="22.23755361272842" lon="113.86235545113861" /><trkpt lat="22.237913425118265" lon="113.86318619498608" /><trkpt lat="22.238270845408664" lon="113.86369850018211" /><trkpt lat="22.238439496830708" lon="113.86386442453924" /><trkpt lat="22.23862614091975" lon="113.86433744840444" /><trkpt lat="22.238854333466378" lon="113.86469492151348" /><trkpt lat="22.239231326132952" lon="113.86511765232255" /><trkpt lat="22.23935567272042" lon="113.86519039087118" /><trkpt lat="22.239542416508556" lon="113.8652118485433" /><trkpt lat="22.23969581758388" lon="113.86514211110891" /><trkpt lat="22.2397998929347" lon="113.86498774788463" /><trkpt lat="22.239886742245645" lon="113.86467370023722" /><trkpt lat="22.24002097892759" lon="113.8644720224792" /><trkpt lat="22.240177390076624" lon="113.86438856360739" /><trkpt lat="22.240353836320963" lon="113.8643481772405" /><trkpt lat="22.240544417326205" lon="113.86436367000981" /><trkpt lat="22.240686347436508" lon="113.86442305513894" /><trkpt lat="22.241101158327652" lon="113.8647609388235" /><trkpt lat="22.241203130020068" lon="113.86488726196232" /><trkpt lat="22.241398720468297" lon="113.86528902426191" /><trkpt lat="22.241536474345196" lon="113.86534585487509" /><trkpt lat="22.241692428005223" lon="113.86534585487509" /><trkpt lat="22.242183916586" lon="113.86580503353882" /><trkpt lat="22.24309194948809" lon="113.86702746437633" /><trkpt lat="22.24387700474317" lon="113.8676474966732" /><trkpt lat="22.244078428685484" lon="113.86787125419771" /><trkpt lat="22.244878720605413" lon="113.86817767234872" /><trkpt lat="22.245611907036874" lon="113.86856450569296" /><trkpt lat="22.245611907036874" lon="113.8685537768569" /><trkpt lat="22.245611168508418" lon="113.86854841243887" /><trkpt lat="22.24560091456908" lon="113.86854841243887" /><trkpt lat="22.24558280592126" lon="113.86853842880639" /><trkpt lat="22.24557715104055" lon="113.86853231918478" /><trkpt lat="22.24554803045436" lon="113.86852183729289" /><trkpt lat="22.24557078125" lon="113.86848579638672" /><trkpt lat="22.24557178125" lon="113.86836579638671" /><trkpt lat="22.24574478125" lon="113.86806679638671" /><trkpt lat="22.24587878125" lon="113.86781479638672" /><trkpt lat="22.24593378125" lon="113.86760579638671" /><trkpt lat="22.24609278125" lon="113.86729479638672" /><trkpt lat="22.24611178125" lon="113.86718179638672" /><trkpt lat="22.24628078125" lon="113.86704779638671" /><trkpt lat="22.24642478125" lon="113.86679579638673" /><trkpt lat="22.24658878125" lon="113.86658079638671" /><trkpt lat="22.24668778125" lon="113.86669879638671" /><trkpt lat="22.24670778125" lon="113.86651179638672" /><trkpt lat="22.24675778125" lon="113.86638279638672" /><trkpt lat="22.24687178125" lon="113.86609879638672" /><trkpt lat="22.24685678125" lon="113.86606079638672" /><trkpt lat="22.24678178125" lon="113.86587079638672" /><trkpt lat="22.24689978125" lon="113.86570079638672" /><trkpt lat="22.24706078125" lon="113.86556179638671" /><trkpt lat="22.24724878125" lon="113.86540079638672" /><trkpt lat="22.24744778125" lon="113.86501479638672" /><trkpt lat="22.24757678125" lon="113.86485879638671" /><trkpt lat="22.24785478125" lon="113.86463979638673" /><trkpt lat="22.24792978125" lon="113.86448879638672" /><trkpt lat="22.24811078125" lon="113.86426779638671" /><trkpt lat="22.24811278125" lon="113.86409179638672" /><trkpt lat="22.24795978125" lon="113.86360379638671" /><trkpt lat="22.24829178125" lon="113.86356679638672" /><trkpt lat="22.24837078125" lon="113.86360479638672" /><trkpt lat="22.24860378125" lon="113.86344679638673" /><trkpt lat="22.24880778125" lon="113.86337979638672" /><trkpt lat="22.24896778125" lon="113.86335579638671" /><trkpt lat="22.24939378125" lon="113.86329379638671" /><trkpt lat="22.25007878125" lon="113.86320779638672" /><trkpt lat="22.25094278125" lon="113.86305779638671" /><trkpt lat="22.25202478125" lon="113.86291779638672" /><trkpt lat="22.25225578125" lon="113.86295879638672" /><trkpt lat="22.25250778125" lon="113.86303479638671" /><trkpt lat="22.25255678125" lon="113.86269679638671" /><trkpt lat="22.25251578125" lon="113.86257279638671" /><trkpt lat="22.25254878125" lon="113.86237379638672" /><trkpt lat="22.25262978125" lon="113.86238979638672" /><trkpt lat="22.25269978125" lon="113.86240979638671" /><trkpt lat="22.25274978125" lon="113.86242979638672" /><trkpt lat="22.25279178125" lon="113.86248979638673" /><trkpt lat="22.25286152291234" lon="113.86239301888537" /><trkpt lat="22.25288078125" lon="113.86239879638671" /><trkpt lat="22.25290578125" lon="113.86239579638672" /><trkpt lat="22.25291730994745" lon="113.86234631909936" /></trkseg></trk></gpx>