<?xml version='1.0' encoding='UTF-8' ?><gpx version="1.1" creator="HikingTrailHK" xsi:schemaLocation="http://www.topografix.com/GPX/1/1 http://www.topografix.com/GPX/1/1/gpx.xsd" xmlns="http://www.topografix.com/GPX/1/1" xmlns:xsi="http://www.w3.org/2001/XMLSchema-instance"><metadata><name>蓮花石澗 @ 2017-8-26 11:30:00</name><desc></desc></metadata><trk><trkseg><trkpt lat="22.421498410301336" lon="114.06416995771573" /><trkpt lat="22.42150178125" lon="114.06413379638671" /><trkpt lat="22.42151178125" lon="114.06393279638672" /><trkpt lat="22.42150778125" lon="114.06386679638672" /><trkpt lat="22.42149978125" lon="114.06378079638672" /><trkpt lat="22.42146278125" lon="114.06363079638672" /><trkpt lat="22.42142478125" lon="114.06353479638672" /><trkpt lat="22.42137478125" lon="114.06342079638672" /><trkpt lat="22.42128878125" lon="114.06327079638672" /><trkpt lat="22.42115278125" lon="114.06311279638672" /><trkpt lat="22.42096978125" lon="114.06295179638671" /><trkpt lat="22.42078778125" lon="114.06284479638671" /><trkpt lat="22.42048778125" lon="114.06271379638672" /><trkpt lat="22.42025378125" lon="114.06214979638672" /><trkpt lat="22.42040578125" lon="114.06203579638672" /><trkpt lat="22.42049878125" lon="114.06186379638672" /><trkpt lat="22.42058778125" lon="114.06183379638672" /><trkpt lat="22.42070178125" lon="114.06171079638672" /><trkpt lat="22.42076478125" lon="114.06156779638673" /><trkpt lat="22.42080478125" lon="114.06151879638672" /><trkpt lat="22.42090378125" lon="114.06125579638672" /><trkpt lat="22.42084378125" lon="114.06099379638673" /><trkpt lat="22.42095078125" lon="114.06082079638672" /><trkpt lat="22.42106778125" lon="114.06075679638671" /><trkpt lat="22.42111178125" lon="114.06064679638672" /><trkpt lat="22.42117578125" lon="114.06058479638672" /><trkpt lat="22.42137778125" lon="114.06056679638672" /><trkpt lat="22.42134778125" lon="114.06044079638671" /><trkpt lat="22.42151678125" lon="114.06034779638672" /><trkpt lat="22.42156778125" lon="114.06021079638671" /><trkpt lat="22.42179878125" lon="114.06011679638672" /><trkpt lat="22.42187078125" lon="114.06005279638671" /><trkpt lat="22.42177378125" lon="114.05988479638673" /><trkpt lat="22.42173478125" lon="114.05985079638671" /><trkpt lat="22.42164478125" lon="114.05979279638672" /><trkpt lat="22.42162078125" lon="114.05972479638672" /><trkpt lat="22.42170178125" lon="114.05966179638672" /><trkpt lat="22.42178878125" lon="114.05963379638672" /><trkpt lat="22.42185578125" lon="114.05952879638672" /><trkpt lat="22.42197978125" lon="114.05944479638671" /><trkpt lat="22.42201178125" lon="114.05939179638672" /><trkpt lat="22.42191278125" lon="114.05937479638672" /><trkpt lat="22.42181878125" lon="114.05933079638672" /><trkpt lat="22.42176778125" lon="114.05917479638671" /><trkpt lat="22.42172278125" lon="114.05904679638672" /><trkpt lat="22.42138578125" lon="114.05896279638672" /><trkpt lat="22.42105578125" lon="114.05874579638672" /><trkpt lat="22.42094578125" lon="114.05862379638671" /><trkpt lat="22.42082478125" lon="114.05854079638672" /><trkpt lat="22.42067278125" lon="114.05848179638672" /><trkpt lat="22.42046678125" lon="114.05832079638672" /><trkpt lat="22.42032278125" lon="114.05832179638672" /><trkpt lat="22.42004978125" lon="114.05859079638672" /><trkpt lat="22.41975078125" lon="114.05849679638672" /><trkpt lat="22.41950478125" lon="114.05851979638672" /><trkpt lat="22.41944478125" lon="114.05861879638672" /><trkpt lat="22.41930778125" lon="114.05884879638671" /><trkpt lat="22.41929878125" lon="114.05908679638672" /><trkpt lat="22.41926378125" lon="114.05924879638673" /><trkpt lat="22.41918078125" lon="114.05928579638672" /><trkpt lat="22.41908378125" lon="114.05935879638672" /><trkpt lat="22.41909778125" lon="114.05951679638672" /><trkpt lat="22.41912878125" lon="114.05961379638671" /><trkpt lat="22.41914278125" lon="114.05974779638672" /><trkpt lat="22.41899278125" lon="114.06001879638671" /><trkpt lat="22.41896778125" lon="114.06014579638672" /><trkpt lat="22.41881178125" lon="114.06058679638672" /><trkpt lat="22.41880078125" lon="114.06076079638672" /><trkpt lat="22.41875478125" lon="114.06082679638672" /><trkpt lat="22.41867378125" lon="114.06088479638672" /><trkpt lat="22.41857078125" lon="114.06092879638672" /><trkpt lat="22.41849278125" lon="114.06091979638671" /><trkpt lat="22.41840378125" lon="114.06088879638672" /><trkpt lat="22.41828478125" lon="114.06083379638672" /><trkpt lat="22.41815078125" lon="114.06080479638672" /><trkpt lat="22.41756178125" lon="114.06095079638672" /><trkpt lat="22.41743578125" lon="114.06101379638672" /><trkpt lat="22.41741078125" lon="114.06112079638672" /><trkpt lat="22.41741278125" lon="114.06146379638672" /><trkpt lat="22.41735778125" lon="114.06157879638671" /><trkpt lat="22.41711678125" lon="114.06178279638672" /><trkpt lat="22.41699378125" lon="114.06189779638672" /><trkpt lat="22.41670878125" lon="114.06232279638672" /><trkpt lat="22.41640978125" lon="114.06239779638672" /><trkpt lat="22.41632678125" lon="114.06233179638672" /><trkpt lat="22.41627778125" lon="114.06209779638672" /><trkpt lat="22.41614878125" lon="114.06204179638672" /><trkpt lat="22.41573678125" lon="114.06202879638671" /><trkpt lat="22.41561478125" lon="114.06210779638671" /><trkpt lat="22.41551678125" lon="114.06222879638672" /><trkpt lat="22.41539378125" lon="114.06227179638672" /><trkpt lat="22.41528078125" lon="114.06223579638672" /><trkpt lat="22.41519778125" lon="114.06216979638671" /><trkpt lat="22.41488178125" lon="114.06205879638672" /><trkpt lat="22.41468178125" lon="114.06205679638671" /><trkpt lat="22.41459178125" lon="114.06202379638673" /><trkpt lat="22.41450678125" lon="114.06195779638672" /><trkpt lat="22.41436778125" lon="114.06183779638671" /><trkpt lat="22.41422478125" lon="114.06165979638672" /><trkpt lat="22.41412278125" lon="114.06157479638672" /><trkpt lat="22.41388478125" lon="114.06133379638672" /><trkpt lat="22.41366278125" lon="114.06101879638672" /><trkpt lat="22.41351978125" lon="114.06084579638672" /><trkpt lat="22.41349378125" lon="114.06075479638672" /><trkpt lat="22.41347178125" lon="114.06052679638672" /><trkpt lat="22.41334278125" lon="114.06040979638672" /><trkpt lat="22.41310178125" lon="114.06036079638672" /><trkpt lat="22.41301978125" lon="114.06029379638672" /><trkpt lat="22.41298078125" lon="114.06020679638672" /><trkpt lat="22.41296778125" lon="114.06009279638671" /><trkpt lat="22.41300078125" lon="114.05989979638672" /><trkpt lat="22.41294478125" lon="114.05980779638672" /><trkpt lat="22.41283778125" lon="114.05980779638672" /><trkpt lat="22.41251678125" lon="114.05991179638671" /><trkpt lat="22.41237578125" lon="114.06004079638672" /><trkpt lat="22.41218378125" lon="114.06031379638672" /><trkpt lat="22.41209478125" lon="114.06038179638672" /><trkpt lat="22.41191478125" lon="114.06033679638672" /><trkpt lat="22.41173478125" lon="114.06028279638672" /><trkpt lat="22.41163178125" lon="114.06017979638672" /><trkpt lat="22.41160278125" lon="114.06006679638672" /><trkpt lat="22.41160278125" lon="114.05967779638672" /><trkpt lat="22.41152578125" lon="114.05946679638672" /><trkpt lat="22.411462781250002" lon="114.05929879638671" /><trkpt lat="22.41136778125" lon="114.05917079638672" /><trkpt lat="22.41122478125" lon="114.05910879638672" /><trkpt lat="22.41104278125" lon="114.05908179638672" /><trkpt lat="22.41067678125" lon="114.05909579638671" /><trkpt lat="22.41058778125" lon="114.05904779638672" /><trkpt lat="22.41052078125" lon="114.05899779638672" /><trkpt lat="22.41042278125" lon="114.05881779638672" /><trkpt lat="22.41025578125" lon="114.05848279638671" /><trkpt lat="22.41015178125" lon="114.05833479638672" /><trkpt lat="22.40995278125" lon="114.05814979638672" /><trkpt lat="22.40990978125" lon="114.05806579638671" /><trkpt lat="22.40986978125" lon="114.05791779638672" /><trkpt lat="22.40968178125" lon="114.05755379638671" /><trkpt lat="22.40961078125" lon="114.05747579638673" /><trkpt lat="22.40947278125" lon="114.05742679638672" /><trkpt lat="22.40928478125" lon="114.05741179638672" /><trkpt lat="22.40913878125" lon="114.05743479638672" /><trkpt lat="22.40903178125" lon="114.05739779638672" /><trkpt lat="22.40897878125" lon="114.05734479638672" /><trkpt lat="22.40893578125" lon="114.05723779638672" /><trkpt lat="22.40894478125" lon="114.05705379638673" /><trkpt lat="22.40907278125" lon="114.05683479638672" /><trkpt lat="22.40913878125" lon="114.05662279638672" /><trkpt lat="22.40913378125" lon="114.05651679638672" /><trkpt lat="22.40902478125" lon="114.05618279638672" /><trkpt lat="22.40901478125" lon="114.05608579638672" /><trkpt lat="22.40911478125" lon="114.05575979638672" /><trkpt lat="22.40912878125" lon="114.05564579638671" /><trkpt lat="22.40907578125" lon="114.05552779638671" /><trkpt lat="22.40895278125" lon="114.05548379638672" /><trkpt lat="22.40886678125" lon="114.05552279638673" /><trkpt lat="22.40817978125" lon="114.05612479638671" /><trkpt lat="22.40813378125" lon="114.05614679638671" /><trkpt lat="22.40803078125" lon="114.05611779638672" /><trkpt lat="22.40799778125" lon="114.05608279638672" /><trkpt lat="22.40794078125" lon="114.05600479638672" /><trkpt lat="22.40798978125" lon="114.05552379638672" /><trkpt lat="22.40795278125" lon="114.05536279638672" /><trkpt lat="22.40788378125" lon="114.05530579638672" /><trkpt lat="22.40781478125" lon="114.05528479638672" /><trkpt lat="22.40771178125" lon="114.05528279638672" /><trkpt lat="22.40758178125" lon="114.05529079638671" /><trkpt lat="22.40737078125" lon="114.05552779638671" /><trkpt lat="22.40727578125" lon="114.05567379638671" /><trkpt lat="22.40720078125" lon="114.05594979638671" /><trkpt lat="22.40711978125" lon="114.05606879638673" /><trkpt lat="22.40706878125" lon="114.05608879638672" /><trkpt lat="22.40699778125" lon="114.05607579638672" /><trkpt lat="22.40692178125" lon="114.05601379638672" /><trkpt lat="22.40676278125" lon="114.05585979638671" /><trkpt lat="22.40673078125" lon="114.05575679638672" /><trkpt lat="22.40680478125" lon="114.05552279638673" /><trkpt lat="22.40680178125" lon="114.05540979638671" /><trkpt lat="22.40674378125" lon="114.05533879638672" /><trkpt lat="22.40669978125" lon="114.05531579638672" /><trkpt lat="22.40642378125" lon="114.05544779638672" /><trkpt lat="22.40634478125" lon="114.05544579638672" /><trkpt lat="22.40613078125" lon="114.05539479638672" /><trkpt lat="22.40599578125" lon="114.05541879638672" /><trkpt lat="22.405794781250002" lon="114.05554479638671" /><trkpt lat="22.40564078125" lon="114.05554679638672" /><trkpt lat="22.40548978125" lon="114.05555479638672" /><trkpt lat="22.40546478125" lon="114.05549379638671" /><trkpt lat="22.40541078125" lon="114.05536479638671" /><trkpt lat="22.40528078125" lon="114.05521879638673" /><trkpt lat="22.40468078125" lon="114.05476979638672" /><trkpt lat="22.40414378125" lon="114.05387079638672" /><trkpt lat="22.40397178125" lon="114.05369779638671" /><trkpt lat="22.40364878125" lon="114.05352579638672" /><trkpt lat="22.40356678125" lon="114.05329779638672" /><trkpt lat="22.40357378125" lon="114.05287379638672" /><trkpt lat="22.40349378125" lon="114.05271579638672" /><trkpt lat="22.40340978125" lon="114.05259979638672" /><trkpt lat="22.40334378125" lon="114.05255579638671" /><trkpt lat="22.40328178125" lon="114.05254279638672" /><trkpt lat="22.40321778125" lon="114.05248379638672" /><trkpt lat="22.40312978125" lon="114.05229279638672" /><trkpt lat="22.40315478125" lon="114.05192379638672" /><trkpt lat="22.40309478125" lon="114.05165279638672" /><trkpt lat="22.40298478125" lon="114.05143079638673" /><trkpt lat="22.40293078125" lon="114.05137279638672" /><trkpt lat="22.40277878125" lon="114.05132979638672" /><trkpt lat="22.40258578125" lon="114.05130379638672" /><trkpt lat="22.40241478125" lon="114.05125379638672" /><trkpt lat="22.40230178125" lon="114.05115779638672" /><trkpt lat="22.40203578125" lon="114.05101979638673" /><trkpt lat="22.40185878125" lon="114.05084179638672" /><trkpt lat="22.40175478125" lon="114.05072579638671" /><trkpt lat="22.40168578125" lon="114.05061579638672" /><trkpt lat="22.40160878125" lon="114.05054479638672" /><trkpt lat="22.40145978125" lon="114.05046579638672" /><trkpt lat="22.40135578125" lon="114.05039879638672" /><trkpt lat="22.40112878125" lon="114.05023979638672" /><trkpt lat="22.40083478125" lon="114.05012479638673" /><trkpt lat="22.40039078125" lon="114.04986179638672" /><trkpt lat="22.40015478125" lon="114.04970579638672" /><trkpt lat="22.39966478125" lon="114.04937079638673" /><trkpt lat="22.39948678125" lon="114.04925579638672" /><trkpt lat="22.39914578125" lon="114.04914079638672" /><trkpt lat="22.39901478125" lon="114.04899179638672" /><trkpt lat="22.39895578125" lon="114.04882079638672" /><trkpt lat="22.39881178125" lon="114.04858579638672" /><trkpt lat="22.39865478125" lon="114.04819779638672" /><trkpt lat="22.39854078125" lon="114.04812479638672" /><trkpt lat="22.39855778125" lon="114.04835279638672" /><trkpt lat="22.39852578125" lon="114.04843479638672" /><trkpt lat="22.3984568650861" lon="114.04848689842837" /><trkpt lat="22.39835978125" lon="114.04831479638672" /><trkpt lat="22.39757778125" lon="114.04890679638672" /><trkpt lat="22.39736778125" lon="114.04915879638672" /><trkpt lat="22.39702378125" lon="114.04949279638672" /><trkpt lat="22.39671578125" lon="114.04963779638672" /><trkpt lat="22.39669178125" lon="114.04983279638672" /><trkpt lat="22.39667478125" lon="114.05026179638672" /><trkpt lat="22.39642978125" lon="114.05065179638672" /><trkpt lat="22.39583578125" lon="114.05128879638671" /><trkpt lat="22.39539878125" lon="114.05155279638672" /><trkpt lat="22.39503778125" lon="114.05162879638672" /><trkpt lat="22.39455978125" lon="114.05163479638672" /><trkpt lat="22.39412278125" lon="114.05173579638672" /><trkpt lat="22.39355178125" lon="114.05200079638672" /><trkpt lat="22.39265478125" lon="114.05252379638672" /><trkpt lat="22.39232878125" lon="114.05285779638672" /><trkpt lat="22.39225478125" lon="114.05301579638672" /><trkpt lat="22.39216578125" lon="114.05324879638673" /><trkpt lat="22.39214678125" lon="114.05344279638672" /><trkpt lat="22.39213578125" lon="114.05379679638672" /><trkpt lat="22.39199678125" lon="114.05411979638671" /><trkpt lat="22.39157678125" lon="114.05444579638672" /><trkpt lat="22.39102378125" lon="114.05503179638671" /><trkpt lat="22.39027178125" lon="114.05564879638672" /><trkpt lat="22.38977078125" lon="114.05629179638672" /><trkpt lat="22.38948478125" lon="114.05668879638672" /><trkpt lat="22.38887378125" lon="114.05703579638671" /><trkpt lat="22.38847778125" lon="114.05733179638672" /><trkpt lat="22.38801078125" lon="114.05757079638671" /><trkpt lat="22.38769078125" lon="114.05799279638671" /><trkpt lat="22.38754842673486" lon="114.0582089431509" /><trkpt lat="22.387577355550963" lon="114.05823893454972" /><trkpt lat="22.38756978125" lon="114.05824079638671" /><trkpt lat="22.38750978125" lon="114.05832179638672" /><trkpt lat="22.38745078125" lon="114.05855979638672" /><trkpt lat="22.38726378125" lon="114.05856779638673" /><trkpt lat="22.38710978125" lon="114.05883579638672" /><trkpt lat="22.38677278125" lon="114.05918979638672" /><trkpt lat="22.38649478125" lon="114.05952279638672" /><trkpt lat="22.38629678125" lon="114.05973679638672" /><trkpt lat="22.38661378125" lon="114.05996279638671" /><trkpt lat="22.38674278125" lon="114.06003679638673" /><trkpt lat="22.38679478125" lon="114.06022579638672" /><trkpt lat="22.38709778125" lon="114.06045279638671" /><trkpt lat="22.38722878125" lon="114.06070279638672" /><trkpt lat="22.38744378125" lon="114.06113979638671" /><trkpt lat="22.38745878125" lon="114.06147379638672" /><trkpt lat="22.38734578125" lon="114.06126079638672" /><trkpt lat="22.38713478125" lon="114.06113279638672" /><trkpt lat="22.38697378125" lon="114.06127779638672" /><trkpt lat="22.38684278125" lon="114.06127379638671" /><trkpt lat="22.38670678125" lon="114.06107679638671" /><trkpt lat="22.38660278125" lon="114.06100879638672" /><trkpt lat="22.38661578125" lon="114.06062479638672" /><trkpt lat="22.38649978125" lon="114.06053279638672" /><trkpt lat="22.38636078125" lon="114.06055279638672" /><trkpt lat="22.38595378125" lon="114.06075579638672" /><trkpt lat="22.38585178125" lon="114.06087779638672" /><trkpt lat="22.38577078125" lon="114.06148579638672" /><trkpt lat="22.38568678125" lon="114.06147279638672" /><trkpt lat="22.38519578125" lon="114.06098479638672" /><trkpt lat="22.38505178125" lon="114.06092579638671" /><trkpt lat="22.38506478125" lon="114.06066879638672" /><trkpt lat="22.38489478125" lon="114.06050479638672" /><trkpt lat="22.38488778125" lon="114.06026979638672" /><trkpt lat="22.38469078125" lon="114.06022679638671" /><trkpt lat="22.38447078125" lon="114.06008079638671" /><trkpt lat="22.38425278125" lon="114.06005879638671" /><trkpt lat="22.38388478125" lon="114.06029079638672" /><trkpt lat="22.38367278125" lon="114.06040979638672" /><trkpt lat="22.38350778125" lon="114.06065179638672" /><trkpt lat="22.38315578125" lon="114.06073479638673" /><trkpt lat="22.38278178125" lon="114.06088879638672" /><trkpt lat="22.38269778125" lon="114.06100979638671" /><trkpt lat="22.38231878125" lon="114.06160379638672" /><trkpt lat="22.38210478125" lon="114.06182579638671" /><trkpt lat="22.38154078125" lon="114.06194679638672" /><trkpt lat="22.38129178125" lon="114.06192079638672" /><trkpt lat="22.38112578125" lon="114.06195179638672" /><trkpt lat="22.38087278125" lon="114.06194379638671" /><trkpt lat="22.38081578125" lon="114.06194979638671" /><trkpt lat="22.38039178125" lon="114.06203079638672" /><trkpt lat="22.38010778125" lon="114.06189179638672" /><trkpt lat="22.37974578125" lon="114.06187879638672" /><trkpt lat="22.37961578125" lon="114.06177979638672" /><trkpt lat="22.37948078125" lon="114.06176379638671" /><trkpt lat="22.37925178125" lon="114.06174779638671" /><trkpt lat="22.37912378125" lon="114.06169179638673" /><trkpt lat="22.37906978125" lon="114.06159579638671" /><trkpt lat="22.37897478125" lon="114.06146279638672" /><trkpt lat="22.37873978125" lon="114.06134679638672" /><trkpt lat="22.37858278125" lon="114.06131379638671" /><trkpt lat="22.37846878125" lon="114.06136479638671" /><trkpt lat="22.37845278125" lon="114.06149579638672" /><trkpt lat="22.37856778125" lon="114.06169979638672" /><trkpt lat="22.37856778125" lon="114.06182879638672" /><trkpt lat="22.37830778125" lon="114.06166379638672" /><trkpt lat="22.37796578125" lon="114.06148379638672" /><trkpt lat="22.37776378125" lon="114.06147179638671" /><trkpt lat="22.37764178125" lon="114.06142079638671" /><trkpt lat="22.37746078125" lon="114.06129879638672" /><trkpt lat="22.37732778125" lon="114.06126179638672" /><trkpt lat="22.37724578125" lon="114.06131079638672" /><trkpt lat="22.37717778125" lon="114.06143879638672" /><trkpt lat="22.37715178125" lon="114.06159679638672" /><trkpt lat="22.37711278125" lon="114.06164379638672" /><trkpt lat="22.37704778125" lon="114.06164579638671" /><trkpt lat="22.376628781249998" lon="114.06142379638672" /><trkpt lat="22.37653478125" lon="114.06132579638673" /><trkpt lat="22.37645178125" lon="114.06128979638672" /><trkpt lat="22.37635078125" lon="114.06132279638672" /><trkpt lat="22.37627178125" lon="114.06141179638672" /><trkpt lat="22.37621878125" lon="114.06154379638672" /><trkpt lat="22.37608178125" lon="114.06159879638672" /><trkpt lat="22.37600078125" lon="114.06166279638671" /><trkpt lat="22.37591078125" lon="114.06178479638672" /><trkpt lat="22.37582478125" lon="114.06183279638672" /><trkpt lat="22.37570178125" lon="114.06181179638672" /><trkpt lat="22.37557078125" lon="114.06183279638672" /><trkpt lat="22.37554178125" lon="114.06193779638672" /><trkpt lat="22.37541378125" lon="114.06206879638673" /><trkpt lat="22.37529978125" lon="114.06209779638672" /><trkpt lat="22.37528078125" lon="114.06214879638672" /><trkpt lat="22.37525478125" lon="114.06226579638673" /><trkpt lat="22.37513278125" lon="114.06229679638672" /><trkpt lat="22.37510778125" lon="114.06232079638671" /><trkpt lat="22.37514178125" lon="114.06245979638672" /><trkpt lat="22.37511378125" lon="114.06251779638671" /><trkpt lat="22.37499178125" lon="114.06258079638671" /><trkpt lat="22.37491678125" lon="114.06264979638672" /><trkpt lat="22.37489678125" lon="114.06273479638672" /><trkpt lat="22.37484478125" lon="114.06276779638672" /><trkpt lat="22.37479078125" lon="114.06285279638672" /><trkpt lat="22.37479478125" lon="114.06296279638671" /><trkpt lat="22.37483278125" lon="114.06314479638672" /><trkpt lat="22.37481878125" lon="114.06320979638672" /><trkpt lat="22.37476278125" lon="114.06326079638671" /><trkpt lat="22.37468878125" lon="114.06325579638671" /><trkpt lat="22.37449778125" lon="114.06309279638671" /><trkpt lat="22.37446078125" lon="114.06295679638671" /><trkpt lat="22.37444578125" lon="114.06290079638671" /><trkpt lat="22.37438378125" lon="114.06288779638672" /><trkpt lat="22.37425478125" lon="114.06289779638672" /><trkpt lat="22.37415778125" lon="114.06299879638672" /><trkpt lat="22.37413178125" lon="114.06304579638672" /><trkpt lat="22.37415278125" lon="114.06312879638672" /><trkpt lat="22.37414478125" lon="114.06320779638672" /><trkpt lat="22.37401778125" lon="114.06339079638671" /><trkpt lat="22.37397778125" lon="114.06342479638671" /><trkpt lat="22.37387478125" lon="114.06332179638672" /><trkpt lat="22.37378878125" lon="114.06329379638672" /><trkpt lat="22.37367778125" lon="114.06331179638671" /><trkpt lat="22.37359278125" lon="114.06339079638671" /><trkpt lat="22.37355178125" lon="114.06349879638672" /><trkpt lat="22.37348778125" lon="114.06354279638671" /><trkpt lat="22.37346178125" lon="114.06358979638672" /><trkpt lat="22.37344178125" lon="114.06368179638672" /><trkpt lat="22.37337178125" lon="114.06371979638672" /><trkpt lat="22.37329278125" lon="114.06368479638672" /><trkpt lat="22.37322178125" lon="114.06361379638672" /><trkpt lat="22.37312978125" lon="114.06360179638672" /><trkpt lat="22.37297178125" lon="114.06367879638672" /><trkpt lat="22.37293978125" lon="114.06375179638673" /><trkpt lat="22.37287278125" lon="114.06384179638673" /><trkpt lat="22.37271478125" lon="114.06383079638672" /><trkpt lat="22.37255478125" lon="114.06372279638671" /><trkpt lat="22.37244978125" lon="114.06351279638672" /><trkpt lat="22.37229778125" lon="114.06343479638672" /><trkpt lat="22.37224378125" lon="114.06343779638672" /><trkpt lat="22.37205378125" lon="114.06343179638672" /><trkpt lat="22.37192678125" lon="114.06336879638671" /><trkpt lat="22.37157778125" lon="114.06319679638672" /><trkpt lat="22.37132478125" lon="114.06328579638672" /><trkpt lat="22.37105478125" lon="114.06317679638671" /><trkpt lat="22.37096778125" lon="114.06312679638671" /><trkpt lat="22.37083578125" lon="114.06292579638672" /><trkpt lat="22.37053678125" lon="114.06265079638672" /><trkpt lat="22.37028178125" lon="114.06231779638672" /><trkpt lat="22.37013078125" lon="114.06204079638673" /><trkpt lat="22.37001578125" lon="114.06187779638672" /><trkpt lat="22.36985578125" lon="114.06172179638672" /><trkpt lat="22.36970478125" lon="114.06124279638672" /><trkpt lat="22.36956078125" lon="114.06097779638672" /><trkpt lat="22.36940078125" lon="114.06085479638672" /><trkpt lat="22.369308781249998" lon="114.06064079638672" /><trkpt lat="22.36917578125" lon="114.06044779638673" /><trkpt lat="22.36892478125" lon="114.05999279638672" /><trkpt lat="22.36873978125" lon="114.05969879638671" /><trkpt lat="22.36860978125" lon="114.05945479638672" /><trkpt lat="22.36853778125" lon="114.05932379638672" /><trkpt lat="22.36848178125" lon="114.05919279638672" /><trkpt lat="22.36836578125" lon="114.05921779638672" /><trkpt lat="22.36813878125" lon="114.05930279638672" /><trkpt lat="22.36805578125" lon="114.05934079638672" /><trkpt lat="22.36796278125" lon="114.05938179638672" /><trkpt lat="22.36784678125" lon="114.05941779638673" /><trkpt lat="22.36782478125" lon="114.05943679638672" /><trkpt lat="22.36779678125" lon="114.05945179638672" /><trkpt lat="22.36751778125" lon="114.05949579638671" /><trkpt lat="22.36731978125" lon="114.05951079638672" /><trkpt lat="22.36717578125" lon="114.05934679638672" /><trkpt lat="22.36694778125" lon="114.05907279638672" /><trkpt lat="22.36689278125" lon="114.05900379638672" /><trkpt lat="22.36677378125" lon="114.05885879638672" /><trkpt lat="22.366745100885176" lon="114.05882614371387" /></trkseg></trk></gpx>