<?xml version='1.0' encoding='UTF-8' ?><gpx version="1.1" creator="HikingTrailHK" xsi:schemaLocation="http://www.topografix.com/GPX/1/1 http://www.topografix.com/GPX/1/1/gpx.xsd https://hikingtrailhk.appspot.com/xml/gpxextensions/v1 https://hikingtrailhk.appspot.com/xml/gpxextensions/v1/gpxextensions.xsd" xmlns="http://www.topografix.com/GPX/1/1" xmlns:h="https://hikingtrailhk.appspot.com/xml/gpxextensions/v1" xmlns:xsi="http://www.w3.org/2001/XMLSchema-instance"><metadata><name>蓮花山 @ 2016-11</name><desc></desc><extensions><h:categoryid>tour_route</h:categoryid></extensions></metadata><trk><trkseg><trkpt lat="22.289360275290306" lon="113.94207489362887" /><trkpt lat="22.28942978125" lon="113.94212279638671" /><trkpt lat="22.28946178125" lon="113.94217179638672" /><trkpt lat="22.28948178125" lon="113.94221579638672" /><trkpt lat="22.28951878125" lon="113.94230479638672" /><trkpt lat="22.28954978125" lon="113.94251279638672" /><trkpt lat="22.28955378125" lon="113.94257779638671" /><trkpt lat="22.28955278125" lon="113.94266179638672" /><trkpt lat="22.28953878125" lon="113.94273179638672" /><trkpt lat="22.28938778125" lon="113.94316679638672" /><trkpt lat="22.28917878125" lon="113.94397479638671" /><trkpt lat="22.28906678125" lon="113.94455579638672" /><trkpt lat="22.28900278125" lon="113.94501279638672" /><trkpt lat="22.28896978125" lon="113.94530479638672" /><trkpt lat="22.28897178125" lon="113.94541079638672" /><trkpt lat="22.28899378125" lon="113.94555079638671" /><trkpt lat="22.28908378125" lon="113.94583379638672" /><trkpt lat="22.28918878125" lon="113.94612979638671" /><trkpt lat="22.28919878125" lon="113.94620379638671" /><trkpt lat="22.28920078125" lon="113.94628079638672" /><trkpt lat="22.28916378125" lon="113.94648179638672" /><trkpt lat="22.28909578125" lon="113.94660879638671" /><trkpt lat="22.28892178125" lon="113.94683879638671" /><trkpt lat="22.28878678125" lon="113.94699779638673" /><trkpt lat="22.28866978125" lon="113.94716379638672" /><trkpt lat="22.28863878125" lon="113.94721979638672" /><trkpt lat="22.28858478125" lon="113.94718879638671" /><trkpt lat="22.28849678125" lon="113.94709279638671" /><trkpt lat="22.28835078125" lon="113.94705879638671" /><trkpt lat="22.28824478125" lon="113.94719179638672" /><trkpt lat="22.28815978125" lon="113.94767179638671" /><trkpt lat="22.28827878125" lon="113.94825479638672" /><trkpt lat="22.28869578125" lon="113.94865179638671" /><trkpt lat="22.28882478125" lon="113.94903779638672" /><trkpt lat="22.28911278125" lon="113.94937079638672" /><trkpt lat="22.28936078125" lon="113.94953979638672" /><trkpt lat="22.28933578125" lon="113.95010979638671" /><trkpt lat="22.28966178125" lon="113.95059279638672" /><trkpt lat="22.28930378125" lon="113.95132879638672" /><trkpt lat="22.28926678125" lon="113.95141879638672" /><trkpt lat="22.28923578125" lon="113.95154079638672" /><trkpt lat="22.28905678125" lon="113.95220479638672" /><trkpt lat="22.28917278125" lon="113.95234379638671" /><trkpt lat="22.28913978125" lon="113.95241779638671" /><trkpt lat="22.28898678125" lon="113.95237679638672" /><trkpt lat="22.28884478125" lon="113.95242979638672" /><trkpt lat="22.28862678125" lon="113.95252179638672" /><trkpt lat="22.28853378125" lon="113.95258379638672" /><trkpt lat="22.28834078125" lon="113.95276179638672" /><trkpt lat="22.28812278125" lon="113.95294979638672" /><trkpt lat="22.28805878125" lon="113.95328179638672" /><trkpt lat="22.28808678125" lon="113.95337779638672" /><trkpt lat="22.28807778125" lon="113.95351079638672" /><trkpt lat="22.28797778125" lon="113.95364679638672" /><trkpt lat="22.28791978125" lon="113.95401679638672" /><trkpt lat="22.28793278125" lon="113.95418879638672" /><trkpt lat="22.28787678125" lon="113.95455179638672" /><trkpt lat="22.28784978125" lon="113.95471279638672" /><trkpt lat="22.28785178125" lon="113.95479679638672" /><trkpt lat="22.28783678125" lon="113.95491379638672" /><trkpt lat="22.28780678125" lon="113.95509079638671" /><trkpt lat="22.28782978125" lon="113.95546779638671" /><trkpt lat="22.28770778125" lon="113.95550079638672" /><trkpt lat="22.28764478125" lon="113.95569079638672" /><trkpt lat="22.28769078125" lon="113.95584379638672" /><trkpt lat="22.28747378125" lon="113.95669279638672" /><trkpt lat="22.28749878125" lon="113.95677579638672" /><trkpt lat="22.28746378125" lon="113.95721179638672" /><trkpt lat="22.28749178125" lon="113.95780179638672" /><trkpt lat="22.28741678125" lon="113.95792379638672" /><trkpt lat="22.28731678125" lon="113.95803679638672" /><trkpt lat="22.28729178125" lon="113.95813279638672" /><trkpt lat="22.28720578125" lon="113.95830479638671" /><trkpt lat="22.28699378125" lon="113.95860779638672" /><trkpt lat="22.28700378125" lon="113.95866079638672" /><trkpt lat="22.28691178125" lon="113.95880979638672" /><trkpt lat="22.28692878125" lon="113.95889779638672" /><trkpt lat="22.28687178125" lon="113.95895179638671" /><trkpt lat="22.28684678125" lon="113.95900279638671" /><trkpt lat="22.28683378125" lon="113.95903279638672" /><trkpt lat="22.28683078125" lon="113.95906479638671" /><trkpt lat="22.28682078125" lon="113.95909379638672" /><trkpt lat="22.28680578125" lon="113.95912779638672" /><trkpt lat="22.28681078125" lon="113.95914679638672" /><trkpt lat="22.28678778125" lon="113.95916679638673" /><trkpt lat="22.28680378125" lon="113.95920179638672" /><trkpt lat="22.28680778125" lon="113.95921879638672" /><trkpt lat="22.28678578125" lon="113.95924079638672" /><trkpt lat="22.28679578125" lon="113.95925379638672" /><trkpt lat="22.28679778125" lon="113.95927379638673" /><trkpt lat="22.28677878125" lon="113.95928379638671" /><trkpt lat="22.28676778125" lon="113.95930879638672" /><trkpt lat="22.28677778125" lon="113.95932079638672" /><trkpt lat="22.28676678125" lon="113.95935579638672" /><trkpt lat="22.28674778125" lon="113.95937579638672" /><trkpt lat="22.28674278125" lon="113.95941979638671" /><trkpt lat="22.28672778125" lon="113.95944779638671" /><trkpt lat="22.28674178125" lon="113.95946579638672" /><trkpt lat="22.28672078125" lon="113.95947679638672" /><trkpt lat="22.28670678125" lon="113.95950079638672" /><trkpt lat="22.28671678125" lon="113.95953179638671" /><trkpt lat="22.28671378125" lon="113.95955379638671" /><trkpt lat="22.28672278125" lon="113.95957379638672" /><trkpt lat="22.28671278125" lon="113.95958179638671" /><trkpt lat="22.28670278125" lon="113.95957879638672" /><trkpt lat="22.28669478125" lon="113.95958479638672" /><trkpt lat="22.28668778125" lon="113.95962379638672" /><trkpt lat="22.28666678125" lon="113.95963979638672" /><trkpt lat="22.28666178125" lon="113.95965179638672" /><trkpt lat="22.28666478125" lon="113.95967079638672" /><trkpt lat="22.28664278125" lon="113.95968279638672" /><trkpt lat="22.28663078125" lon="113.95968479638672" /><trkpt lat="22.28662178125" lon="113.95969479638671" /><trkpt lat="22.28662278125" lon="113.95970479638672" /><trkpt lat="22.28661778125" lon="113.95971679638672" /><trkpt lat="22.28660778125" lon="113.95973279638672" /><trkpt lat="22.28659478125" lon="113.95975279638672" /><trkpt lat="22.28660278125" lon="113.95976179638672" /><trkpt lat="22.28658878125" lon="113.95979879638672" /><trkpt lat="22.28657878125" lon="113.95980379638672" /><trkpt lat="22.28656678125" lon="113.95982579638672" /><trkpt lat="22.28657178125" lon="113.95983979638672" /><trkpt lat="22.28656778125" lon="113.95986379638671" /><trkpt lat="22.28657778125" lon="113.95987979638672" /><trkpt lat="22.28657078125" lon="113.95991879638672" /><trkpt lat="22.28654878125" lon="113.95995279638672" /><trkpt lat="22.28656078125" lon="113.95995479638673" /><trkpt lat="22.28655778125" lon="113.96000179638672" /><trkpt lat="22.28654578125" lon="113.96003079638672" /><trkpt lat="22.28651778125" lon="113.96005879638672" /><trkpt lat="22.28650778125" lon="113.96009779638672" /><trkpt lat="22.28649478125" lon="113.96015479638672" /><trkpt lat="22.28647878125" lon="113.96018279638672" /><trkpt lat="22.28650978125" lon="113.96020779638671" /><trkpt lat="22.28651278125" lon="113.96024379638672" /><trkpt lat="22.28653578125" lon="113.96025679638672" /><trkpt lat="22.28654378125" lon="113.96028779638672" /><trkpt lat="22.28648378125" lon="113.96030279638671" /><trkpt lat="22.28643278125" lon="113.96031979638671" /><trkpt lat="22.28637578125" lon="113.96033179638673" /><trkpt lat="22.28636178125" lon="113.96033779638672" /><trkpt lat="22.28634578125" lon="113.96035379638671" /><trkpt lat="22.28629578125" lon="113.96036479638671" /><trkpt lat="22.28626678125" lon="113.96038279638672" /><trkpt lat="22.28619078125" lon="113.96041079638672" /><trkpt lat="22.28617478125" lon="113.96042379638672" /><trkpt lat="22.28616878125" lon="113.96043579638672" /><trkpt lat="22.28613878125" lon="113.96044379638671" /><trkpt lat="22.28611078125" lon="113.96044379638671" /><trkpt lat="22.28609278125" lon="113.96044979638671" /><trkpt lat="22.28607778125" lon="113.96046479638672" /><trkpt lat="22.28606478125" lon="113.96046779638672" /><trkpt lat="22.28605078125" lon="113.96046279638672" /><trkpt lat="22.28603878125" lon="113.96046479638672" /><trkpt lat="22.28603278125" lon="113.96047479638672" /><trkpt lat="22.28601778125" lon="113.96047679638671" /><trkpt lat="22.28600178125" lon="113.96046379638672" /><trkpt lat="22.28596678125" lon="113.96047779638671" /><trkpt lat="22.28591378125" lon="113.96048479638672" /><trkpt lat="22.28589078125" lon="113.96050779638672" /><trkpt lat="22.28587078125" lon="113.96049879638672" /><trkpt lat="22.28586278125" lon="113.96052879638673" /><trkpt lat="22.28581378125" lon="113.96056379638672" /><trkpt lat="22.28566978125" lon="113.96046779638672" /><trkpt lat="22.28555478125" lon="113.96044579638672" /><trkpt lat="22.28549078125" lon="113.96034979638672" /><trkpt lat="22.28543078125" lon="113.96040879638672" /><trkpt lat="22.28529678125" lon="113.96034379638672" /><trkpt lat="22.28516778125" lon="113.96031779638672" /><trkpt lat="22.28499978125" lon="113.96040879638672" /><trkpt lat="22.28490478125" lon="113.96046179638672" /><trkpt lat="22.28471678125" lon="113.96053179638672" /><trkpt lat="22.28457778125" lon="113.96050479638672" /><trkpt lat="22.28437378125" lon="113.96053279638672" /><trkpt lat="22.28419978125" lon="113.96052679638672" /><trkpt lat="22.28408078125" lon="113.96041379638672" /><trkpt lat="22.28390778125" lon="113.96029579638672" /><trkpt lat="22.28387278125" lon="113.96016179638671" /><trkpt lat="22.28377778125" lon="113.96016879638672" /><trkpt lat="22.28363878125" lon="113.96015079638671" /><trkpt lat="22.28348778125" lon="113.96014979638672" /><trkpt lat="22.28323178125" lon="113.96029579638672" /><trkpt lat="22.28317278125" lon="113.96035479638672" /><trkpt lat="22.28298278125" lon="113.96045479638671" /><trkpt lat="22.28265778125" lon="113.96049979638671" /><trkpt lat="22.28242578125" lon="113.96043979638672" /><trkpt lat="22.28227678125" lon="113.96045079638672" /><trkpt lat="22.28213878125" lon="113.96044079638672" /><trkpt lat="22.28181578125" lon="113.96037179638672" /><trkpt lat="22.28165378125" lon="113.96040679638672" /><trkpt lat="22.28149678125" lon="113.96048579638672" /><trkpt lat="22.28135378125" lon="113.96058679638672" /><trkpt lat="22.28126178125" lon="113.96085479638671" /><trkpt lat="22.28121878125" lon="113.96115279638671" /><trkpt lat="22.28125078125" lon="113.96128679638672" /><trkpt lat="22.28124278125" lon="113.96140879638672" /><trkpt lat="22.28119678125" lon="113.96161079638672" /><trkpt lat="22.28109478125" lon="113.96169879638671" /><trkpt lat="22.28102904072939" lon="113.96170419301454" /><trkpt lat="22.28096078125" lon="113.96170979638671" /><trkpt lat="22.28085178125" lon="113.96171879638672" /><trkpt lat="22.28046878125" lon="113.96162779638672" /><trkpt lat="22.28035278125" lon="113.96164579638672" /><trkpt lat="22.28004578125" lon="113.96163579638672" /><trkpt lat="22.27963578125" lon="113.96153579638671" /><trkpt lat="22.27946978125" lon="113.96150679638671" /><trkpt lat="22.27935778125" lon="113.96152479638671" /><trkpt lat="22.27926178125" lon="113.96159579638672" /><trkpt lat="22.27902578125" lon="113.96183379638671" /><trkpt lat="22.27883678125" lon="113.96194979638672" /><trkpt lat="22.27877578125" lon="113.96201679638672" /><trkpt lat="22.27870678125" lon="113.96225379638672" /><trkpt lat="22.27850478125" lon="113.96260279638672" /><trkpt lat="22.27837378125" lon="113.96273079638672" /><trkpt lat="22.27827378125" lon="113.96277879638671" /><trkpt lat="22.27813978125" lon="113.96287979638672" /><trkpt lat="22.27792578125" lon="113.96289679638672" /><trkpt lat="22.27785678125" lon="113.96291479638671" /><trkpt lat="22.27780778125" lon="113.96295379638671" /><trkpt lat="22.27771178125" lon="113.96317879638671" /><trkpt lat="22.27769878125" lon="113.96336379638672" /><trkpt lat="22.27762078125" lon="113.96360879638672" /><trkpt lat="22.27761678125" lon="113.96411979638673" /><trkpt lat="22.27768078125" lon="113.96426679638672" /><trkpt lat="22.27758778125" lon="113.96439079638672" /><trkpt lat="22.27752778125" lon="113.96465379638671" /><trkpt lat="22.27739178125" lon="113.96488479638671" /><trkpt lat="22.27734178125" lon="113.96502979638672" /><trkpt lat="22.27728378125" lon="113.96508279638672" /><trkpt lat="22.27720178125" lon="113.96539179638673" /><trkpt lat="22.27727578125" lon="113.96552579638671" /><trkpt lat="22.27728178125" lon="113.96567279638671" /><trkpt lat="22.27732178125" lon="113.96573879638672" /><trkpt lat="22.27725578125" lon="113.96577779638672" /><trkpt lat="22.27661678125" lon="113.96598179638671" /><trkpt lat="22.27652878125" lon="113.96605879638672" /><trkpt lat="22.27644378125" lon="113.96620679638671" /><trkpt lat="22.27638778125" lon="113.96648079638672" /><trkpt lat="22.27626078125" lon="113.96662079638672" /><trkpt lat="22.27590178125" lon="113.96673379638672" /><trkpt lat="22.27584878125" lon="113.96681579638671" /><trkpt lat="22.27556878125" lon="113.96702379638671" /><trkpt lat="22.27521678125" lon="113.96715779638672" /><trkpt lat="22.27493578125" lon="113.96755379638672" /><trkpt lat="22.27458678125" lon="113.96763979638672" /><trkpt lat="22.27446978125" lon="113.96771079638673" /><trkpt lat="22.27425578125" lon="113.96804779638671" /><trkpt lat="22.27406078125" lon="113.96822079638672" /><trkpt lat="22.27395978125" lon="113.96823479638672" /><trkpt lat="22.27384378125" lon="113.96820279638672" /><trkpt lat="22.27359978125" lon="113.96821979638672" /><trkpt lat="22.273621168383567" lon="113.968321607649" /><trkpt lat="22.273635453663346" lon="113.96848142044888" /><trkpt lat="22.27378355085267" lon="113.96885094274751" /><trkpt lat="22.273972463281368" lon="113.96910798287684" /><trkpt lat="22.274048426277744" lon="113.9691696189621" /><trkpt lat="22.27414535292148" lon="113.96920330211151" /><trkpt lat="22.274266802068965" lon="113.9692098382418" /><trkpt lat="22.27439332558434" lon="113.96917082919936" /><trkpt lat="22.274518521341783" lon="113.96917143465697" /><trkpt lat="22.27447378125" lon="113.96922679638672" /><trkpt lat="22.27435478125" lon="113.96922679638672" /><trkpt lat="22.27419578125" lon="113.96922679638672" /><trkpt lat="22.27399778125" lon="113.96929079638672" /><trkpt lat="22.27371278125" lon="113.96933479638672" /><trkpt lat="22.27374078125" lon="113.96958279638672" /><trkpt lat="22.27340678125" lon="113.96944079638672" /><trkpt lat="22.27332378125" lon="113.96941679638672" /><trkpt lat="22.27316378125" lon="113.96941479638672" /><trkpt lat="22.27300278125" lon="113.96950879638672" /><trkpt lat="22.27290178125" lon="113.96951779638673" /><trkpt lat="22.27266778125" lon="113.96974879638672" /><trkpt lat="22.27237578125" lon="113.96986279638672" /><trkpt lat="22.27201278125" lon="113.96985179638672" /><trkpt lat="22.27178478125" lon="113.96992079638672" /><trkpt lat="22.27171278125" lon="113.96979379638672" /><trkpt lat="22.27164078125" lon="113.96966779638672" /><trkpt lat="22.27142078125" lon="113.96945979638672" /><trkpt lat="22.27139078125" lon="113.96961779638671" /><trkpt lat="22.27132578125" lon="113.96993479638672" /><trkpt lat="22.271324608739853" lon="113.96994947847489" /><trkpt lat="22.27132578125" lon="113.96993479638672" /><trkpt lat="22.271034375605133" lon="113.96974139738153" /><trkpt lat="22.270955805866137" lon="113.96979676986405" /><trkpt lat="22.270866511620852" lon="113.96982122459588" /><trkpt lat="22.270761743056156" lon="113.96987152300994" /><trkpt lat="22.2706674905442" lon="113.96998788146067" /><trkpt lat="22.270647941835833" lon="113.96999891657254" /><trkpt lat="22.27064519636376" lon="113.9700022437786" /><trkpt lat="22.27063677404854" lon="113.9700087242382" /><trkpt lat="22.270624105532832" lon="113.97002407095658" /><trkpt lat="22.270617269567808" lon="113.9700260715652" /><trkpt lat="22.270614484508073" lon="113.9700294012091" /><trkpt lat="22.270614409248708" lon="113.97003414274877" /><trkpt lat="22.27061156091324" lon="113.97003554096341" /><trkpt lat="22.270611662794025" lon="113.97003747001196" /><trkpt lat="22.270614578499806" lon="113.96997773301705" /><trkpt lat="22.27045778125" lon="113.96996879638672" /><trkpt lat="22.26996178125" lon="113.97055479638672" /><trkpt lat="22.26968278125" lon="113.97017879638672" /><trkpt lat="22.26934578125" lon="113.97004579638671" /><trkpt lat="22.26919278125" lon="113.97016979638671" /><trkpt lat="22.269155855658138" lon="113.97014919352559" /><trkpt lat="22.26905478125" lon="113.97009279638672" /><trkpt lat="22.26880178125" lon="113.97010079638672" /><trkpt lat="22.26870878125" lon="113.97006379638673" /><trkpt lat="22.26861378125" lon="113.96997479638672" /><trkpt lat="22.26851278125" lon="113.97013879638672" /><trkpt lat="22.26838878125" lon="113.97016079638672" /><trkpt lat="22.26823978125" lon="113.97009279638672" /><trkpt lat="22.26805078125" lon="113.97012279638672" /><trkpt lat="22.26773578125" lon="113.96998579638672" /><trkpt lat="22.26751478125" lon="113.97001579638672" /><trkpt lat="22.26730878125" lon="113.96995479638672" /><trkpt lat="22.26701278125" lon="113.97034379638671" /><trkpt lat="22.26661578125" lon="113.97057979638672" /><trkpt lat="22.26658278125" lon="113.97068679638672" /><trkpt lat="22.26628278125" lon="113.97068679638672" /><trkpt lat="22.26617578125" lon="113.97081579638672" /><trkpt lat="22.26603578125" lon="113.97068679638672" /><trkpt lat="22.26580278125" lon="113.97049379638672" /><trkpt lat="22.26573378125" lon="113.97037579638672" /><trkpt lat="22.26557478125" lon="113.97010779638671" /><trkpt lat="22.26528478125" lon="113.97004379638672" /><trkpt lat="22.26527478125" lon="113.96997879638671" /><trkpt lat="22.26489878125" lon="113.96982879638672" /><trkpt lat="22.26443878125" lon="113.96930479638672" /><trkpt lat="22.26424678125" lon="113.96927579638673" /><trkpt lat="22.26412978125" lon="113.96930979638672" /><trkpt lat="22.26388778125" lon="113.96930679638672" /><trkpt lat="22.26371778125" lon="113.96922779638672" /><trkpt lat="22.26356578125" lon="113.96926379638671" /><trkpt lat="22.26349378125" lon="113.96923079638673" /><trkpt lat="22.26331378125" lon="113.96906379638672" /><trkpt lat="22.26267778125" lon="113.96862679638672" /><trkpt lat="22.26215378125" lon="113.96805579638672" /><trkpt lat="22.26200878125" lon="113.96799479638672" /><trkpt lat="22.26189778125" lon="113.96798079638671" /><trkpt lat="22.26178278125" lon="113.96775879638672" /><trkpt lat="22.26166778125" lon="113.96762379638672" /><trkpt lat="22.26127678125" lon="113.96740579638671" /><trkpt lat="22.26118478125" lon="113.96739679638672" /><trkpt lat="22.26122178125" lon="113.96712979638671" /><trkpt lat="22.26113478125" lon="113.96696679638671" /><trkpt lat="22.26111878125" lon="113.96687479638672" /><trkpt lat="22.26121878125" lon="113.96667279638672" /><trkpt lat="22.26128678125" lon="113.96653679638672" /><trkpt lat="22.26130778125" lon="113.96640779638672" /><trkpt lat="22.26129778125" lon="113.96628479638672" /><trkpt lat="22.26127578125" lon="113.96618479638671" /><trkpt lat="22.26127278125" lon="113.96595979638671" /><trkpt lat="22.26131378125" lon="113.96577779638672" /><trkpt lat="22.26137178125" lon="113.96566979638672" /><trkpt lat="22.26141178125" lon="113.96538579638671" /><trkpt lat="22.26110778125" lon="113.96473079638672" /><trkpt lat="22.26108578125" lon="113.96456679638672" /><trkpt lat="22.26111778125" lon="113.96447579638672" /><trkpt lat="22.26112978125" lon="113.96438179638672" /><trkpt lat="22.26106978125" lon="113.96428479638672" /><trkpt lat="22.26106878125" lon="113.96417479638671" /><trkpt lat="22.26109278125" lon="113.96410279638671" /><trkpt lat="22.26113078125" lon="113.96396679638671" /><trkpt lat="22.26112078125" lon="113.96376579638672" /><trkpt lat="22.26108278125" lon="113.96364679638671" /><trkpt lat="22.26107278125" lon="113.96347479638672" /><trkpt lat="22.26106678125" lon="113.96337579638671" /><trkpt lat="22.26103278125" lon="113.96333279638672" /><trkpt lat="22.26095978125" lon="113.96324479638672" /><trkpt lat="22.26093078125" lon="113.96316579638672" /><trkpt lat="22.26094178125" lon="113.96309379638672" /><trkpt lat="22.26094978125" lon="113.96301879638672" /><trkpt lat="22.26091578125" lon="113.96298979638672" /><trkpt lat="22.26083678125" lon="113.96293179638671" /><trkpt lat="22.26062678125" lon="113.96276879638671" /><trkpt lat="22.26051378125" lon="113.96256579638671" /><trkpt lat="22.26038778125" lon="113.96239279638672" /><trkpt lat="22.26026378125" lon="113.96235479638672" /><trkpt lat="22.26020278125" lon="113.96230879638672" /><trkpt lat="22.26022378125" lon="113.96222879638673" /><trkpt lat="22.26022978125" lon="113.96207479638672" /><trkpt lat="22.26022978125" lon="113.96189479638672" /><trkpt lat="22.26025678125" lon="113.96180279638672" /><trkpt lat="22.26021378125" lon="113.96169779638672" /><trkpt lat="22.26017678125" lon="113.96164879638673" /><trkpt lat="22.26011578125" lon="113.96162079638673" /><trkpt lat="22.25999678125" lon="113.96159679638671" /><trkpt lat="22.25979878125" lon="113.96150779638671" /><trkpt lat="22.25972278125" lon="113.96143879638672" /><trkpt lat="22.25970378125" lon="113.96139079638672" /><trkpt lat="22.25970978125" lon="113.96133579638672" /><trkpt lat="22.25971078125" lon="113.96127879638672" /><trkpt lat="22.25971278125" lon="113.96122179638672" /><trkpt lat="22.25969978125" lon="113.96118879638672" /><trkpt lat="22.25964878125" lon="113.96116979638671" /><trkpt lat="22.25959278125" lon="113.96117279638672" /><trkpt lat="22.25952078125" lon="113.96119779638671" /><trkpt lat="22.25945778125" lon="113.96119379638672" /><trkpt lat="22.25937078125" lon="113.96113279638672" /><trkpt lat="22.25928378125" lon="113.96109279638672" /><trkpt lat="22.25919278125" lon="113.96102379638671" /><trkpt lat="22.25913778125" lon="113.96093779638672" /><trkpt lat="22.25908678125" lon="113.96088379638672" /><trkpt lat="22.25901778125" lon="113.96085479638671" /><trkpt lat="22.25896678125" lon="113.96079879638671" /><trkpt lat="22.25886378125" lon="113.96073979638672" /><trkpt lat="22.25872678125" lon="113.96071479638672" /><trkpt lat="22.25861578125" lon="113.96066479638672" /><trkpt lat="22.25857278125" lon="113.96061979638672" /><trkpt lat="22.25853778125" lon="113.96053579638672" /><trkpt lat="22.25850078125" lon="113.96048779638672" /><trkpt lat="22.25846078125" lon="113.96041979638672" /><trkpt lat="22.25845878125" lon="113.96023779638672" /><trkpt lat="22.25843478125" lon="113.96001979638672" /><trkpt lat="22.25838078125" lon="113.95993779638673" /><trkpt lat="22.25826578125" lon="113.95971879638672" /><trkpt lat="22.25821778125" lon="113.95952879638672" /><trkpt lat="22.25823678125" lon="113.95939579638672" /><trkpt lat="22.25826278125" lon="113.95921379638672" /><trkpt lat="22.25830478125" lon="113.95907779638672" /><trkpt lat="22.25822178125" lon="113.95868879638672" /><trkpt lat="22.25813678125" lon="113.95850479638672" /><trkpt lat="22.25811478125" lon="113.95835579638671" /><trkpt lat="22.25804978125" lon="113.95814479638672" /><trkpt lat="22.25796878125" lon="113.95795079638673" /><trkpt lat="22.25800778125" lon="113.95763479638671" /><trkpt lat="22.25809178125" lon="113.95728379638672" /><trkpt lat="22.25801778125" lon="113.95702779638673" /><trkpt lat="22.25790278125" lon="113.95681279638671" /><trkpt lat="22.25790378125" lon="113.95668979638671" /><trkpt lat="22.25787378125" lon="113.95658079638672" /><trkpt lat="22.25782878125" lon="113.95652579638671" /><trkpt lat="22.25782678125" lon="113.95645579638672" /><trkpt lat="22.25785678125" lon="113.95634479638672" /><trkpt lat="22.25776378125" lon="113.95609179638672" /><trkpt lat="22.25762778125" lon="113.95594279638672" /><trkpt lat="22.25764378125" lon="113.95583879638671" /><trkpt lat="22.25764978125" lon="113.95582179638672" /><trkpt lat="22.25764478125" lon="113.95579979638671" /><trkpt lat="22.25763578125" lon="113.95574779638672" /><trkpt lat="22.25761378125" lon="113.95564279638671" /><trkpt lat="22.25757978125" lon="113.95555479638672" /><trkpt lat="22.25753078125" lon="113.95546979638672" /><trkpt lat="22.25749478125" lon="113.95542879638671" /><trkpt lat="22.25746778125" lon="113.95541779638671" /><trkpt lat="22.25745878125" lon="113.95537779638671" /><trkpt lat="22.25744278125" lon="113.95533679638672" /><trkpt lat="22.25735878125" lon="113.95523879638672" /><trkpt lat="22.25734878125" lon="113.95518879638672" /><trkpt lat="22.25735878125" lon="113.95513779638672" /><trkpt lat="22.25734978125" lon="113.95506979638672" /><trkpt lat="22.25733778125" lon="113.95503779638672" /><trkpt lat="22.25734378125" lon="113.95492479638672" /><trkpt lat="22.25733478125" lon="113.95486679638672" /><trkpt lat="22.25734078125" lon="113.95478779638673" /><trkpt lat="22.25734078125" lon="113.95475279638671" /><trkpt lat="22.25734778125" lon="113.95469179638673" /><trkpt lat="22.25734678125" lon="113.95465579638672" /><trkpt lat="22.25736678125" lon="113.95459579638671" /><trkpt lat="22.25736978125" lon="113.95456579638672" /><trkpt lat="22.25735778125" lon="113.95453679638672" /><trkpt lat="22.25732478125" lon="113.95450079638672" /><trkpt lat="22.25730478125" lon="113.95449279638672" /><trkpt lat="22.25719878125" lon="113.95454679638672" /><trkpt lat="22.25719078125" lon="113.95453979638671" /><trkpt lat="22.25718878125" lon="113.95451279638672" /><trkpt lat="22.25721078125" lon="113.95446879638672" /><trkpt lat="22.25721078125" lon="113.95442079638671" /><trkpt lat="22.25722678125" lon="113.95439079638672" /><trkpt lat="22.25723478125" lon="113.95436179638672" /><trkpt lat="22.25724378125" lon="113.95436079638672" /><trkpt lat="22.25724878125" lon="113.95434579638672" /><trkpt lat="22.25724478125" lon="113.95431479638673" /><trkpt lat="22.25723978125" lon="113.95427879638672" /><trkpt lat="22.25722478125" lon="113.95426679638672" /><trkpt lat="22.25721978125" lon="113.95415479638672" /><trkpt lat="22.25720678125" lon="113.95413679638672" /><trkpt lat="22.25718878125" lon="113.95412679638672" /><trkpt lat="22.25716078125" lon="113.95409579638672" /><trkpt lat="22.25713578125" lon="113.95409579638672" /><trkpt lat="22.25712978125" lon="113.95408579638672" /><trkpt lat="22.25713578125" lon="113.95403279638671" /><trkpt lat="22.25712778125" lon="113.95391179638672" /><trkpt lat="22.25711878125" lon="113.95390479638672" /><trkpt lat="22.25712178125" lon="113.95387279638672" /><trkpt lat="22.25713178125" lon="113.95384879638672" /><trkpt lat="22.25711478125" lon="113.95379979638672" /><trkpt lat="22.25711878125" lon="113.95376179638671" /><trkpt lat="22.25712778125" lon="113.95374079638673" /><trkpt lat="22.25713178125" lon="113.95369579638673" /><trkpt lat="22.25710378125" lon="113.95363179638672" /><trkpt lat="22.25708678125" lon="113.95360579638673" /><trkpt lat="22.25709878125" lon="113.95354679638672" /><trkpt lat="22.25709378125" lon="113.95347879638672" /><trkpt lat="22.25709978125" lon="113.95341879638671" /><trkpt lat="22.25709278125" lon="113.95338479638671" /><trkpt lat="22.25708578125" lon="113.95335579638672" /><trkpt lat="22.25708678125" lon="113.95331079638672" /><trkpt lat="22.25709378125" lon="113.95330479638672" /><trkpt lat="22.25709178125" lon="113.95320279638672" /><trkpt lat="22.25710078125" lon="113.95315979638671" /><trkpt lat="22.25708678125" lon="113.95311679638672" /><trkpt lat="22.25713978125" lon="113.95309879638671" /><trkpt lat="22.25721878125" lon="113.95290579638672" /><trkpt lat="22.25728278125" lon="113.95284679638672" /><trkpt lat="22.25726378125" lon="113.95273379638672" /><trkpt lat="22.25728278125" lon="113.95264279638671" /><trkpt lat="22.25724378125" lon="113.95253579638671" /><trkpt lat="22.25724878125" lon="113.95242879638671" /><trkpt lat="22.25721378125" lon="113.95233179638672" /><trkpt lat="22.25702478125" lon="113.95231579638671" /><trkpt lat="22.25686178125" lon="113.95230479638671" /><trkpt lat="22.25657878125" lon="113.95232779638673" /><trkpt lat="22.25602478125" lon="113.95226979638672" /><trkpt lat="22.25550978125" lon="113.95194479638671" /><trkpt lat="22.25528778125" lon="113.95200379638672" /><trkpt lat="22.25464278125" lon="113.95216079638672" /><trkpt lat="22.25371378125" lon="113.95225879638672" /><trkpt lat="22.25344178125" lon="113.95251779638672" /><trkpt lat="22.25335778125" lon="113.95246079638672" /><trkpt lat="22.25316178125" lon="113.95229779638672" /><trkpt lat="22.25294778125" lon="113.95229679638672" /><trkpt lat="22.25288978125" lon="113.95225879638672" /><trkpt lat="22.25269778125" lon="113.95223179638671" /><trkpt lat="22.25252278125" lon="113.95207479638673" /><trkpt lat="22.25241778125" lon="113.95119879638672" /><trkpt lat="22.25225078125" lon="113.95080179638671" /><trkpt lat="22.25217378125" lon="113.95070579638671" /><trkpt lat="22.25207878125" lon="113.95043179638672" /><trkpt lat="22.25195778125" lon="113.95027479638672" /><trkpt lat="22.25197978125" lon="113.95019279638672" /><trkpt lat="22.25190378125" lon="113.95001579638672" /><trkpt lat="22.25167978125" lon="113.94993579638673" /><trkpt lat="22.25151578125" lon="113.94969379638673" /><trkpt lat="22.25140778125" lon="113.94926979638672" /><trkpt lat="22.25156478125" lon="113.94838779638673" /><trkpt lat="22.25147278125" lon="113.94815679638671" /><trkpt lat="22.25123478125" lon="113.94800779638672" /><trkpt lat="22.25064578125" lon="113.94730979638672" /><trkpt lat="22.25066678125" lon="113.94718579638672" /><trkpt lat="22.25077578125" lon="113.94691779638671" /><trkpt lat="22.25064878125" lon="113.94664879638673" /><trkpt lat="22.25066878125" lon="113.94643579638672" /><trkpt lat="22.25058478125" lon="113.94608279638672" /><trkpt lat="22.25045678125" lon="113.94588479638672" /><trkpt lat="22.25030678125" lon="113.94576879638672" /><trkpt lat="22.25015678125" lon="113.94572879638672" /><trkpt lat="22.25012878125" lon="113.94574879638672" /><trkpt lat="22.25008278125" lon="113.94557779638671" /><trkpt lat="22.24990678125" lon="113.94559979638672" /><trkpt lat="22.24983778125" lon="113.94552179638671" /><trkpt lat="22.24971978125" lon="113.94551679638671" /><trkpt lat="22.24937378125" lon="113.94516079638672" /><trkpt lat="22.24920478125" lon="113.94487279638672" /><trkpt lat="22.24922278125" lon="113.94462079638672" /><trkpt lat="22.24901878125" lon="113.94443279638672" /><trkpt lat="22.24901678125" lon="113.94429379638672" /><trkpt lat="22.24892178125" lon="113.94416879638672" /><trkpt lat="22.24884078125" lon="113.94384279638672" /><trkpt lat="22.24876178125" lon="113.94372479638672" /><trkpt lat="22.24873478125" lon="113.94351179638672" /><trkpt lat="22.24862378125" lon="113.94330779638672" /><trkpt lat="22.24856078125" lon="113.94331979638672" /><trkpt lat="22.24846878125" lon="113.94325379638671" /><trkpt lat="22.24844878125" lon="113.94324079638672" /><trkpt lat="22.24838378125" lon="113.94319879638672" /><trkpt lat="22.24826178125" lon="113.94323579638672" /><trkpt lat="22.24815078125" lon="113.94319979638672" /><trkpt lat="22.248130057275215" lon="113.94323673914012" /></trkseg></trk></gpx>