<?xml version='1.0' encoding='UTF-8' ?><gpx version="1.1" creator="HikingTrailHK" xsi:schemaLocation="http://www.topografix.com/GPX/1/1 http://www.topografix.com/GPX/1/1/gpx.xsd https://hikingtrailhk.appspot.com/xml/gpxextensions/v1 https://hikingtrailhk.appspot.com/xml/gpxextensions/v1/gpxextensions.xsd" xmlns="http://www.topografix.com/GPX/1/1" xmlns:h="https://hikingtrailhk.appspot.com/xml/gpxextensions/v1" xmlns:xsi="http://www.w3.org/2001/XMLSchema-instance"><metadata><name>蓮麻坑 @ 2016-10-29</name><desc></desc><extensions><h:categoryid>scenery_route</h:categoryid></extensions></metadata><trk><trkseg><trkpt lat="22.527827203858006" lon="114.19497742736064" /><trkpt lat="22.52776878125" lon="114.19493079638671" /><trkpt lat="22.52759778125" lon="114.19483779638672" /><trkpt lat="22.52732778125" lon="114.19475079638671" /><trkpt lat="22.52671678125" lon="114.19459079638672" /><trkpt lat="22.52647678125" lon="114.19454379638672" /><trkpt lat="22.52634278125" lon="114.19448279638672" /><trkpt lat="22.52627978125" lon="114.19445279638671" /><trkpt lat="22.52606378125" lon="114.19431879638672" /><trkpt lat="22.52594178125" lon="114.19422779638671" /><trkpt lat="22.52583178125" lon="114.19413979638672" /><trkpt lat="22.52578178125" lon="114.19408579638672" /><trkpt lat="22.52570778125" lon="114.19400579638672" /><trkpt lat="22.52567478125" lon="114.19396179638672" /><trkpt lat="22.52563478125" lon="114.19389079638673" /><trkpt lat="22.52561578125" lon="114.19384679638672" /><trkpt lat="22.52557578125" lon="114.19373779638671" /><trkpt lat="22.52553878125" lon="114.19361179638672" /><trkpt lat="22.52551178125" lon="114.19347079638672" /><trkpt lat="22.52549778125" lon="114.19328279638673" /><trkpt lat="22.52548953927183" lon="114.19308154716055" /><trkpt lat="22.52553478125" lon="114.19246179638672" /><trkpt lat="22.52567978125" lon="114.19237779638672" /><trkpt lat="22.52581778125" lon="114.19231379638671" /><trkpt lat="22.52597878125" lon="114.19221479638672" /><trkpt lat="22.52614378125" lon="114.19228479638672" /><trkpt lat="22.52590878125" lon="114.19217779638672" /><trkpt lat="22.52641378125" lon="114.19230179638672" /><trkpt lat="22.52650478125" lon="114.19202179638671" /><trkpt lat="22.52659878125" lon="114.19185179638671" /><trkpt lat="22.52652578125" lon="114.19175879638672" /><trkpt lat="22.52661878125" lon="114.19165679638672" /><trkpt lat="22.526617951069966" lon="114.19163860488896" /><trkpt lat="22.52660678125" lon="114.19139379638672" /><trkpt lat="22.52685278125" lon="114.19124879638672" /><trkpt lat="22.52713078125" lon="114.19155779638672" /><trkpt lat="22.52729978125" lon="114.19164879638672" /><trkpt lat="22.52753178125" lon="114.19199779638672" /><trkpt lat="22.52762878125" lon="114.19202379638672" /><trkpt lat="22.52787978125" lon="114.19223479638671" /><trkpt lat="22.52801078125" lon="114.19215579638671" /><trkpt lat="22.52810578125" lon="114.19205879638672" /><trkpt lat="22.52847378125" lon="114.19190779638672" /><trkpt lat="22.52880278125" lon="114.19199179638672" /><trkpt lat="22.52897378125" lon="114.19213179638672" /><trkpt lat="22.52940978125" lon="114.19234479638672" /><trkpt lat="22.52954778125" lon="114.19221679638672" /><trkpt lat="22.52970678125" lon="114.19214879638672" /><trkpt lat="22.53016178125" lon="114.19217179638672" /><trkpt lat="22.53095678125" lon="114.19253779638672" /><trkpt lat="22.53134478125" lon="114.19250079638672" /><trkpt lat="22.53158478125" lon="114.19234379638672" /><trkpt lat="22.53200378125" lon="114.19254279638672" /><trkpt lat="22.53238178125" lon="114.19253579638672" /><trkpt lat="22.53266378125" lon="114.19244479638672" /><trkpt lat="22.53302778125" lon="114.19254579638672" /><trkpt lat="22.53340978125" lon="114.19254779638672" /><trkpt lat="22.53375778125" lon="114.19272979638671" /><trkpt lat="22.53428378125" lon="114.19282179638672" /><trkpt lat="22.53438378125" lon="114.19286079638673" /><trkpt lat="22.53458778125" lon="114.19285379638671" /><trkpt lat="22.53530578125" lon="114.19252679638672" /><trkpt lat="22.53553078125" lon="114.19246179638672" /><trkpt lat="22.53581478125" lon="114.19243479638672" /><trkpt lat="22.53614078125" lon="114.19217479638672" /><trkpt lat="22.53625478125" lon="114.19229079638671" /><trkpt lat="22.53650278125" lon="114.19213079638672" /><trkpt lat="22.53669478125" lon="114.19196079638672" /><trkpt lat="22.53686778125" lon="114.19212979638672" /><trkpt lat="22.53696078125" lon="114.19214179638672" /><trkpt lat="22.53707378125" lon="114.19185679638672" /><trkpt lat="22.53724578125" lon="114.19168179638672" /><trkpt lat="22.53737578125" lon="114.19182979638671" /><trkpt lat="22.53767278125" lon="114.19178279638672" /><trkpt lat="22.53780478125" lon="114.19176979638672" /><trkpt lat="22.53832778125" lon="114.19198179638671" /><trkpt lat="22.53852378125" lon="114.19197079638671" /><trkpt lat="22.53868578125" lon="114.19202379638672" /><trkpt lat="22.53887278125" lon="114.19208679638672" /><trkpt lat="22.53891378125" lon="114.19215079638671" /><trkpt lat="22.53904578125" lon="114.19213879638671" /><trkpt lat="22.53928378125" lon="114.19224579638671" /><trkpt lat="22.53933778125" lon="114.19225979638672" /><trkpt lat="22.53947578125" lon="114.19207279638673" /><trkpt lat="22.53961678125" lon="114.19198579638672" /><trkpt lat="22.53983478125" lon="114.19184079638671" /><trkpt lat="22.54012278125" lon="114.19177079638672" /><trkpt lat="22.54025978125" lon="114.19169179638672" /><trkpt lat="22.54034578125" lon="114.19165379638672" /><trkpt lat="22.54031378125" lon="114.19178579638672" /><trkpt lat="22.54069878125" lon="114.19174979638672" /><trkpt lat="22.54083878125" lon="114.19128279638672" /><trkpt lat="22.54102778125" lon="114.19109479638672" /><trkpt lat="22.54106978125" lon="114.19106779638672" /><trkpt lat="22.54109878125" lon="114.19101479638672" /><trkpt lat="22.54113078125" lon="114.19088179638672" /><trkpt lat="22.54114978125" lon="114.19074479638672" /><trkpt lat="22.54117578125" lon="114.19058779638672" /><trkpt lat="22.54120978125" lon="114.19052779638672" /><trkpt lat="22.54124678125" lon="114.19048679638672" /><trkpt lat="22.54125878125" lon="114.19039079638672" /><trkpt lat="22.54130278125" lon="114.19031479638672" /><trkpt lat="22.54130378125" lon="114.19024979638672" /><trkpt lat="22.54129878125" lon="114.19018879638672" /><trkpt lat="22.54137778125" lon="114.19012279638672" /><trkpt lat="22.54138378125" lon="114.19007679638672" /><trkpt lat="22.54137978125" lon="114.19003179638672" /><trkpt lat="22.54131178125" lon="114.18998279638672" /><trkpt lat="22.54123378125" lon="114.18990579638673" /><trkpt lat="22.54119178125" lon="114.18981879638672" /><trkpt lat="22.54112178125" lon="114.18974379638672" /><trkpt lat="22.54109378125" lon="114.18972979638671" /><trkpt lat="22.54101878125" lon="114.18970979638672" /><trkpt lat="22.54097978125" lon="114.18972279638672" /><trkpt lat="22.54093878125" lon="114.18971579638672" /><trkpt lat="22.54084978125" lon="114.18971579638672" /><trkpt lat="22.54084878125" lon="114.18978679638671" /><trkpt lat="22.54085778125" lon="114.18994279638672" /><trkpt lat="22.54086078125" lon="114.19003179638672" /><trkpt lat="22.54080278125" lon="114.19013379638672" /><trkpt lat="22.54074378125" lon="114.19024079638672" /><trkpt lat="22.54069778125" lon="114.19040279638672" /><trkpt lat="22.54072678125" lon="114.19048879638672" /><trkpt lat="22.54072378125" lon="114.19059779638673" /><trkpt lat="22.54069178125" lon="114.19074779638672" /><trkpt lat="22.54066078125" lon="114.19085279638672" /><trkpt lat="22.54062878125" lon="114.19099179638673" /><trkpt lat="22.54061878125" lon="114.19105179638672" /><trkpt lat="22.54052778125" lon="114.19111879638672" /><trkpt lat="22.54045378125" lon="114.19124179638672" /><trkpt lat="22.54041778125" lon="114.19145679638672" /><trkpt lat="22.54041178125" lon="114.19156879638672" /><trkpt lat="22.54034578125" lon="114.19165379638672" /><trkpt lat="22.54031378125" lon="114.19178579638672" /><trkpt lat="22.54069878125" lon="114.19174979638672" /><trkpt lat="22.54083878125" lon="114.19128279638672" /><trkpt lat="22.54102778125" lon="114.19109479638672" /><trkpt lat="22.54105878125" lon="114.19114879638671" /><trkpt lat="22.54112078125" lon="114.19121079638671" /><trkpt lat="22.54123478125" lon="114.19124279638672" /><trkpt lat="22.54129778125" lon="114.19123779638672" /><trkpt lat="22.54150478125" lon="114.19118379638672" /><trkpt lat="22.54176178125" lon="114.19119079638672" /><trkpt lat="22.54190578125" lon="114.19091379638672" /><trkpt lat="22.54192878125" lon="114.19076379638672" /><trkpt lat="22.54201678125" lon="114.19068179638671" /><trkpt lat="22.54209278125" lon="114.19069379638673" /><trkpt lat="22.54219878125" lon="114.19071079638672" /><trkpt lat="22.54229878125" lon="114.19068479638672" /><trkpt lat="22.54230178125" lon="114.19063479638672" /><trkpt lat="22.54237878125" lon="114.19040079638673" /><trkpt lat="22.54249795672014" lon="114.1904641877289" /><trkpt lat="22.54250878125" lon="114.19046979638672" /><trkpt lat="22.54282678125" lon="114.19073279638671" /><trkpt lat="22.54296878125" lon="114.19079179638672" /><trkpt lat="22.54307578125" lon="114.19074979638673" /><trkpt lat="22.54310578125" lon="114.19061479638673" /><trkpt lat="22.54326578125" lon="114.19045779638672" /><trkpt lat="22.54336078125" lon="114.19042079638672" /><trkpt lat="22.543536049550724" lon="114.19048781070533" /><trkpt lat="22.54366678125" lon="114.19053779638672" /><trkpt lat="22.54388878125" lon="114.19058279638672" /><trkpt lat="22.54397378125" lon="114.19062979638672" /><trkpt lat="22.54404678125" lon="114.19065079638672" /><trkpt lat="22.54423478125" lon="114.19068279638672" /><trkpt lat="22.544269850966955" lon="114.19068227234577" /><trkpt lat="22.54455378125" lon="114.19049979638672" /><trkpt lat="22.54471078125" lon="114.19046879638672" /><trkpt lat="22.54490278125" lon="114.19047079638672" /><trkpt lat="22.54509878125" lon="114.19051079638672" /><trkpt lat="22.54522278125" lon="114.19067679638673" /><trkpt lat="22.54538678125" lon="114.19078379638673" /><trkpt lat="22.54580178125" lon="114.19081979638672" /><trkpt lat="22.54608978125" lon="114.19078179638672" /><trkpt lat="22.54627778125" lon="114.19069779638671" /><trkpt lat="22.54643478125" lon="114.19051879638671" /><trkpt lat="22.54653578125" lon="114.19033079638672" /><trkpt lat="22.54667978125" lon="114.19021879638672" /><trkpt lat="22.54677778125" lon="114.19018679638671" /><trkpt lat="22.54689778125" lon="114.19037079638672" /><trkpt lat="22.54704178125" lon="114.19042979638672" /><trkpt lat="22.54714078125" lon="114.19054079638671" /><trkpt lat="22.54717478125" lon="114.19063979638672" /><trkpt lat="22.54724878125" lon="114.19071879638672" /><trkpt lat="22.54737778125" lon="114.19079779638672" /><trkpt lat="22.54749978125" lon="114.19078979638672" /><trkpt lat="22.54758478125" lon="114.19074679638672" /><trkpt lat="22.54768478125" lon="114.19063379638672" /><trkpt lat="22.54799978125" lon="114.19045979638672" /><trkpt lat="22.54816678125" lon="114.19040879638672" /><trkpt lat="22.54829078125" lon="114.19041179638671" /><trkpt lat="22.54839478125" lon="114.19034479638673" /><trkpt lat="22.54866578125" lon="114.19026179638672" /><trkpt lat="22.54875278125" lon="114.19017679638672" /><trkpt lat="22.54889878125" lon="114.19000279638672" /><trkpt lat="22.54903778125" lon="114.18989779638672" /><trkpt lat="22.54918678125" lon="114.18967379638671" /><trkpt lat="22.54937678125" lon="114.18952679638672" /><trkpt lat="22.54947978125" lon="114.18947879638672" /><trkpt lat="22.54959678125" lon="114.18937479638672" /><trkpt lat="22.54959078125" lon="114.18924979638672" /><trkpt lat="22.54964978125" lon="114.18912479638672" /><trkpt lat="22.54981478125" lon="114.18896979638671" /><trkpt lat="22.54988278125" lon="114.18872879638671" /><trkpt lat="22.55002078125" lon="114.18865179638672" /><trkpt lat="22.55021678125" lon="114.18858679638672" /><trkpt lat="22.55037778125" lon="114.18846279638672" /><trkpt lat="22.55045978125" lon="114.18832079638672" /><trkpt lat="22.55074478125" lon="114.18828979638671" /><trkpt lat="22.55101878125" lon="114.18818479638672" /><trkpt lat="22.55118878125" lon="114.18795179638671" /><trkpt lat="22.55146778125" lon="114.18812379638672" /><trkpt lat="22.55156178125" lon="114.18814079638672" /><trkpt lat="22.551693781250002" lon="114.18797779638672" /><trkpt lat="22.55176678125" lon="114.18789579638671" /><trkpt lat="22.55183778125" lon="114.18777979638672" /><trkpt lat="22.55190578125" lon="114.18806479638671" /><trkpt lat="22.55188878125" lon="114.18834579638671" /><trkpt lat="22.55178378125" lon="114.18862579638672" /><trkpt lat="22.55165578125" lon="114.18893479638672" /><trkpt lat="22.55170278125" lon="114.18903779638671" /><trkpt lat="22.55185478125" lon="114.18915379638672" /><trkpt lat="22.55187978125" lon="114.18922579638672" /><trkpt lat="22.551961344181755" lon="114.18930452122746" /><trkpt lat="22.55198178125" lon="114.18933079638671" /><trkpt lat="22.55219978125" lon="114.18971579638672" /><trkpt lat="22.55230378125" lon="114.18964079638671" /><trkpt lat="22.55247278125" lon="114.18969379638672" /><trkpt lat="22.55258278125" lon="114.18977779638672" /><trkpt lat="22.55266678125" lon="114.18981279638672" /><trkpt lat="22.55273478125" lon="114.18990679638672" /><trkpt lat="22.55283778125" lon="114.18999779638672" /><trkpt lat="22.55291978125" lon="114.19024379638672" /><trkpt lat="22.55297078125" lon="114.19027979638672" /><trkpt lat="22.55301578125" lon="114.19032679638671" /><trkpt lat="22.55311578125" lon="114.19036879638672" /><trkpt lat="22.55317078125" lon="114.19040379638672" /><trkpt lat="22.55324578125" lon="114.19040779638672" /><trkpt lat="22.55333878125" lon="114.19035479638671" /><trkpt lat="22.55343678125" lon="114.19031379638672" /><trkpt lat="22.55361178125" lon="114.19075179638672" /><trkpt lat="22.55356378125" lon="114.19085579638671" /><trkpt lat="22.55364278125" lon="114.19087479638672" /><trkpt lat="22.55378478125" lon="114.19089079638673" /><trkpt lat="22.55370878125" lon="114.19101179638672" /><trkpt lat="22.553701315962094" lon="114.19101262403716" /><trkpt lat="22.55370878125" lon="114.19101179638672" /><trkpt lat="22.55376978125" lon="114.19100079638672" /><trkpt lat="22.55387360438919" lon="114.19095117531946" /><trkpt lat="22.55386178125" lon="114.19091879638673" /><trkpt lat="22.55385478125" lon="114.19085779638672" /><trkpt lat="22.55383678125" lon="114.19078379638673" /><trkpt lat="22.55380378125" lon="114.19070279638672" /><trkpt lat="22.55379678125" lon="114.19064779638671" /><trkpt lat="22.55379678125" lon="114.19059679638671" /><trkpt lat="22.55380578125" lon="114.19052479638673" /><trkpt lat="22.55379578125" lon="114.19047779638672" /><trkpt lat="22.55375478125" lon="114.19041279638672" /><trkpt lat="22.55372278125" lon="114.19034879638671" /><trkpt lat="22.55371578125" lon="114.19028779638671" /><trkpt lat="22.55371478125" lon="114.19023679638671" /><trkpt lat="22.55371678125" lon="114.19020979638672" /><trkpt lat="22.55369278125" lon="114.19013279638672" /><trkpt lat="22.55367178125" lon="114.19008479638671" /><trkpt lat="22.55363478125" lon="114.19004179638672" /><trkpt lat="22.55358378125" lon="114.19001579638672" /><trkpt lat="22.55353278125" lon="114.19000079638671" /><trkpt lat="22.55347978125" lon="114.18999579638673" /><trkpt lat="22.55343378125" lon="114.18998779638672" /><trkpt lat="22.55338078125" lon="114.18996379638672" /><trkpt lat="22.55333778125" lon="114.18993079638672" /><trkpt lat="22.55331178125" lon="114.18988179638671" /><trkpt lat="22.55331078125" lon="114.18983479638672" /><trkpt lat="22.55332078125" lon="114.18980779638672" /><trkpt lat="22.55333778125" lon="114.18976079638672" /><trkpt lat="22.55336578125" lon="114.18970879638672" /><trkpt lat="22.55338278125" lon="114.18965979638672" /><trkpt lat="22.55339378125" lon="114.18959879638672" /><trkpt lat="22.55339478125" lon="114.18954679638672" /><trkpt lat="22.55338578125" lon="114.18951379638672" /><trkpt lat="22.55337778125" lon="114.18947679638671" /><trkpt lat="22.55337878125" lon="114.18943079638672" /><trkpt lat="22.55338978125" lon="114.18939179638672" /><trkpt lat="22.55340578125" lon="114.18934779638671" /><trkpt lat="22.55342778125" lon="114.18929979638672" /><trkpt lat="22.55343878125" lon="114.18924679638671" /><trkpt lat="22.55345378125" lon="114.18922079638672" /><trkpt lat="22.55345678125" lon="114.18917179638672" /><trkpt lat="22.55345178125" lon="114.18911879638672" /><trkpt lat="22.55343678125" lon="114.18906279638672" /><trkpt lat="22.55343578125" lon="114.18903979638672" /><trkpt lat="22.55349015705741" lon="114.18871318813613" /><trkpt lat="22.553610833237364" lon="114.18858014651796" /><trkpt lat="22.55363412339664" lon="114.18860745380465" /><trkpt lat="22.55366878125" lon="114.18857279638672" /><trkpt lat="22.55378578125" lon="114.18855579638672" /><trkpt lat="22.55404678125" lon="114.18834079638673" /><trkpt lat="22.55419978125" lon="114.18825779638672" /><trkpt lat="22.554368781249998" lon="114.18783679638672" /><trkpt lat="22.55419478125" lon="114.18761579638672" /><trkpt lat="22.55402578125" lon="114.18759879638672" /><trkpt lat="22.55389278125" lon="114.18754879638672" /><trkpt lat="22.55385178125" lon="114.18738279638671" /><trkpt lat="22.55388278125" lon="114.18726179638672" /><trkpt lat="22.55381678125" lon="114.18705079638671" /><trkpt lat="22.55384178125" lon="114.18692379638672" /><trkpt lat="22.55384678125" lon="114.18659179638672" /><trkpt lat="22.55391878125" lon="114.18650279638672" /><trkpt lat="22.55386778125" lon="114.18572279638671" /><trkpt lat="22.55391378125" lon="114.18540779638671" /><trkpt lat="22.55385778125" lon="114.18531879638672" /><trkpt lat="22.55386901139908" lon="114.1852227736821" /><trkpt lat="22.55387778125" lon="114.18514779638672" /><trkpt lat="22.553964342232824" lon="114.18502481628866" /><trkpt lat="22.55404178125" lon="114.18491479638672" /><trkpt lat="22.55414378125" lon="114.18466079638672" /><trkpt lat="22.55412778125" lon="114.18438379638673" /><trkpt lat="22.55395478125" lon="114.18428979638672" /><trkpt lat="22.55358678125" lon="114.18422379638672" /><trkpt lat="22.55348978125" lon="114.18416279638672" /><trkpt lat="22.55343878125" lon="114.18406879638673" /><trkpt lat="22.55329878125" lon="114.18406679638672" /><trkpt lat="22.55324178125" lon="114.18378579638672" /><trkpt lat="22.55324378125" lon="114.18355879638672" /><trkpt lat="22.55324515837706" lon="114.18352505474458" /><trkpt lat="22.55325178125" lon="114.18336279638672" /><trkpt lat="22.55326878125" lon="114.18332679638672" /><trkpt lat="22.55328778125" lon="114.18327579638672" /><trkpt lat="22.55350878125" lon="114.18268679638672" /><trkpt lat="22.553542781250002" lon="114.18190479638672" /><trkpt lat="22.55346178125" lon="114.18188779638672" /><trkpt lat="22.55328878125" lon="114.18180579638671" /><trkpt lat="22.55320278125" lon="114.18177579638672" /><trkpt lat="22.55311678125" lon="114.18176279638672" /><trkpt lat="22.55303278125" lon="114.18179679638672" /><trkpt lat="22.55290678125" lon="114.18187879638671" /><trkpt lat="22.55273178125" lon="114.18186879638672" /><trkpt lat="22.55267178125" lon="114.18186579638672" /><trkpt lat="22.55261978125" lon="114.18182779638671" /><trkpt lat="22.55243878125" lon="114.18160879638671" /><trkpt lat="22.55239478125" lon="114.18158979638672" /><trkpt lat="22.55232778125" lon="114.18158179638672" /><trkpt lat="22.55227578125" lon="114.18161079638672" /><trkpt lat="22.55221078125" lon="114.18157279638672" /><trkpt lat="22.55203978125" lon="114.18147679638672" /><trkpt lat="22.55179178125" lon="114.18140979638672" /><trkpt lat="22.55149978125" lon="114.18134579638672" /><trkpt lat="22.55126278125" lon="114.18127679638671" /><trkpt lat="22.55101378125" lon="114.18130479638671" /><trkpt lat="22.55081978125" lon="114.18132279638672" /><trkpt lat="22.55080078125" lon="114.18114079638671" /><trkpt lat="22.55068478125" lon="114.18094379638671" /><trkpt lat="22.55060878125" lon="114.18089279638671" /><trkpt lat="22.55054378125" lon="114.18081079638672" /><trkpt lat="22.55042378125" lon="114.18077379638672" /><trkpt lat="22.55030178125" lon="114.18064779638672" /><trkpt lat="22.55023578125" lon="114.18057579638672" /><trkpt lat="22.55012878125" lon="114.18055879638672" /><trkpt lat="22.55008678125" lon="114.18055079638673" /><trkpt lat="22.55005078125" lon="114.18050179638672" /><trkpt lat="22.54997778125" lon="114.18045679638672" /><trkpt lat="22.54979878125" lon="114.18046379638672" /><trkpt lat="22.54951378125" lon="114.18056979638672" /><trkpt lat="22.54914878125" lon="114.18059479638671" /><trkpt lat="22.54900578125" lon="114.18058379638671" /><trkpt lat="22.54891078125" lon="114.18047279638672" /><trkpt lat="22.54900578125" lon="114.18032879638672" /><trkpt lat="22.54908478125" lon="114.18018679638672" /><trkpt lat="22.54913178125" lon="114.17999879638671" /><trkpt lat="22.54924878125" lon="114.17985179638671" /><trkpt lat="22.549254267893115" lon="114.17982763928299" /><trkpt lat="22.54931578125" lon="114.17955679638672" /><trkpt lat="22.54924778125" lon="114.17940379638672" /><trkpt lat="22.54934678125" lon="114.17911179638672" /><trkpt lat="22.54942178125" lon="114.17883879638671" /><trkpt lat="22.54959478125" lon="114.17870279638672" /><trkpt lat="22.54965478125" lon="114.17861879638671" /><trkpt lat="22.54972778125" lon="114.17848379638671" /><trkpt lat="22.54990278125" lon="114.17837979638672" /><trkpt lat="22.54998278125" lon="114.17825879638671" /><trkpt lat="22.55000178125" lon="114.17807679638672" /><trkpt lat="22.54987478125" lon="114.17787879638672" /><trkpt lat="22.54986278125" lon="114.17770579638672" /><trkpt lat="22.54989778125" lon="114.17750779638672" /><trkpt lat="22.54981878125" lon="114.17685279638673" /><trkpt lat="22.54980378125" lon="114.17660379638671" /><trkpt lat="22.54983378125" lon="114.17648179638672" /><trkpt lat="22.54980878125" lon="114.17637979638671" /><trkpt lat="22.54973678125" lon="114.17623479638672" /><trkpt lat="22.54962478125" lon="114.17611679638672" /><trkpt lat="22.54933778125" lon="114.17595979638672" /><trkpt lat="22.54924478125" lon="114.17587879638671" /><trkpt lat="22.54915578125" lon="114.17589379638672" /><trkpt lat="22.54899978125" lon="114.17585479638672" /><trkpt lat="22.54892978125" lon="114.17577379638672" /><trkpt lat="22.54872078125" lon="114.17541779638672" /><trkpt lat="22.54869578125" lon="114.17524079638672" /><trkpt lat="22.54864378125" lon="114.17513079638672" /><trkpt lat="22.54866478125" lon="114.17508179638672" /><trkpt lat="22.54859378125" lon="114.17499379638672" /><trkpt lat="22.54851478125" lon="114.17472679638672" /><trkpt lat="22.54856578125" lon="114.17450279638672" /><trkpt lat="22.54858145974277" lon="114.17441051759297" /><trkpt lat="22.548530141299246" lon="114.17439860981904" /><trkpt lat="22.54856078125" lon="114.17424379638672" /><trkpt lat="22.54908978125" lon="114.17377779638672" /><trkpt lat="22.54927078125" lon="114.17376779638671" /><trkpt lat="22.54940178125" lon="114.17330979638672" /><trkpt lat="22.54951978125" lon="114.17277179638671" /><trkpt lat="22.54948978125" lon="114.17212479638673" /><trkpt lat="22.54954578125" lon="114.17159579638673" /><trkpt lat="22.54998278125" lon="114.17109579638672" /><trkpt lat="22.55047578125" lon="114.17086279638671" /><trkpt lat="22.55084078125" lon="114.16940179638672" /><trkpt lat="22.55087078125" lon="114.16891279638672" /><trkpt lat="22.55112978125" lon="114.16835279638671" /><trkpt lat="22.55116478125" lon="114.16796679638672" /><trkpt lat="22.55125278125" lon="114.16774879638672" /><trkpt lat="22.55127978125" lon="114.16767979638672" /><trkpt lat="22.55132578125" lon="114.16725579638671" /><trkpt lat="22.55140578125" lon="114.16716879638672" /><trkpt lat="22.55168078125" lon="114.16657079638672" /><trkpt lat="22.55175978125" lon="114.16615279638673" /><trkpt lat="22.55193578125" lon="114.16551779638672" /><trkpt lat="22.55227078125" lon="114.16547979638672" /><trkpt lat="22.55229478125" lon="114.16547779638672" /><trkpt lat="22.55246878125" lon="114.16562179638672" /><trkpt lat="22.55250878125" lon="114.16561179638671" /><trkpt lat="22.55256578125" lon="114.16559879638672" /><trkpt lat="22.55259678125" lon="114.16548879638673" /><trkpt lat="22.55266678125" lon="114.16543679638671" /><trkpt lat="22.55270278125" lon="114.16540979638673" /><trkpt lat="22.55277378125" lon="114.16539979638672" /><trkpt lat="22.55277878125" lon="114.16523179638672" /><trkpt lat="22.55278078125" lon="114.16518979638671" /><trkpt lat="22.55299978125" lon="114.16509379638671" /><trkpt lat="22.55306278125" lon="114.16509579638672" /><trkpt lat="22.55334678125" lon="114.16498079638671" /><trkpt lat="22.55341278125" lon="114.16490379638672" /><trkpt lat="22.55342178125" lon="114.16448079638671" /><trkpt lat="22.55331078125" lon="114.16392779638672" /><trkpt lat="22.55329778125" lon="114.16371579638673" /><trkpt lat="22.55339678125" lon="114.16337479638672" /><trkpt lat="22.55351378125" lon="114.16297579638672" /><trkpt lat="22.55376178125" lon="114.16207079638671" /><trkpt lat="22.55380678125" lon="114.16191879638671" /><trkpt lat="22.55387678125" lon="114.16178779638672" /><trkpt lat="22.55393178125" lon="114.16166379638672" /><trkpt lat="22.55394178125" lon="114.16152879638672" /><trkpt lat="22.55387378125" lon="114.16126879638672" /><trkpt lat="22.55386378125" lon="114.16117979638672" /><trkpt lat="22.55384578125" lon="114.16091879638672" /><trkpt lat="22.55386378125" lon="114.16083279638671" /><trkpt lat="22.55389478125" lon="114.16074679638672" /><trkpt lat="22.55412178125" lon="114.16039479638673" /><trkpt lat="22.55424178125" lon="114.16025179638672" /><trkpt lat="22.55431378125" lon="114.16009579638671" /><trkpt lat="22.55439278125" lon="114.15989979638672" /><trkpt lat="22.55438378125" lon="114.15976179638672" /><trkpt lat="22.55440078125" lon="114.15970979638672" /><trkpt lat="22.55447478125" lon="114.15963879638672" /><trkpt lat="22.55433278125" lon="114.15928379638672" /><trkpt lat="22.55430478125" lon="114.15913579638672" /><trkpt lat="22.55432178125" lon="114.15899579638672" /><trkpt lat="22.55458978125" lon="114.15794579638671" /><trkpt lat="22.55460978125" lon="114.15784279638672" /><trkpt lat="22.55458878125" lon="114.15776279638672" /><trkpt lat="22.55406278125" lon="114.15648579638672" /><trkpt lat="22.55385278125" lon="114.15597779638672" /><trkpt lat="22.55379878125" lon="114.15584679638673" /><trkpt lat="22.55370978125" lon="114.15566279638672" /><trkpt lat="22.55365578125" lon="114.15557579638671" /><trkpt lat="22.55358778125" lon="114.15550879638671" /><trkpt lat="22.55351278125" lon="114.15545379638672" /><trkpt lat="22.55346278125" lon="114.15542279638672" /><trkpt lat="22.55341978125" lon="114.15540579638672" /><trkpt lat="22.55333078125" lon="114.15539079638671" /><trkpt lat="22.55299178125" lon="114.15536979638672" /><trkpt lat="22.55283678125" lon="114.15536479638672" /><trkpt lat="22.55270578125" lon="114.15536179638671" /><trkpt lat="22.55258778125" lon="114.15533879638672" /><trkpt lat="22.55233478125" lon="114.15531479638672" /><trkpt lat="22.55214878125" lon="114.15529679638672" /><trkpt lat="22.55187878125" lon="114.15528179638672" /><trkpt lat="22.55160578125" lon="114.15526679638671" /><trkpt lat="22.55148178125" lon="114.15526879638672" /><trkpt lat="22.55131378125" lon="114.15527079638672" /><trkpt lat="22.55111378125" lon="114.15526879638672" /><trkpt lat="22.55101878125" lon="114.15526579638671" /><trkpt lat="22.55096578125" lon="114.15526079638671" /><trkpt lat="22.55089378125" lon="114.15524479638673" /><trkpt lat="22.55081378125" lon="114.15522379638672" /><trkpt lat="22.55074778125" lon="114.15520179638672" /><trkpt lat="22.55069978125" lon="114.15518279638673" /><trkpt lat="22.55064178125" lon="114.15515179638672" /><trkpt lat="22.55039478125" lon="114.15501079638672" /><trkpt lat="22.55033578125" lon="114.15497979638671" /><trkpt lat="22.55027778125" lon="114.15495679638671" /><trkpt lat="22.55021578125" lon="114.15493479638671" /><trkpt lat="22.55016078125" lon="114.15491879638672" /><trkpt lat="22.55009878125" lon="114.15490179638672" /><trkpt lat="22.55001478125" lon="114.15488579638672" /><trkpt lat="22.54992478125" lon="114.15488079638672" /><trkpt lat="22.54978978125" lon="114.15488379638671" /><trkpt lat="22.54974078125" lon="114.15488879638671" /><trkpt lat="22.54966778125" lon="114.15489679638672" /><trkpt lat="22.54962178125" lon="114.15489679638672" /><trkpt lat="22.54956778125" lon="114.15489379638672" /><trkpt lat="22.54952378125" lon="114.15488579638672" /><trkpt lat="22.54947978125" lon="114.15486879638672" /><trkpt lat="22.54942178125" lon="114.15483879638671" /><trkpt lat="22.54936778125" lon="114.15480079638672" /><trkpt lat="22.54932078125" lon="114.15475679638672" /><trkpt lat="22.54927978125" lon="114.15470679638672" /><trkpt lat="22.54924778125" lon="114.15465279638671" /><trkpt lat="22.54922578125" lon="114.15459779638672" /><trkpt lat="22.54920578125" lon="114.15453479638671" /><trkpt lat="22.54919778125" lon="114.15447679638672" /><trkpt lat="22.549198272031308" lon="114.1541697917096" /></trkseg></trk></gpx>