<?xml version='1.0' encoding='UTF-8' ?><gpx version="1.1" creator="HikingTrailHK" xsi:schemaLocation="http://www.topografix.com/GPX/1/1 http://www.topografix.com/GPX/1/1/gpx.xsd" xmlns="http://www.topografix.com/GPX/1/1" xmlns:xsi="http://www.w3.org/2001/XMLSchema-instance"><metadata><name>薄扶林 @ 2025-11-18</name><desc></desc></metadata><trk><trkseg><trkpt lat="22.25596976880963" lon="114.13755351379885" /><trkpt lat="22.25615778125" lon="114.13747379638671" /><trkpt lat="22.25627478125" lon="114.13742879638671" /><trkpt lat="22.25635778125" lon="114.13740579638672" /><trkpt lat="22.25638078125" lon="114.13739479638672" /><trkpt lat="22.25640278125" lon="114.13738079638672" /><trkpt lat="22.25643478125" lon="114.13734579638673" /><trkpt lat="22.25644378125" lon="114.13733079638672" /><trkpt lat="22.25644978125" lon="114.13731279638672" /><trkpt lat="22.25644978125" lon="114.13728479638672" /><trkpt lat="22.25644378125" lon="114.13725679638672" /><trkpt lat="22.25643378125" lon="114.13723479638672" /><trkpt lat="22.25642178125" lon="114.13721879638672" /><trkpt lat="22.25640578125" lon="114.13720579638672" /><trkpt lat="22.25638578125" lon="114.13719779638672" /><trkpt lat="22.25636378125" lon="114.13719279638671" /><trkpt lat="22.25634278125" lon="114.13719479638672" /><trkpt lat="22.25632078125" lon="114.13720079638672" /><trkpt lat="22.25629578125" lon="114.13721179638672" /><trkpt lat="22.25626978125" lon="114.13722579638672" /><trkpt lat="22.25625078125" lon="114.13724079638672" /><trkpt lat="22.25623278125" lon="114.13725879638672" /><trkpt lat="22.25620178125" lon="114.13730079638673" /><trkpt lat="22.25618778125" lon="114.13732679638672" /><trkpt lat="22.25617178125" lon="114.13737779638672" /><trkpt lat="22.25616578125" lon="114.13743079638672" /><trkpt lat="22.25613378125" lon="114.13802579638671" /><trkpt lat="22.25613278125" lon="114.13805179638672" /><trkpt lat="22.25613678125" lon="114.13807379638672" /><trkpt lat="22.25614478125" lon="114.13809279638672" /><trkpt lat="22.25615678125" lon="114.13810979638671" /><trkpt lat="22.25616878125" lon="114.13812179638671" /><trkpt lat="22.25618278125" lon="114.13812979638672" /><trkpt lat="22.25620378125" lon="114.13813279638671" /><trkpt lat="22.25623078125" lon="114.13813479638672" /><trkpt lat="22.25624978125" lon="114.13812779638671" /><trkpt lat="22.25626278125" lon="114.13811679638673" /><trkpt lat="22.25626778125" lon="114.13810079638672" /><trkpt lat="22.25626678125" lon="114.13808479638672" /><trkpt lat="22.25626178125" lon="114.13806679638672" /><trkpt lat="22.25620478125" lon="114.13787979638671" /><trkpt lat="22.25619678125" lon="114.13782179638672" /><trkpt lat="22.25619878125" lon="114.13774279638672" /><trkpt lat="22.25622978125" lon="114.13773479638672" /><trkpt lat="22.25628278125" lon="114.13774379638672" /><trkpt lat="22.25627178125" lon="114.13781279638673" /><trkpt lat="22.25627578125" lon="114.13785479638672" /><trkpt lat="22.25630978125" lon="114.13795979638672" /><trkpt lat="22.25633578125" lon="114.13806079638672" /><trkpt lat="22.25633978125" lon="114.13809379638671" /><trkpt lat="22.25634578125" lon="114.13812479638672" /><trkpt lat="22.25635378125" lon="114.13814679638672" /><trkpt lat="22.25637378125" lon="114.13817179638671" /><trkpt lat="22.25640778125" lon="114.13820079638671" /><trkpt lat="22.25647178125" lon="114.13830079638672" /><trkpt lat="22.25652178125" lon="114.13840679638672" /><trkpt lat="22.25655678125" lon="114.13844879638673" /><trkpt lat="22.25660678125" lon="114.13849079638672" /><trkpt lat="22.25665078125" lon="114.13851079638673" /><trkpt lat="22.256694295781767" lon="114.13851879046999" /><trkpt lat="22.25661338180626" lon="114.13856738502056" /><trkpt lat="22.256528874898194" lon="114.13863689037504" /><trkpt lat="22.25648678125" lon="114.13869179638672" /><trkpt lat="22.25643978125" lon="114.13874279638672" /><trkpt lat="22.25659578125" lon="114.13894079638672" /><trkpt lat="22.25656678125" lon="114.13901779638672" /><trkpt lat="22.25657978125" lon="114.13913879638672" /><trkpt lat="22.25664378125" lon="114.13922879638672" /><trkpt lat="22.25675278125" lon="114.13924579638672" /><trkpt lat="22.25687878125" lon="114.13939179638672" /><trkpt lat="22.25693878125" lon="114.13936879638672" /><trkpt lat="22.25705478125" lon="114.13920879638673" /><trkpt lat="22.25719878125" lon="114.13909479638671" /><trkpt lat="22.25723178125" lon="114.13906779638671" /><trkpt lat="22.25725978125" lon="114.13904479638671" /><trkpt lat="22.25745378125" lon="114.13889279638671" /><trkpt lat="22.25748678125" lon="114.13894679638672" /><trkpt lat="22.25752278125" lon="114.13892179638673" /><trkpt lat="22.257638175188205" lon="114.13891605584735" /><trkpt lat="22.25781767718061" lon="114.13885555826317" /><trkpt lat="22.25784484336043" lon="114.138839997108" /><trkpt lat="22.257864481471728" lon="114.13882292451018" /><trkpt lat="22.257879946924675" lon="114.13879561245739" /><trkpt lat="22.257850990386515" lon="114.13873920361448" /><trkpt lat="22.25780948283105" lon="114.13869838673764" /><trkpt lat="22.257750030481105" lon="114.13867281952514" /><trkpt lat="22.25771911825612" lon="114.1386703412698" /><trkpt lat="22.257683034729055" lon="114.13868237655066" /><trkpt lat="22.257657176585965" lon="114.13871560294825" /><trkpt lat="22.257601677420737" lon="114.138828087246" /><trkpt lat="22.257592859676592" lon="114.13886386400668" /><trkpt lat="22.257562739290506" lon="114.13890448759844" /><trkpt lat="22.25752278125" lon="114.13892179638673" /><trkpt lat="22.25748678125" lon="114.13894679638672" /><trkpt lat="22.25758978125" lon="114.13909879638672" /><trkpt lat="22.25761178125" lon="114.13909879638672" /><trkpt lat="22.25764078125" lon="114.13910979638672" /><trkpt lat="22.25774378125" lon="114.13923979638672" /><trkpt lat="22.25787718582955" lon="114.13913713959693" /><trkpt lat="22.25792490204303" lon="114.13917820045418" /><trkpt lat="22.257939178833194" lon="114.13922190076948" /><trkpt lat="22.25837578125" lon="114.13886979638671" /><trkpt lat="22.25856978125" lon="114.13870979638672" /><trkpt lat="22.25867378125" lon="114.13862379638672" /><trkpt lat="22.25872278125" lon="114.13861179638671" /><trkpt lat="22.25876478125" lon="114.13857879638672" /><trkpt lat="22.25886278125" lon="114.13863179638672" /><trkpt lat="22.25889178125" lon="114.13859979638671" /><trkpt lat="22.25893678125" lon="114.13853279638671" /><trkpt lat="22.25895778125" lon="114.13849079638672" /><trkpt lat="22.25898478125" lon="114.13845779638672" /><trkpt lat="22.25901878125" lon="114.13843279638672" /><trkpt lat="22.25906378125" lon="114.13842279638672" /><trkpt lat="22.25909878125" lon="114.13838979638672" /><trkpt lat="22.25915578125" lon="114.13832379638671" /><trkpt lat="22.25920378125" lon="114.13829579638671" /><trkpt lat="22.25925978125" lon="114.13826379638672" /><trkpt lat="22.25927878125" lon="114.13829379638672" /><trkpt lat="22.25934678125" lon="114.13825979638672" /><trkpt lat="22.25940978125" lon="114.13822479638672" /><trkpt lat="22.25945778125" lon="114.13820179638672" /><trkpt lat="22.25954078125" lon="114.13813579638672" /><trkpt lat="22.25957278125" lon="114.13818779638672" /><trkpt lat="22.25961278125" lon="114.13816179638673" /><trkpt lat="22.25965378125" lon="114.13814779638672" /><trkpt lat="22.25972978125" lon="114.13809579638672" /><trkpt lat="22.259736781249998" lon="114.13805979638671" /><trkpt lat="22.25978478125" lon="114.13803379638672" /><trkpt lat="22.25979878125" lon="114.13799279638671" /><trkpt lat="22.25981478125" lon="114.13797579638671" /><trkpt lat="22.25988078125" lon="114.13791779638672" /><trkpt lat="22.25987578125" lon="114.13789179638673" /><trkpt lat="22.25987178125" lon="114.13784679638673" /><trkpt lat="22.25985478125" lon="114.13780279638672" /><trkpt lat="22.25990378125" lon="114.13776279638672" /><trkpt lat="22.25988578125" lon="114.13774179638672" /><trkpt lat="22.25983678125" lon="114.13769279638672" /><trkpt lat="22.25980078125" lon="114.13764879638671" /><trkpt lat="22.25977578125" lon="114.13759879638671" /><trkpt lat="22.25981478125" lon="114.13759679638672" /><trkpt lat="22.25984578125" lon="114.13757179638672" /><trkpt lat="22.25983778125" lon="114.13752579638673" /><trkpt lat="22.25978378125" lon="114.13749779638673" /><trkpt lat="22.25976978125" lon="114.13747179638672" /><trkpt lat="22.25977478125" lon="114.13742679638672" /><trkpt lat="22.259778219350515" lon="114.13737217730008" /><trkpt lat="22.25981078125" lon="114.13737579638672" /><trkpt lat="22.25983178125" lon="114.13734479638671" /><trkpt lat="22.25987378125" lon="114.13727479638672" /><trkpt lat="22.25989178125" lon="114.13723879638673" /><trkpt lat="22.25991778125" lon="114.13720979638671" /><trkpt lat="22.25993878125" lon="114.13716179638672" /><trkpt lat="22.25995678125" lon="114.13712579638671" /><trkpt lat="22.25996478125" lon="114.13708379638672" /><trkpt lat="22.25997337467514" lon="114.1370694441166" /><trkpt lat="22.25997984368118" lon="114.13703898122242" /><trkpt lat="22.259974760137126" lon="114.13702374386935" /><trkpt lat="22.259958325453923" lon="114.13702473516332" /><trkpt lat="22.259949582015324" lon="114.13703799772571" /><trkpt lat="22.25994289187595" lon="114.13708314309946" /><trkpt lat="22.259943594115626" lon="114.13711227490973" /><trkpt lat="22.25991783721684" lon="114.13720988540692" /><trkpt lat="22.25993078125" lon="114.13722979638672" /><trkpt lat="22.25996078125" lon="114.13723979638672" /><trkpt lat="22.26000878125" lon="114.13725779638672" /><trkpt lat="22.26004478125" lon="114.13726579638671" /><trkpt lat="22.26006878125" lon="114.13714779638671" /><trkpt lat="22.26010778125" lon="114.13704679638671" /><trkpt lat="22.26020278125" lon="114.13682179638671" /><trkpt lat="22.26024278125" lon="114.13671279638672" /><trkpt lat="22.26024778125" lon="114.13669079638672" /><trkpt lat="22.26029278125" lon="114.13668679638671" /><trkpt lat="22.26033278125" lon="114.13673779638673" /><trkpt lat="22.26035878125" lon="114.13677779638672" /><trkpt lat="22.26037678125" lon="114.13680479638671" /><trkpt lat="22.26040078125" lon="114.13685779638672" /><trkpt lat="22.26040078125" lon="114.13691379638672" /><trkpt lat="22.26039878125" lon="114.13695779638672" /><trkpt lat="22.26040178125" lon="114.13703079638672" /><trkpt lat="22.26045878125" lon="114.13714779638671" /><trkpt lat="22.26046278125" lon="114.13717679638673" /><trkpt lat="22.26046978125" lon="114.13719879638671" /><trkpt lat="22.26048278125" lon="114.13723879638673" /><trkpt lat="22.26050178125" lon="114.13733079638672" /><trkpt lat="22.26058978125" lon="114.13744779638672" /><trkpt lat="22.26062478125" lon="114.13753879638672" /><trkpt lat="22.26056078125" lon="114.13767379638672" /><trkpt lat="22.26057578125" lon="114.13773279638671" /><trkpt lat="22.26063778125" lon="114.13772079638672" /><trkpt lat="22.26081678125" lon="114.13770379638672" /><trkpt lat="22.26091878125" lon="114.13771779638672" /><trkpt lat="22.26124178125" lon="114.13769579638672" /><trkpt lat="22.261312665962365" lon="114.13770216226652" /><trkpt lat="22.261398053323262" lon="114.13769268976023" /><trkpt lat="22.2613852785357" lon="114.13762185939777" /><trkpt lat="22.26135088816045" lon="114.13757770487427" /><trkpt lat="22.261306755453504" lon="114.13755513607828" /><trkpt lat="22.261253012376727" lon="114.1375606203082" /><trkpt lat="22.26120550443126" lon="114.13758538067952" /><trkpt lat="22.261128057940866" lon="114.13767226734558" /><trkpt lat="22.261125927701602" lon="114.13770368723479" /><trkpt lat="22.26091878125" lon="114.13771779638672" /><trkpt lat="22.26081678125" lon="114.13770379638672" /><trkpt lat="22.26063778125" lon="114.13772079638672" /><trkpt lat="22.26057578125" lon="114.13773279638671" /><trkpt lat="22.26056078125" lon="114.13767379638672" /><trkpt lat="22.26062478125" lon="114.13753879638672" /><trkpt lat="22.26058978125" lon="114.13744779638672" /><trkpt lat="22.26050178125" lon="114.13733079638672" /><trkpt lat="22.26091978125" lon="114.13720579638672" /><trkpt lat="22.26091678125" lon="114.13700179638671" /><trkpt lat="22.26098378125" lon="114.13699579638671" /><trkpt lat="22.26096678125" lon="114.13691079638672" /><trkpt lat="22.26100378125" lon="114.13689679638672" /><trkpt lat="22.26098878125" lon="114.13684079638672" /><trkpt lat="22.26092878125" lon="114.13685979638672" /><trkpt lat="22.26089578125" lon="114.13670179638672" /><trkpt lat="22.26087578125" lon="114.13665179638672" /><trkpt lat="22.26087378125" lon="114.13659579638671" /><trkpt lat="22.26086578125" lon="114.13654179638672" /><trkpt lat="22.26086178125" lon="114.13647979638672" /><trkpt lat="22.26058478125" lon="114.13655279638672" /><trkpt lat="22.26032178125" lon="114.13658679638672" /><trkpt lat="22.26030778125" lon="114.13652279638671" /><trkpt lat="22.26028978125" lon="114.13643779638672" /><trkpt lat="22.26027878125" lon="114.13639379638671" /><trkpt lat="22.26043778125" lon="114.13634879638671" /><trkpt lat="22.26040478125" lon="114.13627679638672" /><trkpt lat="22.26038378125" lon="114.13623479638672" /><trkpt lat="22.26044778125" lon="114.13620479638672" /><trkpt lat="22.26066178125" lon="114.13612479638672" /><trkpt lat="22.26042578125" lon="114.13567779638672" /><trkpt lat="22.26056378125" lon="114.13556579638671" /><trkpt lat="22.26065178125" lon="114.13552479638672" /><trkpt lat="22.26077378125" lon="114.13547579638671" /><trkpt lat="22.26081878125" lon="114.13545979638671" /><trkpt lat="22.26080478125" lon="114.13540179638672" /><trkpt lat="22.26078878125" lon="114.13536679638672" /><trkpt lat="22.26069778125" lon="114.13530479638672" /><trkpt lat="22.260677419213152" lon="114.13526820388955" /><trkpt lat="22.260701588633665" lon="114.13524575750165" /><trkpt lat="22.260737432686142" lon="114.1352453297356" /><trkpt lat="22.260765722215552" lon="114.13526274450999" /><trkpt lat="22.26081878125" lon="114.13545979638671" /><trkpt lat="22.26088878125" lon="114.13544979638672" /><trkpt lat="22.26100478125" lon="114.13545379638671" /><trkpt lat="22.26105878125" lon="114.13546179638672" /><trkpt lat="22.26111878125" lon="114.13548179638671" /><trkpt lat="22.26121278125" lon="114.13553179638672" /><trkpt lat="22.26134078125" lon="114.13554679638672" /><trkpt lat="22.26144678125" lon="114.13551279638672" /><trkpt lat="22.26150978125" lon="114.13535479638672" /><trkpt lat="22.26156178125" lon="114.13531179638672" /><trkpt lat="22.261689028998873" lon="114.1353261577184" /><trkpt lat="22.26171178267637" lon="114.13533371217403" /><trkpt lat="22.261724750453283" lon="114.13535292217898" /><trkpt lat="22.26175679320417" lon="114.13545158787412" /><trkpt lat="22.261774315786738" lon="114.13547972627907" /><trkpt lat="22.261940639176856" lon="114.1356011304124" /><trkpt lat="22.262006954212197" lon="114.13562406389923" /><trkpt lat="22.262039908373325" lon="114.13562755286455" /><trkpt lat="22.26230145415387" lon="114.13554315922846" /><trkpt lat="22.26231794288111" lon="114.13553214000939" /><trkpt lat="22.26236956801222" lon="114.1354827285495" /><trkpt lat="22.26243406783776" lon="114.13539276126693" /><trkpt lat="22.262446219727437" lon="114.13528497079409" /><trkpt lat="22.262439424091653" lon="114.13524486653506" /><trkpt lat="22.262380960801494" lon="114.13510376937415" /><trkpt lat="22.262374333590728" lon="114.13506915137687" /><trkpt lat="22.26247478125" lon="114.13504779638671" /><trkpt lat="22.26257578125" lon="114.13508179638671" /><trkpt lat="22.26263478125" lon="114.13510379638672" /><trkpt lat="22.26272078125" lon="114.13513779638672" /><trkpt lat="22.26265078125" lon="114.13523679638672" /><trkpt lat="22.26268678125" lon="114.13526279638671" /><trkpt lat="22.26274678125" lon="114.13530379638672" /><trkpt lat="22.26278978125" lon="114.13533379638672" /><trkpt lat="22.262767139436217" lon="114.13541497649817" /><trkpt lat="22.26283278125" lon="114.13544779638671" /><trkpt lat="22.26295078125" lon="114.13547979638672" /><trkpt lat="22.26317478125" lon="114.13554179638672" /><trkpt lat="22.26327478125" lon="114.13557779638671" /><trkpt lat="22.26358178125" lon="114.13574879638672" /><trkpt lat="22.26371578125" lon="114.13587079638671" /><trkpt lat="22.26378778125" lon="114.13593779638671" /><trkpt lat="22.26429578125" lon="114.13626079638672" /><trkpt lat="22.26444178125" lon="114.13632179638672" /><trkpt lat="22.26467578125" lon="114.13641579638671" /><trkpt lat="22.26492678125" lon="114.13635179638672" /><trkpt lat="22.26498978125" lon="114.13636079638673" /><trkpt lat="22.26522878125" lon="114.13637479638672" /><trkpt lat="22.26533078125" lon="114.13641179638672" /><trkpt lat="22.26535478125" lon="114.13642079638672" /><trkpt lat="22.26539078125" lon="114.13647079638672" /><trkpt lat="22.26541078125" lon="114.13649779638672" /><trkpt lat="22.26554978125" lon="114.13675179638672" /><trkpt lat="22.265688715556564" lon="114.13706880963036" /><trkpt lat="22.26569073575628" lon="114.13702421877917" /><trkpt lat="22.265650038995517" lon="114.13698055669903" /><trkpt lat="22.265468706449056" lon="114.1366732416991" /><trkpt lat="22.2654659983491" lon="114.13667047300589" /><trkpt lat="22.26546497058004" lon="114.13667023810177" /><trkpt lat="22.265494739763827" lon="114.13665121624263" /><trkpt lat="22.26541078125" lon="114.13649779638672" /><trkpt lat="22.26539078125" lon="114.13647079638672" /><trkpt lat="22.26535478125" lon="114.13642079638672" /><trkpt lat="22.26533078125" lon="114.13641179638672" /><trkpt lat="22.26522878125" lon="114.13637479638672" /><trkpt lat="22.26498978125" lon="114.13636079638673" /><trkpt lat="22.26492678125" lon="114.13635179638672" /><trkpt lat="22.26467578125" lon="114.13641579638671" /><trkpt lat="22.26478278125" lon="114.13615579638672" /><trkpt lat="22.26469078125" lon="114.13606379638672" /><trkpt lat="22.26467478125" lon="114.13591779638672" /><trkpt lat="22.26486778125" lon="114.13543679638671" /><trkpt lat="22.26479278125" lon="114.13480979638672" /><trkpt lat="22.26490478125" lon="114.13453579638671" /><trkpt lat="22.26492678125" lon="114.13455679638672" /><trkpt lat="22.26494978125" lon="114.13456679638672" /><trkpt lat="22.26497478125" lon="114.13455779638672" /><trkpt lat="22.26511678125" lon="114.13444879638672" /><trkpt lat="22.26514178125" lon="114.13441679638672" /><trkpt lat="22.26515878125" lon="114.13438379638671" /><trkpt lat="22.26516678125" lon="114.13434979638672" /><trkpt lat="22.26516478125" lon="114.13431679638671" /><trkpt lat="22.26508978125" lon="114.13390179638672" /><trkpt lat="22.26500078125" lon="114.13372479638672" /><trkpt lat="22.26495078125" lon="114.13367379638672" /><trkpt lat="22.26490078125" lon="114.13365479638672" /><trkpt lat="22.26482878125" lon="114.13364579638672" /><trkpt lat="22.26489778125" lon="114.13357279638672" /><trkpt lat="22.26500578125" lon="114.13359479638672" /><trkpt lat="22.26529578125" lon="114.13371079638672" /><trkpt lat="22.26562678125" lon="114.13370579638672" /><trkpt lat="22.26566278125" lon="114.13371979638671" /><trkpt lat="22.26578478125" lon="114.13372579638671" /><trkpt lat="22.26625078125" lon="114.13356179638672" /><trkpt lat="22.26663778125" lon="114.13342479638672" /><trkpt lat="22.26710578125" lon="114.13280179638672" /><trkpt lat="22.26716278125" lon="114.13272279638672" /><trkpt lat="22.26734578125" lon="114.13243079638671" /><trkpt lat="22.26739478125" lon="114.13237879638672" /><trkpt lat="22.26749178125" lon="114.13232879638672" /><trkpt lat="22.26758678125" lon="114.13228079638672" /><trkpt lat="22.26770878125" lon="114.13224779638672" /><trkpt lat="22.26783878125" lon="114.13225979638672" /><trkpt lat="22.26797978125" lon="114.13226079638672" /><trkpt lat="22.26811278125" lon="114.13226279638671" /><trkpt lat="22.26824578125" lon="114.13213279638671" /><trkpt lat="22.26830778125" lon="114.13204779638671" /><trkpt lat="22.26824278125" lon="114.13206479638671" /><trkpt lat="22.26818878125" lon="114.13212979638672" /><trkpt lat="22.26816178125" lon="114.13215579638671" /><trkpt lat="22.26812078125" lon="114.13218479638672" /><trkpt lat="22.26809278125" lon="114.13218579638672" /><trkpt lat="22.26806578125" lon="114.13218279638672" /><trkpt lat="22.268041781249998" lon="114.13216879638672" /><trkpt lat="22.26801078125" lon="114.13213379638673" /><trkpt lat="22.26794078125" lon="114.13196579638672" /><trkpt lat="22.26786401231744" lon="114.13178199877319" /><trkpt lat="22.26787562366202" lon="114.13172573543187" /><trkpt lat="22.267856428777325" lon="114.13161056052898" /><trkpt lat="22.26801878125" lon="114.13148879638672" /><trkpt lat="22.26834478125" lon="114.13118779638671" /><trkpt lat="22.26844278125" lon="114.13108779638672" /><trkpt lat="22.26885778125" lon="114.13078079638672" /><trkpt lat="22.26889778125" lon="114.13073779638673" /><trkpt lat="22.26895978125" lon="114.13068979638672" /><trkpt lat="22.26902978125" lon="114.13064779638673" /><trkpt lat="22.26905978125" lon="114.13062979638671" /><trkpt lat="22.26909678125" lon="114.13060679638672" /><trkpt lat="22.26922778125" lon="114.13056079638672" /><trkpt lat="22.26942978125" lon="114.13043679638672" /><trkpt lat="22.26972578125" lon="114.13028179638673" /><trkpt lat="22.26976678125" lon="114.13025879638671" /><trkpt lat="22.26979978125" lon="114.13024079638672" /><trkpt lat="22.27013178125" lon="114.13005479638672" /><trkpt lat="22.27029178125" lon="114.12996779638672" /><trkpt lat="22.27030778125" lon="114.12985179638672" /><trkpt lat="22.27033778125" lon="114.12967079638672" /><trkpt lat="22.27036878125" lon="114.12957779638671" /><trkpt lat="22.27035178125" lon="114.12956279638672" /><trkpt lat="22.27031178125" lon="114.12948879638672" /><trkpt lat="22.27029078125" lon="114.12942679638672" /><trkpt lat="22.27027878125" lon="114.12937079638672" /><trkpt lat="22.27027278125" lon="114.12931779638672" /><trkpt lat="22.27027278125" lon="114.12927479638672" /><trkpt lat="22.27027878125" lon="114.12923779638672" /><trkpt lat="22.27028978125" lon="114.12920579638671" /><trkpt lat="22.27030178125" lon="114.12918379638671" /><trkpt lat="22.27031978125" lon="114.12915579638671" /><trkpt lat="22.27034278125" lon="114.12912679638671" /><trkpt lat="22.27036878125" lon="114.12910579638672" /><trkpt lat="22.27040778125" lon="114.12908379638672" /><trkpt lat="22.27053478125" lon="114.12901279638672" /><trkpt lat="22.27056578125" lon="114.12899379638672" /><trkpt lat="22.27059778125" lon="114.12895879638671" /><trkpt lat="22.27061778125" lon="114.12892079638672" /><trkpt lat="22.27062978125" lon="114.12888579638673" /><trkpt lat="22.27063378125" lon="114.12884279638672" /><trkpt lat="22.27062778125" lon="114.12879379638672" /><trkpt lat="22.27060978125" lon="114.12875679638672" /><trkpt lat="22.27059578125" lon="114.12873179638672" /><trkpt lat="22.27057378125" lon="114.12870779638672" /><trkpt lat="22.27054678125" lon="114.12868779638671" /><trkpt lat="22.27051178125" lon="114.12867079638671" /><trkpt lat="22.27037578125" lon="114.12862479638672" /><trkpt lat="22.27034578125" lon="114.12861079638672" /><trkpt lat="22.27031578125" lon="114.12858679638671" /><trkpt lat="22.27030178125" lon="114.12856579638672" /><trkpt lat="22.270262608952617" lon="114.12850252364335" /><trkpt lat="22.27035142540289" lon="114.12846127773251" /><trkpt lat="22.27035178125" lon="114.12846079638672" /><trkpt lat="22.27045378125" lon="114.12842179638672" /><trkpt lat="22.27047678125" lon="114.12840879638672" /><trkpt lat="22.27050078125" lon="114.12839179638672" /><trkpt lat="22.27051978125" lon="114.12836379638672" /><trkpt lat="22.27052778125" lon="114.12833079638672" /><trkpt lat="22.27053478125" lon="114.12829379638671" /><trkpt lat="22.27053278125" lon="114.12826179638672" /><trkpt lat="22.27052178125" lon="114.12823079638672" /><trkpt lat="22.27017578125" lon="114.12728279638672" /><trkpt lat="22.27016878125" lon="114.12725779638671" /><trkpt lat="22.27016878125" lon="114.12724079638672" /><trkpt lat="22.27017178125" lon="114.12722379638672" /><trkpt lat="22.27018178125" lon="114.12720179638671" /><trkpt lat="22.27039478125" lon="114.12680079638672" /><trkpt lat="22.27040778125" lon="114.12677379638671" /><trkpt lat="22.27042078125" lon="114.12675479638672" /><trkpt lat="22.27044478125" lon="114.12673779638672" /><trkpt lat="22.27048978125" lon="114.12671879638673" /><trkpt lat="22.27054078125" lon="114.12670179638671" /><trkpt lat="22.27058778125" lon="114.12668979638671" /><trkpt lat="22.27064378125" lon="114.12668579638672" /><trkpt lat="22.27069378125" lon="114.12668979638671" /><trkpt lat="22.27079578125" lon="114.12670679638671" /><trkpt lat="22.27084278125" lon="114.12671779638671" /><trkpt lat="22.27087678125" lon="114.12674279638672" /><trkpt lat="22.27090678125" lon="114.12675779638671" /><trkpt lat="22.27093178125" lon="114.12677179638672" /><trkpt lat="22.27094878125" lon="114.12678779638672" /><trkpt lat="22.27096578125" lon="114.12680479638672" /><trkpt lat="22.27098478125" lon="114.12682979638672" /><trkpt lat="22.27110778125" lon="114.12700579638671" /><trkpt lat="22.27114578125" lon="114.12706479638672" /><trkpt lat="22.27118778125" lon="114.12713279638672" /><trkpt lat="22.27128778125" lon="114.12730079638672" /><trkpt lat="22.27130378125" lon="114.12732079638671" /><trkpt lat="22.27132578125" lon="114.12733879638672" /><trkpt lat="22.27135578125" lon="114.12735079638672" /><trkpt lat="22.27138678125" lon="114.12735579638672" /><trkpt lat="22.27141978125" lon="114.12734879638671" /><trkpt lat="22.27145178125" lon="114.12733479638672" /><trkpt lat="22.27146878125" lon="114.12733179638671" /><trkpt lat="22.27148478125" lon="114.12733279638672" /><trkpt lat="22.27149878125" lon="114.12734279638671" /><trkpt lat="22.27153678125" lon="114.12737379638672" /><trkpt lat="22.27156878125" lon="114.12733779638671" /><trkpt lat="22.27160178125" lon="114.12729679638672" /><trkpt lat="22.27153578125" lon="114.12723079638671" /><trkpt lat="22.2715027580024" lon="114.12719231315981" /><trkpt lat="22.272049098255042" lon="114.12657731868735" /><trkpt lat="22.27199378125" lon="114.12647679638673" /><trkpt lat="22.271878306859534" lon="114.12616795796379" /><trkpt lat="22.271884463654942" lon="114.12610663662076" /><trkpt lat="22.271929875177605" lon="114.12611291301346" /><trkpt lat="22.272068049337406" lon="114.12661175669747" /><trkpt lat="22.27208678125" lon="114.12664579638673" /><trkpt lat="22.27210478125" lon="114.12669379638672" /><trkpt lat="22.27216978125" lon="114.12673779638672" /><trkpt lat="22.27223578125" lon="114.12676279638671" /><trkpt lat="22.27229378125" lon="114.12679879638672" /><trkpt lat="22.27240078125" lon="114.12677179638672" /><trkpt lat="22.27243178125" lon="114.12677679638672" /><trkpt lat="22.27245578125" lon="114.12679779638673" /><trkpt lat="22.27247578125" lon="114.12684579638672" /><trkpt lat="22.27250078125" lon="114.12687679638672" /><trkpt lat="22.27280878125" lon="114.12718979638672" /><trkpt lat="22.27283978125" lon="114.12721079638672" /><trkpt lat="22.27297378125" lon="114.12729979638672" /><trkpt lat="22.27299978125" lon="114.12726479638673" /><trkpt lat="22.27302678125" lon="114.12721279638671" /><trkpt lat="22.27305178125" lon="114.12716079638672" /><trkpt lat="22.27306678125" lon="114.12711979638672" /><trkpt lat="22.27307178125" lon="114.12706679638671" /><trkpt lat="22.27306878125" lon="114.12701679638671" /><trkpt lat="22.27305678125" lon="114.12697779638673" /><trkpt lat="22.27302978125" lon="114.12694579638672" /><trkpt lat="22.27304978125" lon="114.12686779638672" /><trkpt lat="22.27306978125" lon="114.12677779638672" /><trkpt lat="22.27309978125" lon="114.12677279638672" /><trkpt lat="22.27311578125" lon="114.12674479638672" /><trkpt lat="22.27312278125" lon="114.12667679638672" /><trkpt lat="22.27311578125" lon="114.12637679638672" /><trkpt lat="22.27311278125" lon="114.12622579638672" /><trkpt lat="22.27308478125" lon="114.12599479638672" /><trkpt lat="22.27306278125" lon="114.12591779638672" /><trkpt lat="22.27303278125" lon="114.12583179638672" /><trkpt lat="22.27300578125" lon="114.12575779638672" /><trkpt lat="22.272862889943557" lon="114.12535482977289" /></trkseg></trk></gpx>