<?xml version='1.0' encoding='UTF-8' ?><gpx version="1.1" creator="HikingTrailHK" xsi:schemaLocation="http://www.topografix.com/GPX/1/1 http://www.topografix.com/GPX/1/1/gpx.xsd" xmlns="http://www.topografix.com/GPX/1/1" xmlns:xsi="http://www.w3.org/2001/XMLSchema-instance"><metadata><name>蛇灣山 小破邊 @ 2025-01- 30</name><desc></desc></metadata><trk><trkseg><trkpt lat="22.36143778125" lon="114.35334679638672" /><trkpt lat="22.36133878125" lon="114.35334279638671" /><trkpt lat="22.36133478125" lon="114.35334279638671" /><trkpt lat="22.36132978125" lon="114.35334179638672" /><trkpt lat="22.36132478125" lon="114.35333979638672" /><trkpt lat="22.36131978125" lon="114.35333679638671" /><trkpt lat="22.36116078125" lon="114.35325279638671" /><trkpt lat="22.36096078125" lon="114.35311179638671" /><trkpt lat="22.36083878125" lon="114.35301279638672" /><trkpt lat="22.36083378125" lon="114.35300979638671" /><trkpt lat="22.36082778125" lon="114.35300879638672" /><trkpt lat="22.36082278125" lon="114.35300779638672" /><trkpt lat="22.36081678125" lon="114.35300879638672" /><trkpt lat="22.36075978125" lon="114.35300579638673" /><trkpt lat="22.36073178125" lon="114.35300279638672" /><trkpt lat="22.36071678125" lon="114.35300179638672" /><trkpt lat="22.36070378125" lon="114.35300079638672" /><trkpt lat="22.36061878125" lon="114.35298379638672" /><trkpt lat="22.36035078125" lon="114.35283179638672" /><trkpt lat="22.36014478125" lon="114.35261779638672" /><trkpt lat="22.36013578125" lon="114.35234879638672" /><trkpt lat="22.36005478125" lon="114.35225979638672" /><trkpt lat="22.35995778125" lon="114.35217879638672" /><trkpt lat="22.35988478125" lon="114.35209079638672" /><trkpt lat="22.35979778125" lon="114.35205879638671" /><trkpt lat="22.35963378125" lon="114.35197979638671" /><trkpt lat="22.35943878125" lon="114.35187479638672" /><trkpt lat="22.35925878125" lon="114.35189279638672" /><trkpt lat="22.35920178125" lon="114.35199479638672" /><trkpt lat="22.35920378125" lon="114.35215979638672" /><trkpt lat="22.35919578125" lon="114.35237679638672" /><trkpt lat="22.35908378125" lon="114.35250479638673" /><trkpt lat="22.35889978125" lon="114.35255579638672" /><trkpt lat="22.35869978125" lon="114.35243079638671" /><trkpt lat="22.35858878125" lon="114.35219879638672" /><trkpt lat="22.35848278125" lon="114.35212779638672" /><trkpt lat="22.35823778125" lon="114.35184779638672" /><trkpt lat="22.35790878125" lon="114.35167479638672" /><trkpt lat="22.35775078125" lon="114.35162479638672" /><trkpt lat="22.35764278125" lon="114.35138979638671" /><trkpt lat="22.35706378125" lon="114.35096679638671" /><trkpt lat="22.35681478125" lon="114.35091679638671" /><trkpt lat="22.35670378125" lon="114.35078979638672" /><trkpt lat="22.35611278125" lon="114.35084479638672" /><trkpt lat="22.35558978125" lon="114.35045479638671" /><trkpt lat="22.35550378125" lon="114.35026279638672" /><trkpt lat="22.35551978125" lon="114.35007379638672" /><trkpt lat="22.35533678125" lon="114.35003379638673" /><trkpt lat="22.35506078125" lon="114.35009079638672" /><trkpt lat="22.35495178125" lon="114.35006379638672" /><trkpt lat="22.35487178125" lon="114.35000979638671" /><trkpt lat="22.35464578125" lon="114.34993779638671" /><trkpt lat="22.35453578125" lon="114.34992779638672" /><trkpt lat="22.35449278125" lon="114.34992879638672" /><trkpt lat="22.35441278125" lon="114.34993479638672" /><trkpt lat="22.35432478125" lon="114.34992879638672" /><trkpt lat="22.35423678125" lon="114.34992379638672" /><trkpt lat="22.35414578125" lon="114.34964979638671" /><trkpt lat="22.35393278125" lon="114.34945179638672" /><trkpt lat="22.35371678125" lon="114.34934879638672" /><trkpt lat="22.35334778125" lon="114.34931079638672" /><trkpt lat="22.35319678125" lon="114.34923579638672" /><trkpt lat="22.35327178125" lon="114.34903779638672" /><trkpt lat="22.35291678125" lon="114.34887179638672" /><trkpt lat="22.35281778125" lon="114.34862279638672" /><trkpt lat="22.35281578125" lon="114.34860779638672" /><trkpt lat="22.35245678125" lon="114.34801279638671" /><trkpt lat="22.35244978125" lon="114.34766779638672" /><trkpt lat="22.35228478125" lon="114.34743379638672" /><trkpt lat="22.35228878125" lon="114.34713779638672" /><trkpt lat="22.35212978125" lon="114.34692979638672" /><trkpt lat="22.35207878125" lon="114.34685179638672" /><trkpt lat="22.35210278125" lon="114.34629979638672" /><trkpt lat="22.35200678125" lon="114.34606679638672" /><trkpt lat="22.35202378125" lon="114.34576579638671" /><trkpt lat="22.35193378125" lon="114.34547779638672" /><trkpt lat="22.35204478125" lon="114.34525879638672" /><trkpt lat="22.35207078125" lon="114.34484179638672" /><trkpt lat="22.35216978125" lon="114.34473279638672" /><trkpt lat="22.35220878125" lon="114.34409779638672" /><trkpt lat="22.35237478125" lon="114.34393079638672" /><trkpt lat="22.35240678125" lon="114.34389879638672" /><trkpt lat="22.35241578125" lon="114.34381979638673" /><trkpt lat="22.35238778125" lon="114.34377479638673" /><trkpt lat="22.35223678125" lon="114.34365579638671" /><trkpt lat="22.35211378125" lon="114.34357079638671" /><trkpt lat="22.35199478125" lon="114.34345579638672" /><trkpt lat="22.35190978125" lon="114.34330579638672" /><trkpt lat="22.35184978125" lon="114.34319979638671" /><trkpt lat="22.35186178125" lon="114.34312179638673" /><trkpt lat="22.35177378125" lon="114.34303979638672" /><trkpt lat="22.35178678125" lon="114.34294479638672" /><trkpt lat="22.35178678125" lon="114.34287979638673" /><trkpt lat="22.35177678125" lon="114.34283579638672" /><trkpt lat="22.35180878125" lon="114.34275079638672" /><trkpt lat="22.35187778125" lon="114.34254279638672" /><trkpt lat="22.35197878125" lon="114.34251479638672" /><trkpt lat="22.35209778125" lon="114.34244079638673" /><trkpt lat="22.35207845387866" lon="114.34219789388214" /><trkpt lat="22.35196521670943" lon="114.3424684090993" /><trkpt lat="22.351856118543253" lon="114.34262805531944" /><trkpt lat="22.35178897886884" lon="114.34280326179584" /><trkpt lat="22.35175952200038" lon="114.34309707196417" /><trkpt lat="22.35204096501866" lon="114.34356955559315" /><trkpt lat="22.35204052250343" lon="114.34355968096014" /><trkpt lat="22.35203560282035" lon="114.34355050798553" /><trkpt lat="22.352035032958113" lon="114.34354347798654" /><trkpt lat="22.352029187808554" lon="114.3435370860476" /><trkpt lat="22.35202957641981" lon="114.34352636435204" /><trkpt lat="22.35202374672022" lon="114.34351954654477" /><trkpt lat="22.35202374672022" lon="114.34351954654477" /><trkpt lat="22.352022676662003" lon="114.34354906887876" /><trkpt lat="22.35205315036839" lon="114.34351220356447" /><trkpt lat="22.35211378125" lon="114.34357079638671" /><trkpt lat="22.35223678125" lon="114.34365579638671" /><trkpt lat="22.35238778125" lon="114.34377479638673" /><trkpt lat="22.35241578125" lon="114.34381979638673" /><trkpt lat="22.35240678125" lon="114.34389879638672" /><trkpt lat="22.35237478125" lon="114.34393079638672" /><trkpt lat="22.35220878125" lon="114.34409779638672" /><trkpt lat="22.35216978125" lon="114.34473279638672" /><trkpt lat="22.35207078125" lon="114.34484179638672" /><trkpt lat="22.35204478125" lon="114.34525879638672" /><trkpt lat="22.35193378125" lon="114.34547779638672" /><trkpt lat="22.35202378125" lon="114.34576579638671" /><trkpt lat="22.35200678125" lon="114.34606679638672" /><trkpt lat="22.35210278125" lon="114.34629979638672" /><trkpt lat="22.35207878125" lon="114.34685179638672" /><trkpt lat="22.35212978125" lon="114.34692979638672" /><trkpt lat="22.35228878125" lon="114.34713779638672" /><trkpt lat="22.35228478125" lon="114.34743379638672" /><trkpt lat="22.35244978125" lon="114.34766779638672" /><trkpt lat="22.35245678125" lon="114.34801279638671" /><trkpt lat="22.35281778125" lon="114.34862279638672" /><trkpt lat="22.35291678125" lon="114.34887179638672" /><trkpt lat="22.35327178125" lon="114.34903779638672" /><trkpt lat="22.35319678125" lon="114.34923579638672" /><trkpt lat="22.35334778125" lon="114.34931079638672" /><trkpt lat="22.35371678125" lon="114.34934879638672" /><trkpt lat="22.35393278125" lon="114.34945179638672" /><trkpt lat="22.35416078125" lon="114.34966279638672" /><trkpt lat="22.35423678125" lon="114.34992379638672" /><trkpt lat="22.35430978125" lon="114.35022479638671" /><trkpt lat="22.35433678125" lon="114.35029379638672" /><trkpt lat="22.35438978125" lon="114.35050179638672" /><trkpt lat="22.35442278125" lon="114.35070379638672" /><trkpt lat="22.35444578125" lon="114.35075679638672" /><trkpt lat="22.35446678125" lon="114.35078279638672" /><trkpt lat="22.35448878125" lon="114.35079079638672" /><trkpt lat="22.35457978125" lon="114.35079179638672" /><trkpt lat="22.35467278125" lon="114.35078579638672" /><trkpt lat="22.35469478125" lon="114.35080779638672" /><trkpt lat="22.35476278125" lon="114.35092379638672" /><trkpt lat="22.35495478125" lon="114.35118879638672" /><trkpt lat="22.35498078125" lon="114.35135879638672" /><trkpt lat="22.35499078125" lon="114.35137879638671" /><trkpt lat="22.35501878125" lon="114.35160479638672" /><trkpt lat="22.35498078125" lon="114.35161179638672" /><trkpt lat="22.35498578125" lon="114.35164979638672" /><trkpt lat="22.35499778125" lon="114.35173879638671" /><trkpt lat="22.35500278125" lon="114.35177479638672" /><trkpt lat="22.35467278125" lon="114.35184479638671" /><trkpt lat="22.35462178125" lon="114.35186679638672" /><trkpt lat="22.35449978125" lon="114.35188779638672" /><trkpt lat="22.35436878125" lon="114.35193579638671" /><trkpt lat="22.35411378125" lon="114.35209579638672" /><trkpt lat="22.35402378125" lon="114.35211579638671" /><trkpt lat="22.35396678125" lon="114.35214479638672" /><trkpt lat="22.35393278125" lon="114.35216679638671" /><trkpt lat="22.35389978125" lon="114.35217979638672" /><trkpt lat="22.35386178125" lon="114.35218079638672" /><trkpt lat="22.35349778125" lon="114.35231279638671" /><trkpt lat="22.35282178125" lon="114.35262279638673" /><trkpt lat="22.35225178125" lon="114.35293779638671" /><trkpt lat="22.35182978125" lon="114.35308579638672" /><trkpt lat="22.35151878125" lon="114.35323279638672" /><trkpt lat="22.35121678125" lon="114.35345179638672" /><trkpt lat="22.35111578125" lon="114.35345879638672" /><trkpt lat="22.35073778125" lon="114.35412279638672" /><trkpt lat="22.35063578125" lon="114.35454979638672" /><trkpt lat="22.35048578125" lon="114.35463479638672" /><trkpt lat="22.35040078125" lon="114.35495479638672" /><trkpt lat="22.35024778125" lon="114.35518579638672" /><trkpt lat="22.35021378125" lon="114.35529279638672" /><trkpt lat="22.35012478125" lon="114.35534579638671" /><trkpt lat="22.35005578125" lon="114.35549979638672" /><trkpt lat="22.35006378125" lon="114.35560979638672" /><trkpt lat="22.34978178125" lon="114.35619779638672" /><trkpt lat="22.34973878125" lon="114.35627779638672" /><trkpt lat="22.34963378125" lon="114.35646879638672" /><trkpt lat="22.34957278125" lon="114.35683879638673" /><trkpt lat="22.34966178125" lon="114.35712379638672" /><trkpt lat="22.34979478125" lon="114.35734379638671" /><trkpt lat="22.34991078125" lon="114.35766679638672" /><trkpt lat="22.34994678125" lon="114.35787979638671" /><trkpt lat="22.35019578125" lon="114.35829879638672" /><trkpt lat="22.35031878125" lon="114.35837379638672" /><trkpt lat="22.35047778125" lon="114.35850479638673" /><trkpt lat="22.35080078125" lon="114.35862779638671" /><trkpt lat="22.35098778125" lon="114.35870279638672" /><trkpt lat="22.35122178125" lon="114.35874779638672" /><trkpt lat="22.35137678125" lon="114.35880979638672" /><trkpt lat="22.35157078125" lon="114.35872879638671" /><trkpt lat="22.35199678125" lon="114.35893979638672" /><trkpt lat="22.35211778125" lon="114.35907979638672" /><trkpt lat="22.35242478125" lon="114.35919479638672" /><trkpt lat="22.35264078125" lon="114.35936079638672" /><trkpt lat="22.35292578125" lon="114.35987279638672" /><trkpt lat="22.35321978125" lon="114.36008079638673" /><trkpt lat="22.35318178125" lon="114.36025479638671" /><trkpt lat="22.35321378125" lon="114.36047879638672" /><trkpt lat="22.35288878125" lon="114.36110779638672" /><trkpt lat="22.35281978125" lon="114.36119479638671" /><trkpt lat="22.35273878125" lon="114.36129679638672" /><trkpt lat="22.35274978125" lon="114.36150679638672" /><trkpt lat="22.35269778125" lon="114.36169579638671" /><trkpt lat="22.35242278125" lon="114.36199579638672" /><trkpt lat="22.35225578125" lon="114.36207479638672" /><trkpt lat="22.35211478125" lon="114.36240979638671" /><trkpt lat="22.35206778125" lon="114.36261179638672" /><trkpt lat="22.35205778125" lon="114.36274479638672" /><trkpt lat="22.35188178125" lon="114.36308879638672" /><trkpt lat="22.35165378125" lon="114.36337879638671" /><trkpt lat="22.35152478125" lon="114.36367379638672" /><trkpt lat="22.35132578125" lon="114.36391479638672" /><trkpt lat="22.35104778125" lon="114.36441979638671" /><trkpt lat="22.35089478125" lon="114.36451079638672" /><trkpt lat="22.35083278125" lon="114.36457479638672" /><trkpt lat="22.35059578125" lon="114.36483079638671" /><trkpt lat="22.35042878125" lon="114.36489179638671" /><trkpt lat="22.35024478125" lon="114.36506679638671" /><trkpt lat="22.35007578125" lon="114.36522679638672" /><trkpt lat="22.34986978125" lon="114.36525679638672" /><trkpt lat="22.34974878125" lon="114.36521079638672" /><trkpt lat="22.34954478125" lon="114.36523279638672" /><trkpt lat="22.34947578125" lon="114.36536879638672" /><trkpt lat="22.34927878125" lon="114.36538979638672" /><trkpt lat="22.349177938161034" lon="114.36533515051468" /><trkpt lat="22.349226388567246" lon="114.36525315783098" /><trkpt lat="22.34927442425817" lon="114.36532156083513" /><trkpt lat="22.349261631254755" lon="114.36538242477081" /><trkpt lat="22.34927878125" lon="114.36538979638672" /><trkpt lat="22.34947578125" lon="114.36536879638672" /><trkpt lat="22.34954478125" lon="114.36523279638672" /><trkpt lat="22.34974878125" lon="114.36521079638672" /><trkpt lat="22.34986978125" lon="114.36525679638672" /><trkpt lat="22.35007578125" lon="114.36522679638672" /><trkpt lat="22.35024478125" lon="114.36506679638671" /><trkpt lat="22.35042878125" lon="114.36489179638671" /><trkpt lat="22.35059578125" lon="114.36483079638671" /><trkpt lat="22.35083278125" lon="114.36457479638672" /><trkpt lat="22.35089478125" lon="114.36451079638672" /><trkpt lat="22.35104778125" lon="114.36441979638671" /><trkpt lat="22.351008781250002" lon="114.36462379638672" /><trkpt lat="22.35098878125" lon="114.36492879638672" /><trkpt lat="22.35089378125" lon="114.36510679638671" /><trkpt lat="22.35079978125" lon="114.36533979638672" /><trkpt lat="22.35079178125" lon="114.36553179638672" /><trkpt lat="22.35087878125" lon="114.36586579638671" /><trkpt lat="22.35093278125" lon="114.36608879638672" /><trkpt lat="22.35110378125" lon="114.36616479638671" /><trkpt lat="22.35088578125" lon="114.36630779638672" /><trkpt lat="22.35063378125" lon="114.36652679638672" /><trkpt lat="22.35056578125" lon="114.36659479638672" /><trkpt lat="22.35054778125" lon="114.36676479638672" /><trkpt lat="22.35043978125" lon="114.36689579638671" /><trkpt lat="22.35026378125" lon="114.36676779638672" /><trkpt lat="22.35014378125" lon="114.36663579638672" /><trkpt lat="22.350150818664417" lon="114.36658553623909" /><trkpt lat="22.350188402177523" lon="114.36662220491047" /><trkpt lat="22.350187654111675" lon="114.36668405576778" /><trkpt lat="22.35026378125" lon="114.36676779638672" /><trkpt lat="22.35043978125" lon="114.36689579638671" /><trkpt lat="22.35054778125" lon="114.36676479638672" /><trkpt lat="22.35056578125" lon="114.36659479638672" /><trkpt lat="22.35063378125" lon="114.36652679638672" /><trkpt lat="22.35088578125" lon="114.36630779638672" /><trkpt lat="22.35110378125" lon="114.36616479638671" /><trkpt lat="22.35117478125" lon="114.36602879638671" /><trkpt lat="22.35121978125" lon="114.36554279638672" /><trkpt lat="22.35133478125" lon="114.36540579638672" /><trkpt lat="22.35147178125" lon="114.36538579638672" /><trkpt lat="22.35147678125" lon="114.36506279638672" /><trkpt lat="22.35148778125" lon="114.36471379638672" /><trkpt lat="22.35148978125" lon="114.36464179638672" /><trkpt lat="22.35156978125" lon="114.36439179638671" /><trkpt lat="22.35187178125" lon="114.36396779638672" /><trkpt lat="22.35199378125" lon="114.36364379638673" /><trkpt lat="22.35202078125" lon="114.36357479638671" /><trkpt lat="22.35201378125" lon="114.36347779638672" /><trkpt lat="22.35203878125" lon="114.36334979638671" /><trkpt lat="22.35213378125" lon="114.36320379638671" /><trkpt lat="22.35222978125" lon="114.36320179638672" /><trkpt lat="22.35246978125" lon="114.36319379638672" /><trkpt lat="22.35265478125" lon="114.36320879638671" /><trkpt lat="22.35277878125" lon="114.36321779638672" /><trkpt lat="22.35307578125" lon="114.36325579638672" /><trkpt lat="22.35345178125" lon="114.36330479638671" /><trkpt lat="22.35345778125" lon="114.36342679638672" /><trkpt lat="22.35343578125" lon="114.36362679638673" /><trkpt lat="22.35353878125" lon="114.36372279638672" /><trkpt lat="22.353425875158848" lon="114.36379528392291" /><trkpt lat="22.353380576347078" lon="114.36390929388159" /><trkpt lat="22.353244181684644" lon="114.36392816181751" /><trkpt lat="22.353283838209236" lon="114.3637834657062" /><trkpt lat="22.353494385380728" lon="114.36375680938727" /><trkpt lat="22.353495069597926" lon="114.36375048059688" /><trkpt lat="22.353501395566326" lon="114.36374687435654" /><trkpt lat="22.353503827943413" lon="114.3637447946926" /><trkpt lat="22.353508549390767" lon="114.36373878737902" /><trkpt lat="22.353530429454242" lon="114.36371501125063" /><trkpt lat="22.35343578125" lon="114.36362679638673" /><trkpt lat="22.35345778125" lon="114.36342679638672" /><trkpt lat="22.35345178125" lon="114.36330479638671" /><trkpt lat="22.35354378125" lon="114.36335379638672" /><trkpt lat="22.35366878125" lon="114.36331979638672" /><trkpt lat="22.35385178125" lon="114.36339879638672" /><trkpt lat="22.35395578125" lon="114.36360979638673" /><trkpt lat="22.35407778125" lon="114.36370479638671" /><trkpt lat="22.35421278125" lon="114.36376779638672" /><trkpt lat="22.35441478125" lon="114.36383479638671" /><trkpt lat="22.35464978125" lon="114.36403179638671" /><trkpt lat="22.35461478125" lon="114.36413879638671" /><trkpt lat="22.35476978125" lon="114.36430179638671" /><trkpt lat="22.35490578125" lon="114.36432379638671" /><trkpt lat="22.35499978125" lon="114.36443079638671" /><trkpt lat="22.35505278125" lon="114.36462779638671" /><trkpt lat="22.35502178125" lon="114.36470679638671" /><trkpt lat="22.35515478125" lon="114.36489979638672" /><trkpt lat="22.355200469175053" lon="114.36515810883249" /><trkpt lat="22.35512058582549" lon="114.36520136757957" /><trkpt lat="22.35505692113243" lon="114.36514343718551" /><trkpt lat="22.35509407807467" lon="114.36504138652731" /><trkpt lat="22.35515478125" lon="114.36489979638672" /><trkpt lat="22.35535178125" lon="114.36471479638672" /><trkpt lat="22.35543478125" lon="114.36452179638673" /><trkpt lat="22.35554478125" lon="114.36444179638671" /><trkpt lat="22.35567878125" lon="114.36437879638672" /><trkpt lat="22.35592778125" lon="114.36424279638672" /><trkpt lat="22.35611278125" lon="114.36409479638672" /><trkpt lat="22.35629778125" lon="114.36391579638672" /><trkpt lat="22.35652278125" lon="114.36383579638672" /><trkpt lat="22.35682878125" lon="114.36373979638672" /><trkpt lat="22.35713578125" lon="114.36383679638672" /><trkpt lat="22.35752478125" lon="114.36371179638672" /><trkpt lat="22.35754878125" lon="114.36375379638672" /><trkpt lat="22.35783278125" lon="114.36414579638672" /><trkpt lat="22.35789178125" lon="114.36418379638671" /><trkpt lat="22.35821678125" lon="114.36481679638672" /><trkpt lat="22.35857478125" lon="114.36518179638672" /><trkpt lat="22.35897678125" lon="114.36515879638672" /><trkpt lat="22.35921278125" lon="114.36526479638673" /><trkpt lat="22.35938078125" lon="114.36539279638671" /><trkpt lat="22.35953978125" lon="114.36539879638671" /><trkpt lat="22.35960178125" lon="114.36536279638672" /><trkpt lat="22.35974978125" lon="114.36527579638671" /><trkpt lat="22.35980978125" lon="114.36561979638672" /><trkpt lat="22.35955378125" lon="114.36608379638672" /><trkpt lat="22.35964478125" lon="114.36624379638671" /><trkpt lat="22.35990178125" lon="114.36660679638672" /><trkpt lat="22.35991478125" lon="114.36662779638672" /><trkpt lat="22.35993078125" lon="114.36665679638672" /><trkpt lat="22.35994478125" lon="114.36668479638672" /><trkpt lat="22.35995778125" lon="114.36671379638672" /><trkpt lat="22.35996478125" lon="114.36673679638672" /><trkpt lat="22.35997178125" lon="114.36676079638671" /><trkpt lat="22.35997678125" lon="114.36678579638672" /><trkpt lat="22.35998078125" lon="114.36681579638672" /><trkpt lat="22.35998278125" lon="114.36684679638672" /><trkpt lat="22.35998978125" lon="114.36698079638671" /><trkpt lat="22.35999178125" lon="114.36700979638672" /><trkpt lat="22.35999478125" lon="114.36703879638672" /><trkpt lat="22.35999978125" lon="114.36707879638672" /><trkpt lat="22.36000578125" lon="114.36711579638671" /><trkpt lat="22.36001478125" lon="114.36715879638672" /><trkpt lat="22.36002378125" lon="114.36719379638672" /><trkpt lat="22.36009378125" lon="114.36741479638673" /><trkpt lat="22.36010578125" lon="114.36746179638672" /><trkpt lat="22.36011778125" lon="114.36751079638672" /><trkpt lat="22.36012978125" lon="114.36756579638671" /><trkpt lat="22.36021878125" lon="114.36807879638671" /><trkpt lat="22.36022478125" lon="114.36810079638671" /><trkpt lat="22.36023178125" lon="114.36812379638671" /><trkpt lat="22.36024078125" lon="114.36814579638671" /><trkpt lat="22.36024878125" lon="114.36816179638672" /><trkpt lat="22.36025878125" lon="114.36817779638672" /><trkpt lat="22.36027078125" lon="114.36819479638672" /><trkpt lat="22.36035778125" lon="114.36830779638672" /><trkpt lat="22.36037378125" lon="114.36833079638672" /><trkpt lat="22.36038178125" lon="114.36834579638672" /><trkpt lat="22.36038878125" lon="114.36836279638672" /><trkpt lat="22.36039378125" lon="114.36838279638673" /><trkpt lat="22.36039778125" lon="114.36840179638672" /><trkpt lat="22.36039978125" lon="114.36842479638672" /><trkpt lat="22.36039978125" lon="114.36844879638672" /><trkpt lat="22.36039878125" lon="114.36847079638672" /><trkpt lat="22.36039478125" lon="114.36849379638672" /><trkpt lat="22.36038878125" lon="114.36851779638671" /><trkpt lat="22.36031978125" lon="114.36872979638672" /><trkpt lat="22.36031478125" lon="114.36874879638673" /><trkpt lat="22.36031278125" lon="114.36876979638672" /><trkpt lat="22.36031278125" lon="114.36879079638672" /><trkpt lat="22.36031678125" lon="114.36881079638673" /><trkpt lat="22.36032278125" lon="114.36883079638672" /><trkpt lat="22.36033078125" lon="114.36884879638671" /><trkpt lat="22.36034178125" lon="114.36886579638671" /><trkpt lat="22.36035378125" lon="114.36888079638672" /><trkpt lat="22.36036678125" lon="114.36889379638671" /><trkpt lat="22.36038378125" lon="114.36890279638672" /><trkpt lat="22.36040078125" lon="114.36890879638672" /><trkpt lat="22.36046378125" lon="114.36892579638672" /><trkpt lat="22.36049178125" lon="114.36893579638672" /><trkpt lat="22.36051578125" lon="114.36894679638672" /><trkpt lat="22.36053678125" lon="114.36895779638672" /><trkpt lat="22.36055678125" lon="114.36897279638671" /><trkpt lat="22.36057478125" lon="114.36898979638671" /><trkpt lat="22.36059078125" lon="114.36900779638673" /><trkpt lat="22.36060778125" lon="114.36903179638672" /><trkpt lat="22.36062078125" lon="114.36905179638671" /><trkpt lat="22.36063078125" lon="114.36907279638672" /><trkpt lat="22.36063778125" lon="114.36909379638672" /><trkpt lat="22.36064078125" lon="114.36911479638673" /><trkpt lat="22.36064278125" lon="114.36913879638672" /><trkpt lat="22.36064078125" lon="114.36916579638672" /><trkpt lat="22.36063778125" lon="114.36919379638672" /><trkpt lat="22.36063178125" lon="114.36922279638672" /><trkpt lat="22.36062178125" lon="114.36925779638672" /><trkpt lat="22.36060878125" lon="114.36929379638671" /><trkpt lat="22.36048278125" lon="114.36961079638672" /><trkpt lat="22.36047778125" lon="114.36962579638671" /><trkpt lat="22.36047478125" lon="114.36963979638672" /><trkpt lat="22.36047378125" lon="114.36965279638672" /><trkpt lat="22.36047378125" lon="114.36966979638672" /><trkpt lat="22.36047478125" lon="114.36968879638673" /><trkpt lat="22.36048478125" lon="114.36978979638671" /><trkpt lat="22.36048578125" lon="114.36981279638673" /><trkpt lat="22.36048578125" lon="114.36983779638672" /><trkpt lat="22.36048378125" lon="114.36986279638671" /><trkpt lat="22.36047978125" lon="114.36988779638672" /><trkpt lat="22.36042678125" lon="114.37017679638672" /><trkpt lat="22.36041678125" lon="114.37021579638672" /><trkpt lat="22.36040878125" lon="114.37024179638672" /><trkpt lat="22.36040078125" lon="114.37026479638672" /><trkpt lat="22.36039278125" lon="114.37028379638672" /><trkpt lat="22.36038478125" lon="114.37029979638672" /><trkpt lat="22.36037678125" lon="114.37031479638672" /><trkpt lat="22.36036778125" lon="114.37032979638671" /><trkpt lat="22.36031678125" lon="114.37040079638672" /><trkpt lat="22.36030678125" lon="114.37041779638672" /><trkpt lat="22.36029478125" lon="114.37043779638672" /><trkpt lat="22.36028478125" lon="114.37045879638671" /><trkpt lat="22.36027678125" lon="114.37047879638672" /><trkpt lat="22.36027178125" lon="114.37049479638672" /><trkpt lat="22.36026678125" lon="114.37051979638672" /><trkpt lat="22.36026378125" lon="114.37054379638671" /><trkpt lat="22.36026178125" lon="114.37056979638672" /><trkpt lat="22.36026078125" lon="114.37059179638672" /><trkpt lat="22.36026578125" lon="114.37065179638672" /><trkpt lat="22.36026878125" lon="114.37067379638673" /><trkpt lat="22.36027478125" lon="114.37069779638672" /><trkpt lat="22.36028178125" lon="114.37072579638672" /><trkpt lat="22.36031078125" lon="114.37082579638673" /><trkpt lat="22.36031578125" lon="114.37084979638672" /><trkpt lat="22.36031978125" lon="114.37087379638672" /><trkpt lat="22.36032278125" lon="114.37090279638672" /><trkpt lat="22.36032578125" lon="114.37096179638672" /><trkpt lat="22.36032878125" lon="114.37098779638671" /><trkpt lat="22.36034678125" lon="114.37113479638671" /><trkpt lat="22.36035078125" lon="114.37116079638672" /><trkpt lat="22.36035578125" lon="114.37118679638672" /><trkpt lat="22.36036378125" lon="114.37121679638672" /><trkpt lat="22.36037378125" lon="114.37124679638671" /><trkpt lat="22.36038378125" lon="114.37126879638672" /><trkpt lat="22.36039478125" lon="114.37128879638672" /><trkpt lat="22.36040778125" lon="114.37130879638671" /><trkpt lat="22.36042178125" lon="114.37132979638672" /><trkpt lat="22.36043378125" lon="114.37134479638672" /><trkpt lat="22.36044678125" lon="114.37135979638671" /><trkpt lat="22.36045778125" lon="114.37137179638673" /><trkpt lat="22.36046978125" lon="114.37138379638672" /><trkpt lat="22.36048178125" lon="114.37139379638671" /><trkpt lat="22.36049378125" lon="114.37140379638672" /><trkpt lat="22.36050778125" lon="114.37141179638672" /><trkpt lat="22.36052378125" lon="114.37142179638671" /><trkpt lat="22.36054078125" lon="114.37142979638672" /><trkpt lat="22.36057878125" lon="114.37144179638672" /><trkpt lat="22.36060078125" lon="114.37144479638673" /><trkpt lat="22.36062878125" lon="114.37144579638672" /><trkpt lat="22.36065378125" lon="114.37144479638673" /><trkpt lat="22.36067878125" lon="114.37144179638672" /><trkpt lat="22.36071278125" lon="114.37143479638672" /><trkpt lat="22.36074278125" lon="114.37142579638672" /><trkpt lat="22.36077278125" lon="114.37141479638672" /><trkpt lat="22.36078978125" lon="114.37140679638672" /><trkpt lat="22.36081978125" lon="114.37139079638672" /><trkpt lat="22.36110678125" lon="114.37121179638672" /><trkpt lat="22.36113878125" lon="114.37119279638672" /><trkpt lat="22.36116478125" lon="114.37117979638671" /><trkpt lat="22.36118178125" lon="114.37117179638672" /><trkpt lat="22.36119678125" lon="114.37116479638672" /><trkpt lat="22.36121278125" lon="114.37115879638672" /><trkpt lat="22.36123078125" lon="114.37115379638672" /><trkpt lat="22.36124978125" lon="114.37114779638672" /><trkpt lat="22.36127478125" lon="114.37114179638672" /><trkpt lat="22.36129478125" lon="114.37113879638672" /><trkpt lat="22.36132578125" lon="114.37113379638672" /><trkpt lat="22.36152878125" lon="114.37110979638672" /><trkpt lat="22.36156678125" lon="114.37110679638671" /><trkpt lat="22.36159578125" lon="114.37110579638671" /><trkpt lat="22.36162478125" lon="114.37110679638671" /><trkpt lat="22.36164778125" lon="114.37111079638672" /><trkpt lat="22.36166478125" lon="114.37111679638672" /><trkpt lat="22.36168778125" lon="114.37112879638671" /><trkpt lat="22.36170578125" lon="114.37114279638672" /><trkpt lat="22.36171978125" lon="114.37115679638671" /><trkpt lat="22.36173578125" lon="114.37118179638672" /><trkpt lat="22.36175078125" lon="114.37120879638672" /><trkpt lat="22.36180678125" lon="114.37132079638671" /><trkpt lat="22.361825667498625" lon="114.37136131641735" /></trkseg></trk></gpx>