<?xml version='1.0' encoding='UTF-8' ?><gpx version="1.1" creator="HikingTrailHK" xsi:schemaLocation="http://www.topografix.com/GPX/1/1 http://www.topografix.com/GPX/1/1/gpx.xsd" xmlns="http://www.topografix.com/GPX/1/1" xmlns:xsi="http://www.w3.org/2001/XMLSchema-instance"><metadata><name>蝦山篤淨灘 @ 2025-11-22</name><desc></desc></metadata><trk><trkseg><trkpt lat="22.286925409729125" lon="114.28686019059866" /><trkpt lat="22.28690678125" lon="114.28683679638672" /><trkpt lat="22.28688478125" lon="114.28680879638672" /><trkpt lat="22.28672478125" lon="114.28695679638672" /><trkpt lat="22.28657778125" lon="114.28701579638673" /><trkpt lat="22.28642878125" lon="114.28704679638672" /><trkpt lat="22.28626678125" lon="114.28704279638671" /><trkpt lat="22.28611478125" lon="114.28700479638673" /><trkpt lat="22.28592278125" lon="114.28692279638672" /><trkpt lat="22.28573578125" lon="114.28687479638671" /><trkpt lat="22.28556578125" lon="114.28685979638672" /><trkpt lat="22.28539978125" lon="114.28689779638673" /><trkpt lat="22.28462178125" lon="114.28721579638672" /><trkpt lat="22.28444178125" lon="114.28727579638672" /><trkpt lat="22.28430878125" lon="114.28729679638671" /><trkpt lat="22.28414878125" lon="114.28730279638671" /><trkpt lat="22.28403578125" lon="114.28729179638673" /><trkpt lat="22.28383178125" lon="114.28724079638671" /><trkpt lat="22.28367978125" lon="114.28717379638672" /><trkpt lat="22.28351778125" lon="114.28711279638672" /><trkpt lat="22.28329978125" lon="114.28706479638672" /><trkpt lat="22.28307778125" lon="114.28708779638671" /><trkpt lat="22.28272278125" lon="114.28718279638672" /><trkpt lat="22.28250178125" lon="114.28719779638672" /><trkpt lat="22.28227778125" lon="114.28716679638671" /><trkpt lat="22.28209778125" lon="114.28710279638672" /><trkpt lat="22.28140078125" lon="114.28671079638671" /><trkpt lat="22.28128678125" lon="114.28665979638672" /><trkpt lat="22.28114878125" lon="114.28662179638673" /><trkpt lat="22.28088578125" lon="114.28657779638672" /><trkpt lat="22.28089278125" lon="114.28679379638672" /><trkpt lat="22.28087578125" lon="114.28703079638672" /><trkpt lat="22.28088778125" lon="114.28730379638672" /><trkpt lat="22.28090278125" lon="114.28755779638672" /><trkpt lat="22.28097378125" lon="114.28774479638672" /><trkpt lat="22.28097278125" lon="114.28784479638672" /><trkpt lat="22.28088878125" lon="114.28805779638672" /><trkpt lat="22.28090152793679" lon="114.28812528041396" /><trkpt lat="22.280897336263422" lon="114.28818119680778" /><trkpt lat="22.280852802748058" lon="114.28828250391905" /><trkpt lat="22.280823167864327" lon="114.28832124858098" /><trkpt lat="22.280892141438244" lon="114.28833147522772" /><trkpt lat="22.28093454005807" lon="114.2883077369525" /><trkpt lat="22.28096783358383" lon="114.28827320277543" /><trkpt lat="22.280973437931706" lon="114.28818317795071" /><trkpt lat="22.280962912089663" lon="114.2881304435997" /><trkpt lat="22.28093989598834" lon="114.28807401045032" /><trkpt lat="22.280899757235265" lon="114.28802996453338" /><trkpt lat="22.28097278125" lon="114.28784479638672" /><trkpt lat="22.28097378125" lon="114.28774479638672" /><trkpt lat="22.28090278125" lon="114.28755779638672" /><trkpt lat="22.28088778125" lon="114.28730379638672" /><trkpt lat="22.28087578125" lon="114.28703079638672" /><trkpt lat="22.28089278125" lon="114.28679379638672" /><trkpt lat="22.28088578125" lon="114.28657779638672" /><trkpt lat="22.28114878125" lon="114.28662179638673" /><trkpt lat="22.28128678125" lon="114.28665979638672" /><trkpt lat="22.28140078125" lon="114.28671079638671" /><trkpt lat="22.28209778125" lon="114.28710279638672" /><trkpt lat="22.28227778125" lon="114.28716679638671" /><trkpt lat="22.28250178125" lon="114.28719779638672" /><trkpt lat="22.28272278125" lon="114.28718279638672" /><trkpt lat="22.28307778125" lon="114.28708779638671" /><trkpt lat="22.28329978125" lon="114.28706479638672" /><trkpt lat="22.28351778125" lon="114.28711279638672" /><trkpt lat="22.28367978125" lon="114.28717379638672" /><trkpt lat="22.28383178125" lon="114.28724079638671" /><trkpt lat="22.28384678125" lon="114.28724679638673" /><trkpt lat="22.28403578125" lon="114.28729179638673" /><trkpt lat="22.28414878125" lon="114.28730279638671" /><trkpt lat="22.28430878125" lon="114.28729679638671" /><trkpt lat="22.28444178125" lon="114.28727579638672" /><trkpt lat="22.28462178125" lon="114.28721579638672" /><trkpt lat="22.28539978125" lon="114.28689779638673" /><trkpt lat="22.28556578125" lon="114.28685979638672" /><trkpt lat="22.28573578125" lon="114.28687479638671" /><trkpt lat="22.28592278125" lon="114.28692279638672" /><trkpt lat="22.28611478125" lon="114.28700479638673" /><trkpt lat="22.28626678125" lon="114.28704279638671" /><trkpt lat="22.28642878125" lon="114.28704679638672" /><trkpt lat="22.28657778125" lon="114.28701579638673" /><trkpt lat="22.28672478125" lon="114.28695679638672" /><trkpt lat="22.28682682957779" lon="114.2868624019192" /></trkseg></trk></gpx>