<?xml version='1.0' encoding='UTF-8' ?><gpx version="1.1" creator="HikingTrailHK" xsi:schemaLocation="http://www.topografix.com/GPX/1/1 http://www.topografix.com/GPX/1/1/gpx.xsd" xmlns="http://www.topografix.com/GPX/1/1" xmlns:xsi="http://www.w3.org/2001/XMLSchema-instance"><metadata><name>西灣山 @ 2016-8-8</name><desc></desc></metadata><trk><trkseg><trkpt lat="22.394840569721417" lon="114.36043194708773" /><trkpt lat="22.39483078125" lon="114.36042679638672" /><trkpt lat="22.39477078125" lon="114.36043279638672" /><trkpt lat="22.39475678125" lon="114.36045379638672" /><trkpt lat="22.39470878125" lon="114.36053679638673" /><trkpt lat="22.39461978125" lon="114.36064879638671" /><trkpt lat="22.39451878125" lon="114.36063879638672" /><trkpt lat="22.39442678125" lon="114.36060479638672" /><trkpt lat="22.39435178125" lon="114.36061779638672" /><trkpt lat="22.39424078125" lon="114.36063879638672" /><trkpt lat="22.39420778125" lon="114.36067079638671" /><trkpt lat="22.39417478125" lon="114.36072679638671" /><trkpt lat="22.39416478125" lon="114.36085279638672" /><trkpt lat="22.39413878125" lon="114.36094279638672" /><trkpt lat="22.39405678125" lon="114.36097379638672" /><trkpt lat="22.39401378125" lon="114.36099579638672" /><trkpt lat="22.39400978125" lon="114.36125179638672" /><trkpt lat="22.39400778125" lon="114.36138179638672" /><trkpt lat="22.39394078125" lon="114.36140779638671" /><trkpt lat="22.39382978125" lon="114.36144979638672" /><trkpt lat="22.393708781249998" lon="114.36157679638671" /><trkpt lat="22.39358678125" lon="114.36162079638672" /><trkpt lat="22.39347978125" lon="114.36153479638672" /><trkpt lat="22.39344778125" lon="114.36140979638672" /><trkpt lat="22.39341278125" lon="114.36120279638672" /><trkpt lat="22.39340078125" lon="114.36095079638672" /><trkpt lat="22.39332578125" lon="114.36086679638672" /><trkpt lat="22.39331478125" lon="114.36071779638672" /><trkpt lat="22.39339478125" lon="114.36065179638672" /><trkpt lat="22.39341778125" lon="114.36058379638672" /><trkpt lat="22.39337078125" lon="114.36048279638672" /><trkpt lat="22.39331478125" lon="114.36035079638671" /><trkpt lat="22.39323478125" lon="114.36030679638672" /><trkpt lat="22.39309278125" lon="114.36029979638671" /><trkpt lat="22.39302778125" lon="114.36030479638671" /><trkpt lat="22.39291178125" lon="114.36031679638671" /><trkpt lat="22.39277978125" lon="114.36033179638672" /><trkpt lat="22.39268178125" lon="114.36042279638671" /><trkpt lat="22.39262978125" lon="114.36050179638671" /><trkpt lat="22.39254478125" lon="114.36079579638672" /><trkpt lat="22.39244878125" lon="114.36093979638672" /><trkpt lat="22.39241778125" lon="114.36090479638672" /><trkpt lat="22.39236878125" lon="114.36055379638672" /><trkpt lat="22.39235378125" lon="114.36033679638672" /><trkpt lat="22.39234478125" lon="114.36021379638672" /><trkpt lat="22.39229778125" lon="114.36003579638673" /><trkpt lat="22.39219678125" lon="114.35988679638672" /><trkpt lat="22.39211878125" lon="114.35990679638672" /><trkpt lat="22.39207678125" lon="114.36000879638672" /><trkpt lat="22.39203178125" lon="114.36009179638671" /><trkpt lat="22.39199278125" lon="114.36016379638671" /><trkpt lat="22.39190978125" lon="114.36020079638672" /><trkpt lat="22.39180278125" lon="114.36036579638672" /><trkpt lat="22.39172178125" lon="114.36040779638672" /><trkpt lat="22.39165078125" lon="114.36043779638672" /><trkpt lat="22.39158378125" lon="114.36051379638671" /><trkpt lat="22.39151778125" lon="114.36053579638671" /><trkpt lat="22.39140178125" lon="114.36062179638672" /><trkpt lat="22.39129078125" lon="114.36058279638672" /><trkpt lat="22.39121778125" lon="114.36063379638672" /><trkpt lat="22.39117078125" lon="114.36066979638672" /><trkpt lat="22.39100778125" lon="114.36073179638672" /><trkpt lat="22.39096278125" lon="114.36078579638672" /><trkpt lat="22.39088078125" lon="114.36088279638672" /><trkpt lat="22.39078178125" lon="114.36092979638671" /><trkpt lat="22.39068078125" lon="114.36094479638672" /><trkpt lat="22.390563781250002" lon="114.36088679638672" /><trkpt lat="22.39046678125" lon="114.36081879638672" /><trkpt lat="22.390404781249998" lon="114.36069479638672" /><trkpt lat="22.39030978125" lon="114.36064479638672" /><trkpt lat="22.39028178125" lon="114.36053079638671" /><trkpt lat="22.39021178125" lon="114.36044979638672" /><trkpt lat="22.39015778125" lon="114.36043879638672" /><trkpt lat="22.39000678125" lon="114.36047079638672" /><trkpt lat="22.38991678125" lon="114.36053679638673" /><trkpt lat="22.38983678125" lon="114.36060679638672" /><trkpt lat="22.38974878125" lon="114.36068179638671" /><trkpt lat="22.38959778125" lon="114.36075379638672" /><trkpt lat="22.38950578125" lon="114.36080579638671" /><trkpt lat="22.38946678125" lon="114.36086979638672" /><trkpt lat="22.38941878125" lon="114.36094979638672" /><trkpt lat="22.38941678125" lon="114.36100879638671" /><trkpt lat="22.38943778125" lon="114.36111579638671" /><trkpt lat="22.38946778125" lon="114.36122679638672" /><trkpt lat="22.38950478125" lon="114.36131379638672" /><trkpt lat="22.38954078125" lon="114.36143479638672" /><trkpt lat="22.38958378125" lon="114.36148579638672" /><trkpt lat="22.38967878125" lon="114.36159879638672" /><trkpt lat="22.38967678125" lon="114.36165279638672" /><trkpt lat="22.38965778125" lon="114.36179279638672" /><trkpt lat="22.38967778125" lon="114.36188879638672" /><trkpt lat="22.38970078125" lon="114.36196879638672" /><trkpt lat="22.38958778125" lon="114.36213179638672" /><trkpt lat="22.38960178125" lon="114.36227579638671" /><trkpt lat="22.38961578125" lon="114.36235479638673" /><trkpt lat="22.38963378125" lon="114.36244179638672" /><trkpt lat="22.38965078125" lon="114.36256679638672" /><trkpt lat="22.38967278125" lon="114.36267479638671" /><trkpt lat="22.38971078125" lon="114.36276279638672" /><trkpt lat="22.38974778125" lon="114.36285479638671" /><trkpt lat="22.38979178125" lon="114.36294879638672" /><trkpt lat="22.38982878125" lon="114.36304579638671" /><trkpt lat="22.38987878125" lon="114.36313079638671" /><trkpt lat="22.39000278125" lon="114.36313979638672" /><trkpt lat="22.39005778125" lon="114.36322379638672" /><trkpt lat="22.39009978125" lon="114.36329479638673" /><trkpt lat="22.39009278125" lon="114.36338479638673" /><trkpt lat="22.39009278125" lon="114.36348779638672" /><trkpt lat="22.39008978125" lon="114.36358079638671" /><trkpt lat="22.39013678125" lon="114.36368679638672" /><trkpt lat="22.39021178125" lon="114.36374779638672" /><trkpt lat="22.39024978125" lon="114.36383679638672" /><trkpt lat="22.39028578125" lon="114.36393179638672" /><trkpt lat="22.39032178125" lon="114.36402079638673" /><trkpt lat="22.39037178125" lon="114.36411379638672" /><trkpt lat="22.39042678125" lon="114.36421579638672" /><trkpt lat="22.39047978125" lon="114.36426279638673" /><trkpt lat="22.39052078125" lon="114.36430579638672" /><trkpt lat="22.39056878125" lon="114.36443079638671" /><trkpt lat="22.39064378125" lon="114.36463279638672" /><trkpt lat="22.39069178125" lon="114.36473679638672" /><trkpt lat="22.39073278125" lon="114.36485579638672" /><trkpt lat="22.39074578125" lon="114.36499879638671" /><trkpt lat="22.39078578125" lon="114.36507379638672" /><trkpt lat="22.39086378125" lon="114.36520079638672" /><trkpt lat="22.39090878125" lon="114.36532379638672" /><trkpt lat="22.39096478125" lon="114.36545679638672" /><trkpt lat="22.39103078125" lon="114.36561279638671" /><trkpt lat="22.39098378125" lon="114.36560379638672" /><trkpt lat="22.39090178125" lon="114.36555679638671" /><trkpt lat="22.39081278125" lon="114.36558079638672" /><trkpt lat="22.39074778125" lon="114.36569779638671" /><trkpt lat="22.39069478125" lon="114.36579279638671" /><trkpt lat="22.39064978125" lon="114.36586079638671" /><trkpt lat="22.39063878125" lon="114.36589979638671" /><trkpt lat="22.39067778125" lon="114.36608679638672" /><trkpt lat="22.39061278125" lon="114.36607879638672" /><trkpt lat="22.39053978125" lon="114.36617979638672" /><trkpt lat="22.39045378125" lon="114.36614779638671" /><trkpt lat="22.39027178125" lon="114.36619579638672" /><trkpt lat="22.39014878125" lon="114.36618379638672" /><trkpt lat="22.39004978125" lon="114.36647479638673" /><trkpt lat="22.38997878125" lon="114.36644979638672" /><trkpt lat="22.38991778125" lon="114.36638179638672" /><trkpt lat="22.38981078125" lon="114.36630579638671" /><trkpt lat="22.38956778125" lon="114.36644379638672" /><trkpt lat="22.38932278125" lon="114.36644479638672" /><trkpt lat="22.38905678125" lon="114.36656379638671" /><trkpt lat="22.38889178125" lon="114.36667879638672" /><trkpt lat="22.38855078125" lon="114.36666779638672" /><trkpt lat="22.38840778125" lon="114.36676879638672" /><trkpt lat="22.38822178125" lon="114.36686979638672" /><trkpt lat="22.38824178125" lon="114.36722879638671" /><trkpt lat="22.38816678125" lon="114.36731579638672" /><trkpt lat="22.38794278125" lon="114.36725779638672" /><trkpt lat="22.38759478125" lon="114.36758079638672" /><trkpt lat="22.38741078125" lon="114.36783479638672" /><trkpt lat="22.38711278125" lon="114.36797979638672" /><trkpt lat="22.38710978125" lon="114.36816479638672" /><trkpt lat="22.38725878125" lon="114.36828779638672" /><trkpt lat="22.38727178125" lon="114.36870979638672" /><trkpt lat="22.38727178125" lon="114.36915979638673" /><trkpt lat="22.38735078125" lon="114.36954679638671" /><trkpt lat="22.38742978125" lon="114.37001879638672" /><trkpt lat="22.38725178125" lon="114.37036179638672" /><trkpt lat="22.38741078125" lon="114.37074779638672" /><trkpt lat="22.38760878125" lon="114.37085479638672" /><trkpt lat="22.38770778125" lon="114.37105079638673" /><trkpt lat="22.38780678125" lon="114.37117679638672" /><trkpt lat="22.38800578125" lon="114.37143479638672" /><trkpt lat="22.38835678125" lon="114.37190079638673" /><trkpt lat="22.38866378125" lon="114.37197779638672" /><trkpt lat="22.38879978125" lon="114.37221979638672" /><trkpt lat="22.38914078125" lon="114.37223679638672" /><trkpt lat="22.38936078125" lon="114.37232079638672" /><trkpt lat="22.38937478125" lon="114.37274379638671" /><trkpt lat="22.38975678125" lon="114.37301679638672" /><trkpt lat="22.38971178125" lon="114.37357979638672" /><trkpt lat="22.38983078125" lon="114.37385979638672" /><trkpt lat="22.39017978125" lon="114.37400579638671" /><trkpt lat="22.39015378125" lon="114.37445979638672" /><trkpt lat="22.39014878125" lon="114.37472979638672" /><trkpt lat="22.38993478125" lon="114.37492679638672" /><trkpt lat="22.38970478125" lon="114.37520879638672" /><trkpt lat="22.38950578125" lon="114.37518079638672" /><trkpt lat="22.38934778125" lon="114.37536479638672" /><trkpt lat="22.38974178125" lon="114.37570979638672" /><trkpt lat="22.38954478125" lon="114.37586679638672" /><trkpt lat="22.38945378125" lon="114.37598379638672" /><trkpt lat="22.38915678125" lon="114.37600479638672" /><trkpt lat="22.38897778125" lon="114.37639179638671" /><trkpt lat="22.38899778125" lon="114.37677779638672" /><trkpt lat="22.38897778125" lon="114.37701379638672" /><trkpt lat="22.38844178125" lon="114.37705679638673" /><trkpt lat="22.38818378125" lon="114.37720679638672" /><trkpt lat="22.38766878125" lon="114.37742179638671" /><trkpt lat="22.38723178125" lon="114.37767879638672" /><trkpt lat="22.38681178125" lon="114.37782379638672" /><trkpt lat="22.38648278125" lon="114.37800679638671" /><trkpt lat="22.38578378125" lon="114.37812979638672" /><trkpt lat="22.38554578125" lon="114.37823679638672" /><trkpt lat="22.38518778125" lon="114.37802179638672" /><trkpt lat="22.38483078125" lon="114.37810779638671" /><trkpt lat="22.38449178125" lon="114.37799079638671" /><trkpt lat="22.38445478125" lon="114.37800479638672" /><trkpt lat="22.38413678125" lon="114.37812979638672" /><trkpt lat="22.38396878125" lon="114.37824479638672" /><trkpt lat="22.38392678125" lon="114.37824279638671" /><trkpt lat="22.38377978125" lon="114.37823679638672" /><trkpt lat="22.38339378125" lon="114.37822579638672" /><trkpt lat="22.38314478125" lon="114.37814279638673" /><trkpt lat="22.38274878125" lon="114.37818579638672" /><trkpt lat="22.38260678125" lon="114.37837579638672" /><trkpt lat="22.38254978125" lon="114.37845079638672" /><trkpt lat="22.38223078125" lon="114.37874679638672" /><trkpt lat="22.38187178125" lon="114.37875179638672" /><trkpt lat="22.38176178125" lon="114.37911979638672" /><trkpt lat="22.38157678125" lon="114.37935279638671" /><trkpt lat="22.38138078125" lon="114.37940579638672" /><trkpt lat="22.38097578125" lon="114.37953079638672" /><trkpt lat="22.38091178125" lon="114.37942979638672" /><trkpt lat="22.38058578125" lon="114.37959779638672" /><trkpt lat="22.38026078125" lon="114.37960579638671" /><trkpt lat="22.38024478125" lon="114.37969179638672" /><trkpt lat="22.37995778125" lon="114.37965079638671" /><trkpt lat="22.37957778125" lon="114.37966079638672" /><trkpt lat="22.37952578125" lon="114.37978279638672" /><trkpt lat="22.37931578125" lon="114.37984579638672" /><trkpt lat="22.37903778125" lon="114.37995379638672" /><trkpt lat="22.37907178125" lon="114.37989979638672" /><trkpt lat="22.37907678125" lon="114.37981579638672" /><trkpt lat="22.37905378125" lon="114.37975379638672" /><trkpt lat="22.37905378125" lon="114.37965979638672" /><trkpt lat="22.37907578125" lon="114.37958679638672" /><trkpt lat="22.37902478125" lon="114.37949579638672" /><trkpt lat="22.37898978125" lon="114.37954679638672" /><trkpt lat="22.37897578125" lon="114.37951679638672" /><trkpt lat="22.37900478125" lon="114.37941779638672" /><trkpt lat="22.37899178125" lon="114.37930179638671" /><trkpt lat="22.37907778125" lon="114.37918279638671" /><trkpt lat="22.37893778125" lon="114.37900679638672" /><trkpt lat="22.37901478125" lon="114.37877979638672" /><trkpt lat="22.37892478125" lon="114.37865979638671" /><trkpt lat="22.37884778125" lon="114.37847879638672" /><trkpt lat="22.37875178125" lon="114.37845579638672" /><trkpt lat="22.37868478125" lon="114.37830979638672" /><trkpt lat="22.37882278125" lon="114.37814979638672" /><trkpt lat="22.37866378125" lon="114.37812079638672" /><trkpt lat="22.37845178125" lon="114.37797879638671" /><trkpt lat="22.37825178125" lon="114.37772779638672" /><trkpt lat="22.37822378125" lon="114.37757279638672" /><trkpt lat="22.37814878125" lon="114.37756779638671" /><trkpt lat="22.37810378125" lon="114.37747979638672" /><trkpt lat="22.37810678125" lon="114.37740479638671" /><trkpt lat="22.37811978125" lon="114.37737979638672" /><trkpt lat="22.37799378125" lon="114.37721579638672" /><trkpt lat="22.37789478125" lon="114.37714279638672" /><trkpt lat="22.37793278125" lon="114.37690779638672" /><trkpt lat="22.37794578125" lon="114.37673479638671" /><trkpt lat="22.37782378125" lon="114.37659579638672" /><trkpt lat="22.37776078125" lon="114.37645079638672" /><trkpt lat="22.37772778125" lon="114.37632679638672" /><trkpt lat="22.37750978125" lon="114.37634279638672" /><trkpt lat="22.37743078125" lon="114.37634879638672" /><trkpt lat="22.37691778125" lon="114.37650279638672" /><trkpt lat="22.37665678125" lon="114.37643779638672" /><trkpt lat="22.37614078125" lon="114.37641279638672" /><trkpt lat="22.37588278125" lon="114.37604779638671" /><trkpt lat="22.37532278125" lon="114.37585279638672" /><trkpt lat="22.37526178125" lon="114.37584579638671" /><trkpt lat="22.37520278125" lon="114.37585779638673" /><trkpt lat="22.37477678125" lon="114.37595279638671" /><trkpt lat="22.37465178125" lon="114.37595179638672" /><trkpt lat="22.37444478125" lon="114.37588679638672" /><trkpt lat="22.37423578125" lon="114.37575179638672" /><trkpt lat="22.37411678125" lon="114.37560779638672" /><trkpt lat="22.37403778125" lon="114.37545979638672" /><trkpt lat="22.37393778125" lon="114.37517279638672" /><trkpt lat="22.37391078125" lon="114.37501379638672" /><trkpt lat="22.37390378125" lon="114.37492679638672" /><trkpt lat="22.37390978125" lon="114.37482479638672" /><trkpt lat="22.37393578125" lon="114.37472779638672" /><trkpt lat="22.37398078125" lon="114.37461979638672" /><trkpt lat="22.37405378125" lon="114.37449479638671" /><trkpt lat="22.37414778125" lon="114.37430179638672" /><trkpt lat="22.37413478125" lon="114.37413779638672" /><trkpt lat="22.37393378125" lon="114.37412479638672" /><trkpt lat="22.37368478125" lon="114.37415779638673" /><trkpt lat="22.37339078125" lon="114.37416179638672" /><trkpt lat="22.37326478125" lon="114.37415279638672" /><trkpt lat="22.37302978125" lon="114.37402979638672" /><trkpt lat="22.37291078125" lon="114.37406079638671" /><trkpt lat="22.37282678125" lon="114.37409579638671" /><trkpt lat="22.37278578125" lon="114.37412679638672" /><trkpt lat="22.37275478125" lon="114.37414479638672" /><trkpt lat="22.37268778125" lon="114.37402979638672" /><trkpt lat="22.37256778125" lon="114.37393179638671" /><trkpt lat="22.37243778125" lon="114.37373479638671" /><trkpt lat="22.37228578125" lon="114.37348079638672" /><trkpt lat="22.37217078125" lon="114.37335379638672" /><trkpt lat="22.37202878125" lon="114.37326379638672" /><trkpt lat="22.37199778125" lon="114.37319579638672" /><trkpt lat="22.37195878125" lon="114.37314979638671" /><trkpt lat="22.37186378125" lon="114.37325679638671" /><trkpt lat="22.37175278125" lon="114.37331679638672" /><trkpt lat="22.37168078125" lon="114.37336279638671" /><trkpt lat="22.37153778125" lon="114.37341679638672" /><trkpt lat="22.37140678125" lon="114.37344079638672" /><trkpt lat="22.37124578125" lon="114.37347779638672" /><trkpt lat="22.37119178125" lon="114.37349679638672" /><trkpt lat="22.37117678125" lon="114.37363479638672" /><trkpt lat="22.37108578125" lon="114.37372079638672" /><trkpt lat="22.37105578125" lon="114.37381479638672" /><trkpt lat="22.37102278125" lon="114.37391879638672" /><trkpt lat="22.37088378125" lon="114.37424579638672" /><trkpt lat="22.37076978125" lon="114.37438979638672" /><trkpt lat="22.37065278125" lon="114.37445679638672" /><trkpt lat="22.37062978125" lon="114.37460979638672" /><trkpt lat="22.37044878125" lon="114.37473879638672" /><trkpt lat="22.37018078125" lon="114.37472879638672" /><trkpt lat="22.36985178125" lon="114.37481479638672" /><trkpt lat="22.36954978125" lon="114.37476779638672" /><trkpt lat="22.36919778125" lon="114.37468579638671" /><trkpt lat="22.36897678125" lon="114.37468379638672" /><trkpt lat="22.36884978125" lon="114.37465379638672" /><trkpt lat="22.36860378125" lon="114.37465379638672" /><trkpt lat="22.36849978125" lon="114.37468179638672" /><trkpt lat="22.36843878125" lon="114.37469079638672" /><trkpt lat="22.36829778125" lon="114.37463279638672" /><trkpt lat="22.36810678125" lon="114.37455479638672" /><trkpt lat="22.36738578125" lon="114.37434779638672" /><trkpt lat="22.36715678125" lon="114.37423979638672" /><trkpt lat="22.36695078125" lon="114.37409279638672" /><trkpt lat="22.36657678125" lon="114.37368279638672" /><trkpt lat="22.36644178125" lon="114.37362379638672" /><trkpt lat="22.36606378125" lon="114.37358479638672" /><trkpt lat="22.36595478125" lon="114.37364879638672" /><trkpt lat="22.36577878125" lon="114.37383179638672" /><trkpt lat="22.36564378125" lon="114.37406879638672" /><trkpt lat="22.36555078125" lon="114.37420379638672" /><trkpt lat="22.36554078125" lon="114.37416679638672" /><trkpt lat="22.36552078125" lon="114.37413479638671" /><trkpt lat="22.36549178125" lon="114.37411079638672" /><trkpt lat="22.36545778125" lon="114.37409879638672" /><trkpt lat="22.36542178125" lon="114.37409879638672" /><trkpt lat="22.36543378125" lon="114.37389379638672" /><trkpt lat="22.36535978125" lon="114.37376779638672" /><trkpt lat="22.36483878125" lon="114.37317179638671" /><trkpt lat="22.36402978125" lon="114.37259179638671" /><trkpt lat="22.36385378125" lon="114.37247479638671" /><trkpt lat="22.36291878125" lon="114.37203379638672" /><trkpt lat="22.36212378125" lon="114.37167179638672" /><trkpt lat="22.36203178125" lon="114.37164879638672" /><trkpt lat="22.36196578125" lon="114.37154079638672" /><trkpt lat="22.36184878125" lon="114.37135179638672" /><trkpt lat="22.36175478125" lon="114.37119879638672" /><trkpt lat="22.36156078125" lon="114.37109579638673" /><trkpt lat="22.36133078125" lon="114.37116179638672" /><trkpt lat="22.36108978125" lon="114.37122979638671" /><trkpt lat="22.36058378125" lon="114.37145579638671" /><trkpt lat="22.36036578125" lon="114.37113379638672" /><trkpt lat="22.36032578125" lon="114.37059779638672" /><trkpt lat="22.36046478125" lon="114.36988979638672" /><trkpt lat="22.36064278125" lon="114.36922479638672" /><trkpt lat="22.36040478125" lon="114.36879579638672" /><trkpt lat="22.36042478125" lon="114.36840879638672" /><trkpt lat="22.36031078125" lon="114.36808579638672" /><trkpt lat="22.36026578125" lon="114.36795879638672" /><trkpt lat="22.36006778125" lon="114.36716479638672" /><trkpt lat="22.35986878125" lon="114.36656379638671" /><trkpt lat="22.35955378125" lon="114.36608379638672" /><trkpt lat="22.35980978125" lon="114.36561979638672" /><trkpt lat="22.35974978125" lon="114.36527579638671" /><trkpt lat="22.35941778125" lon="114.36468679638672" /><trkpt lat="22.35939678125" lon="114.36447579638671" /><trkpt lat="22.35950478125" lon="114.36429779638672" /><trkpt lat="22.35964978125" lon="114.36404879638673" /><trkpt lat="22.35965078125" lon="114.36377079638672" /><trkpt lat="22.35954578125" lon="114.36343979638671" /><trkpt lat="22.35955078125" lon="114.36316879638672" /><trkpt lat="22.35973678125" lon="114.36274279638671" /><trkpt lat="22.35972578125" lon="114.36253579638672" /><trkpt lat="22.35958278125" lon="114.36239679638672" /><trkpt lat="22.35911478125" lon="114.36219479638672" /><trkpt lat="22.35902978125" lon="114.36206579638672" /><trkpt lat="22.35901178125" lon="114.36189679638672" /><trkpt lat="22.35922978125" lon="114.36119979638671" /><trkpt lat="22.35951878125" lon="114.36100679638672" /><trkpt lat="22.35962478125" lon="114.36082379638673" /><trkpt lat="22.35961278125" lon="114.36060679638672" /><trkpt lat="22.35948178125" lon="114.36034579638672" /><trkpt lat="22.35945278125" lon="114.36014779638671" /><trkpt lat="22.35954778125" lon="114.35988079638672" /><trkpt lat="22.35973978125" lon="114.35972479638671" /><trkpt lat="22.35995178125" lon="114.35959579638671" /><trkpt lat="22.36054578125" lon="114.35943279638671" /><trkpt lat="22.36112978125" lon="114.35913779638672" /><trkpt lat="22.36181678125" lon="114.35878479638671" /><trkpt lat="22.36211678125" lon="114.35845379638671" /><trkpt lat="22.36243378125" lon="114.35810079638672" /><trkpt lat="22.36255278125" lon="114.35788279638672" /><trkpt lat="22.36303278125" lon="114.35731079638671" /><trkpt lat="22.36346578125" lon="114.35672879638672" /><trkpt lat="22.36374878125" lon="114.35623579638671" /><trkpt lat="22.36379678125" lon="114.35592979638672" /><trkpt lat="22.36371378125" lon="114.35559479638673" /><trkpt lat="22.36338178125" lon="114.35536279638671" /><trkpt lat="22.36323278125" lon="114.35513679638672" /><trkpt lat="22.36312178125" lon="114.35450679638672" /><trkpt lat="22.36303278125" lon="114.35423579638672" /><trkpt lat="22.36285178125" lon="114.35406679638672" /><trkpt lat="22.36263178125" lon="114.35404579638671" /><trkpt lat="22.36221578125" lon="114.35416879638672" /><trkpt lat="22.36202078125" lon="114.35410679638672" /><trkpt lat="22.36192278125" lon="114.35398979638671" /><trkpt lat="22.36144178125" lon="114.35338579638672" /><trkpt lat="22.36144378125" lon="114.35323979638672" /><trkpt lat="22.36148378125" lon="114.35311879638672" /><trkpt lat="22.36167478125" lon="114.35301279638672" /><trkpt lat="22.36190578125" lon="114.35306679638671" /><trkpt lat="22.36202578125" lon="114.35300879638672" /><trkpt lat="22.36208478125" lon="114.35290179638672" /><trkpt lat="22.36208478125" lon="114.35275579638672" /><trkpt lat="22.36199578125" lon="114.35260679638672" /><trkpt lat="22.36195078125" lon="114.35248879638672" /><trkpt lat="22.36198378125" lon="114.35191779638672" /><trkpt lat="22.36195078125" lon="114.35176079638671" /><trkpt lat="22.36179778125" lon="114.35166179638672" /><trkpt lat="22.36149378125" lon="114.35162179638672" /><trkpt lat="22.36137378125" lon="114.35151279638671" /><trkpt lat="22.36133978125" lon="114.35132979638672" /><trkpt lat="22.36161578125" lon="114.35087779638671" /><trkpt lat="22.36176378125" lon="114.35048279638671" /><trkpt lat="22.36217078125" lon="114.35032379638672" /><trkpt lat="22.36236678125" lon="114.35004479638671" /><trkpt lat="22.36264178125" lon="114.34969279638672" /><trkpt lat="22.36269378125" lon="114.34959979638671" /><trkpt lat="22.36292478125" lon="114.34946879638672" /><trkpt lat="22.36327278125" lon="114.34937679638672" /><trkpt lat="22.36361678125" lon="114.34922679638672" /><trkpt lat="22.36396678125" lon="114.34901079638672" /><trkpt lat="22.36439978125" lon="114.34873479638672" /><trkpt lat="22.36449878125" lon="114.34860579638672" /><trkpt lat="22.36451678125" lon="114.34829979638671" /><trkpt lat="22.36440578125" lon="114.34806579638672" /><trkpt lat="22.36440578125" lon="114.34778579638672" /><trkpt lat="22.36451978125" lon="114.34761279638671" /><trkpt lat="22.36497278125" lon="114.34760379638672" /><trkpt lat="22.36537378125" lon="114.34753079638672" /><trkpt lat="22.36603478125" lon="114.34722479638671" /><trkpt lat="22.36609978125" lon="114.34716479638672" /><trkpt lat="22.36630778125" lon="114.34683579638671" /><trkpt lat="22.36685378125" lon="114.34650079638672" /><trkpt lat="22.36723078125" lon="114.34587879638671" /><trkpt lat="22.36753978125" lon="114.34559679638672" /><trkpt lat="22.36775778125" lon="114.34556979638671" /><trkpt lat="22.36791078125" lon="114.34542779638672" /><trkpt lat="22.36829478125" lon="114.34475579638672" /><trkpt lat="22.36842278125" lon="114.34450179638672" /><trkpt lat="22.36843378125" lon="114.34433579638672" /><trkpt lat="22.36853078125" lon="114.34417779638672" /><trkpt lat="22.36865378125" lon="114.34411679638671" /><trkpt lat="22.36917578125" lon="114.34421379638673" /><trkpt lat="22.36935278125" lon="114.34414979638672" /><trkpt lat="22.36962978125" lon="114.34382679638672" /><trkpt lat="22.36979778125" lon="114.34380079638672" /><trkpt lat="22.37011378125" lon="114.34383979638672" /><trkpt lat="22.37027578125" lon="114.34370779638672" /><trkpt lat="22.37030478125" lon="114.34359379638671" /><trkpt lat="22.37046078125" lon="114.34332279638672" /><trkpt lat="22.37086878125" lon="114.34271779638672" /><trkpt lat="22.37088478125" lon="114.34257079638672" /><trkpt lat="22.37081478125" lon="114.34232079638672" /><trkpt lat="22.37090378125" lon="114.34216079638672" /><trkpt lat="22.37191278125" lon="114.34178579638672" /><trkpt lat="22.37274978125" lon="114.34141779638672" /><trkpt lat="22.37373978125" lon="114.34087879638672" /><trkpt lat="22.37474178125" lon="114.34022879638673" /><trkpt lat="22.37551378125" lon="114.33964079638672" /><trkpt lat="22.37598178125" lon="114.33920479638672" /><trkpt lat="22.37626678125" lon="114.33895579638671" /><trkpt lat="22.37642378125" lon="114.33885979638671" /><trkpt lat="22.37645378125" lon="114.33884179638672" /><trkpt lat="22.37657778125" lon="114.33879479638672" /><trkpt lat="22.37672178125" lon="114.33883679638672" /><trkpt lat="22.37680778125" lon="114.33887779638673" /><trkpt lat="22.37692278125" lon="114.33906479638672" /><trkpt lat="22.37709478125" lon="114.33918879638672" /><trkpt lat="22.37727178125" lon="114.33926979638672" /><trkpt lat="22.37754478125" lon="114.33928179638671" /><trkpt lat="22.37778778125" lon="114.33924779638672" /><trkpt lat="22.37817678125" lon="114.33913679638673" /><trkpt lat="22.37832978125" lon="114.33904879638672" /><trkpt lat="22.37851678125" lon="114.33885779638672" /><trkpt lat="22.37863178125" lon="114.33848479638672" /><trkpt lat="22.37888478125" lon="114.33789479638672" /><trkpt lat="22.37925578125" lon="114.33774579638671" /><trkpt lat="22.37975178125" lon="114.33750979638671" /><trkpt lat="22.37982778125" lon="114.33748479638672" /><trkpt lat="22.38026778125" lon="114.33733879638672" /><trkpt lat="22.38064478125" lon="114.33693079638672" /><trkpt lat="22.38096178125" lon="114.33650179638671" /><trkpt lat="22.38118078125" lon="114.33613679638673" /><trkpt lat="22.38147378125" lon="114.33571079638672" /><trkpt lat="22.38166178125" lon="114.33553479638672" /><trkpt lat="22.38193478125" lon="114.33540679638672" /><trkpt lat="22.38215978125" lon="114.33525379638672" /><trkpt lat="22.38235678125" lon="114.33494479638672" /><trkpt lat="22.38247078125" lon="114.33467579638672" /><trkpt lat="22.38250778125" lon="114.33462679638671" /><trkpt lat="22.38256178125" lon="114.33456979638672" /><trkpt lat="22.38262178125" lon="114.33450079638672" /><trkpt lat="22.38267478125" lon="114.33447079638673" /><trkpt lat="22.38280078125" lon="114.33442379638672" /><trkpt lat="22.38315578125" lon="114.33447379638672" /><trkpt lat="22.38332478125" lon="114.33457079638671" /><trkpt lat="22.38398878125" lon="114.33502479638672" /><trkpt lat="22.38473378125" lon="114.33536079638672" /><trkpt lat="22.38527178125" lon="114.33570579638672" /><trkpt lat="22.38539778125" lon="114.33578679638671" /><trkpt lat="22.38553878125" lon="114.33593279638671" /><trkpt lat="22.38561278125" lon="114.33598579638672" /><trkpt lat="22.38574778125" lon="114.33600579638671" /><trkpt lat="22.38588278125" lon="114.33600179638673" /><trkpt lat="22.38626978125" lon="114.33598579638672" /><trkpt lat="22.38688978125" lon="114.33598079638672" /><trkpt lat="22.38734578125" lon="114.33573879638672" /><trkpt lat="22.38769278125" lon="114.33535779638672" /><trkpt lat="22.38795678125" lon="114.33496179638672" /><trkpt lat="22.38818878125" lon="114.33457379638672" /><trkpt lat="22.38842678125" lon="114.33425279638672" /><trkpt lat="22.38868078125" lon="114.33405979638673" /><trkpt lat="22.38899278125" lon="114.33396879638671" /><trkpt lat="22.38928378125" lon="114.33397279638672" /><trkpt lat="22.38936778125" lon="114.33394579638671" /><trkpt lat="22.38942678125" lon="114.33385979638672" /><trkpt lat="22.38951878125" lon="114.33367279638672" /><trkpt lat="22.38958778125" lon="114.33320179638672" /><trkpt lat="22.38960778125" lon="114.33311579638672" /><trkpt lat="22.38965278125" lon="114.33306379638672" /><trkpt lat="22.39004978125" lon="114.33298779638672" /><trkpt lat="22.39048778125" lon="114.33277279638672" /><trkpt lat="22.39100178125" lon="114.33248879638671" /><trkpt lat="22.39124778125" lon="114.33233979638672" /><trkpt lat="22.39131978125" lon="114.33224179638673" /><trkpt lat="22.39149278125" lon="114.33211879638672" /><trkpt lat="22.39171078125" lon="114.33207979638672" /><trkpt lat="22.39182978125" lon="114.33199779638672" /><trkpt lat="22.39197378125" lon="114.33186679638672" /><trkpt lat="22.39209278125" lon="114.33171679638671" /><trkpt lat="22.39247478125" lon="114.33132979638673" /><trkpt lat="22.39304678125" lon="114.33109879638671" /><trkpt lat="22.39353478125" lon="114.33099779638673" /><trkpt lat="22.39363678125" lon="114.33097079638672" /><trkpt lat="22.39373878125" lon="114.33091579638672" /><trkpt lat="22.39396778125" lon="114.33070779638672" /><trkpt lat="22.39421578125" lon="114.33058379638672" /><trkpt lat="22.39435578125" lon="114.33053379638672" /><trkpt lat="22.39450578125" lon="114.33043079638672" /><trkpt lat="22.39461078125" lon="114.33048979638671" /><trkpt lat="22.39467178125" lon="114.33035379638672" /><trkpt lat="22.39473978125" lon="114.33030779638672" /><trkpt lat="22.39483378125" lon="114.33024579638672" /><trkpt lat="22.39492478125" lon="114.33018679638671" /><trkpt lat="22.39507778125" lon="114.33000979638672" /><trkpt lat="22.39517078125" lon="114.32986879638672" /><trkpt lat="22.39549378125" lon="114.32947579638672" /><trkpt lat="22.39567778125" lon="114.32918479638671" /><trkpt lat="22.39573778125" lon="114.32890479638672" /><trkpt lat="22.39578978125" lon="114.32865779638672" /><trkpt lat="22.39582178125" lon="114.32829879638672" /><trkpt lat="22.39590178125" lon="114.32792879638671" /><trkpt lat="22.39595878125" lon="114.32770279638672" /><trkpt lat="22.39610978125" lon="114.32747579638672" /><trkpt lat="22.39628978125" lon="114.32715979638672" /><trkpt lat="22.39646478125" lon="114.32690379638672" /><trkpt lat="22.39677178125" lon="114.32660179638673" /><trkpt lat="22.39699878125" lon="114.32643579638672" /><trkpt lat="22.39723478125" lon="114.32625679638672" /><trkpt lat="22.39746678125" lon="114.32608179638672" /><trkpt lat="22.39764578125" lon="114.32593779638673" /><trkpt lat="22.39775778125" lon="114.32586679638672" /><trkpt lat="22.39805378125" lon="114.32567779638671" /><trkpt lat="22.39834278125" lon="114.32558879638673" /><trkpt lat="22.39862678125" lon="114.32554179638672" /><trkpt lat="22.39895778125" lon="114.32544079638672" /><trkpt lat="22.39917078125" lon="114.32529979638672" /><trkpt lat="22.39935378125" lon="114.32515779638672" /><trkpt lat="22.39954378125" lon="114.32497879638672" /><trkpt lat="22.39973178125" lon="114.32475579638673" /><trkpt lat="22.39987978125" lon="114.32454879638672" /><trkpt lat="22.39997878125" lon="114.32429279638671" /><trkpt lat="22.40002278125" lon="114.32406579638672" /><trkpt lat="22.40002378125" lon="114.32382879638672" /><trkpt lat="22.39998678125" lon="114.32353179638672" /><trkpt lat="22.39990178125" lon="114.32328479638672" /><trkpt lat="22.39976878125" lon="114.32300379638671" /><trkpt lat="22.39970878125" lon="114.32289979638672" /><trkpt lat="22.39929778125" lon="114.32223279638671" /><trkpt lat="22.39923378125" lon="114.32212879638672" /><trkpt lat="22.39903878125" lon="114.32182379638672" /><trkpt lat="22.39827878125" lon="114.32092379638672" /><trkpt lat="22.39807378125" lon="114.32068979638672" /><trkpt lat="22.39779878125" lon="114.32037579638671" /><trkpt lat="22.39754778125" lon="114.32008979638672" /><trkpt lat="22.39748778125" lon="114.32001979638672" /><trkpt lat="22.39733478125" lon="114.31983679638672" /><trkpt lat="22.39723278125" lon="114.31970779638672" /><trkpt lat="22.39720778125" lon="114.31967579638672" /><trkpt lat="22.39735078125" lon="114.31948679638671" /><trkpt lat="22.39731378125" lon="114.31944979638672" /><trkpt lat="22.397153520092797" lon="114.31928764960145" /></trkseg></trk></gpx>