<?xml version='1.0' encoding='UTF-8' ?><gpx version="1.1" creator="HikingTrailHK" xsi:schemaLocation="http://www.topografix.com/GPX/1/1 http://www.topografix.com/GPX/1/1/gpx.xsd https://hikingtrailhk.appspot.com/xml/gpxextensions/v1 https://hikingtrailhk.appspot.com/xml/gpxextensions/v1/gpxextensions.xsd" xmlns="http://www.topografix.com/GPX/1/1" xmlns:h="https://hikingtrailhk.appspot.com/xml/gpxextensions/v1" xmlns:xsi="http://www.w3.org/2001/XMLSchema-instance"><metadata><name>西狗牙嶺 @ 2016-8-29</name><desc></desc><extensions><h:categoryid>scenery_route</h:categoryid></extensions></metadata><trk><trkseg><trkpt lat="22.24818078125" lon="113.94315379638672" /><trkpt lat="22.24817078125" lon="113.94303879638672" /><trkpt lat="22.24831578125" lon="113.94285879638672" /><trkpt lat="22.24838478125" lon="113.94272179638672" /><trkpt lat="22.24832478125" lon="113.94244779638672" /><trkpt lat="22.24824478125" lon="113.94208679638672" /><trkpt lat="22.24822078125" lon="113.94177779638672" /><trkpt lat="22.24832478125" lon="113.94140079638672" /><trkpt lat="22.24806178125" lon="113.94098879638672" /><trkpt lat="22.24798278125" lon="113.94060179638672" /><trkpt lat="22.24800678125" lon="113.94004379638672" /><trkpt lat="22.24786378125" lon="113.93951179638672" /><trkpt lat="22.24732378125" lon="113.93891179638672" /><trkpt lat="22.24738678125" lon="113.93839679638671" /><trkpt lat="22.24724378125" lon="113.93800179638671" /><trkpt lat="22.24718178125" lon="113.93785379638672" /><trkpt lat="22.24704878125" lon="113.93781979638672" /><trkpt lat="22.24675778125" lon="113.93766379638672" /><trkpt lat="22.24648578125" lon="113.93760779638671" /><trkpt lat="22.24635378125" lon="113.93738379638671" /><trkpt lat="22.24586178125" lon="113.93686879638672" /><trkpt lat="22.24570278125" lon="113.93661079638672" /><trkpt lat="22.24590978125" lon="113.93623779638672" /><trkpt lat="22.24622678125" lon="113.93576779638671" /><trkpt lat="22.24661078125" lon="113.93542979638671" /><trkpt lat="22.24669978125" lon="113.93510779638672" /><trkpt lat="22.24713278125" lon="113.93429379638673" /><trkpt lat="22.24724378125" lon="113.93420179638672" /><trkpt lat="22.24742178125" lon="113.93422179638672" /><trkpt lat="22.24766478125" lon="113.93405379638672" /><trkpt lat="22.24798978125" lon="113.93374479638672" /><trkpt lat="22.24804778125" lon="113.93367979638671" /><trkpt lat="22.24801778125" lon="113.93355779638672" /><trkpt lat="22.24808378125" lon="113.93346479638672" /><trkpt lat="22.24805078125" lon="113.93329879638672" /><trkpt lat="22.24804878125" lon="113.93313279638672" /><trkpt lat="22.24819678125" lon="113.93291579638672" /><trkpt lat="22.24814778125" lon="113.93263879638671" /><trkpt lat="22.24884978125" lon="113.93179379638671" /><trkpt lat="22.24891178125" lon="113.93098879638671" /><trkpt lat="22.24886278125" lon="113.93078379638672" /><trkpt lat="22.24877678125" lon="113.93043079638672" /><trkpt lat="22.24889278125" lon="113.93003679638672" /><trkpt lat="22.24898678125" lon="113.92983979638672" /><trkpt lat="22.24890778125" lon="113.92939479638672" /><trkpt lat="22.24890678125" lon="113.92892079638672" /><trkpt lat="22.24902978125" lon="113.92861579638672" /><trkpt lat="22.24934378125" lon="113.92837479638672" /><trkpt lat="22.24944178125" lon="113.92816579638672" /><trkpt lat="22.24944878125" lon="113.92813579638671" /><trkpt lat="22.24945478125" lon="113.92811079638672" /><trkpt lat="22.24948678125" lon="113.92808179638672" /><trkpt lat="22.24950878125" lon="113.92802979638672" /><trkpt lat="22.24947978125" lon="113.92799579638672" /><trkpt lat="22.24947378125" lon="113.92794379638671" /><trkpt lat="22.24946178125" lon="113.92790079638672" /><trkpt lat="22.24934378125" lon="113.92779379638672" /><trkpt lat="22.24930478125" lon="113.92766979638672" /><trkpt lat="22.24918478125" lon="113.92759079638672" /><trkpt lat="22.24917878125" lon="113.92754579638672" /><trkpt lat="22.24922178125" lon="113.92742879638672" /><trkpt lat="22.24920978125" lon="113.92730379638672" /><trkpt lat="22.24921078125" lon="113.92722779638672" /><trkpt lat="22.24917478125" lon="113.92712879638673" /><trkpt lat="22.24917478125" lon="113.92709979638671" /><trkpt lat="22.24913678125" lon="113.92685879638672" /><trkpt lat="22.24907078125" lon="113.92678279638672" /><trkpt lat="22.24896678125" lon="113.92660979638671" /><trkpt lat="22.24890478125" lon="113.92640679638671" /><trkpt lat="22.24889778125" lon="113.92622079638672" /><trkpt lat="22.24892578125" lon="113.92612479638672" /><trkpt lat="22.24891978125" lon="113.92606979638671" /><trkpt lat="22.24888378125" lon="113.92602779638672" /><trkpt lat="22.24888178125" lon="113.92597979638671" /><trkpt lat="22.24888978125" lon="113.92591979638672" /><trkpt lat="22.24886178125" lon="113.92570379638671" /><trkpt lat="22.24887278125" lon="113.92566579638672" /><trkpt lat="22.24888578125" lon="113.92561979638671" /><trkpt lat="22.24887878125" lon="113.92548279638672" /><trkpt lat="22.24892678125" lon="113.92539779638672" /><trkpt lat="22.24889178125" lon="113.92533779638671" /><trkpt lat="22.24890378125" lon="113.92530779638672" /><trkpt lat="22.24886378125" lon="113.92522079638672" /><trkpt lat="22.24887278125" lon="113.92513579638671" /><trkpt lat="22.24887878125" lon="113.92493879638671" /><trkpt lat="22.24886278125" lon="113.92489279638671" /><trkpt lat="22.24886378125" lon="113.92484979638672" /><trkpt lat="22.24889778125" lon="113.92482079638671" /><trkpt lat="22.24891278125" lon="113.92464779638672" /><trkpt lat="22.24894878125" lon="113.92449979638671" /><trkpt lat="22.24897978125" lon="113.92442479638672" /><trkpt lat="22.24898078125" lon="113.92432179638672" /><trkpt lat="22.24900378125" lon="113.92426879638671" /><trkpt lat="22.24898378125" lon="113.92422879638671" /><trkpt lat="22.24898878125" lon="113.92419679638672" /><trkpt lat="22.24900078125" lon="113.92412479638672" /><trkpt lat="22.24892878125" lon="113.92403079638672" /><trkpt lat="22.24889078125" lon="113.92396779638672" /><trkpt lat="22.24886378125" lon="113.92393579638671" /><trkpt lat="22.24888878125" lon="113.92386879638671" /><trkpt lat="22.24890378125" lon="113.92374279638672" /><trkpt lat="22.24893678125" lon="113.92364879638671" /><trkpt lat="22.24891378125" lon="113.92357479638672" /><trkpt lat="22.24892078125" lon="113.92349179638671" /><trkpt lat="22.24887578125" lon="113.92342279638672" /><trkpt lat="22.24884678125" lon="113.92331179638671" /><trkpt lat="22.24885078125" lon="113.92318379638672" /><trkpt lat="22.24889678125" lon="113.92301779638672" /><trkpt lat="22.24886578125" lon="113.92295779638673" /><trkpt lat="22.24886078125" lon="113.92277079638671" /><trkpt lat="22.24886578125" lon="113.92262079638672" /><trkpt lat="22.24887378125" lon="113.92253779638672" /><trkpt lat="22.24885778125" lon="113.92247879638671" /><trkpt lat="22.24884278125" lon="113.92241379638672" /><trkpt lat="22.24883678125" lon="113.92236979638672" /><trkpt lat="22.24883578125" lon="113.92232879638672" /><trkpt lat="22.24881778125" lon="113.92228479638672" /><trkpt lat="22.24878078125" lon="113.92220979638672" /><trkpt lat="22.24875778125" lon="113.92213379638672" /><trkpt lat="22.24875578125" lon="113.92205979638672" /><trkpt lat="22.24876978125" lon="113.92199379638672" /><trkpt lat="22.24880578125" lon="113.92187279638672" /><trkpt lat="22.24882078125" lon="113.92177079638672" /><trkpt lat="22.24883578125" lon="113.92171579638672" /><trkpt lat="22.24886478125" lon="113.92168179638672" /><trkpt lat="22.24882678125" lon="113.92165779638673" /><trkpt lat="22.24885578125" lon="113.92161979638672" /><trkpt lat="22.24884478125" lon="113.92159579638673" /><trkpt lat="22.24884678125" lon="113.92157879638673" /><trkpt lat="22.24884878125" lon="113.92156379638672" /><trkpt lat="22.24883578125" lon="113.92152279638672" /><trkpt lat="22.24884178125" lon="113.92149879638671" /><trkpt lat="22.24885178125" lon="113.92148479638672" /><trkpt lat="22.24885478125" lon="113.92146679638672" /><trkpt lat="22.24887278125" lon="113.92144279638671" /><trkpt lat="22.24887178125" lon="113.92141879638672" /><trkpt lat="22.24888378125" lon="113.92139879638673" /><trkpt lat="22.24889278125" lon="113.92137079638673" /><trkpt lat="22.24895078125" lon="113.92130179638671" /><trkpt lat="22.24902578125" lon="113.92125579638672" /><trkpt lat="22.24905278125" lon="113.92124279638672" /><trkpt lat="22.24907578125" lon="113.92124179638672" /><trkpt lat="22.24908978125" lon="113.92122379638671" /><trkpt lat="22.24908178125" lon="113.92119179638672" /><trkpt lat="22.24906478125" lon="113.92117079638672" /><trkpt lat="22.24905378125" lon="113.92115779638672" /><trkpt lat="22.24906978125" lon="113.92111979638672" /><trkpt lat="22.24908478125" lon="113.92110079638672" /><trkpt lat="22.24909578125" lon="113.92108879638671" /><trkpt lat="22.24908378125" lon="113.92106279638672" /><trkpt lat="22.24908178125" lon="113.92104579638672" /><trkpt lat="22.24910078125" lon="113.92102779638672" /><trkpt lat="22.24911778125" lon="113.92100679638672" /><trkpt lat="22.24911578125" lon="113.92098979638672" /><trkpt lat="22.24910378125" lon="113.92097579638671" /><trkpt lat="22.24910678125" lon="113.92095679638672" /><trkpt lat="22.24910078125" lon="113.92093979638672" /><trkpt lat="22.24910678125" lon="113.92091879638672" /><trkpt lat="22.24911478125" lon="113.92090879638671" /><trkpt lat="22.24911178125" lon="113.92088679638672" /><trkpt lat="22.24912678125" lon="113.92086179638672" /><trkpt lat="22.24914878125" lon="113.92084079638671" /><trkpt lat="22.24914878125" lon="113.92082079638672" /><trkpt lat="22.24915578125" lon="113.92078379638671" /><trkpt lat="22.24917178125" lon="113.92077279638671" /><trkpt lat="22.24920278125" lon="113.92074479638671" /><trkpt lat="22.24922278125" lon="113.92069679638672" /><trkpt lat="22.24923078125" lon="113.92065079638672" /><trkpt lat="22.24922078125" lon="113.92059979638672" /><trkpt lat="22.24924078125" lon="113.92052179638672" /><trkpt lat="22.24925678125" lon="113.92044979638672" /><trkpt lat="22.24928978125" lon="113.92042379638671" /><trkpt lat="22.24928978125" lon="113.92038779638672" /><trkpt lat="22.24933378125" lon="113.92028579638672" /><trkpt lat="22.24935078125" lon="113.92023979638672" /><trkpt lat="22.24935078125" lon="113.92020579638672" /><trkpt lat="22.24932878125" lon="113.92018679638672" /><trkpt lat="22.24932578125" lon="113.92017679638671" /><trkpt lat="22.24935078125" lon="113.92015079638672" /><trkpt lat="22.24934678125" lon="113.92011579638672" /><trkpt lat="22.24924378125" lon="113.92007379638672" /><trkpt lat="22.24896878125" lon="113.91992879638671" /><trkpt lat="22.24859578125" lon="113.91977579638672" /><trkpt lat="22.24840578125" lon="113.91976179638672" /><trkpt lat="22.24800778125" lon="113.91961979638671" /><trkpt lat="22.24768578125" lon="113.91902079638672" /><trkpt lat="22.24760478125" lon="113.91904679638672" /><trkpt lat="22.24691078125" lon="113.91816979638672" /><trkpt lat="22.24676629756684" lon="113.91812220749853" /><trkpt lat="22.24642978125" lon="113.91777779638672" /><trkpt lat="22.24623078125" lon="113.91743979638672" /><trkpt lat="22.24605778125" lon="113.91742779638672" /><trkpt lat="22.24587678125" lon="113.91741479638672" /><trkpt lat="22.24554278125" lon="113.91753279638672" /><trkpt lat="22.24519678125" lon="113.91770079638673" /><trkpt lat="22.24492478125" lon="113.91778279638672" /><trkpt lat="22.24475478125" lon="113.91777379638671" /><trkpt lat="22.24455078125" lon="113.91788179638672" /><trkpt lat="22.24435878125" lon="113.91795879638671" /><trkpt lat="22.24399878125" lon="113.91789579638672" /><trkpt lat="22.24370778125" lon="113.91778279638672" /><trkpt lat="22.24329678125" lon="113.91762279638672" /><trkpt lat="22.24272778125" lon="113.91713479638672" /><trkpt lat="22.24220178125" lon="113.91696779638671" /><trkpt lat="22.24205378125" lon="113.91686079638671" /><trkpt lat="22.24189378125" lon="113.91678479638672" /><trkpt lat="22.24185878125" lon="113.91676479638672" /><trkpt lat="22.24169978125" lon="113.91661679638672" /><trkpt lat="22.24165378125" lon="113.91654379638672" /><trkpt lat="22.24140378125" lon="113.91587679638671" /><trkpt lat="22.24121178125" lon="113.91569179638672" /><trkpt lat="22.24112878125" lon="113.91546179638672" /><trkpt lat="22.24079378125" lon="113.91504879638671" /><trkpt lat="22.24073878125" lon="113.91464679638672" /><trkpt lat="22.24063978125" lon="113.91449979638672" /><trkpt lat="22.24052978125" lon="113.91407979638672" /><trkpt lat="22.24054178125" lon="113.91387679638672" /><trkpt lat="22.24044178125" lon="113.91366879638672" /><trkpt lat="22.24038478125" lon="113.91356979638672" /><trkpt lat="22.24029178125" lon="113.91350179638673" /><trkpt lat="22.24013878125" lon="113.91300679638672" /><trkpt lat="22.23995878125" lon="113.91262979638672" /><trkpt lat="22.24023178125" lon="113.91230579638672" /><trkpt lat="22.24027078125" lon="113.91200679638672" /><trkpt lat="22.24023278125" lon="113.91174279638672" /><trkpt lat="22.23989978125" lon="113.91143479638671" /><trkpt lat="22.23971878125" lon="113.91114379638672" /><trkpt lat="22.23971178125" lon="113.91060379638672" /><trkpt lat="22.23990678125" lon="113.90986979638672" /><trkpt lat="22.23988478125" lon="113.90970079638672" /><trkpt lat="22.23992478125" lon="113.90939579638672" /><trkpt lat="22.23981978125" lon="113.90914379638672" /><trkpt lat="22.23961978125" lon="113.90854979638672" /><trkpt lat="22.23963378125" lon="113.90841479638672" /><trkpt lat="22.23947678125" lon="113.90805979638672" /><trkpt lat="22.23936978125" lon="113.90797479638672" /><trkpt lat="22.23911878125" lon="113.90755679638671" /><trkpt lat="22.23887178125" lon="113.90734379638671" /><trkpt lat="22.23886478125" lon="113.90722879638672" /><trkpt lat="22.23846978125" lon="113.90697479638672" /><trkpt lat="22.23846878125" lon="113.90679379638672" /><trkpt lat="22.23829678125" lon="113.90671979638672" /><trkpt lat="22.23813478125" lon="113.90655979638672" /><trkpt lat="22.23813378125" lon="113.90641979638671" /><trkpt lat="22.23791978125" lon="113.90625379638672" /><trkpt lat="22.23788678125" lon="113.90640179638672" /><trkpt lat="22.23788278125" lon="113.90660879638672" /><trkpt lat="22.23778278125" lon="113.90692579638672" /><trkpt lat="22.23784478125" lon="113.90744479638671" /><trkpt lat="22.23779878125" lon="113.90790479638672" /><trkpt lat="22.23786278125" lon="113.90813679638671" /><trkpt lat="22.23757978125" lon="113.90922079638672" /><trkpt lat="22.23750278125" lon="113.90936279638672" /><trkpt lat="22.23748478125" lon="113.90962779638672" /><trkpt lat="22.23721578125" lon="113.90998379638671" /><trkpt lat="22.23706378125" lon="113.91006979638672" /><trkpt lat="22.23701778125" lon="113.90982479638672" /><trkpt lat="22.23682078125" lon="113.90918079638672" /><trkpt lat="22.23667478125" lon="113.90874079638672" /><trkpt lat="22.23654278125" lon="113.90850979638672" /><trkpt lat="22.23655078125" lon="113.90802479638671" /><trkpt lat="22.23625078125" lon="113.90719679638671" /><trkpt lat="22.23616478125" lon="113.90707579638672" /><trkpt lat="22.23608878125" lon="113.90675179638671" /><trkpt lat="22.23615278125" lon="113.90666779638671" /><trkpt lat="22.23614478125" lon="113.90656779638672" /><trkpt lat="22.23607678125" lon="113.90635979638672" /><trkpt lat="22.23600878125" lon="113.90632079638672" /><trkpt lat="22.23586878125" lon="113.90636679638672" /><trkpt lat="22.23560278125" lon="113.90623479638671" /><trkpt lat="22.23540978125" lon="113.90621579638672" /><trkpt lat="22.23535278125" lon="113.90626479638672" /><trkpt lat="22.23526378125" lon="113.90631779638672" /><trkpt lat="22.23519978125" lon="113.90631879638671" /><trkpt lat="22.23514378125" lon="113.90635779638671" /><trkpt lat="22.23501178125" lon="113.90657979638672" /><trkpt lat="22.23493578125" lon="113.90723979638672" /><trkpt lat="22.23466278125" lon="113.90773379638672" /><trkpt lat="22.23458978125" lon="113.90783579638672" /><trkpt lat="22.23448478125" lon="113.90812079638673" /><trkpt lat="22.23438578125" lon="113.90816879638672" /><trkpt lat="22.23423078125" lon="113.90816079638672" /><trkpt lat="22.23408278125" lon="113.90808279638672" /><trkpt lat="22.23379878125" lon="113.90826279638672" /><trkpt lat="22.23352978125" lon="113.90823379638672" /><trkpt lat="22.23337278125" lon="113.90824779638672" /><trkpt lat="22.23302478125" lon="113.90839579638671" /><trkpt lat="22.23283378125" lon="113.90832679638672" /><trkpt lat="22.23270778125" lon="113.90830879638672" /><trkpt lat="22.23260478125" lon="113.90837079638672" /><trkpt lat="22.23255578125" lon="113.90847079638672" /><trkpt lat="22.23252278125" lon="113.90858479638672" /><trkpt lat="22.23244978125" lon="113.90862279638672" /><trkpt lat="22.23238878125" lon="113.90863579638672" /><trkpt lat="22.23224878125" lon="113.90860079638672" /><trkpt lat="22.23205078125" lon="113.90870079638673" /><trkpt lat="22.23190778125" lon="113.90863679638672" /><trkpt lat="22.23174878125" lon="113.90848779638672" /><trkpt lat="22.23159978125" lon="113.90825179638672" /><trkpt lat="22.23136278125" lon="113.90809179638671" /><trkpt lat="22.23126778125" lon="113.90810479638672" /><trkpt lat="22.23108678125" lon="113.90827479638672" /><trkpt lat="22.23102178125" lon="113.90844779638672" /><trkpt lat="22.23106178125" lon="113.90883879638672" /><trkpt lat="22.23101878125" lon="113.90896279638672" /><trkpt lat="22.23093378125" lon="113.90911479638672" /><trkpt lat="22.23089378125" lon="113.90951879638672" /><trkpt lat="22.23082878125" lon="113.90956679638671" /><trkpt lat="22.23051078125" lon="113.90934979638672" /><trkpt lat="22.23035478125" lon="113.90906279638672" /><trkpt lat="22.23024878125" lon="113.90869779638672" /><trkpt lat="22.22993178125" lon="113.90830679638673" /><trkpt lat="22.22971878125" lon="113.90758179638672" /><trkpt lat="22.22970378125" lon="113.90719779638673" /><trkpt lat="22.22973978125" lon="113.90673879638672" /><trkpt lat="22.22988478125" lon="113.90636679638672" /><trkpt lat="22.22989178125" lon="113.90620579638671" /><trkpt lat="22.22987478125" lon="113.90611179638672" /><trkpt lat="22.22973478125" lon="113.90605479638671" /><trkpt lat="22.22952678125" lon="113.90618579638672" /><trkpt lat="22.22925978125" lon="113.90619979638672" /><trkpt lat="22.22909378125" lon="113.90615579638671" /><trkpt lat="22.22883378125" lon="113.90600279638672" /><trkpt lat="22.22857278125" lon="113.90603279638673" /><trkpt lat="22.22841978125" lon="113.90595379638673" /><trkpt lat="22.22835978125" lon="113.90557379638672" /><trkpt lat="22.22828278125" lon="113.90541079638672" /><trkpt lat="22.22808178125" lon="113.90555079638672" /><trkpt lat="22.22790878125" lon="113.90556079638672" /><trkpt lat="22.22739678125" lon="113.90512379638672" /><trkpt lat="22.22714378125" lon="113.90485379638672" /><trkpt lat="22.22691678125" lon="113.90440379638672" /><trkpt lat="22.22686678125" lon="113.90425479638672" /><trkpt lat="22.22670478125" lon="113.90417479638671" /><trkpt lat="22.22673478125" lon="113.90406479638672" /><trkpt lat="22.22654678125" lon="113.90360979638672" /><trkpt lat="22.22637078125" lon="113.90326179638672" /><trkpt lat="22.22623478125" lon="113.90307679638671" /><trkpt lat="22.22600178125" lon="113.90251079638672" /><trkpt lat="22.22594678125" lon="113.90234279638672" /><trkpt lat="22.22573278125" lon="113.90148979638671" /><trkpt lat="22.22569578125" lon="113.90131679638672" /><trkpt lat="22.22570378125" lon="113.90114979638672" /><trkpt lat="22.22575378125" lon="113.90096379638672" /><trkpt lat="22.22585878125" lon="113.90074179638673" /><trkpt lat="22.22610978125" lon="113.90029779638672" /><trkpt lat="22.22613778125" lon="113.90024079638673" /><trkpt lat="22.22619478125" lon="113.90006379638672" /><trkpt lat="22.22622578125" lon="113.89985579638672" /><trkpt lat="22.22622978125" lon="113.89960879638672" /><trkpt lat="22.22621978125" lon="113.89948979638672" /><trkpt lat="22.22618178125" lon="113.89932079638672" /><trkpt lat="22.22611478125" lon="113.89915779638672" /><trkpt lat="22.22601678125" lon="113.89893779638672" /><trkpt lat="22.22594278125" lon="113.89872779638672" /><trkpt lat="22.22592678125" lon="113.89853179638672" /><trkpt lat="22.22595978125" lon="113.89798079638672" /><trkpt lat="22.22599178125" lon="113.89788079638672" /><trkpt lat="22.22601264173173" lon="113.89783690248102" /></trkseg></trk></gpx>