<?xml version='1.0' encoding='UTF-8' ?><gpx version="1.1" creator="HikingTrailHK" xsi:schemaLocation="http://www.topografix.com/GPX/1/1 http://www.topografix.com/GPX/1/1/gpx.xsd" xmlns="http://www.topografix.com/GPX/1/1" xmlns:xsi="http://www.w3.org/2001/XMLSchema-instance"><metadata><name>西貢海藝術節 @ 2024-01-13</name><desc></desc></metadata><trk><trkseg><trkpt lat="22.34213396389265" lon="114.32197396538629" /><trkpt lat="22.342255775163707" lon="114.32199133892107" /><trkpt lat="22.34229454667775" lon="114.32234614905525" /><trkpt lat="22.34229217520496" lon="114.32242966099454" /><trkpt lat="22.342231585772083" lon="114.32266359349859" /><trkpt lat="22.342218448371185" lon="114.32277743075832" /><trkpt lat="22.342246143964843" lon="114.32289431664088" /><trkpt lat="22.342288268609266" lon="114.32299272213294" /><trkpt lat="22.342339349535138" lon="114.32306878204611" /><trkpt lat="22.34242578838601" lon="114.32313661355926" /><trkpt lat="22.342344433474707" lon="114.32326046086564" /><trkpt lat="22.342252064075353" lon="114.32331621535809" /><trkpt lat="22.342280066052567" lon="114.32323011652198" /><trkpt lat="22.342357859071114" lon="114.32323754469843" /><trkpt lat="22.342422750490698" lon="114.32317201947319" /><trkpt lat="22.34238555959719" lon="114.32309440562682" /><trkpt lat="22.34232861689074" lon="114.32303726815763" /><trkpt lat="22.34228285440838" lon="114.32294456507736" /><trkpt lat="22.342223311199263" lon="114.32273241402731" /><trkpt lat="22.342269236875197" lon="114.322030621144" /><trkpt lat="22.342264088623722" lon="114.32198393687833" /><trkpt lat="22.342276576358188" lon="114.32175707315861" /><trkpt lat="22.342248614879466" lon="114.32164063404042" /><trkpt lat="22.342265822625777" lon="114.32136751513895" /><trkpt lat="22.342340699731622" lon="114.32131223130864" /><trkpt lat="22.342366558190633" lon="114.32126638132087" /><trkpt lat="22.342491054871743" lon="114.32111132562164" /><trkpt lat="22.342532146202117" lon="114.32108745764145" /><trkpt lat="22.34263111912474" lon="114.32108267522585" /><trkpt lat="22.34276378125" lon="114.32115279638671" /><trkpt lat="22.34286678125" lon="114.32129479638672" /><trkpt lat="22.34308778125" lon="114.32143579638672" /><trkpt lat="22.34319678125" lon="114.32143979638671" /><trkpt lat="22.34326278125" lon="114.32146979638672" /><trkpt lat="22.34364178125" lon="114.32147779638672" /><trkpt lat="22.34372878125" lon="114.32138979638673" /><trkpt lat="22.34399478125" lon="114.32137079638672" /><trkpt lat="22.34413478125" lon="114.32137079638672" /><trkpt lat="22.34421378125" lon="114.32132679638671" /><trkpt lat="22.34437078125" lon="114.32103579638672" /><trkpt lat="22.34440278125" lon="114.32081879638672" /><trkpt lat="22.34445578125" lon="114.32069879638672" /><trkpt lat="22.34462478125" lon="114.32057279638671" /><trkpt lat="22.34480578125" lon="114.32025679638672" /><trkpt lat="22.34488978125" lon="114.32005879638672" /><trkpt lat="22.34520278125" lon="114.31967979638672" /><trkpt lat="22.34529878125" lon="114.31958479638672" /><trkpt lat="22.34574778125" lon="114.31952879638672" /><trkpt lat="22.34601678125" lon="114.31942779638672" /><trkpt lat="22.34617078125" lon="114.31939579638671" /><trkpt lat="22.34709278125" lon="114.31941779638672" /><trkpt lat="22.34721578125" lon="114.31938979638672" /><trkpt lat="22.34765578125" lon="114.31915979638671" /><trkpt lat="22.34787778125" lon="114.31904579638672" /><trkpt lat="22.34821578125" lon="114.31894179638672" /><trkpt lat="22.34832078125" lon="114.31895479638672" /><trkpt lat="22.34843178125" lon="114.31898879638672" /><trkpt lat="22.34854578125" lon="114.31909979638672" /><trkpt lat="22.34864478125" lon="114.31925679638672" /><trkpt lat="22.34874978125" lon="114.31940579638672" /><trkpt lat="22.34891578125" lon="114.31955379638671" /><trkpt lat="22.34899778125" lon="114.31959179638672" /><trkpt lat="22.34910278125" lon="114.31956279638672" /><trkpt lat="22.34926378125" lon="114.31946579638672" /><trkpt lat="22.34944978125" lon="114.31923479638672" /><trkpt lat="22.34948178125" lon="114.31913079638672" /><trkpt lat="22.34954078125" lon="114.31905879638671" /><trkpt lat="22.34967178125" lon="114.31903279638672" /><trkpt lat="22.34975378125" lon="114.31903679638671" /><trkpt lat="22.34981478125" lon="114.31906479638671" /><trkpt lat="22.35014778125" lon="114.31905579638672" /><trkpt lat="22.35025278125" lon="114.31904879638672" /><trkpt lat="22.35043278125" lon="114.31888179638672" /><trkpt lat="22.35046778125" lon="114.31879079638672" /><trkpt lat="22.35041878125" lon="114.31863879638672" /><trkpt lat="22.35045978125" lon="114.31854779638672" /><trkpt lat="22.35057878125" lon="114.31851279638671" /><trkpt lat="22.35071578125" lon="114.31840279638672" /><trkpt lat="22.35085878125" lon="114.31835679638672" /><trkpt lat="22.35097278125" lon="114.31832079638671" /><trkpt lat="22.35118578125" lon="114.31827979638672" /><trkpt lat="22.35130278125" lon="114.31821279638672" /><trkpt lat="22.35150678125" lon="114.31802679638672" /><trkpt lat="22.35164078125" lon="114.31788779638671" /><trkpt lat="22.35170178125" lon="114.31770179638671" /><trkpt lat="22.35184478125" lon="114.31742479638672" /><trkpt lat="22.35195578125" lon="114.31724779638672" /><trkpt lat="22.35208478125" lon="114.31716879638672" /><trkpt lat="22.35241978125" lon="114.31682479638673" /><trkpt lat="22.35266778125" lon="114.31658579638672" /><trkpt lat="22.35280778125" lon="114.31633979638671" /><trkpt lat="22.35293378125" lon="114.31620679638672" /><trkpt lat="22.35307878125" lon="114.31613779638671" /><trkpt lat="22.35321978125" lon="114.31608179638671" /><trkpt lat="22.35334178125" lon="114.31603379638672" /><trkpt lat="22.35348778125" lon="114.31599879638672" /><trkpt lat="22.35372978125" lon="114.31598279638672" /><trkpt lat="22.35389578125" lon="114.31592979638671" /><trkpt lat="22.35417278125" lon="114.31584379638672" /><trkpt lat="22.35432478125" lon="114.31576179638672" /><trkpt lat="22.35456978125" lon="114.31567079638671" /><trkpt lat="22.35482078125" lon="114.31554179638673" /><trkpt lat="22.35540378125" lon="114.31525079638672" /><trkpt lat="22.35568978125" lon="114.31513479638672" /><trkpt lat="22.35582978125" lon="114.31503679638672" /><trkpt lat="22.35594978125" lon="114.31498579638672" /><trkpt lat="22.35610178125" lon="114.31498279638672" /><trkpt lat="22.35630278125" lon="114.31505279638672" /><trkpt lat="22.35643078125" lon="114.31510879638672" /><trkpt lat="22.35662978125" lon="114.31511879638671" /><trkpt lat="22.35681278125" lon="114.31509679638671" /><trkpt lat="22.35709878125" lon="114.31500179638672" /><trkpt lat="22.35727078125" lon="114.31489479638672" /><trkpt lat="22.35740278125" lon="114.31472479638671" /><trkpt lat="22.35757478125" lon="114.31459179638672" /><trkpt lat="22.35769178125" lon="114.31456679638671" /><trkpt lat="22.35785478125" lon="114.31450679638672" /><trkpt lat="22.35793978125" lon="114.31444379638671" /><trkpt lat="22.35801178125" lon="114.31423879638672" /><trkpt lat="22.35804978125" lon="114.31419179638672" /><trkpt lat="22.35872978125" lon="114.31402779638672" /><trkpt lat="22.35881778125" lon="114.31391079638672" /><trkpt lat="22.35891378125" lon="114.31384479638672" /><trkpt lat="22.35899778125" lon="114.31383179638672" /><trkpt lat="22.35907078125" lon="114.31385079638672" /><trkpt lat="22.35918178125" lon="114.31389779638671" /><trkpt lat="22.35933078125" lon="114.31391679638672" /><trkpt lat="22.35964578125" lon="114.31387579638672" /><trkpt lat="22.35973578125" lon="114.31390479638672" /><trkpt lat="22.35981778125" lon="114.31393579638672" /><trkpt lat="22.35990278125" lon="114.31389479638672" /><trkpt lat="22.36011578125" lon="114.31361379638672" /><trkpt lat="22.36023778125" lon="114.31352579638671" /><trkpt lat="22.36031978125" lon="114.31347179638672" /><trkpt lat="22.36040978125" lon="114.31329879638672" /><trkpt lat="22.36054978125" lon="114.31306879638672" /><trkpt lat="22.36089178125" lon="114.31278179638672" /><trkpt lat="22.36108378125" lon="114.31277479638672" /><trkpt lat="22.36125278125" lon="114.31272479638672" /><trkpt lat="22.36133278125" lon="114.31270079638672" /><trkpt lat="22.36182778125" lon="114.31255479638672" /><trkpt lat="22.36196778125" lon="114.31250679638671" /><trkpt lat="22.36205278125" lon="114.31238679638672" /><trkpt lat="22.36231478125" lon="114.31196779638672" /><trkpt lat="22.36231178125" lon="114.31187879638672" /><trkpt lat="22.36213978125" lon="114.31098079638672" /><trkpt lat="22.36218078125" lon="114.31062979638672" /><trkpt lat="22.36220678125" lon="114.31038379638672" /><trkpt lat="22.36226678125" lon="114.31028479638672" /><trkpt lat="22.362511166295874" lon="114.31007145193325" /><trkpt lat="22.36265260336546" lon="114.31010905946579" /><trkpt lat="22.362635230898064" lon="114.31026218337126" /><trkpt lat="22.36251370592501" lon="114.31035398030758" /><trkpt lat="22.36235161832674" lon="114.31030772940358" /><trkpt lat="22.362352197884306" lon="114.31030285176695" /><trkpt lat="22.362314701652934" lon="114.310295412026" /><trkpt lat="22.362299434208303" lon="114.3102653843481" /><trkpt lat="22.36226678125" lon="114.31028479638672" /><trkpt lat="22.36220678125" lon="114.31038379638672" /><trkpt lat="22.36218078125" lon="114.31062979638672" /><trkpt lat="22.36213978125" lon="114.31098079638672" /><trkpt lat="22.36231178125" lon="114.31187879638672" /><trkpt lat="22.36231478125" lon="114.31196779638672" /><trkpt lat="22.36205278125" lon="114.31238679638672" /><trkpt lat="22.36196778125" lon="114.31250679638671" /><trkpt lat="22.36182778125" lon="114.31255479638672" /><trkpt lat="22.36133278125" lon="114.31270079638672" /><trkpt lat="22.36125278125" lon="114.31272479638672" /><trkpt lat="22.36108378125" lon="114.31277479638672" /><trkpt lat="22.36089178125" lon="114.31278179638672" /><trkpt lat="22.36054978125" lon="114.31306879638672" /><trkpt lat="22.36040978125" lon="114.31329879638672" /><trkpt lat="22.36031978125" lon="114.31347179638672" /><trkpt lat="22.36023778125" lon="114.31352579638671" /><trkpt lat="22.36011578125" lon="114.31361379638672" /><trkpt lat="22.35990278125" lon="114.31389479638672" /><trkpt lat="22.35981778125" lon="114.31393579638672" /><trkpt lat="22.35973578125" lon="114.31390479638672" /><trkpt lat="22.35964578125" lon="114.31387579638672" /><trkpt lat="22.35933078125" lon="114.31391679638672" /><trkpt lat="22.35918178125" lon="114.31389779638671" /><trkpt lat="22.35907078125" lon="114.31385079638672" /><trkpt lat="22.35899778125" lon="114.31383179638672" /><trkpt lat="22.35891378125" lon="114.31384479638672" /><trkpt lat="22.35881778125" lon="114.31391079638672" /><trkpt lat="22.35872978125" lon="114.31402779638672" /><trkpt lat="22.35804978125" lon="114.31419179638672" /><trkpt lat="22.35801178125" lon="114.31423879638672" /><trkpt lat="22.35793978125" lon="114.31444379638671" /><trkpt lat="22.35785478125" lon="114.31450679638672" /><trkpt lat="22.35769178125" lon="114.31456679638671" /><trkpt lat="22.35757478125" lon="114.31459179638672" /><trkpt lat="22.35740278125" lon="114.31472479638671" /><trkpt lat="22.35727078125" lon="114.31489479638672" /><trkpt lat="22.35709878125" lon="114.31500179638672" /><trkpt lat="22.35681278125" lon="114.31509679638671" /><trkpt lat="22.35662978125" lon="114.31511879638671" /><trkpt lat="22.35643078125" lon="114.31510879638672" /><trkpt lat="22.35630278125" lon="114.31505279638672" /><trkpt lat="22.35610178125" lon="114.31498279638672" /><trkpt lat="22.35594978125" lon="114.31498579638672" /><trkpt lat="22.35582978125" lon="114.31503679638672" /><trkpt lat="22.35568978125" lon="114.31513479638672" /><trkpt lat="22.35540378125" lon="114.31525079638672" /><trkpt lat="22.35482078125" lon="114.31554179638673" /><trkpt lat="22.354435133204525" lon="114.31572080843743" /><trkpt lat="22.354554066266815" lon="114.31633181194576" /><trkpt lat="22.3544684675947" lon="114.3171006920794" /><trkpt lat="22.354610186095286" lon="114.31779547880029" /><trkpt lat="22.354329549601132" lon="114.31779869111915" /><trkpt lat="22.354353233279383" lon="114.31754967585789" /><trkpt lat="22.35448508914152" lon="114.31734570041561" /><trkpt lat="22.35447454489571" lon="114.31592589449372" /><trkpt lat="22.354425578808765" lon="114.31572435721212" /><trkpt lat="22.35432478125" lon="114.31576179638672" /><trkpt lat="22.35417278125" lon="114.31584379638672" /><trkpt lat="22.35389578125" lon="114.31592979638671" /><trkpt lat="22.35372978125" lon="114.31598279638672" /><trkpt lat="22.35348778125" lon="114.31599879638672" /><trkpt lat="22.35334178125" lon="114.31603379638672" /><trkpt lat="22.35321978125" lon="114.31608179638671" /><trkpt lat="22.35307878125" lon="114.31613779638671" /><trkpt lat="22.35293378125" lon="114.31620679638672" /><trkpt lat="22.35280778125" lon="114.31633979638671" /><trkpt lat="22.35266778125" lon="114.31658579638672" /><trkpt lat="22.35241978125" lon="114.31682479638673" /><trkpt lat="22.35208478125" lon="114.31716879638672" /><trkpt lat="22.35195578125" lon="114.31724779638672" /><trkpt lat="22.35184478125" lon="114.31742479638672" /><trkpt lat="22.35170178125" lon="114.31770179638671" /><trkpt lat="22.35164078125" lon="114.31788779638671" /><trkpt lat="22.35150678125" lon="114.31802679638672" /><trkpt lat="22.35130278125" lon="114.31821279638672" /><trkpt lat="22.35118578125" lon="114.31827979638672" /><trkpt lat="22.35097278125" lon="114.31832079638671" /><trkpt lat="22.35085878125" lon="114.31835679638672" /><trkpt lat="22.35071578125" lon="114.31840279638672" /><trkpt lat="22.35057878125" lon="114.31851279638671" /><trkpt lat="22.35045978125" lon="114.31854779638672" /><trkpt lat="22.35041878125" lon="114.31863879638672" /><trkpt lat="22.35046778125" lon="114.31879079638672" /><trkpt lat="22.35043278125" lon="114.31888179638672" /><trkpt lat="22.35025278125" lon="114.31904879638672" /><trkpt lat="22.35014778125" lon="114.31905579638672" /><trkpt lat="22.34981478125" lon="114.31906479638671" /><trkpt lat="22.34975378125" lon="114.31903679638671" /><trkpt lat="22.34967178125" lon="114.31903279638672" /><trkpt lat="22.34954078125" lon="114.31905879638671" /><trkpt lat="22.34948178125" lon="114.31913079638672" /><trkpt lat="22.34944978125" lon="114.31923479638672" /><trkpt lat="22.34926378125" lon="114.31946579638672" /><trkpt lat="22.34910278125" lon="114.31956279638672" /><trkpt lat="22.34899778125" lon="114.31959179638672" /><trkpt lat="22.34891578125" lon="114.31955379638671" /><trkpt lat="22.34874978125" lon="114.31940579638672" /><trkpt lat="22.34864478125" lon="114.31925679638672" /><trkpt lat="22.34854578125" lon="114.31909979638672" /><trkpt lat="22.34843178125" lon="114.31898879638672" /><trkpt lat="22.34832078125" lon="114.31895479638672" /><trkpt lat="22.34821578125" lon="114.31894179638672" /><trkpt lat="22.34787778125" lon="114.31904579638672" /><trkpt lat="22.34765578125" lon="114.31915979638671" /><trkpt lat="22.34721578125" lon="114.31938979638672" /><trkpt lat="22.34709278125" lon="114.31941779638672" /><trkpt lat="22.34617078125" lon="114.31939579638671" /><trkpt lat="22.34601678125" lon="114.31942779638672" /><trkpt lat="22.34574778125" lon="114.31952879638672" /><trkpt lat="22.34529878125" lon="114.31958479638672" /><trkpt lat="22.34520278125" lon="114.31967979638672" /><trkpt lat="22.34488978125" lon="114.32005879638672" /><trkpt lat="22.34480578125" lon="114.32025679638672" /><trkpt lat="22.34462478125" lon="114.32057279638671" /><trkpt lat="22.34445578125" lon="114.32069879638672" /><trkpt lat="22.34440278125" lon="114.32081879638672" /><trkpt lat="22.34437078125" lon="114.32103579638672" /><trkpt lat="22.34421378125" lon="114.32132679638671" /><trkpt lat="22.34413478125" lon="114.32137079638672" /><trkpt lat="22.34399478125" lon="114.32137079638672" /><trkpt lat="22.34372878125" lon="114.32138979638673" /><trkpt lat="22.34364178125" lon="114.32147779638672" /><trkpt lat="22.34326278125" lon="114.32146979638672" /><trkpt lat="22.34319678125" lon="114.32143979638671" /><trkpt lat="22.34308778125" lon="114.32143579638672" /><trkpt lat="22.34286678125" lon="114.32129479638672" /><trkpt lat="22.34276378125" lon="114.32115279638671" /><trkpt lat="22.34262378125" lon="114.32107879638671" /><trkpt lat="22.342505455853555" lon="114.32111202140595" /><trkpt lat="22.342399590465476" lon="114.32118577824747" /><trkpt lat="22.342356317691397" lon="114.32127216312193" /><trkpt lat="22.342277672420593" lon="114.32136543376993" /><trkpt lat="22.34225946986126" lon="114.32146648224483" /><trkpt lat="22.342282161706123" lon="114.3216630828694" /><trkpt lat="22.342255074069328" lon="114.32186750406998" /><trkpt lat="22.342211776239495" lon="114.3219540148392" /><trkpt lat="22.34221122001246" lon="114.32195740357014" /><trkpt lat="22.342208085544485" lon="114.32195680217342" /><trkpt lat="22.34220752928701" lon="114.32196019103588" /></trkseg><trkseg><trkpt lat="22.35012027703574" lon="114.3538679873763" /><trkpt lat="22.34967678125" lon="114.35382579638672" /><trkpt lat="22.34956678125" lon="114.35381179638672" /><trkpt lat="22.34946978125" lon="114.35381879638672" /><trkpt lat="22.34930678125" lon="114.35384979638673" /><trkpt lat="22.34906278125" lon="114.35392679638672" /><trkpt lat="22.34901878125" lon="114.35393779638672" /><trkpt lat="22.34899178125" lon="114.35395179638672" /><trkpt lat="22.34893478125" lon="114.35399779638672" /><trkpt lat="22.34882678125" lon="114.35410479638672" /><trkpt lat="22.34866578125" lon="114.35425379638671" /><trkpt lat="22.34849678125" lon="114.35443979638671" /><trkpt lat="22.34842278125" lon="114.35452879638672" /><trkpt lat="22.34838978125" lon="114.35457279638672" /><trkpt lat="22.34837278125" lon="114.35462279638672" /><trkpt lat="22.34832878125" lon="114.35478679638672" /><trkpt lat="22.34828878125" lon="114.35487879638671" /><trkpt lat="22.34778678125" lon="114.35536979638673" /><trkpt lat="22.34766378125" lon="114.35502279638672" /><trkpt lat="22.34792978125" lon="114.35377479638672" /><trkpt lat="22.34810878125" lon="114.35298079638672" /><trkpt lat="22.34773178125" lon="114.35265879638672" /><trkpt lat="22.34743378125" lon="114.35252979638672" /><trkpt lat="22.34743378125" lon="114.35232279638672" /><trkpt lat="22.34737278125" lon="114.35232279638672" /><trkpt lat="22.34737178125" lon="114.35222079638672" /><trkpt lat="22.347319286277525" lon="114.35213911868937" /><trkpt lat="22.347203508377902" lon="114.35202265698399" /><trkpt lat="22.347143657471463" lon="114.35187172389442" /><trkpt lat="22.34732075849486" lon="114.35151155779073" /><trkpt lat="22.34740397430359" lon="114.351434440959" /><trkpt lat="22.347441323889313" lon="114.3515254298527" /><trkpt lat="22.347408485776384" lon="114.35162285403663" /><trkpt lat="22.347343618403826" lon="114.3516897787153" /><trkpt lat="22.347247478105004" lon="114.35170917262167" /><trkpt lat="22.347185072188083" lon="114.35191785044105" /><trkpt lat="22.347239944679927" lon="114.35200387433872" /><trkpt lat="22.347329195010033" lon="114.35209589689731" /><trkpt lat="22.347339655407936" lon="114.35219070713441" /><trkpt lat="22.34737178125" lon="114.35222079638672" /><trkpt lat="22.34737278125" lon="114.35232279638672" /><trkpt lat="22.34743378125" lon="114.35232279638672" /><trkpt lat="22.34743378125" lon="114.35252979638672" /><trkpt lat="22.34773178125" lon="114.35265879638672" /><trkpt lat="22.34810878125" lon="114.35298079638672" /><trkpt lat="22.34792978125" lon="114.35377479638672" /><trkpt lat="22.34766378125" lon="114.35502279638672" /><trkpt lat="22.34778678125" lon="114.35536979638673" /><trkpt lat="22.34828878125" lon="114.35487879638671" /><trkpt lat="22.34832878125" lon="114.35478679638672" /><trkpt lat="22.34837278125" lon="114.35462279638672" /><trkpt lat="22.34838978125" lon="114.35457279638672" /><trkpt lat="22.34842278125" lon="114.35452879638672" /><trkpt lat="22.34849678125" lon="114.35443979638671" /><trkpt lat="22.34866578125" lon="114.35425379638671" /><trkpt lat="22.34882678125" lon="114.35410479638672" /><trkpt lat="22.34893478125" lon="114.35399779638672" /><trkpt lat="22.34899178125" lon="114.35395179638672" /><trkpt lat="22.34901878125" lon="114.35393779638672" /><trkpt lat="22.34906278125" lon="114.35392679638672" /><trkpt lat="22.34930678125" lon="114.35384979638673" /><trkpt lat="22.34946978125" lon="114.35381879638672" /><trkpt lat="22.34956678125" lon="114.35381179638672" /><trkpt lat="22.34967678125" lon="114.35382579638672" /><trkpt lat="22.35012878125" lon="114.35386879638672" /><trkpt lat="22.35020178125" lon="114.35390879638672" /><trkpt lat="22.35027778125" lon="114.35395379638672" /><trkpt lat="22.35035778125" lon="114.35395479638672" /><trkpt lat="22.35062178125" lon="114.35356079638672" /><trkpt lat="22.35090578125" lon="114.35342079638671" /><trkpt lat="22.35108178125" lon="114.35347479638672" /><trkpt lat="22.35143478125" lon="114.35323879638672" /><trkpt lat="22.35181178125" lon="114.35306679638671" /><trkpt lat="22.35225178125" lon="114.35293779638671" /><trkpt lat="22.35282178125" lon="114.35262279638673" /><trkpt lat="22.35349778125" lon="114.35231279638671" /><trkpt lat="22.35386178125" lon="114.35218079638672" /><trkpt lat="22.35389978125" lon="114.35217979638672" /><trkpt lat="22.35393278125" lon="114.35216679638671" /><trkpt lat="22.35396678125" lon="114.35214479638672" /><trkpt lat="22.35402378125" lon="114.35211579638671" /><trkpt lat="22.35411378125" lon="114.35209579638672" /><trkpt lat="22.35436878125" lon="114.35193579638671" /><trkpt lat="22.35449978125" lon="114.35188779638672" /><trkpt lat="22.35462178125" lon="114.35186679638672" /><trkpt lat="22.35467278125" lon="114.35184479638671" /><trkpt lat="22.35500278125" lon="114.35177479638672" /><trkpt lat="22.35499778125" lon="114.35173879638671" /><trkpt lat="22.35498578125" lon="114.35164979638672" /><trkpt lat="22.35498078125" lon="114.35161179638672" /><trkpt lat="22.35501878125" lon="114.35160479638672" /><trkpt lat="22.35499078125" lon="114.35137879638671" /><trkpt lat="22.35498078125" lon="114.35135879638672" /><trkpt lat="22.35495478125" lon="114.35118879638672" /><trkpt lat="22.35476278125" lon="114.35092379638672" /><trkpt lat="22.35469478125" lon="114.35080779638672" /><trkpt lat="22.35467278125" lon="114.35078579638672" /><trkpt lat="22.35457978125" lon="114.35079179638672" /><trkpt lat="22.35448878125" lon="114.35079079638672" /><trkpt lat="22.35446678125" lon="114.35078279638672" /><trkpt lat="22.35444578125" lon="114.35075679638672" /><trkpt lat="22.35442278125" lon="114.35070379638672" /><trkpt lat="22.35437278125" lon="114.35050779638672" /><trkpt lat="22.35400578125" lon="114.35054079638672" /><trkpt lat="22.353980322282155" lon="114.35029909710056" /><trkpt lat="22.35413120478242" lon="114.35050205027551" /><trkpt lat="22.354345463880737" lon="114.35041727938854" /><trkpt lat="22.35430878125" lon="114.35030079638672" /><trkpt lat="22.35428078125" lon="114.35023079638673" /><trkpt lat="22.35423678125" lon="114.34992379638672" /><trkpt lat="22.35416578125" lon="114.34964979638671" /><trkpt lat="22.35394478125" lon="114.34944079638672" /><trkpt lat="22.35371678125" lon="114.34934879638672" /><trkpt lat="22.35334778125" lon="114.34931079638672" /><trkpt lat="22.35319378125" lon="114.34925579638671" /><trkpt lat="22.35304278125" lon="114.34922579638672" /><trkpt lat="22.35291678125" lon="114.34887179638672" /><trkpt lat="22.35281578125" lon="114.34860779638672" /><trkpt lat="22.352680636768284" lon="114.34843600005462" /><trkpt lat="22.35274296321643" lon="114.34840066342093" /><trkpt lat="22.35279487150838" lon="114.34845605799961" /><trkpt lat="22.35281778125" lon="114.34862279638672" /><trkpt lat="22.35291678125" lon="114.34887179638672" /><trkpt lat="22.35304278125" lon="114.34922579638672" /><trkpt lat="22.35297478125" lon="114.34924179638672" /><trkpt lat="22.35283478125" lon="114.34933579638673" /><trkpt lat="22.352825453201334" lon="114.34941590065876" /><trkpt lat="22.352848766881436" lon="114.34956012071063" /><trkpt lat="22.3528379958435" lon="114.34966763793295" /><trkpt lat="22.35280180998872" lon="114.34960736856311" /><trkpt lat="22.35283603081531" lon="114.34954387070917" /><trkpt lat="22.35283070873308" lon="114.34945462645146" /><trkpt lat="22.352848785604444" lon="114.34932639236155" /><trkpt lat="22.35297478125" lon="114.34924179638672" /><trkpt lat="22.35304278125" lon="114.34922579638672" /><trkpt lat="22.35319378125" lon="114.34925579638671" /><trkpt lat="22.35334778125" lon="114.34931079638672" /><trkpt lat="22.35371678125" lon="114.34934879638672" /><trkpt lat="22.35394478125" lon="114.34944079638672" /><trkpt lat="22.35416578125" lon="114.34964979638671" /><trkpt lat="22.35423678125" lon="114.34992379638672" /><trkpt lat="22.35428078125" lon="114.35023079638673" /><trkpt lat="22.35430878125" lon="114.35030079638672" /><trkpt lat="22.35437278125" lon="114.35050779638672" /><trkpt lat="22.35442278125" lon="114.35070379638672" /><trkpt lat="22.35444578125" lon="114.35075679638672" /><trkpt lat="22.35446678125" lon="114.35078279638672" /><trkpt lat="22.35448878125" lon="114.35079079638672" /><trkpt lat="22.35457978125" lon="114.35079179638672" /><trkpt lat="22.35467278125" lon="114.35078579638672" /><trkpt lat="22.35469478125" lon="114.35080779638672" /><trkpt lat="22.35476278125" lon="114.35092379638672" /><trkpt lat="22.35495478125" lon="114.35118879638672" /><trkpt lat="22.35498078125" lon="114.35135879638672" /><trkpt lat="22.35499078125" lon="114.35137879638671" /><trkpt lat="22.35501878125" lon="114.35160479638672" /><trkpt lat="22.35498078125" lon="114.35161179638672" /><trkpt lat="22.35498578125" lon="114.35164979638672" /><trkpt lat="22.35499778125" lon="114.35173879638671" /><trkpt lat="22.35500278125" lon="114.35177479638672" /><trkpt lat="22.35467278125" lon="114.35184479638671" /><trkpt lat="22.35462178125" lon="114.35186679638672" /><trkpt lat="22.35449978125" lon="114.35188779638672" /><trkpt lat="22.35436878125" lon="114.35193579638671" /><trkpt lat="22.35411378125" lon="114.35209579638672" /><trkpt lat="22.35402378125" lon="114.35211579638671" /><trkpt lat="22.35396678125" lon="114.35214479638672" /><trkpt lat="22.35393278125" lon="114.35216679638671" /><trkpt lat="22.35389978125" lon="114.35217979638672" /><trkpt lat="22.35386178125" lon="114.35218079638672" /><trkpt lat="22.35349778125" lon="114.35231279638671" /><trkpt lat="22.35282178125" lon="114.35262279638673" /><trkpt lat="22.35225178125" lon="114.35293779638671" /><trkpt lat="22.35181178125" lon="114.35306679638671" /><trkpt lat="22.35143478125" lon="114.35323879638672" /><trkpt lat="22.35108178125" lon="114.35347479638672" /><trkpt lat="22.35090578125" lon="114.35342079638671" /><trkpt lat="22.35062178125" lon="114.35356079638672" /><trkpt lat="22.35035778125" lon="114.35395479638672" /><trkpt lat="22.35027778125" lon="114.35395379638672" /><trkpt lat="22.35020178125" lon="114.35390879638672" /><trkpt lat="22.35012878125" lon="114.35386879638672" /></trkseg></trk></gpx>