<?xml version='1.0' encoding='UTF-8' ?><gpx version="1.1" creator="HikingTrailHK" xsi:schemaLocation="http://www.topografix.com/GPX/1/1 http://www.topografix.com/GPX/1/1/gpx.xsd" xmlns="http://www.topografix.com/GPX/1/1" xmlns:xsi="http://www.w3.org/2001/XMLSchema-instance"><metadata><name>貓頭鷹石@ 2022-03-12</name><desc></desc></metadata><wpt lat="22.294183056510676" lon="114.24458217000188"><name>地洞</name></wpt><trk><trkseg><trkpt lat="22.29523678125" lon="114.24129079638672" /><trkpt lat="22.29522778125" lon="114.24133179638672" /><trkpt lat="22.29522078125" lon="114.24136479638672" /><trkpt lat="22.29527078125" lon="114.24156179638672" /><trkpt lat="22.29532478125" lon="114.24180279638672" /><trkpt lat="22.29534578125" lon="114.24189579638671" /><trkpt lat="22.29540478125" lon="114.24199079638672" /><trkpt lat="22.29537078125" lon="114.24225279638672" /><trkpt lat="22.29537178125" lon="114.24231079638672" /><trkpt lat="22.29539178125" lon="114.24243679638671" /><trkpt lat="22.29553878125" lon="114.24243779638672" /><trkpt lat="22.29562678125" lon="114.24253679638672" /><trkpt lat="22.29558478125" lon="114.24263079638672" /><trkpt lat="22.29561578125" lon="114.24272479638672" /><trkpt lat="22.295608803014716" lon="114.24277201233203" /><trkpt lat="22.29557478125" lon="114.24275979638672" /><trkpt lat="22.29552278125" lon="114.24278079638673" /><trkpt lat="22.29546978125" lon="114.24290179638672" /><trkpt lat="22.29545278125" lon="114.24303979638673" /><trkpt lat="22.29536578125" lon="114.24313179638672" /><trkpt lat="22.29530478125" lon="114.24326779638672" /><trkpt lat="22.29538278125" lon="114.24338679638672" /><trkpt lat="22.29530878125" lon="114.24362079638672" /><trkpt lat="22.29535978125" lon="114.24368679638673" /><trkpt lat="22.29535278125" lon="114.24387279638673" /><trkpt lat="22.29547278125" lon="114.24391479638672" /><trkpt lat="22.29541278125" lon="114.24402979638671" /><trkpt lat="22.29541678125" lon="114.24409079638671" /><trkpt lat="22.29533978125" lon="114.24427079638672" /><trkpt lat="22.29518578125" lon="114.24443179638672" /><trkpt lat="22.29516278125" lon="114.24453579638671" /><trkpt lat="22.29516778125" lon="114.24462279638672" /><trkpt lat="22.29500578125" lon="114.24452179638672" /><trkpt lat="22.29497778125" lon="114.24422279638672" /><trkpt lat="22.29478678125" lon="114.24367579638673" /><trkpt lat="22.294716155740957" lon="114.24329781783325" /><trkpt lat="22.294634412186312" lon="114.24333778335597" /><trkpt lat="22.294638694560348" lon="114.24338880657854" /><trkpt lat="22.2946654419641" lon="114.24344199536273" /><trkpt lat="22.294698146993838" lon="114.24347271967139" /><trkpt lat="22.294748035531764" lon="114.24349541351494" /><trkpt lat="22.29478678125" lon="114.24367579638673" /><trkpt lat="22.29497778125" lon="114.24422279638672" /><trkpt lat="22.29500578125" lon="114.24452179638672" /><trkpt lat="22.29516778125" lon="114.24462279638672" /><trkpt lat="22.29507278125" lon="114.24482079638672" /><trkpt lat="22.29502078125" lon="114.24499679638672" /><trkpt lat="22.29492078125" lon="114.24508879638672" /><trkpt lat="22.29489278125" lon="114.24501079638672" /><trkpt lat="22.29489778125" lon="114.24489979638672" /><trkpt lat="22.29484378125" lon="114.24491779638672" /><trkpt lat="22.29478878125" lon="114.24495979638672" /><trkpt lat="22.29468578125" lon="114.24521379638672" /><trkpt lat="22.29476878125" lon="114.24531279638671" /><trkpt lat="22.29478878125" lon="114.24540179638672" /><trkpt lat="22.29491078125" lon="114.24549279638671" /><trkpt lat="22.29485678125" lon="114.24549779638672" /><trkpt lat="22.29480278125" lon="114.24550379638671" /><trkpt lat="22.29476478125" lon="114.24549379638673" /><trkpt lat="22.29465578125" lon="114.24540979638672" /><trkpt lat="22.29457878125" lon="114.24532579638672" /><trkpt lat="22.29453578125" lon="114.24527479638672" /><trkpt lat="22.29446978125" lon="114.24515479638671" /><trkpt lat="22.29442278125" lon="114.24510179638672" /><trkpt lat="22.29435878125" lon="114.24503379638672" /><trkpt lat="22.29428878125" lon="114.24496279638672" /><trkpt lat="22.29429778125" lon="114.24493579638671" /><trkpt lat="22.29430778125" lon="114.24490679638672" /><trkpt lat="22.29428478125" lon="114.24487479638672" /><trkpt lat="22.29425278125" lon="114.24484879638672" /><trkpt lat="22.29419278125" lon="114.24472679638671" /><trkpt lat="22.29418078125" lon="114.24466379638672" /><trkpt lat="22.29417378125" lon="114.24456079638672" /><trkpt lat="22.29407478125" lon="114.24450079638672" /><trkpt lat="22.29407078125" lon="114.24438079638672" /><trkpt lat="22.29396578125" lon="114.24431779638672" /><trkpt lat="22.29393678125" lon="114.24426479638672" /><trkpt lat="22.29391278125" lon="114.24418579638672" /><trkpt lat="22.29388478125" lon="114.24411979638671" /><trkpt lat="22.29391278125" lon="114.24405579638672" /><trkpt lat="22.29392278125" lon="114.24396579638672" /><trkpt lat="22.293820781249998" lon="114.24389679638672" /><trkpt lat="22.29377078125" lon="114.24388979638672" /><trkpt lat="22.29368178125" lon="114.24382979638672" /><trkpt lat="22.29365578125" lon="114.24378679638671" /><trkpt lat="22.29360378125" lon="114.24374079638672" /><trkpt lat="22.29319478125" lon="114.24351779638671" /><trkpt lat="22.29314178125" lon="114.24349079638672" /><trkpt lat="22.29278578125" lon="114.24320079638672" /><trkpt lat="22.29288578125" lon="114.24310579638671" /><trkpt lat="22.29298178125" lon="114.24311079638672" /><trkpt lat="22.29304378125" lon="114.24313079638672" /><trkpt lat="22.29310678125" lon="114.24316179638672" /><trkpt lat="22.29315078125" lon="114.24319279638672" /><trkpt lat="22.29315678125" lon="114.24325779638671" /><trkpt lat="22.29319478125" lon="114.24333179638671" /><trkpt lat="22.29323278125" lon="114.24340479638671" /><trkpt lat="22.29326378125" lon="114.24344379638671" /><trkpt lat="22.29330378125" lon="114.24330579638672" /><trkpt lat="22.29338378125" lon="114.24325379638672" /><trkpt lat="22.29338078125" lon="114.24310379638672" /><trkpt lat="22.29347078125" lon="114.24306579638672" /><trkpt lat="22.29352978125" lon="114.24291279638672" /><trkpt lat="22.29368278125" lon="114.24281479638672" /><trkpt lat="22.29381078125" lon="114.24261979638672" /><trkpt lat="22.29409678125" lon="114.24230079638671" /><trkpt lat="22.29412678125" lon="114.24227479638672" /><trkpt lat="22.29426878125" lon="114.24201979638671" /><trkpt lat="22.29444578125" lon="114.24188079638672" /><trkpt lat="22.29457778125" lon="114.24176479638672" /><trkpt lat="22.29471378125" lon="114.24155479638672" /><trkpt lat="22.29477078125" lon="114.24140079638671" /><trkpt lat="22.29466678125" lon="114.24137979638672" /><trkpt lat="22.29451078125" lon="114.24134779638672" /><trkpt lat="22.29443578125" lon="114.24136379638672" /><trkpt lat="22.29437178125" lon="114.24134479638671" /><trkpt lat="22.29436378125" lon="114.24128579638672" /><trkpt lat="22.29465678125" lon="114.24111379638671" /><trkpt lat="22.29477278125" lon="114.24109679638671" /><trkpt lat="22.29487478125" lon="114.24113579638671" /><trkpt lat="22.29505278125" lon="114.24119879638671" /><trkpt lat="22.29509478125" lon="114.24121679638672" /><trkpt lat="22.29516778125" lon="114.24123079638672" /><trkpt lat="22.295176637255782" lon="114.24122934202465" /></trkseg></trk></gpx>