<?xml version='1.0' encoding='UTF-8' ?><gpx version="1.1" creator="HikingTrailHK" xsi:schemaLocation="http://www.topografix.com/GPX/1/1 http://www.topografix.com/GPX/1/1/gpx.xsd" xmlns="http://www.topografix.com/GPX/1/1" xmlns:xsi="http://www.w3.org/2001/XMLSchema-instance"><metadata><name>逆走東澳 @ 2024-10-27</name><desc></desc></metadata><trk><trkseg><trkpt lat="22.252726919168794" lon="113.86285452213652" /><trkpt lat="22.25275878125" lon="113.86264379638672" /><trkpt lat="22.25277278125" lon="113.86255279638672" /><trkpt lat="22.25278078125" lon="113.86249879638672" /><trkpt lat="22.25279478125" lon="113.86246179638673" /><trkpt lat="22.25280678125" lon="113.86240979638671" /><trkpt lat="22.25287278125" lon="113.86236579638671" /><trkpt lat="22.25288378125" lon="113.86229579638672" /><trkpt lat="22.25295278125" lon="113.86181679638672" /><trkpt lat="22.25303178125" lon="113.86177379638671" /><trkpt lat="22.25303078125" lon="113.86175179638671" /><trkpt lat="22.25319378125" lon="113.86167879638671" /><trkpt lat="22.25321478125" lon="113.86170879638672" /><trkpt lat="22.25331578125" lon="113.86185179638672" /><trkpt lat="22.25337678125" lon="113.86194079638672" /><trkpt lat="22.25343578125" lon="113.86201579638671" /><trkpt lat="22.25349578125" lon="113.86210979638672" /><trkpt lat="22.25355678125" lon="113.86218779638672" /><trkpt lat="22.25359878125" lon="113.86224179638671" /><trkpt lat="22.25366478125" lon="113.86233979638672" /><trkpt lat="22.25369078125" lon="113.86236679638672" /><trkpt lat="22.25377078125" lon="113.86230679638672" /><trkpt lat="22.25379478125" lon="113.86227679638672" /><trkpt lat="22.25382078125" lon="113.86224579638672" /><trkpt lat="22.25379278125" lon="113.86217679638672" /><trkpt lat="22.25400078125" lon="113.86207979638672" /><trkpt lat="22.25404578125" lon="113.86220979638672" /><trkpt lat="22.25406278125" lon="113.86220279638673" /><trkpt lat="22.25410978125" lon="113.86218479638671" /><trkpt lat="22.25446078125" lon="113.86202979638672" /><trkpt lat="22.25450978125" lon="113.86201379638672" /><trkpt lat="22.25457378125" lon="113.86197879638672" /><trkpt lat="22.25462078125" lon="113.86214979638672" /><trkpt lat="22.25448578125" lon="113.86219179638672" /><trkpt lat="22.25447378125" lon="113.86222979638671" /><trkpt lat="22.25450378125" lon="113.86238079638672" /><trkpt lat="22.25452378125" lon="113.86248179638672" /><trkpt lat="22.25456678125" lon="113.86260079638672" /><trkpt lat="22.25465178125" lon="113.86285779638672" /><trkpt lat="22.25466878125" lon="113.86291279638672" /><trkpt lat="22.25469078125" lon="113.86296879638672" /><trkpt lat="22.25474078125" lon="113.86304679638671" /><trkpt lat="22.25483878125" lon="113.86315679638672" /><trkpt lat="22.25488578125" lon="113.86319679638672" /><trkpt lat="22.25498878125" lon="113.86328979638672" /><trkpt lat="22.25507878125" lon="113.86336279638672" /><trkpt lat="22.25515178125" lon="113.86342879638671" /><trkpt lat="22.25520378125" lon="113.86347679638672" /><trkpt lat="22.25525078125" lon="113.86349879638672" /><trkpt lat="22.25535178125" lon="113.86352779638672" /><trkpt lat="22.25549278125" lon="113.86355279638671" /><trkpt lat="22.25548378125" lon="113.86369479638672" /><trkpt lat="22.25548778125" lon="113.86378079638672" /><trkpt lat="22.25556078125" lon="113.86389679638671" /><trkpt lat="22.25563678125" lon="113.86407779638672" /><trkpt lat="22.25569978125" lon="113.86421379638672" /><trkpt lat="22.25579578125" lon="113.86430479638672" /><trkpt lat="22.25586778125" lon="113.86437079638672" /><trkpt lat="22.25591878125" lon="113.86430579638672" /><trkpt lat="22.25594078125" lon="113.86427379638671" /><trkpt lat="22.25595578125" lon="113.86423679638672" /><trkpt lat="22.25596878125" lon="113.86418679638672" /><trkpt lat="22.25600278125" lon="113.86411479638672" /><trkpt lat="22.25606378125" lon="113.86401179638672" /><trkpt lat="22.25609978125" lon="113.86396379638671" /><trkpt lat="22.25614878125" lon="113.86392979638671" /><trkpt lat="22.25620878125" lon="113.86385679638671" /><trkpt lat="22.25625578125" lon="113.86380779638672" /><trkpt lat="22.25633278125" lon="113.86371779638672" /><trkpt lat="22.25638578125" lon="113.86366579638671" /><trkpt lat="22.25646778125" lon="113.86358079638671" /><trkpt lat="22.25655578125" lon="113.86346479638672" /><trkpt lat="22.25664778125" lon="113.86337879638671" /><trkpt lat="22.25675278125" lon="113.86327479638672" /><trkpt lat="22.25689978125" lon="113.86313679638671" /><trkpt lat="22.25696378125" lon="113.86308979638672" /><trkpt lat="22.25711978125" lon="113.86300679638671" /><trkpt lat="22.257296781249998" lon="113.86291479638672" /><trkpt lat="22.25746078125" lon="113.86283179638671" /><trkpt lat="22.25757178125" lon="113.86278879638672" /><trkpt lat="22.25763978125" lon="113.86275279638672" /><trkpt lat="22.25774878125" lon="113.86270379638673" /><trkpt lat="22.25784678125" lon="113.86269479638672" /><trkpt lat="22.25792178125" lon="113.86268679638673" /><trkpt lat="22.25800678125" lon="113.86270079638672" /><trkpt lat="22.25806578125" lon="113.86271779638672" /><trkpt lat="22.25812078125" lon="113.86273879638672" /><trkpt lat="22.25820778125" lon="113.86277179638672" /><trkpt lat="22.25825578125" lon="113.86279979638672" /><trkpt lat="22.25830078125" lon="113.86283179638671" /><trkpt lat="22.25838078125" lon="113.86289379638671" /><trkpt lat="22.25846178125" lon="113.86302579638672" /><trkpt lat="22.25846778125" lon="113.86309179638671" /><trkpt lat="22.25846078125" lon="113.86319379638672" /><trkpt lat="22.25845678125" lon="113.86330479638671" /><trkpt lat="22.25845878125" lon="113.86342279638671" /><trkpt lat="22.25845678125" lon="113.86353379638672" /><trkpt lat="22.25846078125" lon="113.86366079638672" /><trkpt lat="22.25848678125" lon="113.86377179638671" /><trkpt lat="22.25850178125" lon="113.86385279638672" /><trkpt lat="22.25850978125" lon="113.86389579638671" /><trkpt lat="22.25852278125" lon="113.86394379638672" /><trkpt lat="22.25859778125" lon="113.86401879638672" /><trkpt lat="22.25866978125" lon="113.86409979638672" /><trkpt lat="22.25871178125" lon="113.86420179638672" /><trkpt lat="22.25871478125" lon="113.86430879638672" /><trkpt lat="22.25871678125" lon="113.86440079638672" /><trkpt lat="22.25873778125" lon="113.86449879638671" /><trkpt lat="22.25875978125" lon="113.86464679638672" /><trkpt lat="22.25876778125" lon="113.86472079638672" /><trkpt lat="22.25878778125" lon="113.86481479638672" /><trkpt lat="22.25882578125" lon="113.86491379638672" /><trkpt lat="22.25887078125" lon="113.86501479638672" /><trkpt lat="22.25893778125" lon="113.86510079638671" /><trkpt lat="22.25898878125" lon="113.86520579638672" /><trkpt lat="22.25906778125" lon="113.86525679638672" /><trkpt lat="22.25915478125" lon="113.86530579638672" /><trkpt lat="22.25923278125" lon="113.86536479638671" /><trkpt lat="22.25932978125" lon="113.86540879638672" /><trkpt lat="22.25940478125" lon="113.86546779638672" /><trkpt lat="22.25945478125" lon="113.86550879638672" /><trkpt lat="22.25949278125" lon="113.86556979638672" /><trkpt lat="22.25959178125" lon="113.86558779638672" /><trkpt lat="22.25968678125" lon="113.86562579638672" /><trkpt lat="22.25976178125" lon="113.86569479638672" /><trkpt lat="22.25980978125" lon="113.86572179638672" /><trkpt lat="22.25985578125" lon="113.86573279638672" /><trkpt lat="22.25994478125" lon="113.86576779638672" /><trkpt lat="22.26004478125" lon="113.86577779638672" /><trkpt lat="22.26013278125" lon="113.86581179638672" /><trkpt lat="22.26022378125" lon="113.86584879638671" /><trkpt lat="22.26025978125" lon="113.86595779638672" /><trkpt lat="22.26034678125" lon="113.86597179638672" /><trkpt lat="22.26044878125" lon="113.86604279638672" /><trkpt lat="22.26056878125" lon="113.86611379638671" /><trkpt lat="22.26067878125" lon="113.86613979638672" /><trkpt lat="22.26078278125" lon="113.86619979638672" /><trkpt lat="22.26089678125" lon="113.86624979638673" /><trkpt lat="22.26099078125" lon="113.86627779638673" /><trkpt lat="22.26109978125" lon="113.86633579638672" /><trkpt lat="22.26122178125" lon="113.86642079638672" /><trkpt lat="22.26128678125" lon="113.86647379638671" /><trkpt lat="22.26141978125" lon="113.86655579638672" /><trkpt lat="22.26146478125" lon="113.86657579638671" /><trkpt lat="22.26148678125" lon="113.86658579638672" /><trkpt lat="22.26159378125" lon="113.86673079638672" /><trkpt lat="22.26169078125" lon="113.86683679638672" /><trkpt lat="22.26173878125" lon="113.86690479638672" /><trkpt lat="22.26184178125" lon="113.86701379638671" /><trkpt lat="22.26194578125" lon="113.86709779638672" /><trkpt lat="22.26204578125" lon="113.86709679638672" /><trkpt lat="22.26213578125" lon="113.86719479638671" /><trkpt lat="22.26223378125" lon="113.86735979638672" /><trkpt lat="22.26236478125" lon="113.86751979638672" /><trkpt lat="22.26245978125" lon="113.86759979638671" /><trkpt lat="22.26261378125" lon="113.86769879638672" /><trkpt lat="22.26272278125" lon="113.86779479638672" /><trkpt lat="22.26284678125" lon="113.86786479638671" /><trkpt lat="22.26295178125" lon="113.86797279638672" /><trkpt lat="22.26306978125" lon="113.86804779638672" /><trkpt lat="22.26313678125" lon="113.86813179638672" /><trkpt lat="22.26324078125" lon="113.86823779638672" /><trkpt lat="22.26345578125" lon="113.86835979638671" /><trkpt lat="22.26353178125" lon="113.86846279638672" /><trkpt lat="22.26357478125" lon="113.86850979638672" /><trkpt lat="22.26362278125" lon="113.86857379638671" /><trkpt lat="22.26364378125" lon="113.86858279638672" /><trkpt lat="22.26367678125" lon="113.86858679638672" /><trkpt lat="22.26374578125" lon="113.86862379638671" /><trkpt lat="22.26384378125" lon="113.86878179638671" /><trkpt lat="22.26395078125" lon="113.86882779638673" /><trkpt lat="22.26409278125" lon="113.86891579638672" /><trkpt lat="22.26416178125" lon="113.86896779638671" /><trkpt lat="22.26421478125" lon="113.86902879638671" /><trkpt lat="22.26430578125" lon="113.86916179638672" /><trkpt lat="22.26438378125" lon="113.86921979638672" /><trkpt lat="22.26449178125" lon="113.86929779638672" /><trkpt lat="22.26456378125" lon="113.86937779638671" /><trkpt lat="22.26467778125" lon="113.86944379638672" /><trkpt lat="22.26476678125" lon="113.86949679638671" /><trkpt lat="22.26484378125" lon="113.86957479638671" /><trkpt lat="22.26493578125" lon="113.86964979638672" /><trkpt lat="22.26500278125" lon="113.86971579638671" /><trkpt lat="22.26510178125" lon="113.86981279638673" /><trkpt lat="22.26518678125" lon="113.86986179638672" /><trkpt lat="22.26526778125" lon="113.86989379638672" /><trkpt lat="22.26530578125" lon="113.86991979638672" /><trkpt lat="22.26533178125" lon="113.86994279638672" /><trkpt lat="22.26543178125" lon="113.87003679638671" /><trkpt lat="22.26549078125" lon="113.87007079638671" /><trkpt lat="22.26554378125" lon="113.87012379638672" /><trkpt lat="22.26556078125" lon="113.87013579638672" /><trkpt lat="22.26567978125" lon="113.87015079638672" /><trkpt lat="22.26571378125" lon="113.87017979638672" /><trkpt lat="22.26575078125" lon="113.87020179638672" /><trkpt lat="22.26578478125" lon="113.87019979638671" /><trkpt lat="22.26584278125" lon="113.87018579638672" /><trkpt lat="22.26593678125" lon="113.87021179638671" /><trkpt lat="22.26604078125" lon="113.87021379638672" /><trkpt lat="22.26608978125" lon="113.87023179638672" /><trkpt lat="22.26615278125" lon="113.87027179638672" /><trkpt lat="22.26621278125" lon="113.87033879638672" /><trkpt lat="22.26623778125" lon="113.87040679638672" /><trkpt lat="22.26626678125" lon="113.87043879638672" /><trkpt lat="22.26628978125" lon="113.87044979638672" /><trkpt lat="22.26633878125" lon="113.87047179638672" /><trkpt lat="22.26638378125" lon="113.87052679638671" /><trkpt lat="22.26642478125" lon="113.87058279638671" /><trkpt lat="22.26645278125" lon="113.87060479638671" /><trkpt lat="22.26664578125" lon="113.87064479638671" /><trkpt lat="22.26667578125" lon="113.87064079638672" /><trkpt lat="22.26668578125" lon="113.87063779638672" /><trkpt lat="22.26669378125" lon="113.87063079638672" /><trkpt lat="22.26670178125" lon="113.87062179638671" /><trkpt lat="22.26670578125" lon="113.87061479638672" /><trkpt lat="22.26670778125" lon="113.87060779638672" /><trkpt lat="22.26670878125" lon="113.87059579638672" /><trkpt lat="22.26670778125" lon="113.87057879638672" /><trkpt lat="22.26669878125" lon="113.87049379638673" /><trkpt lat="22.26669778125" lon="113.87047179638672" /><trkpt lat="22.26669778125" lon="113.87045079638672" /><trkpt lat="22.26670278125" lon="113.87042479638671" /><trkpt lat="22.26670878125" lon="113.87040179638672" /><trkpt lat="22.26671478125" lon="113.87038779638672" /><trkpt lat="22.26672378125" lon="113.87037379638672" /><trkpt lat="22.26673378125" lon="113.87036179638672" /><trkpt lat="22.26677078125" lon="113.87033879638672" /><trkpt lat="22.26678278125" lon="113.87033479638671" /><trkpt lat="22.26680478125" lon="113.87033379638672" /><trkpt lat="22.26682978125" lon="113.87033679638672" /><trkpt lat="22.26685678125" lon="113.87034279638672" /><trkpt lat="22.26693878125" lon="113.87037279638672" /><trkpt lat="22.26701378125" lon="113.87041479638673" /><trkpt lat="22.26702378125" lon="113.87041879638672" /><trkpt lat="22.26703578125" lon="113.87042279638672" /><trkpt lat="22.26710178125" lon="113.87042979638672" /><trkpt lat="22.26711078125" lon="113.87042879638672" /><trkpt lat="22.26713178125" lon="113.87042479638671" /><trkpt lat="22.26713978125" lon="113.87042379638672" /><trkpt lat="22.26717178125" lon="113.87042379638672" /><trkpt lat="22.26718678125" lon="113.87042479638671" /><trkpt lat="22.26720178125" lon="113.87042679638672" /><trkpt lat="22.26723178125" lon="113.87043679638671" /><trkpt lat="22.26724278125" lon="113.87044079638672" /><trkpt lat="22.26725278125" lon="113.87044679638672" /><trkpt lat="22.26726178125" lon="113.87045479638672" /><trkpt lat="22.26728378125" lon="113.87047679638673" /><trkpt lat="22.26729378125" lon="113.87048779638671" /><trkpt lat="22.26729978125" lon="113.87049679638672" /><trkpt lat="22.26730478125" lon="113.87050779638672" /><trkpt lat="22.26731578125" lon="113.87054679638672" /><trkpt lat="22.26731978125" lon="113.87055879638672" /><trkpt lat="22.26732478125" lon="113.87056779638672" /><trkpt lat="22.26733278125" lon="113.87057479638672" /><trkpt lat="22.26733978125" lon="113.87057979638672" /><trkpt lat="22.26734678125" lon="113.87058279638671" /><trkpt lat="22.26735478125" lon="113.87058479638672" /><trkpt lat="22.26736078125" lon="113.87058679638672" /><trkpt lat="22.26737178125" lon="113.87059179638672" /><trkpt lat="22.26737778125" lon="113.87059279638672" /><trkpt lat="22.26738378125" lon="113.87059379638671" /><trkpt lat="22.26739778125" lon="113.87059379638671" /><trkpt lat="22.26740578125" lon="113.87059479638671" /><trkpt lat="22.26741378125" lon="113.87059679638672" /><trkpt lat="22.26742978125" lon="113.87060179638672" /><trkpt lat="22.26743878125" lon="113.87060679638672" /><trkpt lat="22.26744778125" lon="113.87061379638672" /><trkpt lat="22.26745578125" lon="113.87062079638672" /><trkpt lat="22.26746578125" lon="113.87063379638671" /><trkpt lat="22.26747378125" lon="113.87064579638673" /><trkpt lat="22.26748078125" lon="113.87065879638672" /><trkpt lat="22.26748878125" lon="113.87067579638672" /><trkpt lat="22.26750778125" lon="113.87072179638672" /><trkpt lat="22.26751278125" lon="113.87073279638672" /><trkpt lat="22.26751878125" lon="113.87074379638672" /><trkpt lat="22.26752578125" lon="113.87075379638672" /><trkpt lat="22.26753278125" lon="113.87076079638672" /><trkpt lat="22.26753978125" lon="113.87076679638672" /><trkpt lat="22.26757778125" lon="113.87079379638672" /><trkpt lat="22.26758878125" lon="113.87080479638672" /><trkpt lat="22.26759778125" lon="113.87081879638671" /><trkpt lat="22.26760478125" lon="113.87083079638671" /><trkpt lat="22.26761678125" lon="113.87085779638672" /><trkpt lat="22.26762378125" lon="113.87087779638672" /><trkpt lat="22.26762878125" lon="113.87089579638672" /><trkpt lat="22.26763078125" lon="113.87091279638672" /><trkpt lat="22.26763178125" lon="113.87092679638671" /><trkpt lat="22.26763078125" lon="113.87094279638671" /><trkpt lat="22.26762078125" lon="113.87103279638671" /><trkpt lat="22.26761878125" lon="113.87104279638672" /><trkpt lat="22.26761578125" lon="113.87105179638672" /><trkpt lat="22.26761078125" lon="113.87106779638673" /><trkpt lat="22.26760778125" lon="113.87107779638671" /><trkpt lat="22.26760678125" lon="113.87108579638672" /><trkpt lat="22.26760678125" lon="113.87109479638671" /><trkpt lat="22.26760878125" lon="113.87110279638672" /><trkpt lat="22.26761178125" lon="113.87110979638672" /><trkpt lat="22.26761678125" lon="113.87111779638671" /><trkpt lat="22.26762478125" lon="113.87112779638672" /><trkpt lat="22.26767378125" lon="113.87117479638673" /><trkpt lat="22.26768478125" lon="113.87118879638672" /><trkpt lat="22.26769378125" lon="113.87120279638673" /><trkpt lat="22.26770078125" lon="113.87121679638672" /><trkpt lat="22.26770578125" lon="113.87122879638672" /><trkpt lat="22.26770978125" lon="113.87123979638672" /><trkpt lat="22.26771278125" lon="113.87125479638672" /><trkpt lat="22.26771578125" lon="113.87126679638672" /><trkpt lat="22.26772278125" lon="113.87128279638672" /><trkpt lat="22.26772778125" lon="113.87128979638672" /><trkpt lat="22.26773478125" lon="113.87129579638672" /><trkpt lat="22.26774178125" lon="113.87130079638672" /><trkpt lat="22.26781078125" lon="113.87133979638672" /><trkpt lat="22.26781978125" lon="113.87134379638672" /><trkpt lat="22.26783578125" lon="113.87134979638672" /><trkpt lat="22.26784678125" lon="113.87135279638672" /><trkpt lat="22.26785778125" lon="113.87135479638673" /><trkpt lat="22.26790878125" lon="113.87135679638672" /><trkpt lat="22.26791778125" lon="113.87135779638672" /><trkpt lat="22.26792778125" lon="113.87136079638672" /><trkpt lat="22.26793678125" lon="113.87136479638671" /><trkpt lat="22.26794878125" lon="113.87137179638673" /><trkpt lat="22.26795878125" lon="113.87137979638672" /><trkpt lat="22.26797178125" lon="113.87139379638671" /><trkpt lat="22.26797878125" lon="113.87140179638672" /><trkpt lat="22.26798378125" lon="113.87140979638671" /><trkpt lat="22.26799978125" lon="113.87144079638672" /><trkpt lat="22.26800778125" lon="113.87145279638672" /><trkpt lat="22.26801578125" lon="113.87146579638672" /><trkpt lat="22.26802178125" lon="113.87147379638672" /><trkpt lat="22.26802878125" lon="113.87148179638672" /><trkpt lat="22.26803878125" lon="113.87149079638672" /><trkpt lat="22.26805778125" lon="113.87150479638672" /><trkpt lat="22.26807378125" lon="113.87151479638672" /><trkpt lat="22.26809578125" lon="113.87152879638671" /><trkpt lat="22.26810578125" lon="113.87153579638672" /><trkpt lat="22.26811478125" lon="113.87154279638672" /><trkpt lat="22.26812278125" lon="113.87155179638673" /><trkpt lat="22.26813178125" lon="113.87156179638671" /><trkpt lat="22.26814078125" lon="113.87157479638672" /><trkpt lat="22.26814678125" lon="113.87158379638672" /><trkpt lat="22.26815178125" lon="113.87159379638672" /><trkpt lat="22.26815578125" lon="113.87160579638672" /><trkpt lat="22.26815778125" lon="113.87161579638672" /><trkpt lat="22.26815978125" lon="113.87162979638671" /><trkpt lat="22.26816278125" lon="113.87167579638673" /><trkpt lat="22.26816478125" lon="113.87169079638672" /><trkpt lat="22.26817078125" lon="113.87171879638672" /><trkpt lat="22.26817378125" lon="113.87173079638671" /><trkpt lat="22.26817878125" lon="113.87174479638672" /><trkpt lat="22.26818478125" lon="113.87175779638672" /><trkpt lat="22.26818978125" lon="113.87176579638673" /><trkpt lat="22.26819678125" lon="113.87177579638671" /><trkpt lat="22.26821878125" lon="113.87180179638672" /><trkpt lat="22.26822578125" lon="113.87181179638672" /><trkpt lat="22.26823178125" lon="113.87182079638671" /><trkpt lat="22.26823678125" lon="113.87183079638672" /><trkpt lat="22.26824178125" lon="113.87184279638672" /><trkpt lat="22.26824578125" lon="113.87185879638672" /><trkpt lat="22.26824978125" lon="113.87187979638672" /><trkpt lat="22.26825278125" lon="113.87191579638672" /><trkpt lat="22.26825378125" lon="113.87196179638671" /><trkpt lat="22.26825178125" lon="113.87198279638672" /><trkpt lat="22.26824978125" lon="113.87199379638672" /><trkpt lat="22.26824378125" lon="113.87201979638672" /><trkpt lat="22.26824078125" lon="113.87203179638672" /><trkpt lat="22.26823578125" lon="113.87206479638672" /><trkpt lat="22.26823478125" lon="113.87207879638672" /><trkpt lat="22.26823478125" lon="113.87209279638672" /><trkpt lat="22.26823578125" lon="113.87210579638672" /><trkpt lat="22.26823878125" lon="113.87211879638672" /><trkpt lat="22.26824478125" lon="113.87213279638672" /><trkpt lat="22.26824978125" lon="113.87214179638671" /><trkpt lat="22.26825678125" lon="113.87215179638672" /><trkpt lat="22.26829778125" lon="113.87220779638672" /><trkpt lat="22.26830478125" lon="113.87221779638672" /><trkpt lat="22.26830878125" lon="113.87222779638672" /><trkpt lat="22.26831178125" lon="113.87223679638672" /><trkpt lat="22.26831378125" lon="113.87224479638672" /><trkpt lat="22.26831378125" lon="113.87225279638672" /><trkpt lat="22.26831478125" lon="113.87231379638672" /><trkpt lat="22.26831278125" lon="113.87232379638672" /><trkpt lat="22.26830978125" lon="113.87233379638671" /><trkpt lat="22.26830478125" lon="113.87234379638672" /><trkpt lat="22.26825678125" lon="113.87242679638672" /><trkpt lat="22.26825278125" lon="113.87243679638672" /><trkpt lat="22.26824878125" lon="113.87244779638672" /><trkpt lat="22.26824578125" lon="113.87246279638671" /><trkpt lat="22.26823678125" lon="113.87251279638672" /><trkpt lat="22.26816278125" lon="113.87261479638671" /><trkpt lat="22.26811378125" lon="113.87273179638672" /><trkpt lat="22.26802578125" lon="113.87280079638671" /><trkpt lat="22.26795478125" lon="113.87286979638672" /><trkpt lat="22.26791578125" lon="113.87309479638672" /><trkpt lat="22.26788978125" lon="113.87319379638672" /><trkpt lat="22.26785678125" lon="113.87330779638671" /><trkpt lat="22.26780978125" lon="113.87341179638672" /><trkpt lat="22.26773978125" lon="113.87350479638671" /><trkpt lat="22.26768978125" lon="113.87359479638671" /><trkpt lat="22.26763678125" lon="113.87370879638672" /><trkpt lat="22.26765978125" lon="113.87378779638672" /><trkpt lat="22.26772778125" lon="113.87387279638672" /><trkpt lat="22.26777678125" lon="113.87394379638671" /><trkpt lat="22.26778978125" lon="113.87395979638671" /><trkpt lat="22.26780678125" lon="113.87397979638672" /><trkpt lat="22.26781378125" lon="113.87398879638671" /><trkpt lat="22.26781978125" lon="113.87399979638671" /><trkpt lat="22.26782478125" lon="113.87401079638671" /><trkpt lat="22.26782778125" lon="113.87402179638671" /><trkpt lat="22.26784078125" lon="113.87410179638673" /><trkpt lat="22.26784178125" lon="113.87412679638672" /><trkpt lat="22.26783278125" lon="113.87432279638672" /><trkpt lat="22.26783078125" lon="113.87433579638672" /><trkpt lat="22.26782778125" lon="113.87434879638671" /><trkpt lat="22.26782378125" lon="113.87436279638672" /><trkpt lat="22.26782078125" lon="113.87436779638672" /><trkpt lat="22.26781578125" lon="113.87437879638672" /><trkpt lat="22.26781278125" lon="113.87438379638672" /><trkpt lat="22.26781178125" lon="113.87438879638673" /><trkpt lat="22.26781178125" lon="113.87439279638672" /><trkpt lat="22.26781178125" lon="113.87439579638672" /><trkpt lat="22.26781278125" lon="113.87440079638672" /><trkpt lat="22.26781978125" lon="113.87442579638672" /><trkpt lat="22.26782678125" lon="113.87444779638672" /><trkpt lat="22.26783178125" lon="113.87445679638672" /><trkpt lat="22.26784178125" lon="113.87447479638672" /><trkpt lat="22.267844781249998" lon="113.87448379638671" /><trkpt lat="22.26785178125" lon="113.87450079638671" /><trkpt lat="22.26785378125" lon="113.87450979638672" /><trkpt lat="22.26785478125" lon="113.87451979638672" /><trkpt lat="22.26785478125" lon="113.87452979638672" /><trkpt lat="22.26785378125" lon="113.87454179638672" /><trkpt lat="22.26784778125" lon="113.87457979638671" /><trkpt lat="22.26784778125" lon="113.87459179638672" /><trkpt lat="22.26784978125" lon="113.87460379638672" /><trkpt lat="22.26785778125" lon="113.87463479638672" /><trkpt lat="22.26786078125" lon="113.87464379638672" /><trkpt lat="22.26788278125" lon="113.87468779638672" /><trkpt lat="22.26788478125" lon="113.87469779638671" /><trkpt lat="22.26788878125" lon="113.87472379638672" /><trkpt lat="22.26788878125" lon="113.87473979638672" /><trkpt lat="22.26788878125" lon="113.87475679638672" /><trkpt lat="22.26788578125" lon="113.87477979638672" /><trkpt lat="22.26786078125" lon="113.87494979638672" /><trkpt lat="22.26785978125" lon="113.87495579638671" /><trkpt lat="22.26786078125" lon="113.87496179638671" /><trkpt lat="22.26786378125" lon="113.87496779638671" /><trkpt lat="22.26786878125" lon="113.87497379638671" /><trkpt lat="22.26790478125" lon="113.87500979638672" /><trkpt lat="22.26791878125" lon="113.87502779638672" /><trkpt lat="22.26796178125" lon="113.87509479638672" /><trkpt lat="22.26797278125" lon="113.87511579638672" /><trkpt lat="22.26798078125" lon="113.87513379638672" /><trkpt lat="22.26799478125" lon="113.87517379638672" /><trkpt lat="22.26799578125" lon="113.87518979638672" /><trkpt lat="22.26799578125" lon="113.87521079638672" /><trkpt lat="22.26799278125" lon="113.87523079638672" /><trkpt lat="22.26798278125" lon="113.87528279638671" /><trkpt lat="22.26797478125" lon="113.87530679638672" /><trkpt lat="22.26796078125" lon="113.87533779638672" /><trkpt lat="22.26793378125" lon="113.87539279638672" /><trkpt lat="22.26805178125" lon="113.87555279638671" /><trkpt lat="22.26805478125" lon="113.87566479638672" /><trkpt lat="22.26802878125" lon="113.87574179638672" /><trkpt lat="22.26795678125" lon="113.87599279638673" /><trkpt lat="22.26803178125" lon="113.87605879638672" /><trkpt lat="22.26811878125" lon="113.87611379638672" /><trkpt lat="22.26815278125" lon="113.87626979638672" /><trkpt lat="22.26820278125" lon="113.87641779638672" /><trkpt lat="22.26821478125" lon="113.87650479638671" /><trkpt lat="22.26824478125" lon="113.87661179638671" /><trkpt lat="22.26824978125" lon="113.87676379638671" /><trkpt lat="22.26834378125" lon="113.87685579638672" /><trkpt lat="22.26840378125" lon="113.87699779638672" /><trkpt lat="22.26843078125" lon="113.87720279638671" /><trkpt lat="22.26846478125" lon="113.87735979638671" /><trkpt lat="22.26850878125" lon="113.87746979638672" /><trkpt lat="22.26856078125" lon="113.87756579638672" /><trkpt lat="22.26846978125" lon="113.87771979638671" /><trkpt lat="22.26838478125" lon="113.87779279638671" /><trkpt lat="22.26827478125" lon="113.87778779638671" /><trkpt lat="22.26817478125" lon="113.87783579638672" /><trkpt lat="22.26809778125" lon="113.87794579638671" /><trkpt lat="22.26801378125" lon="113.87806279638671" /><trkpt lat="22.26803678125" lon="113.87821479638671" /><trkpt lat="22.26807578125" lon="113.87838279638672" /><trkpt lat="22.26805678125" lon="113.87851279638672" /><trkpt lat="22.26807678125" lon="113.87863779638671" /><trkpt lat="22.26809878125" lon="113.87876379638672" /><trkpt lat="22.26811078125" lon="113.87896879638672" /><trkpt lat="22.26807678125" lon="113.87925379638672" /><trkpt lat="22.26820078125" lon="113.87939079638672" /><trkpt lat="22.26823478125" lon="113.87951779638672" /><trkpt lat="22.26823678125" lon="113.87967479638672" /><trkpt lat="22.26821178125" lon="113.87982479638671" /><trkpt lat="22.26820878125" lon="113.87994579638672" /><trkpt lat="22.26825178125" lon="113.88008179638672" /><trkpt lat="22.26840878125" lon="113.88028679638671" /><trkpt lat="22.26849178125" lon="113.88038279638671" /><trkpt lat="22.26862278125" lon="113.88056279638671" /><trkpt lat="22.26868178125" lon="113.88068879638672" /><trkpt lat="22.26891578125" lon="113.88113679638671" /><trkpt lat="22.26905578125" lon="113.88142579638672" /><trkpt lat="22.26926878125" lon="113.88162779638672" /><trkpt lat="22.26942678125" lon="113.88190979638672" /><trkpt lat="22.26954778125" lon="113.88215779638672" /><trkpt lat="22.26962878125" lon="113.88253579638672" /><trkpt lat="22.26967078125" lon="113.88294179638672" /><trkpt lat="22.26969078125" lon="113.88312479638672" /><trkpt lat="22.26968078125" lon="113.88333879638672" /><trkpt lat="22.26959178125" lon="113.88359679638671" /><trkpt lat="22.26957178125" lon="113.88376779638672" /><trkpt lat="22.26951678125" lon="113.88387779638671" /><trkpt lat="22.26951478125" lon="113.88401079638672" /><trkpt lat="22.26954478125" lon="113.88418779638671" /><trkpt lat="22.26948378125" lon="113.88429279638672" /><trkpt lat="22.26940478125" lon="113.88443879638672" /><trkpt lat="22.26936778125" lon="113.88463879638672" /><trkpt lat="22.26928778125" lon="113.88476879638672" /><trkpt lat="22.26926578125" lon="113.88496679638672" /><trkpt lat="22.26928378125" lon="113.88516579638672" /><trkpt lat="22.26924778125" lon="113.88531079638672" /><trkpt lat="22.26919878125" lon="113.88547079638671" /><trkpt lat="22.26921478125" lon="113.88556379638672" /><trkpt lat="22.26922778125" lon="113.88563879638671" /><trkpt lat="22.26916578125" lon="113.88566879638672" /><trkpt lat="22.26912578125" lon="113.88574279638672" /><trkpt lat="22.26904278125" lon="113.88582179638672" /><trkpt lat="22.26891978125" lon="113.88592479638672" /><trkpt lat="22.26886978125" lon="113.88608779638672" /><trkpt lat="22.26875478125" lon="113.88622979638671" /><trkpt lat="22.26858778125" lon="113.88633079638672" /><trkpt lat="22.26846478125" lon="113.88642979638672" /><trkpt lat="22.26838978125" lon="113.88668879638672" /><trkpt lat="22.26839978125" lon="113.88683279638671" /><trkpt lat="22.26838978125" lon="113.88697179638672" /><trkpt lat="22.26832778125" lon="113.88707879638672" /><trkpt lat="22.26831478125" lon="113.88716079638672" /><trkpt lat="22.26835578125" lon="113.88720279638672" /><trkpt lat="22.26843178125" lon="113.88727779638671" /><trkpt lat="22.26848778125" lon="113.88736579638672" /><trkpt lat="22.26850478125" lon="113.88740179638671" /><trkpt lat="22.26852278125" lon="113.88744779638672" /><trkpt lat="22.26865078125" lon="113.88765079638672" /><trkpt lat="22.26870478125" lon="113.88772279638673" /><trkpt lat="22.26873978125" lon="113.88774379638672" /><trkpt lat="22.26880178125" lon="113.88775679638673" /><trkpt lat="22.26890578125" lon="113.88778579638672" /><trkpt lat="22.26901778125" lon="113.88779379638672" /><trkpt lat="22.26913878125" lon="113.88779579638671" /><trkpt lat="22.26924178125" lon="113.88779479638671" /><trkpt lat="22.26957578125" lon="113.88775279638672" /><trkpt lat="22.26969478125" lon="113.88773679638672" /><trkpt lat="22.26982878125" lon="113.88778979638671" /><trkpt lat="22.26993678125" lon="113.88781579638672" /><trkpt lat="22.27004178125" lon="113.88781779638671" /><trkpt lat="22.27013778125" lon="113.88779679638672" /><trkpt lat="22.27023878125" lon="113.88776979638672" /><trkpt lat="22.27034378125" lon="113.88775379638672" /><trkpt lat="22.27044678125" lon="113.88775579638671" /><trkpt lat="22.27052278125" lon="113.88775179638672" /><trkpt lat="22.27053878125" lon="113.88775079638671" /><trkpt lat="22.27055578125" lon="113.88775079638671" /><trkpt lat="22.27064278125" lon="113.88778579638672" /><trkpt lat="22.27073578125" lon="113.88784179638672" /><trkpt lat="22.27080778125" lon="113.88786279638671" /><trkpt lat="22.27084478125" lon="113.88787279638672" /><trkpt lat="22.27083878125" lon="113.88790079638672" /><trkpt lat="22.27092978125" lon="113.88794379638672" /><trkpt lat="22.27104778125" lon="113.88798579638672" /><trkpt lat="22.27116978125" lon="113.88804179638672" /><trkpt lat="22.27132878125" lon="113.88809079638672" /><trkpt lat="22.27154578125" lon="113.88815479638671" /><trkpt lat="22.27175078125" lon="113.88823179638672" /><trkpt lat="22.27196678125" lon="113.88837779638672" /><trkpt lat="22.27216678125" lon="113.88848479638672" /><trkpt lat="22.27234378125" lon="113.88856579638671" /><trkpt lat="22.27244978125" lon="113.88856079638671" /><trkpt lat="22.27265678125" lon="113.88858079638672" /><trkpt lat="22.27282578125" lon="113.88866379638672" /><trkpt lat="22.27303078125" lon="113.88871979638672" /><trkpt lat="22.27320078125" lon="113.88874079638671" /><trkpt lat="22.27336278125" lon="113.88880379638672" /><trkpt lat="22.27350678125" lon="113.88886279638672" /><trkpt lat="22.27367678125" lon="113.88895979638671" /><trkpt lat="22.27380978125" lon="113.88902979638672" /><trkpt lat="22.27389878125" lon="113.88914779638672" /><trkpt lat="22.27396378125" lon="113.88928179638671" /><trkpt lat="22.27408778125" lon="113.88932979638672" /><trkpt lat="22.27426178125" lon="113.88934079638672" /><trkpt lat="22.27437078125" lon="113.88939979638671" /><trkpt lat="22.27448278125" lon="113.88950779638672" /><trkpt lat="22.27466478125" lon="113.88953679638672" /><trkpt lat="22.27479078125" lon="113.88957779638672" /><trkpt lat="22.27498178125" lon="113.88964279638672" /><trkpt lat="22.27510178125" lon="113.88970879638671" /><trkpt lat="22.27530178125" lon="113.88983479638672" /><trkpt lat="22.27545778125" lon="113.88993579638672" /><trkpt lat="22.27554878125" lon="113.89000879638672" /><trkpt lat="22.27565778125" lon="113.89009079638672" /><trkpt lat="22.27576578125" lon="113.89015279638672" /><trkpt lat="22.27587478125" lon="113.89023579638672" /><trkpt lat="22.27597978125" lon="113.89029079638672" /><trkpt lat="22.27608978125" lon="113.89032479638672" /><trkpt lat="22.27618978125" lon="113.89037279638671" /><trkpt lat="22.27632278125" lon="113.89043779638672" /><trkpt lat="22.27638078125" lon="113.89044179638672" /><trkpt lat="22.27647878125" lon="113.89048779638672" /><trkpt lat="22.27653078125" lon="113.89051179638672" /><trkpt lat="22.27662178125" lon="113.89055379638671" /><trkpt lat="22.27676878125" lon="113.89061079638672" /><trkpt lat="22.27693778125" lon="113.89069379638671" /><trkpt lat="22.27705078125" lon="113.89078379638671" /><trkpt lat="22.27720678125" lon="113.89094379638672" /><trkpt lat="22.27734778125" lon="113.89104279638671" /><trkpt lat="22.27746978125" lon="113.89111979638672" /><trkpt lat="22.27756478125" lon="113.89128279638672" /><trkpt lat="22.27775878125" lon="113.89138879638672" /><trkpt lat="22.27801378125" lon="113.89144579638672" /><trkpt lat="22.27817078125" lon="113.89154279638672" /><trkpt lat="22.27827178125" lon="113.89154279638672" /><trkpt lat="22.27837578125" lon="113.89155679638672" /><trkpt lat="22.27847078125" lon="113.89159479638671" /><trkpt lat="22.27859478125" lon="113.89164679638672" /><trkpt lat="22.27872878125" lon="113.89166679638672" /><trkpt lat="22.27882478125" lon="113.89174179638673" /><trkpt lat="22.27899178125" lon="113.89188279638672" /><trkpt lat="22.27911178125" lon="113.89200979638672" /><trkpt lat="22.27920578125" lon="113.89208279638672" /><trkpt lat="22.27935478125" lon="113.89214079638671" /><trkpt lat="22.27948378125" lon="113.89222079638672" /><trkpt lat="22.27958078125" lon="113.89227679638672" /><trkpt lat="22.27968378125" lon="113.89230279638672" /><trkpt lat="22.27980678125" lon="113.89232279638672" /><trkpt lat="22.27990578125" lon="113.89245679638672" /><trkpt lat="22.27994978125" lon="113.89257679638672" /><trkpt lat="22.28006078125" lon="113.89266679638672" /><trkpt lat="22.28019278125" lon="113.89278579638672" /><trkpt lat="22.28029778125" lon="113.89289679638672" /><trkpt lat="22.28035778125" lon="113.89300979638672" /><trkpt lat="22.28045678125" lon="113.89312279638672" /><trkpt lat="22.28055078125" lon="113.89324579638672" /><trkpt lat="22.28052578125" lon="113.89337979638672" /><trkpt lat="22.28040778125" lon="113.89343679638672" /><trkpt lat="22.28033278125" lon="113.89352979638672" /><trkpt lat="22.28034678125" lon="113.89358779638673" /><trkpt lat="22.28035978125" lon="113.89363779638671" /><trkpt lat="22.28057878125" lon="113.89389779638672" /><trkpt lat="22.28073478125" lon="113.89402379638672" /><trkpt lat="22.28087878125" lon="113.89418979638671" /><trkpt lat="22.28093778125" lon="113.89434479638672" /><trkpt lat="22.28098478125" lon="113.89446679638672" /><trkpt lat="22.28099778125" lon="113.89458679638672" /><trkpt lat="22.28094278125" lon="113.89468879638672" /><trkpt lat="22.28085478125" lon="113.89480279638671" /><trkpt lat="22.28081978125" lon="113.89493679638672" /><trkpt lat="22.28075578125" lon="113.89512879638671" /><trkpt lat="22.28074478125" lon="113.89524679638672" /><trkpt lat="22.28075178125" lon="113.89530279638672" /><trkpt lat="22.28075978125" lon="113.89536579638671" /><trkpt lat="22.28079878125" lon="113.89539779638672" /><trkpt lat="22.28091378125" lon="113.89544479638671" /><trkpt lat="22.28108678125" lon="113.89545879638672" /><trkpt lat="22.28117678125" lon="113.89555279638672" /><trkpt lat="22.28123578125" lon="113.89568979638672" /><trkpt lat="22.28128778125" lon="113.89582179638671" /><trkpt lat="22.28130778125" lon="113.89594579638671" /><trkpt lat="22.28129078125" lon="113.89613179638671" /><trkpt lat="22.28121878125" lon="113.89630579638671" /><trkpt lat="22.28125478125" lon="113.89642979638671" /><trkpt lat="22.28137378125" lon="113.89650379638672" /><trkpt lat="22.28147378125" lon="113.89659179638672" /><trkpt lat="22.28153578125" lon="113.89669579638672" /><trkpt lat="22.28165578125" lon="113.89681879638673" /><trkpt lat="22.28177378125" lon="113.89684979638672" /><trkpt lat="22.28183278125" lon="113.89694379638672" /><trkpt lat="22.28188778125" lon="113.89704179638672" /><trkpt lat="22.28192378125" lon="113.89714079638672" /><trkpt lat="22.28195378125" lon="113.89727379638671" /><trkpt lat="22.28200278125" lon="113.89740679638672" /><trkpt lat="22.28204378125" lon="113.89750279638672" /><trkpt lat="22.28209478125" lon="113.89758279638671" /><trkpt lat="22.28220378125" lon="113.89768779638672" /><trkpt lat="22.28229278125" lon="113.89773779638672" /><trkpt lat="22.28238178125" lon="113.89780179638672" /><trkpt lat="22.28246178125" lon="113.89789079638672" /><trkpt lat="22.28253078125" lon="113.89791479638671" /><trkpt lat="22.28257578125" lon="113.89796479638672" /><trkpt lat="22.28272578125" lon="113.89813579638673" /><trkpt lat="22.28285778125" lon="113.89826379638671" /><trkpt lat="22.28292178125" lon="113.89832279638672" /><trkpt lat="22.28298978125" lon="113.89836279638672" /><trkpt lat="22.28308878125" lon="113.89848679638672" /><trkpt lat="22.28319578125" lon="113.89860979638672" /><trkpt lat="22.28328678125" lon="113.89872479638672" /><trkpt lat="22.28334678125" lon="113.89881379638672" /><trkpt lat="22.28336578125" lon="113.89894279638672" /><trkpt lat="22.28336578125" lon="113.89901779638672" /><trkpt lat="22.28337578125" lon="113.89908879638672" /><trkpt lat="22.28338078125" lon="113.89915379638671" /><trkpt lat="22.28339178125" lon="113.89921079638673" /><trkpt lat="22.28341978125" lon="113.89928379638671" /><trkpt lat="22.28340478125" lon="113.89935379638672" /><trkpt lat="22.28338978125" lon="113.89940979638672" /><trkpt lat="22.28336878125" lon="113.89948079638671" /><trkpt lat="22.28336178125" lon="113.89955079638672" /><trkpt lat="22.28339278125" lon="113.89959579638672" /><trkpt lat="22.28341478125" lon="113.89965279638672" /><trkpt lat="22.28341478125" lon="113.89969579638672" /><trkpt lat="22.28340178125" lon="113.89973979638673" /><trkpt lat="22.28341478125" lon="113.89977679638672" /><trkpt lat="22.28345778125" lon="113.89995379638673" /><trkpt lat="22.28347378125" lon="113.90000479638672" /><trkpt lat="22.28348278125" lon="113.90004779638672" /><trkpt lat="22.28348778125" lon="113.90006179638672" /><trkpt lat="22.28350078125" lon="113.90010479638671" /><trkpt lat="22.28352278125" lon="113.90014279638672" /><trkpt lat="22.28355778125" lon="113.90018079638672" /><trkpt lat="22.28361078125" lon="113.90019279638672" /><trkpt lat="22.28370678125" lon="113.90017279638671" /><trkpt lat="22.28386078125" lon="113.90019879638672" /><trkpt lat="22.28390578125" lon="113.90020579638671" /><trkpt lat="22.28395778125" lon="113.90022879638671" /><trkpt lat="22.28404078125" lon="113.90023479638671" /><trkpt lat="22.28414278125" lon="113.90026479638672" /><trkpt lat="22.28430478125" lon="113.90031279638671" /><trkpt lat="22.28443878125" lon="113.90036779638672" /><trkpt lat="22.28457178125" lon="113.90041279638672" /><trkpt lat="22.28467178125" lon="113.90047079638671" /><trkpt lat="22.28480378125" lon="113.90054079638672" /><trkpt lat="22.28496278125" lon="113.90060279638672" /><trkpt lat="22.28507078125" lon="113.90062779638671" /><trkpt lat="22.28518978125" lon="113.90066579638672" /><trkpt lat="22.28521978125" lon="113.90068679638672" /><trkpt lat="22.28531678125" lon="113.90087179638672" /><trkpt lat="22.28533378125" lon="113.90089979638672" /><trkpt lat="22.28535478125" lon="113.90092179638673" /><trkpt lat="22.28540278125" lon="113.90091979638672" /><trkpt lat="22.28550078125" lon="113.90096079638671" /><trkpt lat="22.28557778125" lon="113.90102679638672" /><trkpt lat="22.28561278125" lon="113.90105979638672" /><trkpt lat="22.28562278125" lon="113.90108879638672" /><trkpt lat="22.28562178125" lon="113.90111379638672" /><trkpt lat="22.28562378125" lon="113.90117079638672" /><trkpt lat="22.28563878125" lon="113.90121979638671" /><trkpt lat="22.28559678125" lon="113.90132579638671" /><trkpt lat="22.28556178125" lon="113.90142479638672" /><trkpt lat="22.28553778125" lon="113.90147279638671" /><trkpt lat="22.28556278125" lon="113.90152879638671" /><trkpt lat="22.28553478125" lon="113.90166379638671" /><trkpt lat="22.28551278125" lon="113.90178379638672" /><trkpt lat="22.28551378125" lon="113.90183279638671" /><trkpt lat="22.28550578125" lon="113.90188679638672" /><trkpt lat="22.28548678125" lon="113.90191079638672" /><trkpt lat="22.28546778125" lon="113.90194779638672" /><trkpt lat="22.28547878125" lon="113.90203679638672" /><trkpt lat="22.28552278125" lon="113.90216579638673" /><trkpt lat="22.28556578125" lon="113.90228179638672" /><trkpt lat="22.28560578125" lon="113.90237779638672" /><trkpt lat="22.28562878125" lon="113.90242179638672" /><trkpt lat="22.28567278125" lon="113.90246379638671" /><trkpt lat="22.28576178125" lon="113.90252279638672" /><trkpt lat="22.28585078125" lon="113.90259579638672" /><trkpt lat="22.28593678125" lon="113.90266179638672" /><trkpt lat="22.28600078125" lon="113.90275579638671" /><trkpt lat="22.28608778125" lon="113.90281479638672" /><trkpt lat="22.28619978125" lon="113.90281779638671" /><trkpt lat="22.28631078125" lon="113.90281279638671" /><trkpt lat="22.28641478125" lon="113.90281979638672" /><trkpt lat="22.28651578125" lon="113.90282279638672" /><trkpt lat="22.28662178125" lon="113.90285479638672" /><trkpt lat="22.28672678125" lon="113.90287979638671" /><trkpt lat="22.28684278125" lon="113.90291079638672" /><trkpt lat="22.28693978125" lon="113.90296079638672" /><trkpt lat="22.28703878125" lon="113.90300679638672" /><trkpt lat="22.28713978125" lon="113.90302379638672" /><trkpt lat="22.28725678125" lon="113.90304979638672" /><trkpt lat="22.28739078125" lon="113.90303979638672" /><trkpt lat="22.28751478125" lon="113.90300179638672" /><trkpt lat="22.28763378125" lon="113.90296479638671" /><trkpt lat="22.28775278125" lon="113.90287879638672" /><trkpt lat="22.28786678125" lon="113.90273879638671" /><trkpt lat="22.28823478125" lon="113.90270679638672" /><trkpt lat="22.28860678125" lon="113.90270679638672" /><trkpt lat="22.28880478125" lon="113.90273879638671" /><trkpt lat="22.28901778125" lon="113.90271179638673" /><trkpt lat="22.28912078125" lon="113.90267179638671" /><trkpt lat="22.28921778125" lon="113.90263479638672" /><trkpt lat="22.28921678125" lon="113.90259579638672" /><trkpt lat="22.28920178125" lon="113.90253479638672" /><trkpt lat="22.28912478125" lon="113.90227479638672" /><trkpt lat="22.28914278125" lon="113.90222579638672" /><trkpt lat="22.28917378125" lon="113.90218879638672" /><trkpt lat="22.28919178125" lon="113.90212779638672" /><trkpt lat="22.28915378125" lon="113.90203879638672" /><trkpt lat="22.28916278125" lon="113.90179879638671" /><trkpt lat="22.28918978125" lon="113.90135479638671" /><trkpt lat="22.28919978125" lon="113.90117079638672" /><trkpt lat="22.28919378125" lon="113.90114779638672" /><trkpt lat="22.28923778125" lon="113.90098379638673" /><trkpt lat="22.28921378125" lon="113.90070579638672" /><trkpt lat="22.28920578125" lon="113.90053579638672" /><trkpt lat="22.28925878125" lon="113.90049779638672" /><trkpt lat="22.28935478125" lon="113.90046979638672" /><trkpt lat="22.28950978125" lon="113.90045179638672" /><trkpt lat="22.28966278125" lon="113.90024979638672" /><trkpt lat="22.28972678125" lon="113.90011779638672" /><trkpt lat="22.289823222778402" lon="113.9000418636644" /><trkpt lat="22.289845420256782" lon="113.90009260810484" /><trkpt lat="22.289837147124103" lon="113.90025068636703" /><trkpt lat="22.289792730672588" lon="113.90028136459802" /><trkpt lat="22.289743507832526" lon="113.9002525309536" /><trkpt lat="22.28968603948606" lon="113.90020182703127" /><trkpt lat="22.28966278125" lon="113.90024979638672" /><trkpt lat="22.28950978125" lon="113.90045179638672" /><trkpt lat="22.28935478125" lon="113.90046979638672" /><trkpt lat="22.28925878125" lon="113.90049779638672" /><trkpt lat="22.28920578125" lon="113.90053579638672" /><trkpt lat="22.28921378125" lon="113.90070579638672" /><trkpt lat="22.28923778125" lon="113.90098379638673" /><trkpt lat="22.28919978125" lon="113.90117079638672" /><trkpt lat="22.28918978125" lon="113.90135479638671" /><trkpt lat="22.28916278125" lon="113.90179879638671" /><trkpt lat="22.28915378125" lon="113.90203879638672" /><trkpt lat="22.28919178125" lon="113.90212779638672" /><trkpt lat="22.28917378125" lon="113.90218879638672" /><trkpt lat="22.28914278125" lon="113.90222579638672" /><trkpt lat="22.28912478125" lon="113.90227479638672" /><trkpt lat="22.28920178125" lon="113.90253479638672" /><trkpt lat="22.28921678125" lon="113.90259579638672" /><trkpt lat="22.28921778125" lon="113.90263479638672" /><trkpt lat="22.28912078125" lon="113.90267179638671" /><trkpt lat="22.28901778125" lon="113.90271179638673" /><trkpt lat="22.28880478125" lon="113.90273879638671" /><trkpt lat="22.28860678125" lon="113.90270679638672" /><trkpt lat="22.28823478125" lon="113.90270679638672" /><trkpt lat="22.28786678125" lon="113.90273879638671" /><trkpt lat="22.28795278125" lon="113.90281879638673" /><trkpt lat="22.28807478125" lon="113.90293179638672" /><trkpt lat="22.28820778125" lon="113.90297979638672" /><trkpt lat="22.28832578125" lon="113.90306279638672" /><trkpt lat="22.28844478125" lon="113.90313079638672" /><trkpt lat="22.28857478125" lon="113.90322779638672" /><trkpt lat="22.28866978125" lon="113.90331179638672" /><trkpt lat="22.28875778125" lon="113.90340679638672" /><trkpt lat="22.28883778125" lon="113.90348479638672" /><trkpt lat="22.28891978125" lon="113.90358879638671" /><trkpt lat="22.28896778125" lon="113.90374279638672" /><trkpt lat="22.28898678125" lon="113.90395079638672" /><trkpt lat="22.28895578125" lon="113.90405079638671" /><trkpt lat="22.28892578125" lon="113.90419579638672" /><trkpt lat="22.28889878125" lon="113.90431979638672" /><trkpt lat="22.28886478125" lon="113.90445279638672" /><trkpt lat="22.28888278125" lon="113.90462679638672" /><trkpt lat="22.28894378125" lon="113.90482679638671" /><trkpt lat="22.28904478125" lon="113.90500279638673" /><trkpt lat="22.28920778125" lon="113.90519479638672" /><trkpt lat="22.28939278125" lon="113.90538179638672" /><trkpt lat="22.28947178125" lon="113.90548579638671" /><trkpt lat="22.28951678125" lon="113.90562379638672" /><trkpt lat="22.28957478125" lon="113.90573979638671" /><trkpt lat="22.28962278125" lon="113.90583979638672" /><trkpt lat="22.28966978125" lon="113.90593279638672" /><trkpt lat="22.28971778125" lon="113.90602879638672" /><trkpt lat="22.28976578125" lon="113.90611979638672" /><trkpt lat="22.28984178125" lon="113.90622679638672" /><trkpt lat="22.28988578125" lon="113.90634279638672" /><trkpt lat="22.28991778125" lon="113.90644779638671" /><trkpt lat="22.28993878125" lon="113.90651379638672" /><trkpt lat="22.28995078125" lon="113.90657979638672" /><trkpt lat="22.28996778125" lon="113.90664979638672" /><trkpt lat="22.28993678125" lon="113.90680279638671" /><trkpt lat="22.28992578125" lon="113.90692079638671" /><trkpt lat="22.28997378125" lon="113.90708579638672" /><trkpt lat="22.28998778125" lon="113.90714779638672" /><trkpt lat="22.28999378125" lon="113.90718579638671" /><trkpt lat="22.29001178125" lon="113.90730279638672" /><trkpt lat="22.29004778125" lon="113.90755679638671" /><trkpt lat="22.29003578125" lon="113.90781579638671" /><trkpt lat="22.29006278125" lon="113.90795279638672" /><trkpt lat="22.29009478125" lon="113.90810979638673" /><trkpt lat="22.29008278125" lon="113.90819779638672" /><trkpt lat="22.29002278125" lon="113.90832679638672" /><trkpt lat="22.28999078125" lon="113.90847579638672" /><trkpt lat="22.28998778125" lon="113.90853679638671" /><trkpt lat="22.28995278125" lon="113.90856279638672" /><trkpt lat="22.28991178125" lon="113.90858779638671" /><trkpt lat="22.28986878125" lon="113.90858779638671" /><trkpt lat="22.28975778125" lon="113.90862379638672" /><trkpt lat="22.28965278125" lon="113.90866679638673" /><trkpt lat="22.28954578125" lon="113.90868379638673" /><trkpt lat="22.28944078125" lon="113.90868379638673" /><trkpt lat="22.28931678125" lon="113.90868979638672" /><trkpt lat="22.28922178125" lon="113.90870179638672" /><trkpt lat="22.28912978125" lon="113.90873679638672" /><trkpt lat="22.28912078125" lon="113.90883579638673" /><trkpt lat="22.28913478125" lon="113.90893979638672" /><trkpt lat="22.28914978125" lon="113.90903779638671" /><trkpt lat="22.28918378125" lon="113.90917279638671" /><trkpt lat="22.28924878125" lon="113.90927779638672" /><trkpt lat="22.28927978125" lon="113.90934979638672" /><trkpt lat="22.28928378125" lon="113.90942479638672" /><trkpt lat="22.28929878125" lon="113.90950179638672" /><trkpt lat="22.28934378125" lon="113.90956279638672" /><trkpt lat="22.28941278125" lon="113.90964079638673" /><trkpt lat="22.28948578125" lon="113.90974679638671" /><trkpt lat="22.28954378125" lon="113.90982579638671" /><trkpt lat="22.28964678125" lon="113.90992479638672" /><trkpt lat="22.28970178125" lon="113.91003179638672" /><trkpt lat="22.28973778125" lon="113.91014879638672" /><trkpt lat="22.28968078125" lon="113.91024879638672" /><trkpt lat="22.28967678125" lon="113.91041079638671" /><trkpt lat="22.28965378125" lon="113.91049579638671" /><trkpt lat="22.28964978125" lon="113.91058079638672" /><trkpt lat="22.28970078125" lon="113.91071879638672" /><trkpt lat="22.28976678125" lon="113.91077879638672" /><trkpt lat="22.28989678125" lon="113.91085079638673" /><trkpt lat="22.29002478125" lon="113.91089179638672" /><trkpt lat="22.29013478125" lon="113.91095879638672" /><trkpt lat="22.29018978125" lon="113.91103079638673" /><trkpt lat="22.29024378125" lon="113.91114279638671" /><trkpt lat="22.29029378125" lon="113.91122779638673" /><trkpt lat="22.29031478125" lon="113.91130279638672" /><trkpt lat="22.29031378125" lon="113.91135879638672" /><trkpt lat="22.29038778125" lon="113.91149479638672" /><trkpt lat="22.29044578125" lon="113.91164979638671" /><trkpt lat="22.29052378125" lon="113.91179279638672" /><trkpt lat="22.29058778125" lon="113.91184979638672" /><trkpt lat="22.29073778125" lon="113.91197179638672" /><trkpt lat="22.29080278125" lon="113.91199379638672" /><trkpt lat="22.29086978125" lon="113.91201479638671" /><trkpt lat="22.29089678125" lon="113.91206879638672" /><trkpt lat="22.29090478125" lon="113.91212479638672" /><trkpt lat="22.29091478125" lon="113.91225779638673" /><trkpt lat="22.29094478125" lon="113.91233779638672" /><trkpt lat="22.29101978125" lon="113.91246579638671" /><trkpt lat="22.29107878125" lon="113.91261879638672" /><trkpt lat="22.29117478125" lon="113.91272479638671" /><trkpt lat="22.29123578125" lon="113.91283479638672" /><trkpt lat="22.29127878125" lon="113.91295179638672" /><trkpt lat="22.29128678125" lon="113.91299479638671" /><trkpt lat="22.29135178125" lon="113.91314279638672" /><trkpt lat="22.29141178125" lon="113.91328179638671" /><trkpt lat="22.29139178125" lon="113.91343179638672" /><trkpt lat="22.29135178125" lon="113.91356579638672" /><trkpt lat="22.29140178125" lon="113.91371679638672" /><trkpt lat="22.29147078125" lon="113.91385079638673" /><trkpt lat="22.29158578125" lon="113.91395279638672" /><trkpt lat="22.29166978125" lon="113.91401679638672" /><trkpt lat="22.29178878125" lon="113.91408679638671" /><trkpt lat="22.29189778125" lon="113.91411379638672" /><trkpt lat="22.29195678125" lon="113.91422079638672" /><trkpt lat="22.29196178125" lon="113.91423179638672" /><trkpt lat="22.29196378125" lon="113.91423779638671" /><trkpt lat="22.29196478125" lon="113.91424679638672" /><trkpt lat="22.29196678125" lon="113.91427379638672" /><trkpt lat="22.29196878125" lon="113.91428479638672" /><trkpt lat="22.29197078125" lon="113.91429679638672" /><trkpt lat="22.29198278125" lon="113.91433479638673" /><trkpt lat="22.29198478125" lon="113.91434679638672" /><trkpt lat="22.29198878125" lon="113.91436379638672" /><trkpt lat="22.29200178125" lon="113.91444879638672" /><trkpt lat="22.29200378125" lon="113.91446279638672" /><trkpt lat="22.29200778125" lon="113.91447679638672" /><trkpt lat="22.29201278125" lon="113.91449079638672" /><trkpt lat="22.29201678125" lon="113.91449879638672" /><trkpt lat="22.29202178125" lon="113.91450979638672" /><trkpt lat="22.29202778125" lon="113.91452079638673" /><trkpt lat="22.29206278125" lon="113.91457279638672" /><trkpt lat="22.29207178125" lon="113.91458279638672" /><trkpt lat="22.29207678125" lon="113.91458779638671" /><trkpt lat="22.29208278125" lon="113.91459279638671" /><trkpt lat="22.29208878125" lon="113.91459679638672" /><trkpt lat="22.29209578125" lon="113.91459979638672" /><trkpt lat="22.29211778125" lon="113.91460779638672" /><trkpt lat="22.29212478125" lon="113.91461079638673" /><trkpt lat="22.29213078125" lon="113.91461379638672" /><trkpt lat="22.29213478125" lon="113.91461779638672" /><trkpt lat="22.29213978125" lon="113.91462279638672" /><trkpt lat="22.29214678125" lon="113.91463079638672" /><trkpt lat="22.29215178125" lon="113.91463779638671" /><trkpt lat="22.29216778125" lon="113.91466379638672" /><trkpt lat="22.29217478125" lon="113.91467279638672" /><trkpt lat="22.29217978125" lon="113.91467979638672" /><trkpt lat="22.29218578125" lon="113.91468579638672" /><trkpt lat="22.29219378125" lon="113.91469379638671" /><trkpt lat="22.29220178125" lon="113.91469979638671" /><trkpt lat="22.29222678125" lon="113.91471479638672" /><trkpt lat="22.29223678125" lon="113.91472179638671" /><trkpt lat="22.29224278125" lon="113.91472679638672" /><trkpt lat="22.29224778125" lon="113.91473279638672" /><trkpt lat="22.29225178125" lon="113.91473879638671" /><trkpt lat="22.29225478125" lon="113.91474479638671" /><trkpt lat="22.29227978125" lon="113.91480579638672" /><trkpt lat="22.29228178125" lon="113.91481179638672" /><trkpt lat="22.29228678125" lon="113.91483079638672" /><trkpt lat="22.29228878125" lon="113.91483779638672" /><trkpt lat="22.29228878125" lon="113.91484579638671" /><trkpt lat="22.29228878125" lon="113.91488179638672" /><trkpt lat="22.29228878125" lon="113.91488779638672" /><trkpt lat="22.29228978125" lon="113.91489579638672" /><trkpt lat="22.29229278125" lon="113.91490379638672" /><trkpt lat="22.29235578125" lon="113.91506679638672" /><trkpt lat="22.29236078125" lon="113.91507579638672" /><trkpt lat="22.29236478125" lon="113.91508279638671" /><trkpt lat="22.29237478125" lon="113.91509379638671" /><trkpt lat="22.29237778125" lon="113.91509879638672" /><trkpt lat="22.29237878125" lon="113.91510379638672" /><trkpt lat="22.29238078125" lon="113.91510879638672" /><trkpt lat="22.29240278125" lon="113.91524879638672" /><trkpt lat="22.29241578125" lon="113.91539279638671" /><trkpt lat="22.29244078125" lon="113.91550479638671" /><trkpt lat="22.29245878125" lon="113.91561579638672" /><trkpt lat="22.29246678125" lon="113.91574679638671" /><trkpt lat="22.29245878125" lon="113.91587379638672" /><trkpt lat="22.29243178125" lon="113.91599579638672" /><trkpt lat="22.29246678125" lon="113.91611079638672" /><trkpt lat="22.29248878125" lon="113.91623179638673" /><trkpt lat="22.29245478125" lon="113.91634379638671" /><trkpt lat="22.29240678125" lon="113.91646679638671" /><trkpt lat="22.29239678125" lon="113.91660079638672" /><trkpt lat="22.29236578125" lon="113.91671579638673" /><trkpt lat="22.29233278125" lon="113.91682979638672" /><trkpt lat="22.29230578125" lon="113.91694479638672" /><trkpt lat="22.29225678125" lon="113.91703579638671" /><trkpt lat="22.29224378125" lon="113.91714479638672" /><trkpt lat="22.29225178125" lon="113.91727579638672" /><trkpt lat="22.29224478125" lon="113.91741279638671" /><trkpt lat="22.29218878125" lon="113.91753079638671" /><trkpt lat="22.29214178125" lon="113.91764579638672" /><trkpt lat="22.29209778125" lon="113.91777279638671" /><trkpt lat="22.29200978125" lon="113.91791479638673" /><trkpt lat="22.29195578125" lon="113.91807179638671" /><trkpt lat="22.29183578125" lon="113.91820479638672" /><trkpt lat="22.29172978125" lon="113.91831879638671" /><trkpt lat="22.29168578125" lon="113.91843379638672" /><trkpt lat="22.29164878125" lon="113.91849879638671" /><trkpt lat="22.29163078125" lon="113.91851779638672" /><trkpt lat="22.29161278125" lon="113.91854779638672" /><trkpt lat="22.29158678125" lon="113.91860479638672" /><trkpt lat="22.29154578125" lon="113.91866279638671" /><trkpt lat="22.29149878125" lon="113.91873279638672" /><trkpt lat="22.29142378125" lon="113.91880679638672" /><trkpt lat="22.29139578125" lon="113.91886779638672" /><trkpt lat="22.29135978125" lon="113.91892579638672" /><trkpt lat="22.29130378125" lon="113.91898879638671" /><trkpt lat="22.29124578125" lon="113.91903579638672" /><trkpt lat="22.29120178125" lon="113.91908679638672" /><trkpt lat="22.29110278125" lon="113.91912779638672" /><trkpt lat="22.29096178125" lon="113.91923079638671" /><trkpt lat="22.29090078125" lon="113.91926879638672" /><trkpt lat="22.29087378125" lon="113.91930279638672" /><trkpt lat="22.29085278125" lon="113.91944679638672" /><trkpt lat="22.29084078125" lon="113.91954879638672" /><trkpt lat="22.29082978125" lon="113.91964579638672" /><trkpt lat="22.29081078125" lon="113.91979479638673" /><trkpt lat="22.29083678125" lon="113.91982779638671" /><trkpt lat="22.29087378125" lon="113.91992979638673" /><trkpt lat="22.29088278125" lon="113.92003279638672" /><trkpt lat="22.29088378125" lon="113.92008679638671" /><trkpt lat="22.29087278125" lon="113.92013879638672" /><trkpt lat="22.29083078125" lon="113.92021079638671" /><trkpt lat="22.29078078125" lon="113.92026479638672" /><trkpt lat="22.29063678125" lon="113.92032179638672" /><trkpt lat="22.29054878125" lon="113.92029879638672" /><trkpt lat="22.29048578125" lon="113.92030279638672" /><trkpt lat="22.29037678125" lon="113.92028079638672" /><trkpt lat="22.29026678125" lon="113.92027079638672" /><trkpt lat="22.29017078125" lon="113.92026279638672" /><trkpt lat="22.29004778125" lon="113.92024979638671" /><trkpt lat="22.28994778125" lon="113.92022179638671" /><trkpt lat="22.28985178125" lon="113.92020679638672" /><trkpt lat="22.28981278125" lon="113.92017479638672" /><trkpt lat="22.28978478125" lon="113.92011479638671" /><trkpt lat="22.28972178125" lon="113.92014979638672" /><trkpt lat="22.28961778125" lon="113.92014879638671" /><trkpt lat="22.28949878125" lon="113.92016379638672" /><trkpt lat="22.28939478125" lon="113.92017579638672" /><trkpt lat="22.28933078125" lon="113.92020779638672" /><trkpt lat="22.28927078125" lon="113.92021279638672" /><trkpt lat="22.28916978125" lon="113.92022779638671" /><trkpt lat="22.28905478125" lon="113.92025579638671" /><trkpt lat="22.28898178125" lon="113.92025379638672" /><trkpt lat="22.28895178125" lon="113.92033979638671" /><trkpt lat="22.28887478125" lon="113.92036579638672" /><trkpt lat="22.28884678125" lon="113.92039179638672" /><trkpt lat="22.28882378125" lon="113.92051979638671" /><trkpt lat="22.28878078125" lon="113.92061779638672" /><trkpt lat="22.28874878125" lon="113.92073079638672" /><trkpt lat="22.28861378125" lon="113.92090879638671" /><trkpt lat="22.28859778125" lon="113.92090479638672" /><trkpt lat="22.28855078125" lon="113.92092279638672" /><trkpt lat="22.28848378125" lon="113.92104779638672" /><trkpt lat="22.28842478125" lon="113.92113679638672" /><trkpt lat="22.28838378125" lon="113.92128779638672" /><trkpt lat="22.28830878125" lon="113.92136979638671" /><trkpt lat="22.28825978125" lon="113.92140179638672" /><trkpt lat="22.28821778125" lon="113.92142679638673" /><trkpt lat="22.28812078125" lon="113.92147479638672" /><trkpt lat="22.28807878125" lon="113.92148279638671" /><trkpt lat="22.28803678125" lon="113.92147879638672" /><trkpt lat="22.28798678125" lon="113.92147779638672" /><trkpt lat="22.28793378125" lon="113.92167779638672" /><trkpt lat="22.28790578125" lon="113.92180379638671" /><trkpt lat="22.28785078125" lon="113.92198479638672" /><trkpt lat="22.28775678125" lon="113.92205479638672" /><trkpt lat="22.28769778125" lon="113.92213979638672" /><trkpt lat="22.28765478125" lon="113.92219379638672" /><trkpt lat="22.28758778125" lon="113.92227679638673" /><trkpt lat="22.28749978125" lon="113.92231779638672" /><trkpt lat="22.28739578125" lon="113.92242279638671" /><trkpt lat="22.28725178125" lon="113.92253579638673" /><trkpt lat="22.28712178125" lon="113.92263279638672" /><trkpt lat="22.28706678125" lon="113.92270379638671" /><trkpt lat="22.28695178125" lon="113.92298979638672" /><trkpt lat="22.28691078125" lon="113.92324679638672" /><trkpt lat="22.28688278125" lon="113.92329579638672" /><trkpt lat="22.28680878125" lon="113.92341879638671" /><trkpt lat="22.28673678125" lon="113.92347079638672" /><trkpt lat="22.28662578125" lon="113.92350779638672" /><trkpt lat="22.28655178125" lon="113.92353679638671" /><trkpt lat="22.28648478125" lon="113.92359879638671" /><trkpt lat="22.28641878125" lon="113.92363679638672" /><trkpt lat="22.28634378125" lon="113.92367779638671" /><trkpt lat="22.28623778125" lon="113.92374879638672" /><trkpt lat="22.28611278125" lon="113.92383679638672" /><trkpt lat="22.28600978125" lon="113.92392179638672" /><trkpt lat="22.28588578125" lon="113.92405579638672" /><trkpt lat="22.28579078125" lon="113.92416779638671" /><trkpt lat="22.28570178125" lon="113.92434479638672" /><trkpt lat="22.28565978125" lon="113.92448979638672" /><trkpt lat="22.28559278125" lon="113.92459579638673" /><trkpt lat="22.28551678125" lon="113.92471179638672" /><trkpt lat="22.28544678125" lon="113.92482079638671" /><trkpt lat="22.28536878125" lon="113.92492479638672" /><trkpt lat="22.28527678125" lon="113.92501879638672" /><trkpt lat="22.28518278125" lon="113.92510079638672" /><trkpt lat="22.28509578125" lon="113.92518879638672" /><trkpt lat="22.28500778125" lon="113.92527179638672" /><trkpt lat="22.28494578125" lon="113.92537879638672" /><trkpt lat="22.28486478125" lon="113.92547179638672" /><trkpt lat="22.28477478125" lon="113.92552879638671" /><trkpt lat="22.28468078125" lon="113.92562379638672" /><trkpt lat="22.28459878125" lon="113.92571479638671" /><trkpt lat="22.28447978125" lon="113.92580979638672" /><trkpt lat="22.28431178125" lon="113.92585479638672" /><trkpt lat="22.28417078125" lon="113.92591579638672" /><trkpt lat="22.28405578125" lon="113.92599579638672" /><trkpt lat="22.28395578125" lon="113.92606579638672" /><trkpt lat="22.28388178125" lon="113.92619979638671" /><trkpt lat="22.28376278125" lon="113.92636579638672" /><trkpt lat="22.28365878125" lon="113.92646579638672" /><trkpt lat="22.28351878125" lon="113.92657879638672" /><trkpt lat="22.28336478125" lon="113.92668679638672" /><trkpt lat="22.28321678125" lon="113.92676779638671" /><trkpt lat="22.28310078125" lon="113.92684579638671" /><trkpt lat="22.28295978125" lon="113.92693779638672" /><trkpt lat="22.28286778125" lon="113.92701979638672" /><trkpt lat="22.28277878125" lon="113.92711579638672" /><trkpt lat="22.28265278125" lon="113.92718179638672" /><trkpt lat="22.28256478125" lon="113.92722879638671" /><trkpt lat="22.28247178125" lon="113.92721679638672" /><trkpt lat="22.28241378125" lon="113.92718979638671" /><trkpt lat="22.28235978125" lon="113.92718779638672" /><trkpt lat="22.28225078125" lon="113.92721379638672" /><trkpt lat="22.28219578125" lon="113.92723079638672" /><trkpt lat="22.28208078125" lon="113.92723779638672" /><trkpt lat="22.28198678125" lon="113.92724579638671" /><trkpt lat="22.28189378125" lon="113.92723779638672" /><trkpt lat="22.28172178125" lon="113.92722479638672" /><trkpt lat="22.28161378125" lon="113.92722379638671" /><trkpt lat="22.28150578125" lon="113.92721279638671" /><trkpt lat="22.28142478125" lon="113.92718679638672" /><trkpt lat="22.28134378125" lon="113.92715279638672" /><trkpt lat="22.28130378125" lon="113.92711879638672" /><trkpt lat="22.28116478125" lon="113.92723179638672" /><trkpt lat="22.28106678125" lon="113.92730179638671" /><trkpt lat="22.28097178125" lon="113.92732579638673" /><trkpt lat="22.28082478125" lon="113.92737279638672" /><trkpt lat="22.28076078125" lon="113.92739279638671" /><trkpt lat="22.28072678125" lon="113.92740279638672" /><trkpt lat="22.28058278125" lon="113.92750379638672" /><trkpt lat="22.28053478125" lon="113.92753679638672" /><trkpt lat="22.28049378125" lon="113.92755479638672" /><trkpt lat="22.28040778125" lon="113.92762479638672" /><trkpt lat="22.28033278125" lon="113.92769179638672" /><trkpt lat="22.280241781249998" lon="113.92772379638672" /><trkpt lat="22.28012478125" lon="113.92774879638672" /><trkpt lat="22.28002278125" lon="113.92777279638672" /><trkpt lat="22.27997678125" lon="113.92778079638671" /><trkpt lat="22.27998278125" lon="113.92784279638671" /><trkpt lat="22.28001578125" lon="113.92793879638671" /><trkpt lat="22.28005078125" lon="113.92804979638672" /><trkpt lat="22.28006778125" lon="113.92811379638673" /><trkpt lat="22.28005978125" lon="113.92812779638672" /><trkpt lat="22.27990878125" lon="113.92821279638672" /><trkpt lat="22.27990378125" lon="113.92824079638672" /><trkpt lat="22.27990578125" lon="113.92828779638671" /><trkpt lat="22.27979278125" lon="113.92837979638672" /><trkpt lat="22.27978978125" lon="113.92839879638672" /><trkpt lat="22.27983178125" lon="113.92845179638672" /><trkpt lat="22.27991878125" lon="113.92857879638672" /><trkpt lat="22.27998578125" lon="113.92867879638672" /><trkpt lat="22.28004178125" lon="113.92879279638672" /><trkpt lat="22.28007278125" lon="113.92891379638672" /><trkpt lat="22.28008278125" lon="113.92903179638672" /><trkpt lat="22.28008678125" lon="113.92916179638672" /><trkpt lat="22.28009078125" lon="113.92929779638672" /><trkpt lat="22.28013478125" lon="113.92939879638672" /><trkpt lat="22.28018978125" lon="113.92940679638671" /><trkpt lat="22.28029678125" lon="113.92942879638672" /><trkpt lat="22.28053778125" lon="113.92937379638671" /><trkpt lat="22.280573942751147" lon="113.92906511558749" /><trkpt lat="22.280710195348362" lon="113.92925049717553" /><trkpt lat="22.280573347824188" lon="113.92943393237124" /><trkpt lat="22.28032441849271" lon="113.92933234298505" /><trkpt lat="22.280108417698045" lon="113.92933141683199" /><trkpt lat="22.280099140166087" lon="113.92934158598416" /><trkpt lat="22.280092393466504" lon="113.9293365113881" /><trkpt lat="22.28008840533785" lon="113.92933573653744" /><trkpt lat="22.280086484482993" lon="113.9293472829703" /><trkpt lat="22.280079725082587" lon="113.9293422579268" /><trkpt lat="22.28000827481941" lon="113.92933448333464" /><trkpt lat="22.27998378125" lon="113.92934379638672" /><trkpt lat="22.27992678125" lon="113.92937279638672" /><trkpt lat="22.27989078125" lon="113.92942679638672" /><trkpt lat="22.27991778125" lon="113.92988179638672" /><trkpt lat="22.27991878125" lon="113.92988979638672" /><trkpt lat="22.27992078125" lon="113.92989779638671" /><trkpt lat="22.27992378125" lon="113.92990279638671" /><trkpt lat="22.27992778125" lon="113.92990779638671" /><trkpt lat="22.27993278125" lon="113.92991179638672" /><trkpt lat="22.27993978125" lon="113.92991579638672" /><trkpt lat="22.27994978125" lon="113.92991879638672" /><trkpt lat="22.27995978125" lon="113.92992179638672" /><trkpt lat="22.27999378125" lon="113.92992579638671" /><trkpt lat="22.28000478125" lon="113.92992879638672" /><trkpt lat="22.28001378125" lon="113.92993179638673" /><trkpt lat="22.28002478125" lon="113.92993679638671" /><trkpt lat="22.28003678125" lon="113.92994279638671" /><trkpt lat="22.28004778125" lon="113.92994979638672" /><trkpt lat="22.28005578125" lon="113.92995479638672" /><trkpt lat="22.28006178125" lon="113.92996179638672" /><trkpt lat="22.28006878125" lon="113.92996979638671" /><trkpt lat="22.28007278125" lon="113.92997879638672" /><trkpt lat="22.28007578125" lon="113.92999079638672" /><trkpt lat="22.28007878125" lon="113.93000579638672" /><trkpt lat="22.28008078125" lon="113.93002479638672" /><trkpt lat="22.28008078125" lon="113.93005179638672" /><trkpt lat="22.28007778125" lon="113.93008679638672" /><trkpt lat="22.28005269740879" lon="113.9302473249879" /><trkpt lat="22.27995978125" lon="113.93083179638671" /><trkpt lat="22.27991678125" lon="113.93110279638672" /><trkpt lat="22.27998078125" lon="113.93107879638671" /><trkpt lat="22.28009678125" lon="113.93106379638672" /><trkpt lat="22.28018078125" lon="113.93108079638672" /><trkpt lat="22.28022778125" lon="113.93108979638671" /><trkpt lat="22.28027778125" lon="113.93116079638672" /><trkpt lat="22.280229539303676" lon="113.93120053827369" /><trkpt lat="22.28019417677632" lon="113.9312445899244" /><trkpt lat="22.28006897934165" lon="113.93125842407409" /><trkpt lat="22.28002198080179" lon="113.93128829783836" /><trkpt lat="22.28001627107112" lon="113.93128924929948" /><trkpt lat="22.280010359857357" lon="113.9312882874379" /><trkpt lat="22.280008178531475" lon="113.93128992631443" /><trkpt lat="22.2800489675173" lon="113.93127321976299" /><trkpt lat="22.27998078125" lon="113.93107879638671" /><trkpt lat="22.27991678125" lon="113.93110279638672" /><trkpt lat="22.27987878125" lon="113.93112779638672" /><trkpt lat="22.27978578125" lon="113.93118279638672" /><trkpt lat="22.27972878125" lon="113.93120479638672" /><trkpt lat="22.27963778125" lon="113.93125579638672" /><trkpt lat="22.27955178125" lon="113.93127779638672" /><trkpt lat="22.27948278125" lon="113.93129879638671" /><trkpt lat="22.27941978125" lon="113.93133479638672" /><trkpt lat="22.27934078125" lon="113.93139479638671" /><trkpt lat="22.27931878125" lon="113.93145579638671" /><trkpt lat="22.27926878125" lon="113.93155579638672" /><trkpt lat="22.27927878125" lon="113.93171379638672" /><trkpt lat="22.27927878125" lon="113.93174779638672" /><trkpt lat="22.27928278125" lon="113.93178379638672" /><trkpt lat="22.27931078125" lon="113.93197579638672" /><trkpt lat="22.27934478125" lon="113.93214279638671" /><trkpt lat="22.27936878125" lon="113.93223279638671" /><trkpt lat="22.27936278125" lon="113.93230179638672" /><trkpt lat="22.27945578125" lon="113.93245779638671" /><trkpt lat="22.27958878125" lon="113.93265679638672" /><trkpt lat="22.27967678125" lon="113.93281079638672" /><trkpt lat="22.27972878125" lon="113.93291179638672" /><trkpt lat="22.27978278125" lon="113.93297079638671" /><trkpt lat="22.27991378125" lon="113.93316479638672" /><trkpt lat="22.27994378125" lon="113.93320179638673" /><trkpt lat="22.27996278125" lon="113.93324979638672" /><trkpt lat="22.27997478125" lon="113.93329779638673" /><trkpt lat="22.27997378125" lon="113.93334679638672" /><trkpt lat="22.27995778125" lon="113.93338879638672" /><trkpt lat="22.27985778125" lon="113.93345079638672" /><trkpt lat="22.27978878125" lon="113.93347879638672" /><trkpt lat="22.27972578125" lon="113.93350879638672" /><trkpt lat="22.27962878125" lon="113.93355179638672" /><trkpt lat="22.27952578125" lon="113.93358979638671" /><trkpt lat="22.27939278125" lon="113.93364179638672" /><trkpt lat="22.27938378125" lon="113.93367379638671" /><trkpt lat="22.27925478125" lon="113.93382579638671" /><trkpt lat="22.27933278125" lon="113.93402379638673" /><trkpt lat="22.27924978125" lon="113.93412679638672" /><trkpt lat="22.27925178125" lon="113.93422379638672" /><trkpt lat="22.27933978125" lon="113.93465179638672" /><trkpt lat="22.27934778125" lon="113.93471379638672" /><trkpt lat="22.27937778125" lon="113.93484379638672" /><trkpt lat="22.27937278125" lon="113.93499979638672" /><trkpt lat="22.27945078125" lon="113.93538779638672" /><trkpt lat="22.27959278125" lon="113.93610679638672" /><trkpt lat="22.27959778125" lon="113.93614479638671" /><trkpt lat="22.27973578125" lon="113.93673179638672" /><trkpt lat="22.27976978125" lon="113.93683379638672" /><trkpt lat="22.27986678125" lon="113.93718379638672" /><trkpt lat="22.27997978125" lon="113.93751479638672" /><trkpt lat="22.28001878125" lon="113.93759179638671" /><trkpt lat="22.28008578125" lon="113.93777279638672" /><trkpt lat="22.28009378125" lon="113.93780679638672" /><trkpt lat="22.28023078125" lon="113.93811779638672" /><trkpt lat="22.28037978125" lon="113.93841779638672" /><trkpt lat="22.28055378125" lon="113.93870079638671" /><trkpt lat="22.28080878125" lon="113.93910579638671" /><trkpt lat="22.28087578125" lon="113.93919979638672" /><trkpt lat="22.28114178125" lon="113.93955179638672" /><trkpt lat="22.28119378125" lon="113.93962279638671" /><trkpt lat="22.28147178125" lon="113.93994679638672" /><trkpt lat="22.28158678125" lon="113.94006479638672" /><trkpt lat="22.28189278125" lon="113.94036479638672" /><trkpt lat="22.28224378125" lon="113.94064579638672" /><trkpt lat="22.28278778125" lon="113.94107179638672" /><trkpt lat="22.28332978125" lon="113.94149079638672" /><trkpt lat="22.28369178125" lon="113.94178579638672" /><trkpt lat="22.28385878125" lon="113.94192879638672" /><trkpt lat="22.28403078125" lon="113.94207579638672" /><trkpt lat="22.28413378125" lon="113.94218979638671" /><trkpt lat="22.28411978125" lon="113.94222479638672" /><trkpt lat="22.28424878125" lon="113.94232079638672" /><trkpt lat="22.28451978125" lon="113.94251679638671" /><trkpt lat="22.28462078125" lon="113.94256679638671" /><trkpt lat="22.28470178125" lon="113.94257179638672" /><trkpt lat="22.28479378125" lon="113.94252879638672" /><trkpt lat="22.28484678125" lon="113.94247979638672" /><trkpt lat="22.28502378125" lon="113.94228779638672" /><trkpt lat="22.28507278125" lon="113.94224279638672" /><trkpt lat="22.28508878125" lon="113.94223579638673" /><trkpt lat="22.28510278125" lon="113.94224479638672" /><trkpt lat="22.28511678125" lon="113.94225979638672" /><trkpt lat="22.28531278125" lon="113.94247179638671" /><trkpt lat="22.28535578125" lon="113.94249079638672" /><trkpt lat="22.28539778125" lon="113.94244279638671" /><trkpt lat="22.28630378125" lon="113.94142979638671" /><trkpt lat="22.28647278125" lon="113.94123179638672" /><trkpt lat="22.28654878125" lon="113.94113379638672" /><trkpt lat="22.28663178125" lon="113.94104679638671" /><trkpt lat="22.28665178125" lon="113.94102779638672" /><trkpt lat="22.28669478125" lon="113.94101879638671" /><trkpt lat="22.28676378125" lon="113.94104579638672" /><trkpt lat="22.28688878125" lon="113.94108479638672" /><trkpt lat="22.28699678125" lon="113.94106479638671" /><trkpt lat="22.28703778125" lon="113.94103979638672" /><trkpt lat="22.28707578125" lon="113.94098079638673" /><trkpt lat="22.28712478125" lon="113.94086779638671" /><trkpt lat="22.28717478125" lon="113.94076079638671" /><trkpt lat="22.28719678125" lon="113.94071779638672" /><trkpt lat="22.28741978125" lon="113.94087579638672" /><trkpt lat="22.287503826852774" lon="113.94092544531017" /></trkseg></trk></gpx>