<?xml version='1.0' encoding='UTF-8' ?><gpx version="1.1" creator="HikingTrailHK" xsi:schemaLocation="http://www.topografix.com/GPX/1/1 http://www.topografix.com/GPX/1/1/gpx.xsd" xmlns="http://www.topografix.com/GPX/1/1" xmlns:xsi="http://www.w3.org/2001/XMLSchema-instance"><metadata><name>針草 @ 2016-7-3</name><desc></desc></metadata><trk><trkseg><trkpt lat="22.43229278125" lon="114.16355679638671" /><trkpt lat="22.43225778125" lon="114.16354279638672" /><trkpt lat="22.43214978125" lon="114.16352879638671" /><trkpt lat="22.43202078125" lon="114.16353179638672" /><trkpt lat="22.43182178125" lon="114.16348179638672" /><trkpt lat="22.43173578125" lon="114.16346579638672" /><trkpt lat="22.43168278125" lon="114.16345579638671" /><trkpt lat="22.43154178125" lon="114.16343179638672" /><trkpt lat="22.43134878125" lon="114.16340079638672" /><trkpt lat="22.43116978125" lon="114.16337679638671" /><trkpt lat="22.43107178125" lon="114.16336779638672" /><trkpt lat="22.43087678125" lon="114.16335179638672" /><trkpt lat="22.43074978125" lon="114.16330479638673" /><trkpt lat="22.43060978125" lon="114.16331979638672" /><trkpt lat="22.43057378125" lon="114.16329979638672" /><trkpt lat="22.43043778125" lon="114.16321579638672" /><trkpt lat="22.43029078125" lon="114.16308779638672" /><trkpt lat="22.43020178125" lon="114.16301479638672" /><trkpt lat="22.43001378125" lon="114.16292479638672" /><trkpt lat="22.42983978125" lon="114.16283879638672" /><trkpt lat="22.42981078125" lon="114.16276879638671" /><trkpt lat="22.42980878125" lon="114.16264979638672" /><trkpt lat="22.42980678125" lon="114.16256679638671" /><trkpt lat="22.42979278125" lon="114.16249679638672" /><trkpt lat="22.42966878125" lon="114.16223279638672" /><trkpt lat="22.42949978125" lon="114.16199779638671" /><trkpt lat="22.42943478125" lon="114.16193479638672" /><trkpt lat="22.42940578125" lon="114.16190879638671" /><trkpt lat="22.42932478125" lon="114.16197479638672" /><trkpt lat="22.42924778125" lon="114.16202079638671" /><trkpt lat="22.42919078125" lon="114.16203979638672" /><trkpt lat="22.42912478125" lon="114.16204179638672" /><trkpt lat="22.42905578125" lon="114.16202879638672" /><trkpt lat="22.42898978125" lon="114.16199479638672" /><trkpt lat="22.42896978125" lon="114.16189079638671" /><trkpt lat="22.42889178125" lon="114.16193879638672" /><trkpt lat="22.42882978125" lon="114.16197479638672" /><trkpt lat="22.42872378125" lon="114.16204379638671" /><trkpt lat="22.42865978125" lon="114.16209679638672" /><trkpt lat="22.42854678125" lon="114.16221979638672" /><trkpt lat="22.42850078125" lon="114.16226279638671" /><trkpt lat="22.42842278125" lon="114.16231979638673" /><trkpt lat="22.42833278125" lon="114.16234179638671" /><trkpt lat="22.42821178125" lon="114.16235879638671" /><trkpt lat="22.42799278125" lon="114.16237279638672" /><trkpt lat="22.42788278125" lon="114.16235579638672" /><trkpt lat="22.42779678125" lon="114.16230679638672" /><trkpt lat="22.42765978125" lon="114.16220879638672" /><trkpt lat="22.42761578125" lon="114.16217179638672" /><trkpt lat="22.42755578125" lon="114.16210479638671" /><trkpt lat="22.42744778125" lon="114.16198779638673" /><trkpt lat="22.42738878125" lon="114.16193079638671" /><trkpt lat="22.42727078125" lon="114.16186179638672" /><trkpt lat="22.42710778125" lon="114.16182479638672" /><trkpt lat="22.42698078125" lon="114.16179379638672" /><trkpt lat="22.42687878125" lon="114.16174579638673" /><trkpt lat="22.42685178125" lon="114.16167379638672" /><trkpt lat="22.42684578125" lon="114.16163279638671" /><trkpt lat="22.42684878125" lon="114.16157679638673" /><trkpt lat="22.42684978125" lon="114.16136079638672" /><trkpt lat="22.42685678125" lon="114.16114379638672" /><trkpt lat="22.42684578125" lon="114.16107879638672" /><trkpt lat="22.42680578125" lon="114.16102179638672" /><trkpt lat="22.42678178125" lon="114.16100179638671" /><trkpt lat="22.42676078125" lon="114.16098779638672" /><trkpt lat="22.42670178125" lon="114.16097979638671" /><trkpt lat="22.42658378125" lon="114.16101679638672" /><trkpt lat="22.42650178125" lon="114.16103179638672" /><trkpt lat="22.42640678125" lon="114.16101779638672" /><trkpt lat="22.42632578125" lon="114.16100379638672" /><trkpt lat="22.42622978125" lon="114.16091179638671" /><trkpt lat="22.42612078125" lon="114.16081479638672" /><trkpt lat="22.42600378125" lon="114.16072679638673" /><trkpt lat="22.42586478125" lon="114.16067079638673" /><trkpt lat="22.42577678125" lon="114.16065979638672" /><trkpt lat="22.42563378125" lon="114.16066579638672" /><trkpt lat="22.42533478125" lon="114.16060179638671" /><trkpt lat="22.42520178125" lon="114.16055779638671" /><trkpt lat="22.42511478125" lon="114.16056379638673" /><trkpt lat="22.42508378125" lon="114.16058179638672" /><trkpt lat="22.42493978125" lon="114.16052179638672" /><trkpt lat="22.42489578125" lon="114.16051879638673" /><trkpt lat="22.42486378125" lon="114.16051279638671" /><trkpt lat="22.42481178125" lon="114.16047879638671" /><trkpt lat="22.42469178125" lon="114.16040379638672" /><trkpt lat="22.42461578125" lon="114.16036379638672" /><trkpt lat="22.42458778125" lon="114.16035079638672" /><trkpt lat="22.42457878125" lon="114.16032479638672" /><trkpt lat="22.42455278125" lon="114.16031279638672" /><trkpt lat="22.42453278125" lon="114.16027979638672" /><trkpt lat="22.42446478125" lon="114.16027179638672" /><trkpt lat="22.42441778125" lon="114.16024179638671" /><trkpt lat="22.42428078125" lon="114.16006079638672" /><trkpt lat="22.42418078125" lon="114.16001479638672" /><trkpt lat="22.42399578125" lon="114.15987979638672" /><trkpt lat="22.42374278125" lon="114.15976379638671" /><trkpt lat="22.42320478125" lon="114.15954079638672" /><trkpt lat="22.42291078125" lon="114.15948679638672" /><trkpt lat="22.42228178125" lon="114.15942179638672" /><trkpt lat="22.42184478125" lon="114.15932579638672" /><trkpt lat="22.42126178125" lon="114.15923979638671" /><trkpt lat="22.42109478125" lon="114.15924379638672" /><trkpt lat="22.42084978125" lon="114.15921379638672" /><trkpt lat="22.42055178125" lon="114.15923779638672" /><trkpt lat="22.42037178125" lon="114.15930979638672" /><trkpt lat="22.42007778125" lon="114.15933779638672" /><trkpt lat="22.41966478125" lon="114.15928079638672" /><trkpt lat="22.41946478125" lon="114.15924079638671" /><trkpt lat="22.41906178125" lon="114.15920379638672" /><trkpt lat="22.41888678125" lon="114.15918479638673" /><trkpt lat="22.418782781250002" lon="114.15918079638672" /><trkpt lat="22.41861678125" lon="114.15919179638672" /><trkpt lat="22.41832378125" lon="114.15915979638672" /><trkpt lat="22.41794878125" lon="114.15914479638671" /><trkpt lat="22.41732978125" lon="114.15914979638671" /><trkpt lat="22.41672378125" lon="114.15898779638673" /><trkpt lat="22.41649378125" lon="114.15897579638671" /><trkpt lat="22.41628578125" lon="114.15898879638672" /><trkpt lat="22.41609978125" lon="114.15901779638672" /><trkpt lat="22.41568578125" lon="114.15895679638672" /><trkpt lat="22.41534978125" lon="114.15884679638671" /><trkpt lat="22.41482978125" lon="114.15865879638672" /><trkpt lat="22.41459178125" lon="114.15853279638672" /><trkpt lat="22.41436778125" lon="114.15839179638672" /><trkpt lat="22.41419378125" lon="114.15825379638672" /><trkpt lat="22.41401878125" lon="114.15814479638672" /><trkpt lat="22.41385378125" lon="114.15807379638672" /><trkpt lat="22.41366978125" lon="114.15803379638672" /><trkpt lat="22.41338778125" lon="114.15797279638672" /><trkpt lat="22.41290978125" lon="114.15809179638671" /><trkpt lat="22.41276778125" lon="114.15806879638671" /><trkpt lat="22.41252378125" lon="114.15811679638672" /><trkpt lat="22.41226278125" lon="114.15812079638673" /><trkpt lat="22.41182978125" lon="114.15816579638673" /><trkpt lat="22.41209478125" lon="114.15837779638672" /><trkpt lat="22.41214678125" lon="114.15841979638672" /><trkpt lat="22.41219278125" lon="114.15849479638672" /><trkpt lat="22.41223678125" lon="114.15871179638673" /><trkpt lat="22.41231778125" lon="114.15882379638671" /><trkpt lat="22.41239578125" lon="114.15886779638672" /><trkpt lat="22.41250978125" lon="114.15888379638672" /><trkpt lat="22.41268578125" lon="114.15881479638672" /><trkpt lat="22.41278978125" lon="114.15875779638672" /><trkpt lat="22.41287978125" lon="114.15871379638672" /><trkpt lat="22.41292178125" lon="114.15871079638671" /><trkpt lat="22.41296478125" lon="114.15871779638672" /><trkpt lat="22.41303278125" lon="114.15877979638672" /><trkpt lat="22.41299078125" lon="114.15889979638672" /><trkpt lat="22.41292078125" lon="114.15900879638671" /><trkpt lat="22.41281678125" lon="114.15914779638672" /><trkpt lat="22.41269778125" lon="114.15930879638672" /><trkpt lat="22.41248478125" lon="114.15954779638672" /><trkpt lat="22.41242378125" lon="114.15966879638673" /><trkpt lat="22.41236578125" lon="114.15980379638673" /><trkpt lat="22.41230778125" lon="114.15991879638672" /><trkpt lat="22.41223478125" lon="114.16001479638672" /><trkpt lat="22.41215678125" lon="114.16006179638671" /><trkpt lat="22.41214178125" lon="114.16009179638672" /><trkpt lat="22.41217778125" lon="114.16013879638672" /><trkpt lat="22.41227578125" lon="114.16011779638671" /><trkpt lat="22.41253678125" lon="114.16002879638671" /><trkpt lat="22.41266078125" lon="114.16001579638672" /><trkpt lat="22.41261878125" lon="114.16042179638671" /><trkpt lat="22.41239178125" lon="114.16089979638672" /><trkpt lat="22.41233178125" lon="114.16131279638672" /><trkpt lat="22.41197778125" lon="114.16190779638671" /><trkpt lat="22.41175778125" lon="114.16263279638672" /><trkpt lat="22.41180978125" lon="114.16274779638672" /><trkpt lat="22.41181678125" lon="114.16289279638671" /><trkpt lat="22.41173578125" lon="114.16300779638672" /><trkpt lat="22.41161878125" lon="114.16347179638672" /><trkpt lat="22.41159878125" lon="114.16386779638673" /><trkpt lat="22.41156878125" lon="114.16448579638671" /><trkpt lat="22.41138878125" lon="114.16482579638672" /><trkpt lat="22.41133878125" lon="114.16515579638671" /><trkpt lat="22.41113078125" lon="114.16527079638672" /><trkpt lat="22.41088778125" lon="114.16556179638673" /><trkpt lat="22.41071878125" lon="114.16565179638671" /><trkpt lat="22.41034578125" lon="114.16561279638672" /><trkpt lat="22.41016778125" lon="114.16566879638673" /><trkpt lat="22.41000478125" lon="114.16559579638673" /><trkpt lat="22.40976578125" lon="114.16528679638672" /><trkpt lat="22.40962378125" lon="114.16518879638672" /><trkpt lat="22.40900778125" lon="114.16520779638672" /><trkpt lat="22.40774378125" lon="114.16601879638672" /><trkpt lat="22.40731978125" lon="114.16649379638672" /><trkpt lat="22.40698678125" lon="114.16650579638672" /><trkpt lat="22.40666878125" lon="114.16671379638672" /><trkpt lat="22.40629478125" lon="114.16666379638671" /><trkpt lat="22.40575878125" lon="114.16720779638672" /><trkpt lat="22.40558178125" lon="114.16724679638672" /><trkpt lat="22.40499578125" lon="114.16771879638672" /><trkpt lat="22.40482678125" lon="114.16761779638672" /><trkpt lat="22.40462178125" lon="114.16728279638671" /><trkpt lat="22.40447878125" lon="114.16717879638672" /><trkpt lat="22.40411378125" lon="114.16707179638672" /><trkpt lat="22.40392778125" lon="114.16706979638671" /><trkpt lat="22.40373478125" lon="114.16709279638673" /><trkpt lat="22.40319778125" lon="114.16731779638671" /><trkpt lat="22.40300678125" lon="114.16732779638672" /><trkpt lat="22.40264978125" lon="114.16720879638672" /><trkpt lat="22.40256078125" lon="114.16722579638672" /><trkpt lat="22.40251078125" lon="114.16730579638671" /><trkpt lat="22.40260778125" lon="114.16756679638672" /><trkpt lat="22.40259578125" lon="114.16763779638671" /><trkpt lat="22.40253178125" lon="114.16766279638672" /><trkpt lat="22.40220878125" lon="114.16750779638672" /><trkpt lat="22.40210778125" lon="114.16734379638672" /><trkpt lat="22.40196778125" lon="114.16734879638672" /><trkpt lat="22.40173978125" lon="114.16735579638672" /><trkpt lat="22.40119078125" lon="114.16782879638671" /><trkpt lat="22.40110678125" lon="114.16784779638672" /><trkpt lat="22.40064478125" lon="114.16749779638671" /><trkpt lat="22.40039678125" lon="114.16716279638672" /><trkpt lat="22.40003678125" lon="114.16701079638672" /><trkpt lat="22.39984678125" lon="114.16704879638672" /><trkpt lat="22.39966078125" lon="114.16701879638671" /><trkpt lat="22.39949578125" lon="114.16689979638672" /><trkpt lat="22.39920678125" lon="114.16639579638672" /><trkpt lat="22.39908478125" lon="114.16612979638671" /><trkpt lat="22.39872978125" lon="114.16593179638672" /><trkpt lat="22.39856678125" lon="114.16603479638673" /><trkpt lat="22.39851278125" lon="114.16620979638672" /><trkpt lat="22.39856178125" lon="114.16640679638672" /><trkpt lat="22.39834078125" lon="114.16623879638672" /><trkpt lat="22.39819978125" lon="114.16624179638671" /><trkpt lat="22.39816278125" lon="114.16632779638672" /><trkpt lat="22.39820378125" lon="114.16660179638671" /><trkpt lat="22.39815378125" lon="114.16675579638672" /><trkpt lat="22.39805178125" lon="114.16688679638672" /><trkpt lat="22.39776278125" lon="114.16734079638672" /><trkpt lat="22.39744978125" lon="114.16766379638672" /><trkpt lat="22.39738878125" lon="114.16768879638671" /><trkpt lat="22.39691678125" lon="114.16755679638672" /><trkpt lat="22.39618078125" lon="114.16764179638672" /><trkpt lat="22.39565078125" lon="114.16766779638672" /><trkpt lat="22.39521478125" lon="114.16802479638672" /><trkpt lat="22.39503678125" lon="114.16813379638671" /><trkpt lat="22.39489878125" lon="114.16815779638672" /><trkpt lat="22.39464878125" lon="114.16805779638672" /><trkpt lat="22.39398878125" lon="114.16767179638671" /><trkpt lat="22.39368778125" lon="114.16739779638672" /><trkpt lat="22.39359178125" lon="114.16724479638673" /><trkpt lat="22.39354578125" lon="114.16716879638672" /><trkpt lat="22.39328178125" lon="114.16625779638672" /><trkpt lat="22.39297678125" lon="114.16544079638672" /><trkpt lat="22.39268878125" lon="114.16521679638672" /><trkpt lat="22.39230378125" lon="114.16510879638672" /><trkpt lat="22.39225578125" lon="114.16468479638672" /><trkpt lat="22.39181878125" lon="114.16427379638672" /><trkpt lat="22.39170578125" lon="114.16380179638672" /><trkpt lat="22.39167778125" lon="114.16368679638671" /><trkpt lat="22.39109178125" lon="114.16285679638672" /><trkpt lat="22.39091978125" lon="114.16275079638672" /><trkpt lat="22.39048378125" lon="114.16272279638672" /><trkpt lat="22.39027378125" lon="114.16265479638672" /><trkpt lat="22.38982178125" lon="114.16250579638672" /><trkpt lat="22.38959478125" lon="114.16217579638672" /><trkpt lat="22.38912978125" lon="114.16189779638673" /><trkpt lat="22.38864278125" lon="114.16159579638672" /><trkpt lat="22.38833678125" lon="114.16147079638672" /><trkpt lat="22.38815378125" lon="114.16124079638672" /><trkpt lat="22.38787278125" lon="114.16113279638672" /><trkpt lat="22.38745178125" lon="114.16072579638671" /><trkpt lat="22.38714078125" lon="114.16061879638671" /><trkpt lat="22.38701778125" lon="114.16057479638671" /><trkpt lat="22.38671878125" lon="114.16020779638671" /><trkpt lat="22.38613678125" lon="114.15927979638671" /><trkpt lat="22.38579678125" lon="114.15885979638672" /><trkpt lat="22.38542578125" lon="114.15839979638672" /><trkpt lat="22.38534578125" lon="114.15812279638672" /><trkpt lat="22.38516678125" lon="114.15788379638671" /><trkpt lat="22.38513278125" lon="114.15766379638671" /><trkpt lat="22.38510678125" lon="114.15748879638672" /><trkpt lat="22.38501278125" lon="114.15732279638672" /><trkpt lat="22.38472978125" lon="114.15707279638671" /><trkpt lat="22.38436278125" lon="114.15704779638672" /><trkpt lat="22.38419178125" lon="114.15709679638672" /><trkpt lat="22.38391378125" lon="114.15734779638672" /><trkpt lat="22.383751781249998" lon="114.15735479638671" /><trkpt lat="22.38334878125" lon="114.15702079638672" /><trkpt lat="22.38317578125" lon="114.15697579638672" /><trkpt lat="22.38303278125" lon="114.15686079638672" /><trkpt lat="22.38292278125" lon="114.15670079638672" /><trkpt lat="22.38288478125" lon="114.15649579638672" /><trkpt lat="22.38278978125" lon="114.15581479638672" /><trkpt lat="22.38282878125" lon="114.15563879638673" /><trkpt lat="22.38257178125" lon="114.15554179638671" /><trkpt lat="22.38211878125" lon="114.15525579638673" /><trkpt lat="22.38198678125" lon="114.15489079638672" /><trkpt lat="22.38163678125" lon="114.15430479638673" /><trkpt lat="22.38161878125" lon="114.15417179638672" /><trkpt lat="22.38192578125" lon="114.15370779638671" /><trkpt lat="22.38191478125" lon="114.15329279638672" /><trkpt lat="22.38153478125" lon="114.15271279638672" /><trkpt lat="22.38154278125" lon="114.15239779638672" /><trkpt lat="22.38147878125" lon="114.15228179638672" /><trkpt lat="22.38132778125" lon="114.15219879638671" /><trkpt lat="22.38133878125" lon="114.15198679638672" /><trkpt lat="22.38144678125" lon="114.15183779638672" /><trkpt lat="22.38145478125" lon="114.15174179638672" /><trkpt lat="22.38118978125" lon="114.15163879638672" /><trkpt lat="22.38079478125" lon="114.15074679638671" /><trkpt lat="22.38062078125" lon="114.15040179638672" /><trkpt lat="22.38056878125" lon="114.15020579638671" /><trkpt lat="22.38047078125" lon="114.15007179638671" /><trkpt lat="22.38048278125" lon="114.14986079638672" /><trkpt lat="22.38039078125" lon="114.14962479638672" /><trkpt lat="22.38036178125" lon="114.14950379638672" /><trkpt lat="22.38038278125" lon="114.14922679638671" /><trkpt lat="22.38033178125" lon="114.14924279638672" /><trkpt lat="22.38020478125" lon="114.14934279638672" /><trkpt lat="22.38014178125" lon="114.14934779638672" /><trkpt lat="22.38015678125" lon="114.14926779638672" /><trkpt lat="22.38022278125" lon="114.14917079638671" /><trkpt lat="22.38031778125" lon="114.14905779638671" /><trkpt lat="22.38028078125" lon="114.14903179638672" /><trkpt lat="22.38021778125" lon="114.14894379638672" /><trkpt lat="22.37992278125" lon="114.14862879638672" /><trkpt lat="22.37971978125" lon="114.14841279638672" /><trkpt lat="22.37890978125" lon="114.14758279638671" /><trkpt lat="22.37884278125" lon="114.14752179638671" /><trkpt lat="22.37875578125" lon="114.14721979638672" /><trkpt lat="22.37867078125" lon="114.14711379638672" /><trkpt lat="22.37842378125" lon="114.14692779638672" /><trkpt lat="22.37814378125" lon="114.14662179638673" /><trkpt lat="22.37787578125" lon="114.14630779638672" /><trkpt lat="22.37786078125" lon="114.14627979638672" /><trkpt lat="22.37785878125" lon="114.14624779638672" /><trkpt lat="22.37787778125" lon="114.14621079638673" /><trkpt lat="22.37792978125" lon="114.14616579638673" /><trkpt lat="22.37828178125" lon="114.14596079638672" /><trkpt lat="22.37849678125" lon="114.14557679638672" /><trkpt lat="22.37864578125" lon="114.14530779638672" /><trkpt lat="22.37853878125" lon="114.14477879638672" /><trkpt lat="22.37843878125" lon="114.14463479638673" /><trkpt lat="22.37823378125" lon="114.14453279638671" /><trkpt lat="22.37813678125" lon="114.14443679638671" /><trkpt lat="22.37807978125" lon="114.14432679638672" /><trkpt lat="22.37811378125" lon="114.14412879638672" /><trkpt lat="22.37814178125" lon="114.14401579638673" /><trkpt lat="22.37817478125" lon="114.14377079638672" /><trkpt lat="22.37820978125" lon="114.14364379638671" /><trkpt lat="22.37825178125" lon="114.14354179638671" /><trkpt lat="22.37829778125" lon="114.14350379638672" /><trkpt lat="22.37838978125" lon="114.14345779638671" /><trkpt lat="22.37859178125" lon="114.14344979638672" /><trkpt lat="22.37885678125" lon="114.14340679638671" /><trkpt lat="22.37899778125" lon="114.14340579638672" /><trkpt lat="22.37934178125" lon="114.14354279638673" /><trkpt lat="22.37939978125" lon="114.14357879638672" /><trkpt lat="22.37961478125" lon="114.14353479638672" /><trkpt lat="22.38003178125" lon="114.14343679638672" /><trkpt lat="22.38025378125" lon="114.14338979638671" /><trkpt lat="22.38034178125" lon="114.14342479638673" /><trkpt lat="22.38051178125" lon="114.14353079638671" /><trkpt lat="22.38057178125" lon="114.14354279638673" /><trkpt lat="22.38065378125" lon="114.14356579638672" /><trkpt lat="22.38070678125" lon="114.14356079638672" /><trkpt lat="22.38077078125" lon="114.14352879638672" /><trkpt lat="22.38081678125" lon="114.14348679638672" /><trkpt lat="22.38085078125" lon="114.14342379638671" /><trkpt lat="22.38086378125" lon="114.14334479638671" /><trkpt lat="22.38089978125" lon="114.14313579638672" /><trkpt lat="22.38091378125" lon="114.14306579638672" /><trkpt lat="22.38100578125" lon="114.14292079638672" /><trkpt lat="22.38105578125" lon="114.14286879638672" /><trkpt lat="22.38110878125" lon="114.14278879638672" /><trkpt lat="22.38113678125" lon="114.14273279638672" /><trkpt lat="22.38116678125" lon="114.14264879638672" /><trkpt lat="22.38117278125" lon="114.14258779638672" /><trkpt lat="22.38116978125" lon="114.14251679638672" /><trkpt lat="22.38114478125" lon="114.14243279638671" /><trkpt lat="22.38109578125" lon="114.14233979638672" /><trkpt lat="22.38101678125" lon="114.14218879638672" /><trkpt lat="22.38088078125" lon="114.14191579638671" /><trkpt lat="22.38087078125" lon="114.14181379638671" /><trkpt lat="22.38087778125" lon="114.14172279638672" /><trkpt lat="22.38091778125" lon="114.14165479638672" /><trkpt lat="22.38097078125" lon="114.14160079638671" /><trkpt lat="22.38155878125" lon="114.14141479638671" /><trkpt lat="22.38181878125" lon="114.14149679638672" /><trkpt lat="22.38205678125" lon="114.14172379638671" /><trkpt lat="22.38243378125" lon="114.14194979638673" /><trkpt lat="22.38254178125" lon="114.14210879638672" /><trkpt lat="22.38277978125" lon="114.14229179638671" /><trkpt lat="22.38288778125" lon="114.14251079638672" /><trkpt lat="22.38324678125" lon="114.14260879638672" /><trkpt lat="22.38343278125" lon="114.14269679638672" /><trkpt lat="22.38357478125" lon="114.14314979638672" /><trkpt lat="22.38376378125" lon="114.14338579638672" /><trkpt lat="22.38394478125" lon="114.14361979638672" /><trkpt lat="22.38414378125" lon="114.14375479638672" /><trkpt lat="22.38429078125" lon="114.14378579638672" /><trkpt lat="22.38434978125" lon="114.14379579638671" /><trkpt lat="22.38440978125" lon="114.14379879638672" /><trkpt lat="22.38445178125" lon="114.14378379638671" /><trkpt lat="22.38449278125" lon="114.14374679638672" /><trkpt lat="22.38452278125" lon="114.14369879638672" /><trkpt lat="22.38459041089733" lon="114.14375662463513" /></trkseg></trk></gpx>