<?xml version='1.0' encoding='UTF-8' ?><gpx version="1.1" creator="HikingTrailHK" xsi:schemaLocation="http://www.topografix.com/GPX/1/1 http://www.topografix.com/GPX/1/1/gpx.xsd" xmlns="http://www.topografix.com/GPX/1/1" xmlns:xsi="http://www.w3.org/2001/XMLSchema-instance"><metadata><name>釣魚翁 @ 2016-10-9</name><desc>半見村至相思灣</desc></metadata><trk><trkseg><trkpt lat="22.31505373021802" lon="114.26433359385078" /><trkpt lat="22.31481778125" lon="114.26461979638673" /><trkpt lat="22.31474578125" lon="114.26471779638672" /><trkpt lat="22.31467478125" lon="114.26482179638671" /><trkpt lat="22.31467678125" lon="114.26488079638672" /><trkpt lat="22.31467878125" lon="114.26492479638672" /><trkpt lat="22.31468678125" lon="114.26498279638672" /><trkpt lat="22.31469178125" lon="114.26504079638671" /><trkpt lat="22.31472078125" lon="114.26512879638672" /><trkpt lat="22.31484078125" lon="114.26527879638672" /><trkpt lat="22.31501078125" lon="114.26544279638672" /><trkpt lat="22.31508778125" lon="114.26552779638672" /><trkpt lat="22.31512378125" lon="114.26560779638672" /><trkpt lat="22.31514878125" lon="114.26567779638673" /><trkpt lat="22.31515878125" lon="114.26578679638672" /><trkpt lat="22.31513278125" lon="114.26586879638671" /><trkpt lat="22.31507978125" lon="114.26593779638672" /><trkpt lat="22.31477378125" lon="114.26627079638672" /><trkpt lat="22.31465478125" lon="114.26639979638672" /><trkpt lat="22.31444578125" lon="114.26663579638672" /><trkpt lat="22.31393978125" lon="114.26724279638672" /><trkpt lat="22.31376078125" lon="114.26743879638671" /><trkpt lat="22.31382678125" lon="114.26751279638673" /><trkpt lat="22.31398678125" lon="114.26768679638671" /><trkpt lat="22.31467278125" lon="114.26841679638672" /><trkpt lat="22.31507278125" lon="114.26881179638671" /><trkpt lat="22.31567178125" lon="114.26940379638671" /><trkpt lat="22.31631678125" lon="114.26999879638672" /><trkpt lat="22.31643264381858" lon="114.27009363845507" /><trkpt lat="22.31640378125" lon="114.27010679638671" /><trkpt lat="22.31634978125" lon="114.27016079638672" /><trkpt lat="22.31631878125" lon="114.27023279638672" /><trkpt lat="22.31631378125" lon="114.27031279638672" /><trkpt lat="22.31632478125" lon="114.27036279638672" /><trkpt lat="22.31635478125" lon="114.27042279638673" /><trkpt lat="22.31640178125" lon="114.27046879638672" /><trkpt lat="22.31645978125" lon="114.27049779638672" /><trkpt lat="22.31652278125" lon="114.27050579638671" /><trkpt lat="22.31645278125" lon="114.27053679638672" /><trkpt lat="22.31638878125" lon="114.27056379638672" /><trkpt lat="22.31624078125" lon="114.27066579638672" /><trkpt lat="22.31612678125" lon="114.27082079638672" /><trkpt lat="22.31608678125" lon="114.27087079638672" /><trkpt lat="22.31602778125" lon="114.27094379638672" /><trkpt lat="22.31589878125" lon="114.27111379638671" /><trkpt lat="22.31595478125" lon="114.27115679638672" /><trkpt lat="22.31589278125" lon="114.27124279638672" /><trkpt lat="22.31585578125" lon="114.27128279638671" /><trkpt lat="22.31583278125" lon="114.27134979638672" /><trkpt lat="22.31582078125" lon="114.27139679638672" /><trkpt lat="22.31580078125" lon="114.27146179638672" /><trkpt lat="22.31578078125" lon="114.27154379638672" /><trkpt lat="22.31576578125" lon="114.27160779638672" /><trkpt lat="22.31572178125" lon="114.27165779638672" /><trkpt lat="22.31569678125" lon="114.27169679638672" /><trkpt lat="22.31566378125" lon="114.27175979638672" /><trkpt lat="22.31561678125" lon="114.27184879638672" /><trkpt lat="22.31556778125" lon="114.27191779638672" /><trkpt lat="22.31551978125" lon="114.27200479638672" /><trkpt lat="22.31546778125" lon="114.27208479638672" /><trkpt lat="22.31539578125" lon="114.27220379638672" /><trkpt lat="22.31530878125" lon="114.27228079638672" /><trkpt lat="22.31522778125" lon="114.27234779638673" /><trkpt lat="22.31515778125" lon="114.27240979638673" /><trkpt lat="22.31510178125" lon="114.27247279638672" /><trkpt lat="22.31503778125" lon="114.27254879638672" /><trkpt lat="22.31496378125" lon="114.27262479638672" /><trkpt lat="22.31489678125" lon="114.27270279638672" /><trkpt lat="22.31482878125" lon="114.27277879638672" /><trkpt lat="22.31477278125" lon="114.27284579638672" /><trkpt lat="22.31469678125" lon="114.27294479638672" /><trkpt lat="22.31465978125" lon="114.27303479638672" /><trkpt lat="22.31462978125" lon="114.27311179638671" /><trkpt lat="22.31460278125" lon="114.27316379638673" /><trkpt lat="22.31456178125" lon="114.27321879638671" /><trkpt lat="22.31453578125" lon="114.27329479638672" /><trkpt lat="22.31451878125" lon="114.27335679638672" /><trkpt lat="22.31449378125" lon="114.27341679638671" /><trkpt lat="22.31445678125" lon="114.27346879638672" /><trkpt lat="22.31441378125" lon="114.27352979638673" /><trkpt lat="22.31442178125" lon="114.27360579638672" /><trkpt lat="22.31441078125" lon="114.27367379638672" /><trkpt lat="22.31438178125" lon="114.27375879638672" /><trkpt lat="22.31434878125" lon="114.27380879638672" /><trkpt lat="22.31429878125" lon="114.27386179638673" /><trkpt lat="22.31423478125" lon="114.27392279638671" /><trkpt lat="22.31418578125" lon="114.27396879638673" /><trkpt lat="22.314128781249998" lon="114.27404179638671" /><trkpt lat="22.31406578125" lon="114.27410979638672" /><trkpt lat="22.31401678125" lon="114.27416479638671" /><trkpt lat="22.31398378125" lon="114.27424479638672" /><trkpt lat="22.31395278125" lon="114.27430879638672" /><trkpt lat="22.31392478125" lon="114.27437579638672" /><trkpt lat="22.313893781250002" lon="114.27444379638672" /><trkpt lat="22.31385778125" lon="114.27450879638671" /><trkpt lat="22.31383078125" lon="114.27457779638672" /><trkpt lat="22.31381278125" lon="114.27465679638672" /><trkpt lat="22.31380278125" lon="114.27472379638672" /><trkpt lat="22.31379278125" lon="114.27480479638672" /><trkpt lat="22.31381878125" lon="114.27486279638671" /><trkpt lat="22.31385078125" lon="114.27491979638671" /><trkpt lat="22.31374078125" lon="114.27496479638671" /><trkpt lat="22.31366878125" lon="114.27498179638673" /><trkpt lat="22.31359278125" lon="114.27499579638672" /><trkpt lat="22.31349878125" lon="114.27501079638672" /><trkpt lat="22.31341278125" lon="114.27502079638671" /><trkpt lat="22.31332278125" lon="114.27501379638672" /><trkpt lat="22.31324178125" lon="114.27499279638671" /><trkpt lat="22.31318278125" lon="114.27497379638672" /><trkpt lat="22.31311778125" lon="114.27494279638672" /><trkpt lat="22.31304578125" lon="114.27491479638672" /><trkpt lat="22.31298078125" lon="114.27488079638673" /><trkpt lat="22.31288178125" lon="114.27488979638672" /><trkpt lat="22.31276978125" lon="114.27488979638672" /><trkpt lat="22.31271378125" lon="114.27487179638672" /><trkpt lat="22.31264278125" lon="114.27485579638672" /><trkpt lat="22.31258978125" lon="114.27494879638672" /><trkpt lat="22.31255578125" lon="114.27503279638672" /><trkpt lat="22.31249978125" lon="114.27515079638673" /><trkpt lat="22.31244478125" lon="114.27527779638672" /><trkpt lat="22.31240978125" lon="114.27541779638672" /><trkpt lat="22.31241678125" lon="114.27553179638672" /><trkpt lat="22.31242278125" lon="114.27565979638672" /><trkpt lat="22.31242878125" lon="114.27579279638672" /><trkpt lat="22.31239478125" lon="114.27589879638671" /><trkpt lat="22.31233878125" lon="114.27603479638672" /><trkpt lat="22.31229278125" lon="114.27612179638672" /><trkpt lat="22.31221778125" lon="114.27621179638672" /><trkpt lat="22.31212478125" lon="114.27632079638671" /><trkpt lat="22.31206278125" lon="114.27638379638672" /><trkpt lat="22.31198578125" lon="114.27647679638672" /><trkpt lat="22.31191578125" lon="114.27655779638673" /><trkpt lat="22.31182978125" lon="114.27668179638673" /><trkpt lat="22.31175278125" lon="114.27679079638672" /><trkpt lat="22.31168278125" lon="114.27691879638672" /><trkpt lat="22.31161678125" lon="114.27704979638672" /><trkpt lat="22.31157378125" lon="114.27709679638672" /><trkpt lat="22.31146978125" lon="114.27720579638672" /><trkpt lat="22.31140378125" lon="114.27727179638671" /><trkpt lat="22.31133378125" lon="114.27738379638672" /><trkpt lat="22.31128678125" lon="114.27741879638671" /><trkpt lat="22.31124078125" lon="114.27745879638672" /><trkpt lat="22.31115878125" lon="114.27752079638672" /><trkpt lat="22.31109978125" lon="114.27755979638673" /><trkpt lat="22.31104778125" lon="114.27760279638672" /><trkpt lat="22.31099478125" lon="114.27765979638671" /><trkpt lat="22.31094278125" lon="114.27771879638672" /><trkpt lat="22.31084478125" lon="114.27787879638672" /><trkpt lat="22.31061378125" lon="114.27797679638672" /><trkpt lat="22.31051778125" lon="114.27790979638672" /><trkpt lat="22.31035678125" lon="114.27803779638671" /><trkpt lat="22.31026778125" lon="114.27814679638672" /><trkpt lat="22.31006578125" lon="114.27812379638672" /><trkpt lat="22.30993678125" lon="114.27817679638672" /><trkpt lat="22.30988778125" lon="114.27819779638672" /><trkpt lat="22.30982178125" lon="114.27818479638672" /><trkpt lat="22.30973278125" lon="114.27836279638672" /><trkpt lat="22.30968178125" lon="114.27841679638672" /><trkpt lat="22.30955178125" lon="114.27847779638672" /><trkpt lat="22.30938178125" lon="114.27875779638671" /><trkpt lat="22.30935078125" lon="114.27875579638672" /><trkpt lat="22.309210781250002" lon="114.27890379638671" /><trkpt lat="22.30914278125" lon="114.27903879638671" /><trkpt lat="22.30913478125" lon="114.27924979638672" /><trkpt lat="22.30890278125" lon="114.27934579638672" /><trkpt lat="22.30896978125" lon="114.27947479638672" /><trkpt lat="22.30885678125" lon="114.27996679638672" /><trkpt lat="22.30890478125" lon="114.28030179638672" /><trkpt lat="22.30888178125" lon="114.28058279638672" /><trkpt lat="22.30871978125" lon="114.28083779638672" /><trkpt lat="22.30877278125" lon="114.28101679638672" /><trkpt lat="22.30875678125" lon="114.28106979638672" /><trkpt lat="22.30875478125" lon="114.28107479638672" /><trkpt lat="22.30878578125" lon="114.28112179638671" /><trkpt lat="22.30880178125" lon="114.28119579638673" /><trkpt lat="22.30883378125" lon="114.28124279638672" /><trkpt lat="22.30893478125" lon="114.28126879638671" /><trkpt lat="22.30902978125" lon="114.28134379638672" /><trkpt lat="22.30913878125" lon="114.28137179638672" /><trkpt lat="22.30926378125" lon="114.28141279638672" /><trkpt lat="22.30927778125" lon="114.28153379638673" /><trkpt lat="22.309188388203566" lon="114.28160513653307" /><trkpt lat="22.30914514590934" lon="114.28152774782899" /><trkpt lat="22.30919534090748" lon="114.28146887510917" /><trkpt lat="22.309202803106416" lon="114.2814661737462" /><trkpt lat="22.309216767277093" lon="114.2814656616643" /><trkpt lat="22.309220646953577" lon="114.28146297945528" /><trkpt lat="22.30922560983754" lon="114.28146297945528" /><trkpt lat="22.30922809127945" lon="114.2814569988364" /><trkpt lat="22.30922809127945" lon="114.28145225061922" /><trkpt lat="22.309230572721333" lon="114.28144756182843" /><trkpt lat="22.309234256414427" lon="114.2814468862012" /><trkpt lat="22.30923553560494" lon="114.28144321649921" /><trkpt lat="22.309238017046667" lon="114.28144039120849" /><trkpt lat="22.30924846690623" lon="114.28140777327782" /><trkpt lat="22.30913878125" lon="114.28137179638672" /><trkpt lat="22.30902978125" lon="114.28134379638672" /><trkpt lat="22.30893478125" lon="114.28126879638671" /><trkpt lat="22.30883378125" lon="114.28124279638672" /><trkpt lat="22.30880178125" lon="114.28119579638673" /><trkpt lat="22.30878578125" lon="114.28112179638671" /><trkpt lat="22.30872178125" lon="114.28117279638671" /><trkpt lat="22.30865578125" lon="114.28120279638672" /><trkpt lat="22.30856178125" lon="114.28130879638672" /><trkpt lat="22.30850678125" lon="114.28138079638671" /><trkpt lat="22.30826878125" lon="114.28147479638672" /><trkpt lat="22.30822178125" lon="114.28150379638672" /><trkpt lat="22.30811378125" lon="114.28151579638671" /><trkpt lat="22.30793878125" lon="114.28149979638673" /><trkpt lat="22.30774078125" lon="114.28148479638672" /><trkpt lat="22.30762678125" lon="114.28151579638671" /><trkpt lat="22.30751278125" lon="114.28155379638672" /><trkpt lat="22.30733778125" lon="114.28149279638671" /><trkpt lat="22.30723878125" lon="114.28149279638671" /><trkpt lat="22.30707878125" lon="114.28150779638672" /><trkpt lat="22.30691178125" lon="114.28145479638673" /><trkpt lat="22.30675978125" lon="114.28145479638673" /><trkpt lat="22.30654678125" lon="114.28145479638673" /><trkpt lat="22.30640978125" lon="114.28144279638671" /><trkpt lat="22.30632778125" lon="114.28141979638671" /><trkpt lat="22.30620878125" lon="114.28140079638672" /><trkpt lat="22.30609878125" lon="114.28140079638672" /><trkpt lat="22.30598478125" lon="114.28141479638671" /><trkpt lat="22.30588878125" lon="114.28143779638671" /><trkpt lat="22.30582478125" lon="114.28142879638672" /><trkpt lat="22.30575078125" lon="114.28136879638672" /><trkpt lat="22.30568678125" lon="114.28129179638672" /><trkpt lat="22.30560978125" lon="114.28123179638672" /><trkpt lat="22.30555478125" lon="114.28119479638671" /><trkpt lat="22.30555878125" lon="114.28110879638672" /><trkpt lat="22.30552278125" lon="114.28102179638672" /><trkpt lat="22.30544878125" lon="114.28100779638672" /><trkpt lat="22.30536678125" lon="114.28101679638672" /><trkpt lat="22.30527078125" lon="114.28098479638672" /><trkpt lat="22.30518378125" lon="114.28093879638672" /><trkpt lat="22.30506578125" lon="114.28090979638672" /><trkpt lat="22.30491178125" lon="114.28093079638671" /><trkpt lat="22.30476778125" lon="114.28097179638672" /><trkpt lat="22.30463478125" lon="114.28104379638671" /><trkpt lat="22.30445978125" lon="114.28105379638671" /><trkpt lat="22.30423378125" lon="114.28106379638672" /><trkpt lat="22.30402878125" lon="114.28103279638673" /><trkpt lat="22.30383378125" lon="114.28095079638672" /><trkpt lat="22.30362778125" lon="114.28095079638672" /><trkpt lat="22.30345378125" lon="114.28097179638672" /><trkpt lat="22.30323778125" lon="114.28101279638672" /><trkpt lat="22.30303278125" lon="114.28108479638672" /><trkpt lat="22.30284778125" lon="114.28113579638672" /><trkpt lat="22.30264278125" lon="114.28120779638672" /><trkpt lat="22.30246778125" lon="114.28118679638672" /><trkpt lat="22.30235878125" lon="114.28118379638671" /><trkpt lat="22.30227378125" lon="114.28119179638672" /><trkpt lat="22.30219778125" lon="114.28121279638673" /><trkpt lat="22.30213378125" lon="114.28129779638672" /><trkpt lat="22.30207478125" lon="114.28139979638672" /><trkpt lat="22.30200278125" lon="114.28147579638672" /><trkpt lat="22.30194778125" lon="114.28155179638672" /><trkpt lat="22.30186278125" lon="114.28166179638671" /><trkpt lat="22.30179478125" lon="114.28176779638672" /><trkpt lat="22.30172178125" lon="114.28188979638672" /><trkpt lat="22.30165378125" lon="114.28195379638672" /><trkpt lat="22.30159378125" lon="114.28202079638672" /><trkpt lat="22.30153778125" lon="114.28209679638672" /><trkpt lat="22.30144578125" lon="114.28217279638672" /><trkpt lat="22.30135478125" lon="114.28221279638672" /><trkpt lat="22.30126278125" lon="114.28224079638672" /><trkpt lat="22.30114678125" lon="114.28224079638672" /><trkpt lat="22.30103178125" lon="114.28222079638672" /><trkpt lat="22.30090778125" lon="114.28220079638672" /><trkpt lat="22.30079578125" lon="114.28219679638671" /><trkpt lat="22.30070678125" lon="114.28215479638672" /><trkpt lat="22.30064078125" lon="114.28212479638673" /><trkpt lat="22.30059278125" lon="114.28209979638672" /><trkpt lat="22.30052478125" lon="114.28207779638672" /><trkpt lat="22.30047978125" lon="114.28207479638672" /><trkpt lat="22.30042978125" lon="114.28207979638672" /><trkpt lat="22.30039878125" lon="114.28205679638671" /><trkpt lat="22.30036478125" lon="114.28205279638672" /><trkpt lat="22.30034178125" lon="114.28206579638672" /><trkpt lat="22.30032778125" lon="114.28208879638672" /><trkpt lat="22.30030578125" lon="114.28211779638671" /><trkpt lat="22.30028278125" lon="114.28210679638671" /><trkpt lat="22.30024678125" lon="114.28209079638673" /><trkpt lat="22.30020578125" lon="114.28210879638672" /><trkpt lat="22.30015578125" lon="114.28214479638672" /><trkpt lat="22.30009278125" lon="114.28218879638672" /><trkpt lat="22.30002178125" lon="114.28224279638673" /><trkpt lat="22.29992678125" lon="114.28231479638671" /><trkpt lat="22.29983178125" lon="114.28237379638672" /><trkpt lat="22.29976878125" lon="114.28242379638672" /><trkpt lat="22.29965578125" lon="114.28250979638672" /><trkpt lat="22.29953378125" lon="114.28258679638672" /><trkpt lat="22.29945178125" lon="114.28263179638672" /><trkpt lat="22.29937578125" lon="114.28267179638672" /><trkpt lat="22.29927178125" lon="114.28271279638672" /><trkpt lat="22.29916778125" lon="114.28273979638672" /><trkpt lat="22.29904978125" lon="114.28280379638672" /><trkpt lat="22.29894578125" lon="114.28289779638672" /><trkpt lat="22.29886878125" lon="114.28297979638671" /><trkpt lat="22.29877378125" lon="114.28305679638672" /><trkpt lat="22.29871978125" lon="114.28314679638672" /><trkpt lat="22.29865678125" lon="114.28321879638672" /><trkpt lat="22.29853478125" lon="114.28334079638672" /><trkpt lat="22.29841878125" lon="114.28342979638671" /><trkpt lat="22.29831478125" lon="114.28354179638671" /><trkpt lat="22.29822978125" lon="114.28362579638672" /><trkpt lat="22.29811378125" lon="114.28374979638672" /><trkpt lat="22.29802578125" lon="114.28385479638672" /><trkpt lat="22.29794978125" lon="114.28390279638671" /><trkpt lat="22.29785278125" lon="114.28395079638672" /><trkpt lat="22.29778878125" lon="114.28403479638672" /><trkpt lat="22.29770478125" lon="114.28412279638673" /><trkpt lat="22.29761278125" lon="114.28420779638672" /><trkpt lat="22.29751178125" lon="114.28429179638673" /><trkpt lat="22.29739578125" lon="114.28435579638672" /><trkpt lat="22.29725578125" lon="114.28444379638673" /><trkpt lat="22.29715178125" lon="114.28453579638672" /><trkpt lat="22.29707878125" lon="114.28462479638672" /><trkpt lat="22.29702878125" lon="114.28472279638672" /><trkpt lat="22.29697578125" lon="114.28476979638671" /><trkpt lat="22.29692178125" lon="114.28476979638671" /><trkpt lat="22.29686378125" lon="114.28479679638671" /><trkpt lat="22.29678478125" lon="114.28485079638672" /><trkpt lat="22.29673578125" lon="114.28490179638672" /><trkpt lat="22.29670078125" lon="114.28495279638672" /><trkpt lat="22.29667578125" lon="114.28499479638671" /><trkpt lat="22.29662278125" lon="114.28502679638672" /><trkpt lat="22.29637378125" lon="114.28517379638672" /><trkpt lat="22.29635478125" lon="114.28526079638672" /><trkpt lat="22.29630078125" lon="114.28532679638671" /><trkpt lat="22.29622978125" lon="114.28537379638672" /><trkpt lat="22.29620178125" lon="114.28545579638671" /><trkpt lat="22.29615678125" lon="114.28548679638672" /><trkpt lat="22.29609478125" lon="114.28553179638672" /><trkpt lat="22.29604378125" lon="114.28561079638672" /><trkpt lat="22.29596178125" lon="114.28568279638672" /><trkpt lat="22.29585878125" lon="114.28579079638672" /><trkpt lat="22.29576378125" lon="114.28590479638672" /><trkpt lat="22.29566078125" lon="114.28597679638672" /><trkpt lat="22.29561978125" lon="114.28601879638671" /><trkpt lat="22.29546278125" lon="114.28606979638671" /><trkpt lat="22.29541578125" lon="114.28588479638672" /><trkpt lat="22.29539478125" lon="114.28586979638672" /><trkpt lat="22.29536578125" lon="114.28585179638672" /><trkpt lat="22.29530878125" lon="114.28583279638671" /><trkpt lat="22.29529078125" lon="114.28573579638672" /><trkpt lat="22.29526378125" lon="114.28571879638672" /><trkpt lat="22.29522878125" lon="114.28568679638671" /><trkpt lat="22.29519078125" lon="114.28563479638672" /><trkpt lat="22.29515778125" lon="114.28559479638672" /><trkpt lat="22.29512378125" lon="114.28557179638672" /><trkpt lat="22.29507378125" lon="114.28553679638672" /><trkpt lat="22.29498578125" lon="114.28546879638672" /><trkpt lat="22.29488878125" lon="114.28540879638672" /><trkpt lat="22.29483978125" lon="114.28540579638671" /><trkpt lat="22.29466878125" lon="114.28529579638672" /><trkpt lat="22.29460178125" lon="114.28528779638673" /><trkpt lat="22.29448878125" lon="114.28520979638672" /><trkpt lat="22.29438178125" lon="114.28519479638672" /><trkpt lat="22.29419578125" lon="114.28512579638672" /><trkpt lat="22.29409078125" lon="114.28510879638672" /><trkpt lat="22.29381978125" lon="114.28497879638672" /><trkpt lat="22.29367678125" lon="114.28491979638672" /><trkpt lat="22.29360778125" lon="114.28492479638672" /><trkpt lat="22.29350578125" lon="114.28488979638672" /><trkpt lat="22.29339878125" lon="114.28485779638672" /><trkpt lat="22.29328978125" lon="114.28478179638672" /><trkpt lat="22.29332278125" lon="114.28531879638672" /><trkpt lat="22.29329278125" lon="114.28559579638672" /><trkpt lat="22.29320378125" lon="114.28576379638672" /><trkpt lat="22.29313478125" lon="114.28586279638672" /><trkpt lat="22.29302578125" lon="114.28593279638672" /><trkpt lat="22.29299578125" lon="114.28611079638672" /><trkpt lat="22.29297678125" lon="114.28628879638671" /><trkpt lat="22.29295678125" lon="114.28643779638672" /><trkpt lat="22.29295678125" lon="114.28662579638672" /><trkpt lat="22.29297678125" lon="114.28693279638672" /><trkpt lat="22.29315478125" lon="114.28705079638672" /><trkpt lat="22.29323378125" lon="114.28714979638671" /><trkpt lat="22.29343178125" lon="114.28734779638671" /><trkpt lat="22.29362978125" lon="114.28753679638672" /><trkpt lat="22.29385778125" lon="114.28771479638672" /><trkpt lat="22.29403578125" lon="114.28786279638672" /><trkpt lat="22.29422378125" lon="114.28804179638672" /><trkpt lat="22.29434278125" lon="114.28823979638672" /><trkpt lat="22.29443178125" lon="114.28839779638672" /><trkpt lat="22.29457078125" lon="114.28849679638672" /><trkpt lat="22.29473878125" lon="114.28856579638672" /><trkpt lat="22.29495678125" lon="114.28863579638671" /><trkpt lat="22.29517478125" lon="114.28872479638672" /><trkpt lat="22.29541178125" lon="114.28885279638672" /><trkpt lat="22.29562378125" lon="114.28894779638672" /><trkpt lat="22.29569878125" lon="114.28898179638672" /><trkpt lat="22.29582378125" lon="114.28919079638672" /><trkpt lat="22.29608578125" lon="114.28928979638673" /><trkpt lat="22.29636278125" lon="114.28925179638672" /><trkpt lat="22.29655878125" lon="114.28921879638672" /><trkpt lat="22.29673678125" lon="114.28923279638671" /><trkpt lat="22.29697578125" lon="114.28923279638671" /><trkpt lat="22.29734578125" lon="114.28916279638672" /><trkpt lat="22.29757078125" lon="114.28912079638671" /><trkpt lat="22.29775878125" lon="114.28906479638673" /><trkpt lat="22.29790378125" lon="114.28904079638671" /><trkpt lat="22.29804378125" lon="114.28921879638672" /><trkpt lat="22.2981173352642" lon="114.28931441649144" /></trkseg></trk></gpx>