<?xml version='1.0' encoding='UTF-8' ?><gpx version="1.1" creator="HikingTrailHK" xsi:schemaLocation="http://www.topografix.com/GPX/1/1 http://www.topografix.com/GPX/1/1/gpx.xsd" xmlns="http://www.topografix.com/GPX/1/1" xmlns:xsi="http://www.w3.org/2001/XMLSchema-instance"><metadata><name>釣魚翁 @ 2016-10-9</name><desc>半見村至相思灣</desc></metadata><trk><trkseg><trkpt lat="22.31630674598535" lon="114.27045829777354" /><trkpt lat="22.31629378125" lon="114.27050879638672" /><trkpt lat="22.31627478125" lon="114.27057479638673" /><trkpt lat="22.31624078125" lon="114.27066579638672" /><trkpt lat="22.31612678125" lon="114.27082079638672" /><trkpt lat="22.31608678125" lon="114.27087079638672" /><trkpt lat="22.31602778125" lon="114.27094379638672" /><trkpt lat="22.31589878125" lon="114.27111379638671" /><trkpt lat="22.31594578125" lon="114.27114979638672" /><trkpt lat="22.31589878125" lon="114.27120879638672" /><trkpt lat="22.31585578125" lon="114.27128279638671" /><trkpt lat="22.31583278125" lon="114.27134979638672" /><trkpt lat="22.31582078125" lon="114.27139679638672" /><trkpt lat="22.31581378125" lon="114.27145879638672" /><trkpt lat="22.31581078125" lon="114.27150879638671" /><trkpt lat="22.31576578125" lon="114.27160779638672" /><trkpt lat="22.31572778125" lon="114.27166279638672" /><trkpt lat="22.31570078125" lon="114.27170179638672" /><trkpt lat="22.31566378125" lon="114.27175979638672" /><trkpt lat="22.31561678125" lon="114.27184879638672" /><trkpt lat="22.31558378125" lon="114.27193279638672" /><trkpt lat="22.31553078125" lon="114.27203679638671" /><trkpt lat="22.31548978125" lon="114.27212579638672" /><trkpt lat="22.31540678125" lon="114.27227079638672" /><trkpt lat="22.31533178125" lon="114.27237779638672" /><trkpt lat="22.31525278125" lon="114.27240879638671" /><trkpt lat="22.31517278125" lon="114.27244479638672" /><trkpt lat="22.31510478125" lon="114.27247679638671" /><trkpt lat="22.31503778125" lon="114.27252079638671" /><trkpt lat="22.31495878125" lon="114.27260879638672" /><trkpt lat="22.31488378125" lon="114.27272979638671" /><trkpt lat="22.31481578125" lon="114.27277679638672" /><trkpt lat="22.31477278125" lon="114.27284579638672" /><trkpt lat="22.31470378125" lon="114.27293879638673" /><trkpt lat="22.31468878125" lon="114.27302779638671" /><trkpt lat="22.31466478125" lon="114.27311379638672" /><trkpt lat="22.31464678125" lon="114.27317179638672" /><trkpt lat="22.31462678125" lon="114.27324479638672" /><trkpt lat="22.31459778125" lon="114.27331479638671" /><trkpt lat="22.31458278125" lon="114.27338979638672" /><trkpt lat="22.31456178125" lon="114.27343679638672" /><trkpt lat="22.31454078125" lon="114.27347879638671" /><trkpt lat="22.31451578125" lon="114.27353679638672" /><trkpt lat="22.31450578125" lon="114.27364179638671" /><trkpt lat="22.31449978125" lon="114.27369679638672" /><trkpt lat="22.31443578125" lon="114.27379279638672" /><trkpt lat="22.31439078125" lon="114.27385979638672" /><trkpt lat="22.31432978125" lon="114.27395779638672" /><trkpt lat="22.31426578125" lon="114.27398779638672" /><trkpt lat="22.31420478125" lon="114.27402479638671" /><trkpt lat="22.31414778125" lon="114.27406679638672" /><trkpt lat="22.31411278125" lon="114.27415979638671" /><trkpt lat="22.31407278125" lon="114.27420979638671" /><trkpt lat="22.31401278125" lon="114.27426879638672" /><trkpt lat="22.31397378125" lon="114.27431679638671" /><trkpt lat="22.31393478125" lon="114.27437579638672" /><trkpt lat="22.313893781250002" lon="114.27444379638672" /><trkpt lat="22.31385778125" lon="114.27450879638671" /><trkpt lat="22.31383078125" lon="114.27457779638672" /><trkpt lat="22.31381278125" lon="114.27465679638672" /><trkpt lat="22.31380078125" lon="114.27472079638672" /><trkpt lat="22.31378678125" lon="114.27478579638672" /><trkpt lat="22.31382178125" lon="114.27488979638672" /><trkpt lat="22.31385378125" lon="114.27495679638672" /><trkpt lat="22.31371778125" lon="114.27499379638672" /><trkpt lat="22.31366178125" lon="114.27500879638671" /><trkpt lat="22.31359578125" lon="114.27501879638672" /><trkpt lat="22.31351778125" lon="114.27502579638671" /><trkpt lat="22.31341578125" lon="114.27503779638671" /><trkpt lat="22.31335578125" lon="114.27503279638672" /><trkpt lat="22.31324278125" lon="114.27502079638671" /><trkpt lat="22.31317878125" lon="114.27499479638672" /><trkpt lat="22.31310978125" lon="114.27496379638671" /><trkpt lat="22.31304878125" lon="114.27493879638672" /><trkpt lat="22.31298378125" lon="114.27491579638672" /><trkpt lat="22.31288178125" lon="114.27488979638672" /><trkpt lat="22.31276978125" lon="114.27488979638672" /><trkpt lat="22.31271078125" lon="114.27488779638672" /><trkpt lat="22.31257978125" lon="114.27488579638671" /><trkpt lat="22.31256578125" lon="114.27494979638672" /><trkpt lat="22.31253378125" lon="114.27506479638672" /><trkpt lat="22.31247878125" lon="114.27512879638672" /><trkpt lat="22.31245178125" lon="114.27519779638672" /><trkpt lat="22.31239578125" lon="114.27540379638671" /><trkpt lat="22.31239678125" lon="114.27553179638672" /><trkpt lat="22.31238678125" lon="114.27565679638671" /><trkpt lat="22.31242378125" lon="114.27585179638672" /><trkpt lat="22.31240478125" lon="114.27591579638671" /><trkpt lat="22.31237478125" lon="114.27596879638672" /><trkpt lat="22.31226578125" lon="114.27610279638672" /><trkpt lat="22.31221178125" lon="114.27616379638673" /><trkpt lat="22.31212078125" lon="114.27630779638672" /><trkpt lat="22.31206278125" lon="114.27638379638672" /><trkpt lat="22.31198578125" lon="114.27647679638672" /><trkpt lat="22.31193878125" lon="114.27653079638672" /><trkpt lat="22.31185978125" lon="114.27665279638671" /><trkpt lat="22.31182378125" lon="114.27670379638671" /><trkpt lat="22.31171078125" lon="114.27689579638673" /><trkpt lat="22.31159878125" lon="114.27704179638671" /><trkpt lat="22.31155578125" lon="114.27708179638672" /><trkpt lat="22.31143478125" lon="114.27718979638672" /><trkpt lat="22.31138978125" lon="114.27725579638673" /><trkpt lat="22.31132678125" lon="114.27734879638672" /><trkpt lat="22.31128178125" lon="114.27741479638672" /><trkpt lat="22.31124078125" lon="114.27745879638672" /><trkpt lat="22.31116978125" lon="114.27751779638672" /><trkpt lat="22.31109978125" lon="114.27755979638673" /><trkpt lat="22.31104778125" lon="114.27760279638672" /><trkpt lat="22.31101578125" lon="114.27762879638672" /><trkpt lat="22.31097478125" lon="114.27769279638672" /><trkpt lat="22.31095578125" lon="114.27772079638672" /><trkpt lat="22.31087878125" lon="114.27776779638671" /><trkpt lat="22.31069078125" lon="114.27782279638672" /><trkpt lat="22.31053078125" lon="114.27788979638672" /><trkpt lat="22.31036778125" lon="114.27805879638672" /><trkpt lat="22.31028678125" lon="114.27812379638672" /><trkpt lat="22.31011078125" lon="114.27808779638671" /><trkpt lat="22.30990978125" lon="114.27807479638672" /><trkpt lat="22.30987778125" lon="114.27812179638671" /><trkpt lat="22.30983478125" lon="114.27815879638672" /><trkpt lat="22.30979678125" lon="114.27819179638672" /><trkpt lat="22.30969178125" lon="114.27831579638672" /><trkpt lat="22.30968278125" lon="114.27839879638672" /><trkpt lat="22.30960678125" lon="114.27844279638671" /><trkpt lat="22.30948878125" lon="114.27873679638672" /><trkpt lat="22.30936578125" lon="114.27881979638671" /><trkpt lat="22.30932778125" lon="114.27881879638672" /><trkpt lat="22.30929378125" lon="114.27881979638671" /><trkpt lat="22.30926778125" lon="114.27885379638671" /><trkpt lat="22.30921178125" lon="114.27889979638672" /><trkpt lat="22.309144123499856" lon="114.27893285182182" /><trkpt lat="22.30914278125" lon="114.27897379638672" /><trkpt lat="22.30907578125" lon="114.27908379638671" /><trkpt lat="22.30899778125" lon="114.27916879638671" /><trkpt lat="22.30895878125" lon="114.27925779638672" /><trkpt lat="22.30892278125" lon="114.27934879638671" /><trkpt lat="22.30892778125" lon="114.27941779638672" /><trkpt lat="22.30898178125" lon="114.27954379638672" /><trkpt lat="22.308971647092108" lon="114.27959169372502" /><trkpt lat="22.30885678125" lon="114.27996679638672" /><trkpt lat="22.30890478125" lon="114.28030179638672" /><trkpt lat="22.30889392573637" lon="114.28043442519034" /><trkpt lat="22.30892300046661" lon="114.28044074508476" /><trkpt lat="22.30886178125" lon="114.28076979638672" /><trkpt lat="22.30877678125" lon="114.28089879638672" /><trkpt lat="22.30875478125" lon="114.28100479638672" /><trkpt lat="22.30877778125" lon="114.28105079638672" /><trkpt lat="22.30878378125" lon="114.28111579638671" /><trkpt lat="22.30880178125" lon="114.28119579638673" /><trkpt lat="22.30883378125" lon="114.28124279638672" /><trkpt lat="22.308852867962916" lon="114.28124771032633" /><trkpt lat="22.30893478125" lon="114.28126879638671" /><trkpt lat="22.30902978125" lon="114.28134379638672" /><trkpt lat="22.30913878125" lon="114.28137179638672" /><trkpt lat="22.30926378125" lon="114.28141279638672" /><trkpt lat="22.30927778125" lon="114.28153379638673" /><trkpt lat="22.309188388203566" lon="114.28160513653307" /><trkpt lat="22.30914514590934" lon="114.28152774782899" /><trkpt lat="22.30919534090748" lon="114.28146887510917" /><trkpt lat="22.309202803106416" lon="114.2814661737462" /><trkpt lat="22.309216767277093" lon="114.2814656616643" /><trkpt lat="22.309220646953577" lon="114.28146297945528" /><trkpt lat="22.30922560983754" lon="114.28146297945528" /><trkpt lat="22.30922809127945" lon="114.2814569988364" /><trkpt lat="22.30922809127945" lon="114.28145225061922" /><trkpt lat="22.309230572721333" lon="114.28144756182843" /><trkpt lat="22.309234256414427" lon="114.2814468862012" /><trkpt lat="22.30923553560494" lon="114.28144321649921" /><trkpt lat="22.309238017046667" lon="114.28144039120849" /><trkpt lat="22.30924846690623" lon="114.28140777327782" /><trkpt lat="22.30913878125" lon="114.28137179638672" /><trkpt lat="22.30902978125" lon="114.28134379638672" /><trkpt lat="22.30893478125" lon="114.28126879638671" /><trkpt lat="22.30883378125" lon="114.28124279638672" /><trkpt lat="22.30880178125" lon="114.28119579638673" /><trkpt lat="22.30878578125" lon="114.28112179638671" /><trkpt lat="22.30872178125" lon="114.28117279638671" /><trkpt lat="22.30865578125" lon="114.28120279638672" /><trkpt lat="22.30856178125" lon="114.28130879638672" /><trkpt lat="22.30850678125" lon="114.28138079638671" /><trkpt lat="22.30826878125" lon="114.28147479638672" /><trkpt lat="22.30822178125" lon="114.28150379638672" /><trkpt lat="22.30811378125" lon="114.28151579638671" /><trkpt lat="22.30793878125" lon="114.28149979638673" /><trkpt lat="22.30774078125" lon="114.28148479638672" /><trkpt lat="22.30762678125" lon="114.28151579638671" /><trkpt lat="22.30751278125" lon="114.28155379638672" /><trkpt lat="22.30733778125" lon="114.28149279638671" /><trkpt lat="22.30723878125" lon="114.28149279638671" /><trkpt lat="22.30707878125" lon="114.28150779638672" /><trkpt lat="22.30691178125" lon="114.28145479638673" /><trkpt lat="22.30675978125" lon="114.28145479638673" /><trkpt lat="22.30654678125" lon="114.28145479638673" /><trkpt lat="22.30640978125" lon="114.28144279638671" /><trkpt lat="22.30632778125" lon="114.28141979638671" /><trkpt lat="22.30620878125" lon="114.28140079638672" /><trkpt lat="22.30609878125" lon="114.28140079638672" /><trkpt lat="22.30598478125" lon="114.28141479638671" /><trkpt lat="22.305885794966276" lon="114.28145916583735" /><trkpt lat="22.30579778125" lon="114.28144479638672" /><trkpt lat="22.30575978125" lon="114.28139279638673" /><trkpt lat="22.30572178125" lon="114.28130179638671" /><trkpt lat="22.30573678125" lon="114.28120579638671" /><trkpt lat="22.30573478125" lon="114.28107879638672" /><trkpt lat="22.30571678125" lon="114.28102979638672" /><trkpt lat="22.30569378125" lon="114.28099879638673" /><trkpt lat="22.30564878125" lon="114.28097279638672" /><trkpt lat="22.30561578125" lon="114.28098179638671" /><trkpt lat="22.30558778125" lon="114.28100779638672" /><trkpt lat="22.30556578125" lon="114.28106379638672" /><trkpt lat="22.30536978125" lon="114.28104979638672" /><trkpt lat="22.30528478125" lon="114.28101179638672" /><trkpt lat="22.30515578125" lon="114.28094779638671" /><trkpt lat="22.30502078125" lon="114.28094579638672" /><trkpt lat="22.30494178125" lon="114.28096779638672" /><trkpt lat="22.30481778125" lon="114.28099979638672" /><trkpt lat="22.30461978125" lon="114.28107279638672" /><trkpt lat="22.30445078125" lon="114.28107079638671" /><trkpt lat="22.30426278125" lon="114.28107479638672" /><trkpt lat="22.30420378125" lon="114.28106979638672" /><trkpt lat="22.30407378125" lon="114.28107479638672" /><trkpt lat="22.30392891047504" lon="114.28102177175293" /><trkpt lat="22.30383378125" lon="114.28095079638672" /><trkpt lat="22.30362778125" lon="114.28095079638672" /><trkpt lat="22.30345378125" lon="114.28097179638672" /><trkpt lat="22.30323778125" lon="114.28101279638672" /><trkpt lat="22.30303278125" lon="114.28108479638672" /><trkpt lat="22.30284778125" lon="114.28113579638672" /><trkpt lat="22.30264278125" lon="114.28120779638672" /><trkpt lat="22.30246778125" lon="114.28118679638672" /><trkpt lat="22.30235878125" lon="114.28118379638671" /><trkpt lat="22.30227378125" lon="114.28119179638672" /><trkpt lat="22.30219778125" lon="114.28121279638673" /><trkpt lat="22.30213378125" lon="114.28129779638672" /><trkpt lat="22.30207478125" lon="114.28139979638672" /><trkpt lat="22.30200278125" lon="114.28147579638672" /><trkpt lat="22.30194778125" lon="114.28155179638672" /><trkpt lat="22.30186278125" lon="114.28166179638671" /><trkpt lat="22.30179478125" lon="114.28176779638672" /><trkpt lat="22.30172178125" lon="114.28188979638672" /><trkpt lat="22.30165378125" lon="114.28195379638672" /><trkpt lat="22.30159378125" lon="114.28202079638672" /><trkpt lat="22.30153778125" lon="114.28209679638672" /><trkpt lat="22.30144578125" lon="114.28217279638672" /><trkpt lat="22.30135478125" lon="114.28221279638672" /><trkpt lat="22.30126278125" lon="114.28224079638672" /><trkpt lat="22.30114678125" lon="114.28224079638672" /><trkpt lat="22.30103178125" lon="114.28222079638672" /><trkpt lat="22.30090778125" lon="114.28220079638672" /><trkpt lat="22.30079578125" lon="114.28219679638671" /><trkpt lat="22.30070678125" lon="114.28215479638672" /><trkpt lat="22.30064078125" lon="114.28212479638673" /><trkpt lat="22.30059278125" lon="114.28209979638672" /><trkpt lat="22.30052478125" lon="114.28207779638672" /><trkpt lat="22.30047978125" lon="114.28207479638672" /><trkpt lat="22.30042978125" lon="114.28207979638672" /><trkpt lat="22.30039878125" lon="114.28205679638671" /><trkpt lat="22.30036478125" lon="114.28205279638672" /><trkpt lat="22.30034178125" lon="114.28206579638672" /><trkpt lat="22.30032778125" lon="114.28208879638672" /><trkpt lat="22.30030578125" lon="114.28211779638671" /><trkpt lat="22.30028278125" lon="114.28210679638671" /><trkpt lat="22.30024678125" lon="114.28209079638673" /><trkpt lat="22.30020578125" lon="114.28210879638672" /><trkpt lat="22.30015578125" lon="114.28214479638672" /><trkpt lat="22.30009278125" lon="114.28218879638672" /><trkpt lat="22.30002178125" lon="114.28224279638673" /><trkpt lat="22.29992678125" lon="114.28231479638671" /><trkpt lat="22.29983178125" lon="114.28237379638672" /><trkpt lat="22.29976878125" lon="114.28242379638672" /><trkpt lat="22.29965578125" lon="114.28250979638672" /><trkpt lat="22.29953378125" lon="114.28258679638672" /><trkpt lat="22.29945178125" lon="114.28263179638672" /><trkpt lat="22.29937578125" lon="114.28267179638672" /><trkpt lat="22.29927178125" lon="114.28271279638672" /><trkpt lat="22.29916778125" lon="114.28273979638672" /><trkpt lat="22.29904978125" lon="114.28280379638672" /><trkpt lat="22.29894578125" lon="114.28289779638672" /><trkpt lat="22.29886878125" lon="114.28297979638671" /><trkpt lat="22.29877378125" lon="114.28305679638672" /><trkpt lat="22.29871978125" lon="114.28314679638672" /><trkpt lat="22.29865678125" lon="114.28321879638672" /><trkpt lat="22.29853478125" lon="114.28334079638672" /><trkpt lat="22.29841878125" lon="114.28342979638671" /><trkpt lat="22.29831478125" lon="114.28354179638671" /><trkpt lat="22.29822978125" lon="114.28362579638672" /><trkpt lat="22.29811378125" lon="114.28374979638672" /><trkpt lat="22.29802578125" lon="114.28385479638672" /><trkpt lat="22.29794978125" lon="114.28390279638671" /><trkpt lat="22.29785278125" lon="114.28395079638672" /><trkpt lat="22.29778878125" lon="114.28403479638672" /><trkpt lat="22.29770478125" lon="114.28412279638673" /><trkpt lat="22.29761278125" lon="114.28420779638672" /><trkpt lat="22.29751178125" lon="114.28429179638673" /><trkpt lat="22.29739578125" lon="114.28435579638672" /><trkpt lat="22.29725578125" lon="114.28444379638673" /><trkpt lat="22.29715178125" lon="114.28453579638672" /><trkpt lat="22.29707878125" lon="114.28462479638672" /><trkpt lat="22.29702878125" lon="114.28472279638672" /><trkpt lat="22.29697578125" lon="114.28476979638671" /><trkpt lat="22.29692178125" lon="114.28476979638671" /><trkpt lat="22.29686378125" lon="114.28479679638671" /><trkpt lat="22.29678478125" lon="114.28485079638672" /><trkpt lat="22.29673578125" lon="114.28490179638672" /><trkpt lat="22.29670078125" lon="114.28495279638672" /><trkpt lat="22.29667578125" lon="114.28499479638671" /><trkpt lat="22.29662278125" lon="114.28502679638672" /><trkpt lat="22.29637378125" lon="114.28517379638672" /><trkpt lat="22.29635478125" lon="114.28526079638672" /><trkpt lat="22.29630078125" lon="114.28532679638671" /><trkpt lat="22.29622978125" lon="114.28537379638672" /><trkpt lat="22.29620178125" lon="114.28545579638671" /><trkpt lat="22.29615678125" lon="114.28548679638672" /><trkpt lat="22.29609478125" lon="114.28553179638672" /><trkpt lat="22.29604378125" lon="114.28561079638672" /><trkpt lat="22.29596178125" lon="114.28568279638672" /><trkpt lat="22.29585878125" lon="114.28579079638672" /><trkpt lat="22.29576378125" lon="114.28590479638672" /><trkpt lat="22.29566078125" lon="114.28597679638672" /><trkpt lat="22.29561978125" lon="114.28601879638671" /><trkpt lat="22.29546278125" lon="114.28606979638671" /><trkpt lat="22.29541578125" lon="114.28588479638672" /><trkpt lat="22.29539478125" lon="114.28586979638672" /><trkpt lat="22.29536578125" lon="114.28585179638672" /><trkpt lat="22.29530878125" lon="114.28583279638671" /><trkpt lat="22.29529078125" lon="114.28573579638672" /><trkpt lat="22.29526378125" lon="114.28571879638672" /><trkpt lat="22.29522878125" lon="114.28568679638671" /><trkpt lat="22.29519078125" lon="114.28563479638672" /><trkpt lat="22.29515778125" lon="114.28559479638672" /><trkpt lat="22.29512378125" lon="114.28557179638672" /><trkpt lat="22.29507378125" lon="114.28553679638672" /><trkpt lat="22.29498578125" lon="114.28546879638672" /><trkpt lat="22.29488878125" lon="114.28540879638672" /><trkpt lat="22.29483978125" lon="114.28540579638671" /><trkpt lat="22.29466878125" lon="114.28529579638672" /><trkpt lat="22.29460178125" lon="114.28528779638673" /><trkpt lat="22.29448878125" lon="114.28520979638672" /><trkpt lat="22.29438178125" lon="114.28519479638672" /><trkpt lat="22.29419578125" lon="114.28512579638672" /><trkpt lat="22.29409078125" lon="114.28510879638672" /><trkpt lat="22.29381978125" lon="114.28497879638672" /><trkpt lat="22.29367678125" lon="114.28491979638672" /><trkpt lat="22.29360778125" lon="114.28492479638672" /><trkpt lat="22.29350578125" lon="114.28488979638672" /><trkpt lat="22.29339878125" lon="114.28485779638672" /><trkpt lat="22.29328978125" lon="114.28478179638672" /><trkpt lat="22.29332278125" lon="114.28531879638672" /><trkpt lat="22.29329278125" lon="114.28559579638672" /><trkpt lat="22.29320378125" lon="114.28576379638672" /><trkpt lat="22.29313478125" lon="114.28586279638672" /><trkpt lat="22.29302578125" lon="114.28593279638672" /><trkpt lat="22.29299578125" lon="114.28611079638672" /><trkpt lat="22.29297678125" lon="114.28628879638671" /><trkpt lat="22.29295678125" lon="114.28643779638672" /><trkpt lat="22.29295678125" lon="114.28662579638672" /><trkpt lat="22.29297678125" lon="114.28693279638672" /><trkpt lat="22.29315478125" lon="114.28705079638672" /><trkpt lat="22.29323378125" lon="114.28714979638671" /><trkpt lat="22.29343178125" lon="114.28734779638671" /><trkpt lat="22.29362978125" lon="114.28753679638672" /><trkpt lat="22.29385778125" lon="114.28771479638672" /><trkpt lat="22.29403578125" lon="114.28786279638672" /><trkpt lat="22.29422378125" lon="114.28804179638672" /><trkpt lat="22.29434278125" lon="114.28823979638672" /><trkpt lat="22.29443178125" lon="114.28839779638672" /><trkpt lat="22.29457078125" lon="114.28849679638672" /><trkpt lat="22.29473878125" lon="114.28856579638672" /><trkpt lat="22.29495678125" lon="114.28863579638671" /><trkpt lat="22.29517478125" lon="114.28872479638672" /><trkpt lat="22.29541178125" lon="114.28885279638672" /><trkpt lat="22.29562378125" lon="114.28894779638672" /><trkpt lat="22.29569878125" lon="114.28898179638672" /><trkpt lat="22.29582378125" lon="114.28919079638672" /><trkpt lat="22.29608578125" lon="114.28928979638673" /><trkpt lat="22.29636278125" lon="114.28925179638672" /><trkpt lat="22.29655878125" lon="114.28921879638672" /><trkpt lat="22.29673678125" lon="114.28923279638671" /><trkpt lat="22.29697578125" lon="114.28923279638671" /><trkpt lat="22.29734578125" lon="114.28916279638672" /><trkpt lat="22.29757078125" lon="114.28912079638671" /><trkpt lat="22.29775878125" lon="114.28906479638673" /><trkpt lat="22.29790378125" lon="114.28904079638671" /><trkpt lat="22.29804378125" lon="114.28921879638672" /><trkpt lat="22.2981173352642" lon="114.28931441649144" /></trkseg></trk></gpx>