<?xml version='1.0' encoding='UTF-8' ?><gpx version="1.1" creator="HikingTrailHK" xsi:schemaLocation="http://www.topografix.com/GPX/1/1 http://www.topografix.com/GPX/1/1/gpx.xsd https://hikingtrailhk.appspot.com/xml/gpxextensions/v1 https://hikingtrailhk.appspot.com/xml/gpxextensions/v1/gpxextensions.xsd" xmlns="http://www.topografix.com/GPX/1/1" xmlns:h="https://hikingtrailhk.appspot.com/xml/gpxextensions/v1" xmlns:xsi="http://www.w3.org/2001/XMLSchema-instance"><metadata><name>鎖羅盤 @ 2016-8-27</name><desc></desc><extensions><h:categoryid>heritage_trail</h:categoryid></extensions></metadata><trk><trkseg><trkpt lat="22.50750650148877" lon="114.24298176667868" /><trkpt lat="22.50754678125" lon="114.24299779638672" /><trkpt lat="22.50763478125" lon="114.24299979638671" /><trkpt lat="22.50771778125" lon="114.24296779638672" /><trkpt lat="22.50780978125" lon="114.24292979638672" /><trkpt lat="22.50790378125" lon="114.24290879638671" /><trkpt lat="22.50794978125" lon="114.24291079638672" /><trkpt lat="22.50801278125" lon="114.24291379638672" /><trkpt lat="22.50815878125" lon="114.24294079638672" /><trkpt lat="22.50823178125" lon="114.24298879638673" /><trkpt lat="22.50830578125" lon="114.24302779638671" /><trkpt lat="22.50840778125" lon="114.24309379638672" /><trkpt lat="22.50852078125" lon="114.24322579638672" /><trkpt lat="22.50856978125" lon="114.24326179638672" /><trkpt lat="22.50865078125" lon="114.24331679638672" /><trkpt lat="22.50873978125" lon="114.24337779638672" /><trkpt lat="22.50882578125" lon="114.24343779638671" /><trkpt lat="22.50894478125" lon="114.24355679638671" /><trkpt lat="22.50906178125" lon="114.24363279638672" /><trkpt lat="22.50916578125" lon="114.24378479638672" /><trkpt lat="22.50926978125" lon="114.24383479638672" /><trkpt lat="22.50935678125" lon="114.24387979638672" /><trkpt lat="22.50944278125" lon="114.24394379638672" /><trkpt lat="22.50948178125" lon="114.24396179638671" /><trkpt lat="22.50952678125" lon="114.24399579638671" /><trkpt lat="22.50958678125" lon="114.24402279638672" /><trkpt lat="22.50962978125" lon="114.24405679638672" /><trkpt lat="22.50971378125" lon="114.24404079638671" /><trkpt lat="22.50976778125" lon="114.24402779638672" /><trkpt lat="22.50984978125" lon="114.24408179638672" /><trkpt lat="22.50993778125" lon="114.24409479638672" /><trkpt lat="22.51000278125" lon="114.24413479638672" /><trkpt lat="22.51008778125" lon="114.24417379638672" /><trkpt lat="22.51014078125" lon="114.24425679638672" /><trkpt lat="22.51022778125" lon="114.24430479638671" /><trkpt lat="22.51034378125" lon="114.24430979638672" /><trkpt lat="22.51040578125" lon="114.24432379638672" /><trkpt lat="22.51050978125" lon="114.24436879638672" /><trkpt lat="22.51060578125" lon="114.24438379638671" /><trkpt lat="22.51070478125" lon="114.24435479638672" /><trkpt lat="22.51082778125" lon="114.24438079638672" /><trkpt lat="22.51093878125" lon="114.24445979638672" /><trkpt lat="22.51106178125" lon="114.24451379638671" /><trkpt lat="22.51118678125" lon="114.24453779638672" /><trkpt lat="22.51126878125" lon="114.24454279638672" /><trkpt lat="22.51136878125" lon="114.24465679638672" /><trkpt lat="22.51149378125" lon="114.24478379638671" /><trkpt lat="22.51160578125" lon="114.24483779638672" /><trkpt lat="22.51169078125" lon="114.24485379638672" /><trkpt lat="22.51177078125" lon="114.24499979638672" /><trkpt lat="22.51185078125" lon="114.24507679638671" /><trkpt lat="22.51192478125" lon="114.24496879638671" /><trkpt lat="22.51199978125" lon="114.24485479638672" /><trkpt lat="22.51204878125" lon="114.24500879638671" /><trkpt lat="22.51209878125" lon="114.24510579638672" /><trkpt lat="22.51217978125" lon="114.24507079638671" /><trkpt lat="22.51222178125" lon="114.24508079638672" /><trkpt lat="22.51230078125" lon="114.24501479638671" /><trkpt lat="22.51229778125" lon="114.24491179638672" /><trkpt lat="22.51237878125" lon="114.24480679638671" /><trkpt lat="22.51241378125" lon="114.24465979638671" /><trkpt lat="22.51253778125" lon="114.24452879638672" /><trkpt lat="22.51263278125" lon="114.24444879638672" /><trkpt lat="22.51272378125" lon="114.24439079638672" /><trkpt lat="22.51281178125" lon="114.24434179638672" /><trkpt lat="22.51286978125" lon="114.24427379638672" /><trkpt lat="22.51300178125" lon="114.24418379638672" /><trkpt lat="22.51306678125" lon="114.24402379638671" /><trkpt lat="22.51328678125" lon="114.24387879638672" /><trkpt lat="22.51337778125" lon="114.24383779638671" /><trkpt lat="22.51348378125" lon="114.24377479638672" /><trkpt lat="22.51355278125" lon="114.24369279638672" /><trkpt lat="22.51355078125" lon="114.24362779638672" /><trkpt lat="22.51361578125" lon="114.24351479638672" /><trkpt lat="22.51373678125" lon="114.24339779638672" /><trkpt lat="22.51376878125" lon="114.24331979638671" /><trkpt lat="22.51382978125" lon="114.24326279638672" /><trkpt lat="22.51385378125" lon="114.24317579638672" /><trkpt lat="22.51399978125" lon="114.24308179638672" /><trkpt lat="22.51402978125" lon="114.24299379638671" /><trkpt lat="22.51411678125" lon="114.24298379638672" /><trkpt lat="22.51435378125" lon="114.24277179638672" /><trkpt lat="22.51454178125" lon="114.24260279638672" /><trkpt lat="22.51477878125" lon="114.24246479638671" /><trkpt lat="22.51487378125" lon="114.24240479638672" /><trkpt lat="22.51492878125" lon="114.24242579638671" /><trkpt lat="22.51505778125" lon="114.24239379638672" /><trkpt lat="22.51518278125" lon="114.24232579638672" /><trkpt lat="22.51541678125" lon="114.24228379638672" /><trkpt lat="22.51550478125" lon="114.24227779638672" /><trkpt lat="22.51569078125" lon="114.24224479638671" /><trkpt lat="22.51579178125" lon="114.24226179638671" /><trkpt lat="22.51594178125" lon="114.24224679638672" /><trkpt lat="22.51609078125" lon="114.24233779638672" /><trkpt lat="22.51621178125" lon="114.24237379638672" /><trkpt lat="22.51627078125" lon="114.24238579638671" /><trkpt lat="22.51639678125" lon="114.24239879638672" /><trkpt lat="22.51649878125" lon="114.24246579638672" /><trkpt lat="22.51662278125" lon="114.24255879638672" /><trkpt lat="22.51666478125" lon="114.24266779638671" /><trkpt lat="22.51669478125" lon="114.24273279638672" /><trkpt lat="22.51673478125" lon="114.24285479638672" /><trkpt lat="22.51674578125" lon="114.24295979638671" /><trkpt lat="22.51681978125" lon="114.24309979638672" /><trkpt lat="22.51686978125" lon="114.24312379638671" /><trkpt lat="22.51701378125" lon="114.24320579638672" /><trkpt lat="22.51711278125" lon="114.24323779638672" /><trkpt lat="22.51715978125" lon="114.24337579638672" /><trkpt lat="22.517253781249998" lon="114.24343179638672" /><trkpt lat="22.51739878125" lon="114.24341479638672" /><trkpt lat="22.51752378125" lon="114.24343479638672" /><trkpt lat="22.51773678125" lon="114.24345479638671" /><trkpt lat="22.51786478125" lon="114.24351179638671" /><trkpt lat="22.51799678125" lon="114.24357279638672" /><trkpt lat="22.51814378125" lon="114.24361679638672" /><trkpt lat="22.51820778125" lon="114.24374379638672" /><trkpt lat="22.51815878125" lon="114.24400779638673" /><trkpt lat="22.51815878125" lon="114.24406779638672" /><trkpt lat="22.51825778125" lon="114.24412679638672" /><trkpt lat="22.51837378125" lon="114.24412979638672" /><trkpt lat="22.51851678125" lon="114.24417679638672" /><trkpt lat="22.51858878125" lon="114.24412379638672" /><trkpt lat="22.51881678125" lon="114.24388879638671" /><trkpt lat="22.51886978125" lon="114.24388979638672" /><trkpt lat="22.51897378125" lon="114.24390279638672" /><trkpt lat="22.51908878125" lon="114.24399079638673" /><trkpt lat="22.51914178125" lon="114.24416379638672" /><trkpt lat="22.51922578125" lon="114.24419079638672" /><trkpt lat="22.51933178125" lon="114.24412079638672" /><trkpt lat="22.51949078125" lon="114.24401079638672" /><trkpt lat="22.51957178125" lon="114.24400579638672" /><trkpt lat="22.51957878125" lon="114.24415879638671" /><trkpt lat="22.51960078125" lon="114.24426779638672" /><trkpt lat="22.51969678125" lon="114.24436879638672" /><trkpt lat="22.51984578125" lon="114.24440479638672" /><trkpt lat="22.51989278125" lon="114.24444179638672" /><trkpt lat="22.51995578125" lon="114.24453979638672" /><trkpt lat="22.51999778125" lon="114.24461879638672" /><trkpt lat="22.51996378125" lon="114.24473579638672" /><trkpt lat="22.51995178125" lon="114.24484679638672" /><trkpt lat="22.52004178125" lon="114.24492279638672" /><trkpt lat="22.52014078125" lon="114.24497179638672" /><trkpt lat="22.52023578125" lon="114.24500279638671" /><trkpt lat="22.52036178125" lon="114.24505379638671" /><trkpt lat="22.52045378125" lon="114.24508679638672" /><trkpt lat="22.52056478125" lon="114.24513079638672" /><trkpt lat="22.52063978125" lon="114.24516279638672" /><trkpt lat="22.52077478125" lon="114.24519279638672" /><trkpt lat="22.52088478125" lon="114.24514679638672" /><trkpt lat="22.52097578125" lon="114.24511179638672" /><trkpt lat="22.52106878125" lon="114.24507879638672" /><trkpt lat="22.52117978125" lon="114.24506979638672" /><trkpt lat="22.52131578125" lon="114.24506979638672" /><trkpt lat="22.52140478125" lon="114.24500679638672" /><trkpt lat="22.52147478125" lon="114.24493479638672" /><trkpt lat="22.521542781249998" lon="114.24486279638671" /><trkpt lat="22.52164078125" lon="114.24482879638671" /><trkpt lat="22.52176078125" lon="114.24479379638672" /><trkpt lat="22.52185478125" lon="114.24479179638672" /><trkpt lat="22.52186278125" lon="114.24487979638671" /><trkpt lat="22.52182278125" lon="114.24498979638672" /><trkpt lat="22.52178878125" lon="114.24517579638672" /><trkpt lat="22.52176678125" lon="114.24528279638672" /><trkpt lat="22.52168878125" lon="114.24543479638672" /><trkpt lat="22.52160878125" lon="114.24557479638672" /><trkpt lat="22.52154078125" lon="114.24566379638672" /><trkpt lat="22.52146978125" lon="114.24580379638672" /><trkpt lat="22.52138478125" lon="114.24588479638672" /><trkpt lat="22.52122678125" lon="114.24606979638672" /><trkpt lat="22.52108978125" lon="114.24623079638671" /><trkpt lat="22.52104978125" lon="114.24639979638673" /><trkpt lat="22.52101878125" lon="114.24661279638671" /><trkpt lat="22.52094378125" lon="114.24688779638672" /><trkpt lat="22.52104378125" lon="114.24706779638672" /><trkpt lat="22.52105078125" lon="114.24746279638671" /><trkpt lat="22.52124778125" lon="114.24754479638672" /><trkpt lat="22.52146978125" lon="114.24759279638671" /><trkpt lat="22.52157678125" lon="114.24780679638671" /><trkpt lat="22.52149378125" lon="114.24805779638672" /><trkpt lat="22.52151478125" lon="114.24845479638672" /><trkpt lat="22.52155778125" lon="114.24853279638671" /><trkpt lat="22.52176778125" lon="114.24859879638672" /><trkpt lat="22.52184578125" lon="114.24870079638671" /><trkpt lat="22.52186878125" lon="114.24886779638672" /><trkpt lat="22.52190378125" lon="114.24897479638672" /><trkpt lat="22.52192278125" lon="114.24904979638671" /><trkpt lat="22.52192778125" lon="114.24914179638672" /><trkpt lat="22.52185178125" lon="114.24924879638672" /><trkpt lat="22.52183078125" lon="114.24936379638672" /><trkpt lat="22.52182078125" lon="114.24949779638672" /><trkpt lat="22.52178178125" lon="114.24955479638672" /><trkpt lat="22.52164878125" lon="114.24961079638672" /><trkpt lat="22.52157178125" lon="114.24976179638672" /><trkpt lat="22.52158078125" lon="114.24989779638672" /><trkpt lat="22.52159778125" lon="114.25000079638671" /><trkpt lat="22.52168478125" lon="114.25018679638671" /><trkpt lat="22.52168178125" lon="114.25030379638672" /><trkpt lat="22.52165078125" lon="114.25047979638671" /><trkpt lat="22.52170478125" lon="114.25056479638671" /><trkpt lat="22.52175878125" lon="114.25064179638672" /><trkpt lat="22.52186478125" lon="114.25076379638672" /><trkpt lat="22.52194378125" lon="114.25095679638672" /><trkpt lat="22.52210378125" lon="114.25101379638672" /><trkpt lat="22.52216878125" lon="114.25108979638672" /><trkpt lat="22.52216078125" lon="114.25117779638671" /><trkpt lat="22.52214878125" lon="114.25126779638671" /><trkpt lat="22.52217778125" lon="114.25135579638672" /><trkpt lat="22.52218078125" lon="114.25142079638672" /><trkpt lat="22.52214678125" lon="114.25146079638672" /><trkpt lat="22.52210478125" lon="114.25149379638673" /><trkpt lat="22.52205378125" lon="114.25152779638672" /><trkpt lat="22.52204178125" lon="114.25161579638672" /><trkpt lat="22.52208278125" lon="114.25168679638672" /><trkpt lat="22.52212678125" lon="114.25186779638672" /><trkpt lat="22.52215278125" lon="114.25194179638672" /><trkpt lat="22.52218078125" lon="114.25200279638672" /><trkpt lat="22.52221578125" lon="114.25210879638672" /><trkpt lat="22.52226778125" lon="114.25220879638672" /><trkpt lat="22.52233678125" lon="114.25233779638671" /><trkpt lat="22.52229178125" lon="114.25250979638672" /><trkpt lat="22.52237978125" lon="114.25264679638671" /><trkpt lat="22.52241678125" lon="114.25274079638672" /><trkpt lat="22.52244978125" lon="114.25295379638672" /><trkpt lat="22.52244878125" lon="114.25310179638672" /><trkpt lat="22.52255878125" lon="114.25322579638672" /><trkpt lat="22.52264478125" lon="114.25352579638673" /><trkpt lat="22.52270178125" lon="114.25363979638672" /><trkpt lat="22.52272978125" lon="114.25375579638671" /><trkpt lat="22.52284378125" lon="114.25384979638672" /><trkpt lat="22.52294578125" lon="114.25396579638672" /><trkpt lat="22.52317878125" lon="114.25406379638672" /><trkpt lat="22.52334378125" lon="114.25407379638672" /><trkpt lat="22.52350278125" lon="114.25412779638671" /><trkpt lat="22.52361878125" lon="114.25422479638672" /><trkpt lat="22.52373578125" lon="114.25438079638671" /><trkpt lat="22.52377378125" lon="114.25450379638671" /><trkpt lat="22.52384378125" lon="114.25458279638671" /><trkpt lat="22.52395778125" lon="114.25465179638672" /><trkpt lat="22.52406478125" lon="114.25473979638672" /><trkpt lat="22.52419378125" lon="114.25484179638671" /><trkpt lat="22.52427178125" lon="114.25493079638672" /><trkpt lat="22.52428378125" lon="114.25504379638672" /><trkpt lat="22.52428078125" lon="114.25516479638672" /><trkpt lat="22.52425178125" lon="114.25542179638671" /><trkpt lat="22.52415178125" lon="114.25552879638671" /><trkpt lat="22.52410878125" lon="114.25563779638672" /><trkpt lat="22.52410278125" lon="114.25586879638672" /><trkpt lat="22.52421478125" lon="114.25595679638671" /><trkpt lat="22.52427778125" lon="114.25601979638672" /><trkpt lat="22.52434578125" lon="114.25605979638672" /><trkpt lat="22.52447078125" lon="114.25615079638672" /><trkpt lat="22.52454078125" lon="114.25626479638672" /><trkpt lat="22.52461878125" lon="114.25636079638672" /><trkpt lat="22.52475078125" lon="114.25646979638672" /><trkpt lat="22.52481978125" lon="114.25654479638672" /><trkpt lat="22.52490578125" lon="114.25661079638672" /><trkpt lat="22.52497478125" lon="114.25672579638672" /><trkpt lat="22.52506178125" lon="114.25677479638672" /><trkpt lat="22.52515978125" lon="114.25700079638672" /><trkpt lat="22.52525378125" lon="114.25711379638672" /><trkpt lat="22.52532178125" lon="114.25719379638672" /><trkpt lat="22.52539678125" lon="114.25722079638672" /><trkpt lat="22.52549678125" lon="114.25726079638672" /><trkpt lat="22.52558678125" lon="114.25729779638672" /><trkpt lat="22.52563778125" lon="114.25736779638672" /><trkpt lat="22.52568678125" lon="114.25745979638671" /><trkpt lat="22.52574078125" lon="114.25754779638672" /><trkpt lat="22.52583478125" lon="114.25763079638672" /><trkpt lat="22.52590378125" lon="114.25771979638672" /><trkpt lat="22.52593778125" lon="114.25779679638671" /><trkpt lat="22.52601078125" lon="114.25785779638672" /><trkpt lat="22.52619078125" lon="114.25785979638673" /><trkpt lat="22.52628978125" lon="114.25787779638672" /><trkpt lat="22.52634878125" lon="114.25794279638671" /><trkpt lat="22.52634978125" lon="114.25805679638673" /><trkpt lat="22.52632478125" lon="114.25815379638672" /><trkpt lat="22.52638278125" lon="114.25822279638672" /><trkpt lat="22.52645078125" lon="114.25824879638672" /><trkpt lat="22.52649878125" lon="114.25827479638671" /><trkpt lat="22.52655678125" lon="114.25833979638672" /><trkpt lat="22.52660778125" lon="114.25841279638672" /><trkpt lat="22.52667278125" lon="114.25850179638672" /><trkpt lat="22.52675078125" lon="114.25856379638672" /><trkpt lat="22.52683878125" lon="114.25859279638672" /><trkpt lat="22.52693078125" lon="114.25862979638671" /><trkpt lat="22.52701578125" lon="114.25868579638671" /><trkpt lat="22.52710278125" lon="114.25872179638672" /><trkpt lat="22.52720178125" lon="114.25875479638673" /><trkpt lat="22.52727678125" lon="114.25879079638672" /><trkpt lat="22.52735678125" lon="114.25886179638673" /><trkpt lat="22.52734678125" lon="114.25899579638671" /><trkpt lat="22.52734778125" lon="114.25913379638672" /><trkpt lat="22.52733278125" lon="114.25922779638672" /><trkpt lat="22.52730078125" lon="114.25933379638671" /><trkpt lat="22.52727578125" lon="114.25946779638672" /><trkpt lat="22.52724178125" lon="114.25954179638671" /><trkpt lat="22.52717978125" lon="114.25968079638672" /><trkpt lat="22.52714978125" lon="114.25975679638672" /><trkpt lat="22.52711678125" lon="114.25986679638672" /><trkpt lat="22.52708078125" lon="114.25996779638672" /><trkpt lat="22.52703278125" lon="114.26006779638672" /><trkpt lat="22.52697378125" lon="114.26017179638671" /><trkpt lat="22.52689978125" lon="114.26024679638672" /><trkpt lat="22.52689378125" lon="114.26034379638672" /><trkpt lat="22.52696178125" lon="114.26041179638672" /><trkpt lat="22.52703678125" lon="114.26048579638672" /><trkpt lat="22.52711178125" lon="114.26055579638673" /><trkpt lat="22.52716678125" lon="114.26061579638672" /><trkpt lat="22.52714178125" lon="114.26064179638672" /><trkpt lat="22.52728578125" lon="114.26082079638672" /><trkpt lat="22.52736878125" lon="114.26099179638672" /><trkpt lat="22.52742178125" lon="114.26123879638672" /><trkpt lat="22.52768178125" lon="114.26177279638672" /><trkpt lat="22.52792978125" lon="114.26214879638673" /><trkpt lat="22.52817678125" lon="114.26236379638672" /><trkpt lat="22.52851378125" lon="114.26238479638671" /><trkpt lat="22.52880178125" lon="114.26238479638671" /><trkpt lat="22.52931678125" lon="114.26258879638672" /><trkpt lat="22.52970678125" lon="114.26268379638672" /><trkpt lat="22.53002078125" lon="114.26288879638672" /><trkpt lat="22.53056578125" lon="114.26291079638672" /><trkpt lat="22.53104078125" lon="114.26309279638672" /><trkpt lat="22.53149678125" lon="114.26357579638672" /><trkpt lat="22.53177478125" lon="114.26369379638672" /><trkpt lat="22.53230978125" lon="114.26381179638672" /><trkpt lat="22.53288478125" lon="114.26373679638672" /><trkpt lat="22.53325078125" lon="114.26338279638672" /><trkpt lat="22.53347878125" lon="114.26297479638671" /><trkpt lat="22.53361778125" lon="114.26272779638671" /><trkpt lat="22.53364778125" lon="114.26221279638672" /><trkpt lat="22.53367678125" lon="114.26179479638672" /><trkpt lat="22.53390478125" lon="114.26136579638671" /><trkpt lat="22.53436078125" lon="114.26089379638672" /><trkpt lat="22.53479678125" lon="114.26024979638672" /><trkpt lat="22.53520678125" lon="114.26000679638672" /><trkpt lat="22.53552578125" lon="114.25965279638672" /><trkpt lat="22.53573778125" lon="114.25921979638672" /><trkpt lat="22.53584078125" lon="114.25873979638672" /><trkpt lat="22.53586978125" lon="114.25775179638671" /><trkpt lat="22.53668278125" lon="114.25735879638673" /><trkpt lat="22.53753178125" lon="114.25700079638672" /><trkpt lat="22.53768278125" lon="114.25702479638672" /><trkpt lat="22.53792278125" lon="114.25715879638672" /><trkpt lat="22.53833178125" lon="114.25675479638672" /><trkpt lat="22.53861878125" lon="114.25653679638671" /><trkpt lat="22.53886578125" lon="114.25596179638671" /><trkpt lat="22.53879078125" lon="114.25590479638672" /><trkpt lat="22.53857678125" lon="114.25574279638671" /><trkpt lat="22.53816078125" lon="114.25539979638671" /><trkpt lat="22.53787578125" lon="114.25439479638672" /><trkpt lat="22.53765478125" lon="114.25412879638672" /><trkpt lat="22.53768378125" lon="114.25364479638672" /><trkpt lat="22.53726578125" lon="114.25311079638672" /><trkpt lat="22.53681278125" lon="114.25250279638672" /><trkpt lat="22.53658978125" lon="114.25241179638672" /><trkpt lat="22.53635678125" lon="114.25233079638672" /><trkpt lat="22.53622078125" lon="114.25212679638672" /><trkpt lat="22.53613878125" lon="114.25192379638672" /><trkpt lat="22.53605978125" lon="114.25167879638671" /><trkpt lat="22.53598078125" lon="114.25142979638672" /><trkpt lat="22.53573878125" lon="114.25138779638672" /><trkpt lat="22.53550678125" lon="114.25142679638672" /><trkpt lat="22.53533178125" lon="114.25129779638672" /><trkpt lat="22.53495978125" lon="114.25120079638671" /><trkpt lat="22.53463178125" lon="114.25100179638672" /><trkpt lat="22.53452578125" lon="114.25090879638672" /><trkpt lat="22.53444578125" lon="114.25086979638672" /><trkpt lat="22.53430378125" lon="114.25072079638672" /><trkpt lat="22.53370978125" lon="114.25055879638671" /><trkpt lat="22.53321478125" lon="114.24993879638672" /><trkpt lat="22.53290878125" lon="114.24964279638672" /><trkpt lat="22.53268078125" lon="114.24940479638671" /><trkpt lat="22.53249878125" lon="114.24920279638673" /><trkpt lat="22.53246278125" lon="114.24901979638672" /><trkpt lat="22.53245378125" lon="114.24884479638672" /><trkpt lat="22.53240978125" lon="114.24871279638671" /><trkpt lat="22.53239178125" lon="114.24846579638672" /><trkpt lat="22.53233378125" lon="114.24843279638672" /><trkpt lat="22.53230278125" lon="114.24834279638672" /><trkpt lat="22.53221578125" lon="114.24819879638672" /><trkpt lat="22.53211478125" lon="114.24784779638672" /><trkpt lat="22.53200878125" lon="114.24775179638672" /><trkpt lat="22.53195178125" lon="114.24760679638672" /><trkpt lat="22.53206278125" lon="114.24747679638672" /><trkpt lat="22.53201478125" lon="114.24738479638673" /><trkpt lat="22.53200578125" lon="114.24702479638673" /><trkpt lat="22.53208678125" lon="114.24655279638672" /><trkpt lat="22.53210878125" lon="114.24642579638672" /><trkpt lat="22.53206478125" lon="114.24629779638671" /><trkpt lat="22.53214478125" lon="114.24620979638672" /><trkpt lat="22.53214078125" lon="114.24609679638672" /><trkpt lat="22.53222478125" lon="114.24591079638672" /><trkpt lat="22.53220878125" lon="114.24555979638671" /><trkpt lat="22.53217478125" lon="114.24552279638672" /><trkpt lat="22.53207178125" lon="114.24538879638672" /><trkpt lat="22.53215578125" lon="114.24536079638672" /><trkpt lat="22.53217978125" lon="114.24529079638671" /><trkpt lat="22.53215178125" lon="114.24515479638671" /><trkpt lat="22.53205978125" lon="114.24502979638672" /><trkpt lat="22.53202878125" lon="114.24490879638672" /><trkpt lat="22.53191178125" lon="114.24480079638671" /><trkpt lat="22.53167778125" lon="114.24475579638671" /><trkpt lat="22.53167978125" lon="114.24463679638671" /><trkpt lat="22.53165078125" lon="114.24427579638672" /><trkpt lat="22.53160478125" lon="114.24411679638672" /><trkpt lat="22.53145478125" lon="114.24389379638671" /><trkpt lat="22.53139478125" lon="114.24384679638672" /><trkpt lat="22.53142678125" lon="114.24376979638672" /><trkpt lat="22.53138478125" lon="114.24368179638672" /><trkpt lat="22.53131478125" lon="114.24357179638672" /><trkpt lat="22.53123878125" lon="114.24353979638671" /><trkpt lat="22.53115678125" lon="114.24336279638672" /><trkpt lat="22.53103778125" lon="114.24328679638671" /><trkpt lat="22.53098878125" lon="114.24304679638672" /><trkpt lat="22.53103278125" lon="114.24276679638672" /><trkpt lat="22.53105578125" lon="114.24257179638671" /><trkpt lat="22.53109878125" lon="114.24250979638671" /><trkpt lat="22.53111078125" lon="114.24244179638671" /><trkpt lat="22.53107478125" lon="114.24231179638672" /><trkpt lat="22.53119678125" lon="114.24228379638672" /><trkpt lat="22.53129878125" lon="114.24210679638672" /><trkpt lat="22.53121878125" lon="114.24191079638672" /><trkpt lat="22.53138078125" lon="114.24190279638673" /><trkpt lat="22.53129478125" lon="114.24166079638672" /><trkpt lat="22.53148278125" lon="114.24133179638672" /><trkpt lat="22.53162478125" lon="114.24126779638672" /><trkpt lat="22.53165878125" lon="114.24112479638671" /><trkpt lat="22.53165378125" lon="114.24098079638672" /><trkpt lat="22.53161378125" lon="114.24085279638672" /><trkpt lat="22.53156678125" lon="114.24069579638672" /><trkpt lat="22.53160378125" lon="114.24054179638672" /><trkpt lat="22.53158178125" lon="114.24040879638672" /><trkpt lat="22.53181378125" lon="114.24014679638672" /><trkpt lat="22.53183978125" lon="114.23987279638672" /><trkpt lat="22.53183778125" lon="114.23982079638672" /><trkpt lat="22.53180878125" lon="114.23969079638672" /><trkpt lat="22.53189778125" lon="114.23962879638673" /><trkpt lat="22.53189878125" lon="114.23956679638673" /><trkpt lat="22.53186678125" lon="114.23950879638672" /><trkpt lat="22.53181078125" lon="114.23939979638672" /><trkpt lat="22.53184878125" lon="114.23928479638671" /><trkpt lat="22.53178978125" lon="114.23907279638672" /><trkpt lat="22.53171578125" lon="114.23893179638672" /><trkpt lat="22.53157278125" lon="114.23869979638671" /><trkpt lat="22.53161678125" lon="114.23859879638673" /><trkpt lat="22.53160178125" lon="114.23849879638672" /><trkpt lat="22.53157178125" lon="114.23838279638672" /><trkpt lat="22.53161378125" lon="114.23835579638671" /><trkpt lat="22.53160378125" lon="114.23828879638671" /><trkpt lat="22.53161778125" lon="114.23815879638671" /><trkpt lat="22.53160878125" lon="114.23804479638672" /><trkpt lat="22.53169478125" lon="114.23805479638672" /><trkpt lat="22.53178578125" lon="114.23804979638672" /><trkpt lat="22.53192478125" lon="114.23788679638672" /><trkpt lat="22.53190978125" lon="114.23776379638672" /><trkpt lat="22.53193978125" lon="114.23771179638672" /><trkpt lat="22.53209278125" lon="114.23772579638671" /><trkpt lat="22.53212678125" lon="114.23768279638672" /><trkpt lat="22.53213778125" lon="114.23762279638672" /><trkpt lat="22.53210478125" lon="114.23756379638672" /><trkpt lat="22.53214178125" lon="114.23752479638672" /><trkpt lat="22.53186078125" lon="114.23742879638672" /><trkpt lat="22.53179278125" lon="114.23740179638672" /><trkpt lat="22.53168478125" lon="114.23734379638672" /><trkpt lat="22.53159378125" lon="114.23727979638672" /><trkpt lat="22.53139278125" lon="114.23712479638672" /><trkpt lat="22.53124978125" lon="114.23702979638672" /><trkpt lat="22.53115478125" lon="114.23702679638671" /><trkpt lat="22.53112678125" lon="114.23695979638671" /><trkpt lat="22.53081578125" lon="114.23707279638671" /><trkpt lat="22.53075078125" lon="114.23705379638672" /><trkpt lat="22.53068478125" lon="114.23708879638671" /><trkpt lat="22.53046178125" lon="114.23695479638671" /><trkpt lat="22.53037778125" lon="114.23696179638672" /><trkpt lat="22.53013078125" lon="114.23685479638672" /><trkpt lat="22.52999278125" lon="114.23687979638672" /><trkpt lat="22.52967178125" lon="114.23656779638672" /><trkpt lat="22.52964278125" lon="114.23640979638672" /><trkpt lat="22.52958478125" lon="114.23623579638672" /><trkpt lat="22.52955478125" lon="114.23615279638672" /><trkpt lat="22.52959478125" lon="114.23606979638672" /><trkpt lat="22.52959678125" lon="114.23595879638673" /><trkpt lat="22.52965178125" lon="114.23586379638672" /><trkpt lat="22.52975178125" lon="114.23578179638672" /><trkpt lat="22.52975878125" lon="114.23563079638672" /><trkpt lat="22.529809781250002" lon="114.23550079638672" /><trkpt lat="22.52985278125" lon="114.23540879638672" /><trkpt lat="22.52984678125" lon="114.23531979638672" /><trkpt lat="22.52971978125" lon="114.23523579638672" /><trkpt lat="22.52955078125" lon="114.23480479638671" /><trkpt lat="22.52955878125" lon="114.23444779638672" /><trkpt lat="22.52964478125" lon="114.23434979638672" /><trkpt lat="22.52973178125" lon="114.23438979638672" /><trkpt lat="22.52978278125" lon="114.23418279638672" /><trkpt lat="22.52981078125" lon="114.23408779638672" /><trkpt lat="22.52981678125" lon="114.23397279638672" /><trkpt lat="22.52991678125" lon="114.23385379638673" /><trkpt lat="22.53025978125" lon="114.23385979638672" /><trkpt lat="22.53038178125" lon="114.23366379638672" /><trkpt lat="22.53059678125" lon="114.23354979638673" /><trkpt lat="22.53074078125" lon="114.23341479638673" /><trkpt lat="22.53112278125" lon="114.23344379638672" /><trkpt lat="22.53127378125" lon="114.23338979638672" /><trkpt lat="22.53153678125" lon="114.23346879638672" /><trkpt lat="22.53172178125" lon="114.23340279638671" /><trkpt lat="22.53173178125" lon="114.23329979638672" /><trkpt lat="22.53176478125" lon="114.23316979638672" /><trkpt lat="22.53190878125" lon="114.23282679638672" /><trkpt lat="22.53190178125" lon="114.23262879638672" /><trkpt lat="22.53207078125" lon="114.23212179638672" /><trkpt lat="22.53226078125" lon="114.23183879638673" /><trkpt lat="22.53240878125" lon="114.23169279638672" /><trkpt lat="22.53266478125" lon="114.23151479638672" /><trkpt lat="22.53287478125" lon="114.23121079638672" /><trkpt lat="22.53345378125" lon="114.23074279638672" /><trkpt lat="22.53352078125" lon="114.23054179638672" /><trkpt lat="22.53356978125" lon="114.23021379638672" /><trkpt lat="22.53374578125" lon="114.22985979638672" /><trkpt lat="22.53384478125" lon="114.22960079638672" /><trkpt lat="22.53381278125" lon="114.22928179638672" /><trkpt lat="22.53371178125" lon="114.22923479638672" /><trkpt lat="22.53353178125" lon="114.22926979638672" /><trkpt lat="22.53332278125" lon="114.22927379638672" /><trkpt lat="22.53303278125" lon="114.22929179638672" /><trkpt lat="22.53275478125" lon="114.22927179638671" /><trkpt lat="22.53246278125" lon="114.22919079638672" /><trkpt lat="22.53100678125" lon="114.22908979638672" /><trkpt lat="22.53081178125" lon="114.22899979638672" /><trkpt lat="22.53048278125" lon="114.22875279638671" /><trkpt lat="22.53021578125" lon="114.22845979638672" /><trkpt lat="22.52996978125" lon="114.22823479638672" /><trkpt lat="22.52990978125" lon="114.22810779638672" /><trkpt lat="22.52987978125" lon="114.22798879638673" /><trkpt lat="22.52988678125" lon="114.22761979638672" /><trkpt lat="22.52995778125" lon="114.22744379638672" /><trkpt lat="22.53002778125" lon="114.22732779638672" /><trkpt lat="22.53013878125" lon="114.22725279638672" /><trkpt lat="22.53036078125" lon="114.22730979638672" /><trkpt lat="22.53051078125" lon="114.22729279638672" /><trkpt lat="22.53060478125" lon="114.22719279638672" /><trkpt lat="22.53053578125" lon="114.22700779638672" /><trkpt lat="22.53045278125" lon="114.22695579638672" /><trkpt lat="22.53025678125" lon="114.22687279638671" /><trkpt lat="22.53018478125" lon="114.22681579638672" /><trkpt lat="22.53005178125" lon="114.22666579638671" /><trkpt lat="22.52996278125" lon="114.22653879638672" /><trkpt lat="22.52976778125" lon="114.22630679638672" /><trkpt lat="22.52962078125" lon="114.22619279638671" /><trkpt lat="22.52938278125" lon="114.22607779638672" /><trkpt lat="22.52922378125" lon="114.22596079638672" /><trkpt lat="22.52910178125" lon="114.22572279638672" /><trkpt lat="22.52896478125" lon="114.22527179638672" /><trkpt lat="22.52886178125" lon="114.22505279638672" /><trkpt lat="22.52858578125" lon="114.22472279638671" /><trkpt lat="22.52865578125" lon="114.22454579638672" /><trkpt lat="22.52862978125" lon="114.22431979638672" /><trkpt lat="22.52855978125" lon="114.22424379638672" /><trkpt lat="22.52844978125" lon="114.22421379638672" /><trkpt lat="22.52829678125" lon="114.22422379638672" /><trkpt lat="22.52821678125" lon="114.22420379638672" /><trkpt lat="22.52820278125" lon="114.22415779638672" /><trkpt lat="22.52833078125" lon="114.22410079638672" /><trkpt lat="22.52855278125" lon="114.22406679638672" /><trkpt lat="22.52860878125" lon="114.22388279638672" /><trkpt lat="22.52849478125" lon="114.22380779638672" /><trkpt lat="22.52826178125" lon="114.22375779638672" /><trkpt lat="22.52805878125" lon="114.22352979638671" /><trkpt lat="22.52827978125" lon="114.22338179638672" /><trkpt lat="22.52826978125" lon="114.22318179638673" /><trkpt lat="22.52825778125" lon="114.22284279638671" /><trkpt lat="22.52831378125" lon="114.22235379638671" /><trkpt lat="22.52818878125" lon="114.22221479638672" /><trkpt lat="22.52790778125" lon="114.22211579638672" /><trkpt lat="22.52775778125" lon="114.22202479638672" /><trkpt lat="22.52772278125" lon="114.22189779638671" /><trkpt lat="22.52775778125" lon="114.22179179638673" /><trkpt lat="22.52797478125" lon="114.22148879638672" /><trkpt lat="22.52810778125" lon="114.22130879638672" /><trkpt lat="22.52826778125" lon="114.22110379638671" /><trkpt lat="22.52845078125" lon="114.22095579638672" /><trkpt lat="22.52859778125" lon="114.22074979638671" /><trkpt lat="22.52852578125" lon="114.22045979638672" /><trkpt lat="22.52825978125" lon="114.22026979638672" /><trkpt lat="22.52803678125" lon="114.22024879638671" /><trkpt lat="22.52770978125" lon="114.22030879638672" /><trkpt lat="22.52743178125" lon="114.22022279638672" /><trkpt lat="22.52701878125" lon="114.21999179638672" /><trkpt lat="22.52665678125" lon="114.21975879638671" /><trkpt lat="22.52614978125" lon="114.21956479638672" /><trkpt lat="22.52595678125" lon="114.21952479638672" /><trkpt lat="22.52584378125" lon="114.21950579638671" /><trkpt lat="22.52566678125" lon="114.21942579638672" /><trkpt lat="22.52548878125" lon="114.21940179638672" /><trkpt lat="22.52524378125" lon="114.21929579638672" /><trkpt lat="22.52520878125" lon="114.21922279638672" /><trkpt lat="22.52500378125" lon="114.21880379638672" /><trkpt lat="22.52495778125" lon="114.21852579638671" /><trkpt lat="22.52487778125" lon="114.21822079638672" /><trkpt lat="22.52465278125" lon="114.21809879638671" /><trkpt lat="22.52465878125" lon="114.21803279638672" /><trkpt lat="22.52465078125" lon="114.21795579638672" /><trkpt lat="22.52463678125" lon="114.21789179638672" /><trkpt lat="22.52401078125" lon="114.21578779638672" /><trkpt lat="22.52394978125" lon="114.21560679638672" /><trkpt lat="22.52394778125" lon="114.21558079638672" /><trkpt lat="22.52392678125" lon="114.21554679638672" /><trkpt lat="22.523901648546296" lon="114.21546727188378" /></trkseg></trk></gpx>