<?xml version='1.0' encoding='UTF-8' ?><gpx version="1.1" creator="HikingTrailHK" xsi:schemaLocation="http://www.topografix.com/GPX/1/1 http://www.topografix.com/GPX/1/1/gpx.xsd" xmlns="http://www.topografix.com/GPX/1/1" xmlns:xsi="http://www.w3.org/2001/XMLSchema-instance"><metadata><name>鐵矢山 @ 2024-10-1</name><desc></desc></metadata><trk><trkseg><trkpt lat="22.391534490027944" lon="114.29713148485237" /><trkpt lat="22.39169178125" lon="114.29710779638671" /><trkpt lat="22.39193278125" lon="114.29695479638671" /><trkpt lat="22.39222278125" lon="114.29695179638672" /><trkpt lat="22.39253778125" lon="114.29708879638672" /><trkpt lat="22.39307878125" lon="114.29721979638671" /><trkpt lat="22.39340778125" lon="114.29723879638672" /><trkpt lat="22.39374578125" lon="114.29708579638672" /><trkpt lat="22.39384178125" lon="114.29705079638671" /><trkpt lat="22.39375778125" lon="114.29690879638672" /><trkpt lat="22.39357978125" lon="114.29682579638671" /><trkpt lat="22.39325178125" lon="114.29665979638672" /><trkpt lat="22.39315278125" lon="114.29646079638673" /><trkpt lat="22.39306878125" lon="114.29619579638671" /><trkpt lat="22.39296478125" lon="114.29580079638671" /><trkpt lat="22.39293678125" lon="114.29542079638672" /><trkpt lat="22.39298378125" lon="114.29488679638672" /><trkpt lat="22.39290978125" lon="114.29471479638671" /><trkpt lat="22.39301978125" lon="114.29475979638671" /><trkpt lat="22.39307678125" lon="114.29479179638672" /><trkpt lat="22.39314578125" lon="114.29484279638672" /><trkpt lat="22.39319578125" lon="114.29487679638672" /><trkpt lat="22.39327378125" lon="114.29488579638672" /><trkpt lat="22.39339478125" lon="114.29491379638672" /><trkpt lat="22.39343278125" lon="114.29490279638672" /><trkpt lat="22.39349478125" lon="114.29490379638672" /><trkpt lat="22.39365278125" lon="114.29488679638672" /><trkpt lat="22.39382578125" lon="114.29486179638671" /><trkpt lat="22.39390078125" lon="114.29485479638672" /><trkpt lat="22.39404178125" lon="114.29476279638672" /><trkpt lat="22.39411378125" lon="114.29472679638671" /><trkpt lat="22.39419578125" lon="114.29471679638672" /><trkpt lat="22.39426378125" lon="114.29465679638672" /><trkpt lat="22.39433578125" lon="114.29467779638672" /><trkpt lat="22.39441478125" lon="114.29462079638672" /><trkpt lat="22.39447378125" lon="114.29457179638672" /><trkpt lat="22.39452278125" lon="114.29451179638671" /><trkpt lat="22.39455878125" lon="114.29444779638672" /><trkpt lat="22.39463078125" lon="114.29440479638671" /><trkpt lat="22.39472278125" lon="114.29440179638672" /><trkpt lat="22.39486278125" lon="114.29432379638672" /><trkpt lat="22.39494178125" lon="114.29434479638672" /><trkpt lat="22.39501378125" lon="114.29438779638672" /><trkpt lat="22.39509178125" lon="114.29440179638672" /><trkpt lat="22.39517078125" lon="114.29444379638672" /><trkpt lat="22.39521678125" lon="114.29448679638672" /><trkpt lat="22.39552178125" lon="114.29455379638672" /><trkpt lat="22.39570878125" lon="114.29456779638672" /><trkpt lat="22.39628778125" lon="114.29463779638672" /><trkpt lat="22.39651878125" lon="114.29467179638672" /><trkpt lat="22.39687078125" lon="114.29451879638673" /><trkpt lat="22.39708678125" lon="114.29456879638671" /><trkpt lat="22.39717878125" lon="114.29450079638671" /><trkpt lat="22.39737078125" lon="114.29447579638672" /><trkpt lat="22.39745678125" lon="114.29445479638672" /><trkpt lat="22.39754278125" lon="114.29445979638672" /><trkpt lat="22.39760678125" lon="114.29447779638672" /><trkpt lat="22.39770878125" lon="114.29448379638671" /><trkpt lat="22.39778778125" lon="114.29445779638672" /><trkpt lat="22.39786978125" lon="114.29444879638672" /><trkpt lat="22.39805778125" lon="114.29447579638672" /><trkpt lat="22.39811778125" lon="114.29451379638672" /><trkpt lat="22.39820278125" lon="114.29451779638671" /><trkpt lat="22.39827078125" lon="114.29445379638672" /><trkpt lat="22.39839078125" lon="114.29442179638671" /><trkpt lat="22.39848078125" lon="114.29444179638672" /><trkpt lat="22.39856378125" lon="114.29443079638672" /><trkpt lat="22.39873178125" lon="114.29434179638672" /><trkpt lat="22.39883178125" lon="114.29434379638671" /><trkpt lat="22.39903078125" lon="114.29429879638671" /><trkpt lat="22.39906278125" lon="114.29427279638672" /><trkpt lat="22.39920378125" lon="114.29415879638672" /><trkpt lat="22.39927178125" lon="114.29407679638672" /><trkpt lat="22.39934078125" lon="114.29401279638672" /><trkpt lat="22.39940278125" lon="114.29396279638672" /><trkpt lat="22.39947778125" lon="114.29389179638672" /><trkpt lat="22.39956378125" lon="114.29385979638671" /><trkpt lat="22.39961378125" lon="114.29378679638671" /><trkpt lat="22.39974878125" lon="114.29368579638673" /><trkpt lat="22.39983978125" lon="114.29366179638671" /><trkpt lat="22.39990578125" lon="114.29371379638673" /><trkpt lat="22.39998678125" lon="114.29369679638671" /><trkpt lat="22.40005278125" lon="114.29359379638672" /><trkpt lat="22.40014978125" lon="114.29344079638672" /><trkpt lat="22.400164781249998" lon="114.29324979638672" /><trkpt lat="22.40034778125" lon="114.29306179638672" /><trkpt lat="22.40047478125" lon="114.29272379638672" /><trkpt lat="22.40064578125" lon="114.29234279638672" /><trkpt lat="22.40128778125" lon="114.29182179638671" /><trkpt lat="22.40162778125" lon="114.29144979638671" /><trkpt lat="22.40194078125" lon="114.29140879638672" /><trkpt lat="22.40213878125" lon="114.29131579638671" /><trkpt lat="22.40227278125" lon="114.29102579638672" /><trkpt lat="22.40236678125" lon="114.29096479638672" /><trkpt lat="22.40243878125" lon="114.29069679638671" /><trkpt lat="22.40257778125" lon="114.29053479638672" /><trkpt lat="22.40279578125" lon="114.29026279638671" /><trkpt lat="22.402998781249998" lon="114.29016479638672" /><trkpt lat="22.40341878125" lon="114.28992579638673" /><trkpt lat="22.40367878125" lon="114.28989079638671" /><trkpt lat="22.40397678125" lon="114.28967979638672" /><trkpt lat="22.40424878125" lon="114.28968679638672" /><trkpt lat="22.40490578125" lon="114.28974679638672" /><trkpt lat="22.40519678125" lon="114.28952079638673" /><trkpt lat="22.40536478125" lon="114.28942579638672" /><trkpt lat="22.40553378125" lon="114.28936479638672" /><trkpt lat="22.40567778125" lon="114.28924879638672" /><trkpt lat="22.40575078125" lon="114.28922079638672" /><trkpt lat="22.40589478125" lon="114.28919379638671" /><trkpt lat="22.40597978125" lon="114.28916879638672" /><trkpt lat="22.40601778125" lon="114.28912479638672" /><trkpt lat="22.40606578125" lon="114.28910379638671" /><trkpt lat="22.40610878125" lon="114.28907079638672" /><trkpt lat="22.40619578125" lon="114.28899079638671" /><trkpt lat="22.40662378125" lon="114.28884179638672" /><trkpt lat="22.40666178125" lon="114.28884479638671" /><trkpt lat="22.40672378125" lon="114.28886979638672" /><trkpt lat="22.40680078125" lon="114.28887679638672" /><trkpt lat="22.40682078125" lon="114.28886579638672" /><trkpt lat="22.40690778125" lon="114.28876479638672" /><trkpt lat="22.40698478125" lon="114.28873279638672" /><trkpt lat="22.40704578125" lon="114.28871179638672" /><trkpt lat="22.40713078125" lon="114.28865179638672" /><trkpt lat="22.40721478125" lon="114.28861879638671" /><trkpt lat="22.40728578125" lon="114.28857679638672" /><trkpt lat="22.40735278125" lon="114.28850279638672" /><trkpt lat="22.40743478125" lon="114.28847979638672" /><trkpt lat="22.40747878125" lon="114.28848379638671" /><trkpt lat="22.40761378125" lon="114.28844679638672" /><trkpt lat="22.40765678125" lon="114.28841779638672" /><trkpt lat="22.40768578125" lon="114.28841979638672" /><trkpt lat="22.40781678125" lon="114.28835179638672" /><trkpt lat="22.40787178125" lon="114.28833579638672" /><trkpt lat="22.40791578125" lon="114.28831879638672" /><trkpt lat="22.40795478125" lon="114.28831379638672" /><trkpt lat="22.40802478125" lon="114.28831679638672" /><trkpt lat="22.40805478125" lon="114.28830179638672" /><trkpt lat="22.40816578125" lon="114.28829779638671" /><trkpt lat="22.40826678125" lon="114.28826879638672" /><trkpt lat="22.40835578125" lon="114.28826179638672" /><trkpt lat="22.40849178125" lon="114.28826379638672" /><trkpt lat="22.40854678125" lon="114.28823579638672" /><trkpt lat="22.40862378125" lon="114.28823379638672" /><trkpt lat="22.40865778125" lon="114.28821179638672" /><trkpt lat="22.40881278125" lon="114.28821179638672" /><trkpt lat="22.40883978125" lon="114.28820279638671" /><trkpt lat="22.40889678125" lon="114.28815079638672" /><trkpt lat="22.40893678125" lon="114.28814779638672" /><trkpt lat="22.40896478125" lon="114.28813779638672" /><trkpt lat="22.40898578125" lon="114.28810779638673" /><trkpt lat="22.40902078125" lon="114.28807179638672" /><trkpt lat="22.40903578125" lon="114.28803179638672" /><trkpt lat="22.40910478125" lon="114.28794579638672" /><trkpt lat="22.40913778125" lon="114.28791979638672" /><trkpt lat="22.40920478125" lon="114.28787879638672" /><trkpt lat="22.40927878125" lon="114.28783779638673" /><trkpt lat="22.40929278125" lon="114.28781879638672" /><trkpt lat="22.40930378125" lon="114.28781079638672" /><trkpt lat="22.40931978125" lon="114.28781379638671" /><trkpt lat="22.40933878125" lon="114.28782279638672" /><trkpt lat="22.40936178125" lon="114.28782779638672" /><trkpt lat="22.40937878125" lon="114.28781679638672" /><trkpt lat="22.40942978125" lon="114.28777279638672" /><trkpt lat="22.40945378125" lon="114.28775979638672" /><trkpt lat="22.40954478125" lon="114.28774879638672" /><trkpt lat="22.40964078125" lon="114.28773379638672" /><trkpt lat="22.40977578125" lon="114.28771879638671" /><trkpt lat="22.40995378125" lon="114.28770979638672" /><trkpt lat="22.41000578125" lon="114.28769679638671" /><trkpt lat="22.41022178125" lon="114.28756879638672" /><trkpt lat="22.41027778125" lon="114.28755279638672" /><trkpt lat="22.41040178125" lon="114.28750679638672" /><trkpt lat="22.41044578125" lon="114.28749479638672" /><trkpt lat="22.41054178125" lon="114.28746779638672" /><trkpt lat="22.41067678125" lon="114.28744579638672" /><trkpt lat="22.41073778125" lon="114.28742179638672" /><trkpt lat="22.41084178125" lon="114.28732779638672" /><trkpt lat="22.41081878125" lon="114.28731979638673" /><trkpt lat="22.41062378125" lon="114.28725379638672" /><trkpt lat="22.41038078125" lon="114.28715079638671" /><trkpt lat="22.41012778125" lon="114.28693579638671" /><trkpt lat="22.41014578125" lon="114.28678779638672" /><trkpt lat="22.41016578125" lon="114.28674679638672" /><trkpt lat="22.41016478125" lon="114.28669479638671" /><trkpt lat="22.41022178125" lon="114.28656679638672" /><trkpt lat="22.41025678125" lon="114.28652279638672" /><trkpt lat="22.41027978125" lon="114.28648279638672" /><trkpt lat="22.41028978125" lon="114.28643779638672" /><trkpt lat="22.41030678125" lon="114.28641079638672" /><trkpt lat="22.41034378125" lon="114.28636179638671" /><trkpt lat="22.41037278125" lon="114.28630679638673" /><trkpt lat="22.41039278125" lon="114.28625879638672" /><trkpt lat="22.41040778125" lon="114.28618879638672" /><trkpt lat="22.41041878125" lon="114.28616679638672" /><trkpt lat="22.41043378125" lon="114.28615179638672" /><trkpt lat="22.41052278125" lon="114.28611879638672" /><trkpt lat="22.41061178125" lon="114.28606079638672" /><trkpt lat="22.41063378125" lon="114.28601679638672" /><trkpt lat="22.41064978125" lon="114.28593979638671" /><trkpt lat="22.41065478125" lon="114.28589879638672" /><trkpt lat="22.41064578125" lon="114.28579779638672" /><trkpt lat="22.41064678125" lon="114.28574779638672" /><trkpt lat="22.41065678125" lon="114.28569879638673" /><trkpt lat="22.41068978125" lon="114.28563179638672" /><trkpt lat="22.41070978125" lon="114.28558179638672" /><trkpt lat="22.41071678125" lon="114.28551079638672" /><trkpt lat="22.41072778125" lon="114.28546079638672" /><trkpt lat="22.41074378125" lon="114.28541679638671" /><trkpt lat="22.41074978125" lon="114.28538479638672" /><trkpt lat="22.41074078125" lon="114.28533479638672" /><trkpt lat="22.41070878125" lon="114.28526379638672" /><trkpt lat="22.41070078125" lon="114.28523079638671" /><trkpt lat="22.41069978125" lon="114.28515179638671" /><trkpt lat="22.41071378125" lon="114.28509779638672" /><trkpt lat="22.41071578125" lon="114.28506279638673" /><trkpt lat="22.41072978125" lon="114.28500679638672" /><trkpt lat="22.41073578125" lon="114.28495179638672" /><trkpt lat="22.41075178125" lon="114.28487379638672" /><trkpt lat="22.41078078125" lon="114.28473479638672" /><trkpt lat="22.41077378125" lon="114.28466879638673" /><trkpt lat="22.41074078125" lon="114.28456579638672" /><trkpt lat="22.41072578125" lon="114.28449979638673" /><trkpt lat="22.41070178125" lon="114.28429979638672" /><trkpt lat="22.41069278125" lon="114.28424379638672" /><trkpt lat="22.41064678125" lon="114.28417979638672" /><trkpt lat="22.41059278125" lon="114.28410679638672" /><trkpt lat="22.41056878125" lon="114.28402879638672" /><trkpt lat="22.41049178125" lon="114.28388179638672" /><trkpt lat="22.41046378125" lon="114.28384779638672" /><trkpt lat="22.41043878125" lon="114.28381079638672" /><trkpt lat="22.41039878125" lon="114.28379079638673" /><trkpt lat="22.41038778125" lon="114.28378179638672" /><trkpt lat="22.41028778125" lon="114.28363979638672" /><trkpt lat="22.41027778125" lon="114.28358179638671" /><trkpt lat="22.41025878125" lon="114.28353179638673" /><trkpt lat="22.41024278125" lon="114.28347279638672" /><trkpt lat="22.41021078125" lon="114.28343779638672" /><trkpt lat="22.41018878125" lon="114.28339479638672" /><trkpt lat="22.41018278125" lon="114.28334279638672" /><trkpt lat="22.41018778125" lon="114.28326579638671" /><trkpt lat="22.41017178125" lon="114.28318179638671" /><trkpt lat="22.41017178125" lon="114.28316979638672" /><trkpt lat="22.41015778125" lon="114.28311779638672" /><trkpt lat="22.41012478125" lon="114.28304879638672" /><trkpt lat="22.41011478125" lon="114.28298079638672" /><trkpt lat="22.41003278125" lon="114.28291279638673" /><trkpt lat="22.40996278125" lon="114.28286779638672" /><trkpt lat="22.40986378125" lon="114.28277379638672" /><trkpt lat="22.40984778125" lon="114.28273879638672" /><trkpt lat="22.40983578125" lon="114.28272079638671" /><trkpt lat="22.40976878125" lon="114.28272579638671" /><trkpt lat="22.40971578125" lon="114.28268579638672" /><trkpt lat="22.40969178125" lon="114.28267879638672" /><trkpt lat="22.40954578125" lon="114.28267479638671" /><trkpt lat="22.40947178125" lon="114.28265579638672" /><trkpt lat="22.40940978125" lon="114.28266179638672" /><trkpt lat="22.40938578125" lon="114.28265979638672" /><trkpt lat="22.40926178125" lon="114.28261879638671" /><trkpt lat="22.40917678125" lon="114.28256979638672" /><trkpt lat="22.40909278125" lon="114.28252479638672" /><trkpt lat="22.40900078125" lon="114.28254879638672" /><trkpt lat="22.40896678125" lon="114.28253779638672" /><trkpt lat="22.40893678125" lon="114.28251379638672" /><trkpt lat="22.40892278125" lon="114.28249179638672" /><trkpt lat="22.40891878125" lon="114.28242879638672" /><trkpt lat="22.40891178125" lon="114.28237679638671" /><trkpt lat="22.40889878125" lon="114.28235779638672" /><trkpt lat="22.40885678125" lon="114.28236379638672" /><trkpt lat="22.40884378125" lon="114.28236179638672" /><trkpt lat="22.40880678125" lon="114.28232179638673" /><trkpt lat="22.40877478125" lon="114.28230579638672" /><trkpt lat="22.40874378125" lon="114.28225279638671" /><trkpt lat="22.40869678125" lon="114.28224079638672" /><trkpt lat="22.40863078125" lon="114.28214479638672" /><trkpt lat="22.40860478125" lon="114.28213279638672" /><trkpt lat="22.40851378125" lon="114.28213079638672" /><trkpt lat="22.40848378125" lon="114.28213879638672" /><trkpt lat="22.40845378125" lon="114.28214979638672" /><trkpt lat="22.40843378125" lon="114.28214679638671" /><trkpt lat="22.40840278125" lon="114.28213279638672" /><trkpt lat="22.40835978125" lon="114.28209979638672" /><trkpt lat="22.40827578125" lon="114.28203679638672" /><trkpt lat="22.40825878125" lon="114.28202779638671" /><trkpt lat="22.40824078125" lon="114.28202179638672" /><trkpt lat="22.40822178125" lon="114.28201879638672" /><trkpt lat="22.40821178125" lon="114.28201879638672" /><trkpt lat="22.40819378125" lon="114.28202379638672" /><trkpt lat="22.40818278125" lon="114.28202279638671" /><trkpt lat="22.40817178125" lon="114.28201779638673" /><trkpt lat="22.40815978125" lon="114.28201079638671" /><trkpt lat="22.40814978125" lon="114.28200179638672" /><trkpt lat="22.40813978125" lon="114.28198979638672" /><trkpt lat="22.40813278125" lon="114.28197779638671" /><trkpt lat="22.40812178125" lon="114.28195479638671" /><trkpt lat="22.40810778125" lon="114.28190579638672" /><trkpt lat="22.40809878125" lon="114.28188179638671" /><trkpt lat="22.40809078125" lon="114.28186379638672" /><trkpt lat="22.40808178125" lon="114.28185179638672" /><trkpt lat="22.40795778125" lon="114.28176679638672" /><trkpt lat="22.40774978125" lon="114.28168279638672" /><trkpt lat="22.40770878125" lon="114.28165779638672" /><trkpt lat="22.40760378125" lon="114.28160579638671" /><trkpt lat="22.40758378125" lon="114.28158979638673" /><trkpt lat="22.40757778125" lon="114.28156979638672" /><trkpt lat="22.40757078125" lon="114.28154179638672" /><trkpt lat="22.40756378125" lon="114.28151579638671" /><trkpt lat="22.40755378125" lon="114.28150479638671" /><trkpt lat="22.40741778125" lon="114.28141679638672" /><trkpt lat="22.40738478125" lon="114.28140179638672" /><trkpt lat="22.40735778125" lon="114.28139679638672" /><trkpt lat="22.40732278125" lon="114.28140479638672" /><trkpt lat="22.40726478125" lon="114.28141979638671" /><trkpt lat="22.40723278125" lon="114.28142679638673" /><trkpt lat="22.40719978125" lon="114.28142679638673" /><trkpt lat="22.40718278125" lon="114.28142479638672" /><trkpt lat="22.40716678125" lon="114.28142879638672" /><trkpt lat="22.40712478125" lon="114.28146179638672" /><trkpt lat="22.40711478125" lon="114.28146479638671" /><trkpt lat="22.40710278125" lon="114.28146579638671" /><trkpt lat="22.40706478125" lon="114.28145779638672" /><trkpt lat="22.40693078125" lon="114.28141479638671" /><trkpt lat="22.40670978125" lon="114.28131879638671" /><trkpt lat="22.40667078125" lon="114.28129279638672" /><trkpt lat="22.40663378125" lon="114.28125979638672" /><trkpt lat="22.40659978125" lon="114.28122479638672" /><trkpt lat="22.406582781250002" lon="114.28121179638671" /><trkpt lat="22.40655778125" lon="114.28119979638672" /><trkpt lat="22.40649578125" lon="114.28118879638672" /><trkpt lat="22.40635578125" lon="114.28112179638671" /><trkpt lat="22.40633678125" lon="114.28110679638672" /><trkpt lat="22.40626078125" lon="114.28101779638672" /><trkpt lat="22.40623278125" lon="114.28099079638672" /><trkpt lat="22.40621778125" lon="114.28097979638672" /><trkpt lat="22.40614378125" lon="114.28094879638672" /><trkpt lat="22.40610478125" lon="114.28092779638672" /><trkpt lat="22.40603378125" lon="114.28088179638672" /><trkpt lat="22.40600878125" lon="114.28087079638672" /><trkpt lat="22.40597978125" lon="114.28086879638671" /><trkpt lat="22.40569978125" lon="114.28086979638672" /><trkpt lat="22.40566978125" lon="114.28086679638672" /><trkpt lat="22.40557678125" lon="114.28082679638672" /><trkpt lat="22.40549678125" lon="114.28080979638672" /><trkpt lat="22.40532478125" lon="114.28077279638671" /><trkpt lat="22.40518878125" lon="114.28072979638672" /><trkpt lat="22.40499678125" lon="114.28070079638672" /><trkpt lat="22.40497478125" lon="114.28070079638672" /><trkpt lat="22.40494678125" lon="114.28070979638672" /><trkpt lat="22.40487378125" lon="114.28073979638671" /><trkpt lat="22.40485478125" lon="114.28073679638672" /><trkpt lat="22.40483978125" lon="114.28072379638672" /><trkpt lat="22.40482178125" lon="114.28070179638672" /><trkpt lat="22.40470578125" lon="114.28058779638671" /><trkpt lat="22.40467978125" lon="114.28055179638672" /><trkpt lat="22.40467078125" lon="114.28052979638672" /><trkpt lat="22.40465878125" lon="114.28047979638671" /><trkpt lat="22.40465278125" lon="114.28044379638672" /><trkpt lat="22.40465278125" lon="114.28042479638673" /><trkpt lat="22.40465378125" lon="114.28040979638672" /><trkpt lat="22.40468278125" lon="114.28028779638672" /><trkpt lat="22.40466278125" lon="114.28019479638672" /><trkpt lat="22.40466378125" lon="114.28016979638672" /><trkpt lat="22.40470178125" lon="114.28001379638673" /><trkpt lat="22.40472578125" lon="114.27992279638671" /><trkpt lat="22.40476778125" lon="114.27981679638673" /><trkpt lat="22.40478278125" lon="114.27965879638671" /><trkpt lat="22.40482478125" lon="114.27958279638672" /><trkpt lat="22.40484678125" lon="114.27953079638672" /><trkpt lat="22.40486078125" lon="114.27951279638671" /><trkpt lat="22.40488678125" lon="114.27950079638671" /><trkpt lat="22.40489578125" lon="114.27947679638672" /><trkpt lat="22.40508578125" lon="114.27927079638673" /><trkpt lat="22.40510778125" lon="114.27934379638671" /><trkpt lat="22.40517078125" lon="114.27932079638671" /><trkpt lat="22.40514778125" lon="114.27924679638672" /><trkpt lat="22.40513478125" lon="114.27920979638672" /><trkpt lat="22.40517278125" lon="114.27906779638671" /><trkpt lat="22.40518547833045" lon="114.27901928683674" /><trkpt lat="22.40521078125" lon="114.27899679638672" /><trkpt lat="22.40523678125" lon="114.27895379638672" /><trkpt lat="22.40518978125" lon="114.27893579638672" /><trkpt lat="22.40522378125" lon="114.27888979638672" /><trkpt lat="22.40526978125" lon="114.27881979638671" /><trkpt lat="22.40531278125" lon="114.27874779638672" /><trkpt lat="22.40534578125" lon="114.27867879638671" /><trkpt lat="22.40537778125" lon="114.27860579638671" /><trkpt lat="22.40541378125" lon="114.27851179638672" /><trkpt lat="22.40544478125" lon="114.27841179638672" /><trkpt lat="22.40546378125" lon="114.27832579638672" /><trkpt lat="22.40547978125" lon="114.27823479638671" /><trkpt lat="22.40548778125" lon="114.27816479638672" /><trkpt lat="22.40549478125" lon="114.27809479638672" /><trkpt lat="22.40549778125" lon="114.27803279638673" /><trkpt lat="22.40549978125" lon="114.27796779638672" /><trkpt lat="22.40549878125" lon="114.27791779638672" /><trkpt lat="22.40547878125" lon="114.27757879638672" /><trkpt lat="22.40546778125" lon="114.27740879638672" /><trkpt lat="22.40545578125" lon="114.27724879638671" /><trkpt lat="22.40545178125" lon="114.27718579638672" /><trkpt lat="22.40544678125" lon="114.27711179638672" /><trkpt lat="22.40544478125" lon="114.27704879638672" /><trkpt lat="22.40544478125" lon="114.27698179638672" /><trkpt lat="22.40544678125" lon="114.27691779638671" /><trkpt lat="22.40544978125" lon="114.27685979638672" /><trkpt lat="22.40545678125" lon="114.27680679638672" /><trkpt lat="22.40546378125" lon="114.27675379638671" /><trkpt lat="22.40547378125" lon="114.27669379638672" /><trkpt lat="22.40548278125" lon="114.27665579638672" /><trkpt lat="22.40549878125" lon="114.27659679638671" /><trkpt lat="22.40551378125" lon="114.27653879638672" /><trkpt lat="22.40552978125" lon="114.27649279638672" /><trkpt lat="22.40556178125" lon="114.27640779638672" /><trkpt lat="22.40556404616168" lon="114.27640213497565" /></trkseg></trk></gpx>