<?xml version='1.0' encoding='UTF-8' ?><gpx version="1.1" creator="HikingTrailHK" xsi:schemaLocation="http://www.topografix.com/GPX/1/1 http://www.topografix.com/GPX/1/1/gpx.xsd" xmlns="http://www.topografix.com/GPX/1/1" xmlns:xsi="http://www.w3.org/2001/XMLSchema-instance"><metadata><name>長山 @ 2024-7-7</name><desc></desc></metadata><trk><trkseg><trkpt lat="22.387560013974674" lon="114.30312705640813" /><trkpt lat="22.38747378125" lon="114.30317879638672" /><trkpt lat="22.38696178125" lon="114.30346979638672" /><trkpt lat="22.38691178125" lon="114.30350579638672" /><trkpt lat="22.38685978125" lon="114.30354679638671" /><trkpt lat="22.38680678125" lon="114.30359379638672" /><trkpt lat="22.38676978125" lon="114.30363279638672" /><trkpt lat="22.38673378125" lon="114.30367779638672" /><trkpt lat="22.38670978125" lon="114.30371379638672" /><trkpt lat="22.38668778125" lon="114.30375179638672" /><trkpt lat="22.38666878125" lon="114.30379079638672" /><trkpt lat="22.38664178125" lon="114.30385179638672" /><trkpt lat="22.38662078125" lon="114.30390679638671" /><trkpt lat="22.38660078125" lon="114.30396679638672" /><trkpt lat="22.38644578125" lon="114.30448179638672" /><trkpt lat="22.38643278125" lon="114.30453579638672" /><trkpt lat="22.38642078125" lon="114.30459379638671" /><trkpt lat="22.38640978125" lon="114.30468579638672" /><trkpt lat="22.38640978125" lon="114.30485179638671" /><trkpt lat="22.38653078125" lon="114.30483379638672" /><trkpt lat="22.38663078125" lon="114.30485379638672" /><trkpt lat="22.38673578125" lon="114.30489779638671" /><trkpt lat="22.38701678125" lon="114.30511579638672" /><trkpt lat="22.38716078125" lon="114.30509679638672" /><trkpt lat="22.38725678125" lon="114.30505679638672" /><trkpt lat="22.38749178125" lon="114.30492079638672" /><trkpt lat="22.38756178125" lon="114.30482379638671" /><trkpt lat="22.38762278125" lon="114.30491779638672" /><trkpt lat="22.38768078125" lon="114.30492379638672" /><trkpt lat="22.38775978125" lon="114.30495079638672" /><trkpt lat="22.38784378125" lon="114.30496779638672" /><trkpt lat="22.38801078125" lon="114.30492279638672" /><trkpt lat="22.38804478125" lon="114.30489979638672" /><trkpt lat="22.38821178125" lon="114.30492379638672" /><trkpt lat="22.38836878125" lon="114.30492779638672" /><trkpt lat="22.38856178125" lon="114.30485079638672" /><trkpt lat="22.38862178125" lon="114.30490379638672" /><trkpt lat="22.38875278125" lon="114.30489879638672" /><trkpt lat="22.38886678125" lon="114.30500179638672" /><trkpt lat="22.38890878125" lon="114.30498279638672" /><trkpt lat="22.38894178125" lon="114.30487779638672" /><trkpt lat="22.38912178125" lon="114.30484779638672" /><trkpt lat="22.38916378125" lon="114.30464579638672" /><trkpt lat="22.38923178125" lon="114.30461679638672" /><trkpt lat="22.38929678125" lon="114.30451379638671" /><trkpt lat="22.389419781249998" lon="114.30438079638672" /><trkpt lat="22.38948378125" lon="114.30428679638672" /><trkpt lat="22.38959678125" lon="114.30429979638672" /><trkpt lat="22.38969778125" lon="114.30428279638672" /><trkpt lat="22.38978378125" lon="114.30428579638672" /><trkpt lat="22.38990078125" lon="114.30434979638672" /><trkpt lat="22.39015378125" lon="114.30438079638672" /><trkpt lat="22.39036278125" lon="114.30445979638672" /><trkpt lat="22.39064278125" lon="114.30444079638671" /><trkpt lat="22.39082778125" lon="114.30445779638671" /><trkpt lat="22.39100478125" lon="114.30441479638672" /><trkpt lat="22.39135978125" lon="114.30443779638672" /><trkpt lat="22.39147578125" lon="114.30442179638672" /><trkpt lat="22.39163178125" lon="114.30442479638671" /><trkpt lat="22.39209778125" lon="114.30412079638671" /><trkpt lat="22.39213778125" lon="114.30405279638671" /><trkpt lat="22.39226778125" lon="114.30395379638672" /><trkpt lat="22.39228978125" lon="114.30391579638672" /><trkpt lat="22.39251078125" lon="114.30394379638672" /><trkpt lat="22.39259878125" lon="114.30391079638672" /><trkpt lat="22.39279278125" lon="114.30390879638672" /><trkpt lat="22.39293578125" lon="114.30390379638672" /><trkpt lat="22.39355378125" lon="114.30371379638672" /><trkpt lat="22.39373978125" lon="114.30372979638672" /><trkpt lat="22.39386478125" lon="114.30369579638672" /><trkpt lat="22.39412178125" lon="114.30375579638672" /><trkpt lat="22.39425678125" lon="114.30370279638672" /><trkpt lat="22.39448178125" lon="114.30381079638671" /><trkpt lat="22.39469778125" lon="114.30378779638671" /><trkpt lat="22.39486478125" lon="114.30374579638672" /><trkpt lat="22.39505178125" lon="114.30376479638672" /><trkpt lat="22.39516978125" lon="114.30374279638671" /><trkpt lat="22.39544878125" lon="114.30375379638672" /><trkpt lat="22.39586178125" lon="114.30369679638672" /><trkpt lat="22.39600378125" lon="114.30365079638672" /><trkpt lat="22.39623578125" lon="114.30361179638672" /><trkpt lat="22.39630778125" lon="114.30362879638672" /><trkpt lat="22.39639678125" lon="114.30376079638671" /><trkpt lat="22.39650178125" lon="114.30410779638672" /><trkpt lat="22.39655978125" lon="114.30448679638671" /><trkpt lat="22.39672078125" lon="114.30473779638672" /><trkpt lat="22.39695078125" lon="114.30486079638672" /><trkpt lat="22.39729878125" lon="114.30536679638672" /><trkpt lat="22.39768078125" lon="114.30543579638672" /><trkpt lat="22.39796278125" lon="114.30544779638672" /><trkpt lat="22.39847578125" lon="114.30525479638672" /><trkpt lat="22.39894678125" lon="114.30495579638672" /><trkpt lat="22.39905478125" lon="114.30504579638672" /><trkpt lat="22.39924778125" lon="114.30517979638672" /><trkpt lat="22.39954378125" lon="114.30518079638672" /><trkpt lat="22.39964078125" lon="114.30520379638672" /><trkpt lat="22.40034778125" lon="114.30537479638672" /><trkpt lat="22.40057478125" lon="114.30531379638671" /><trkpt lat="22.40082978125" lon="114.30533279638672" /><trkpt lat="22.40092078125" lon="114.30541079638672" /><trkpt lat="22.40107078125" lon="114.30546079638673" /><trkpt lat="22.40133478125" lon="114.30545479638671" /><trkpt lat="22.40145278125" lon="114.30543779638671" /><trkpt lat="22.40151578125" lon="114.30538679638671" /><trkpt lat="22.40158678125" lon="114.30527879638672" /><trkpt lat="22.40177978125" lon="114.30502579638672" /><trkpt lat="22.40209178125" lon="114.30495579638672" /><trkpt lat="22.40219678125" lon="114.30496379638672" /><trkpt lat="22.40228678125" lon="114.30476179638671" /><trkpt lat="22.40240378125" lon="114.30461179638672" /><trkpt lat="22.40262178125" lon="114.30445579638672" /><trkpt lat="22.40270778125" lon="114.30441779638672" /><trkpt lat="22.40273878125" lon="114.30465379638672" /><trkpt lat="22.40291578125" lon="114.30527379638671" /><trkpt lat="22.40290478125" lon="114.30545979638671" /><trkpt lat="22.40291978125" lon="114.30567179638672" /><trkpt lat="22.40272978125" lon="114.30600879638672" /><trkpt lat="22.402763781250002" lon="114.30625179638672" /><trkpt lat="22.40282778125" lon="114.30653079638672" /><trkpt lat="22.40297378125" lon="114.30653979638672" /><trkpt lat="22.40318678125" lon="114.30652079638672" /><trkpt lat="22.40347578125" lon="114.30659379638672" /><trkpt lat="22.40378878125" lon="114.30672779638672" /><trkpt lat="22.40402078125" lon="114.30683679638672" /><trkpt lat="22.40432178125" lon="114.30691979638672" /><trkpt lat="22.40439378125" lon="114.30689579638671" /><trkpt lat="22.40454678125" lon="114.30680879638672" /><trkpt lat="22.40464078125" lon="114.30677679638671" /><trkpt lat="22.40505278125" lon="114.30688679638672" /><trkpt lat="22.40520078125" lon="114.30687079638672" /><trkpt lat="22.40545478125" lon="114.30691079638672" /><trkpt lat="22.40557378125" lon="114.30696579638672" /><trkpt lat="22.40569078125" lon="114.30703179638672" /><trkpt lat="22.40574978125" lon="114.30706279638672" /><trkpt lat="22.40577478125" lon="114.30727579638672" /><trkpt lat="22.40577278125" lon="114.30751079638672" /><trkpt lat="22.405832781249998" lon="114.30796679638672" /><trkpt lat="22.40587278125" lon="114.30819379638672" /><trkpt lat="22.40598878125" lon="114.30852279638673" /><trkpt lat="22.40590778125" lon="114.30884179638672" /><trkpt lat="22.40590278125" lon="114.30904279638672" /><trkpt lat="22.40585278125" lon="114.30921479638671" /><trkpt lat="22.40576878125" lon="114.30934979638671" /><trkpt lat="22.40571378125" lon="114.30956479638672" /><trkpt lat="22.40546478125" lon="114.31004079638672" /><trkpt lat="22.40533878125" lon="114.31018979638672" /><trkpt lat="22.40529378125" lon="114.31037279638672" /><trkpt lat="22.40522478125" lon="114.31052879638672" /><trkpt lat="22.40504778125" lon="114.31061179638672" /><trkpt lat="22.40490178125" lon="114.31080379638672" /><trkpt lat="22.40490978125" lon="114.31123279638672" /><trkpt lat="22.40472678125" lon="114.31168379638672" /><trkpt lat="22.40455578125" lon="114.31199779638672" /><trkpt lat="22.40454778125" lon="114.31236079638671" /><trkpt lat="22.40450978125" lon="114.31272579638672" /><trkpt lat="22.40459878125" lon="114.31281879638672" /><trkpt lat="22.40461678125" lon="114.31300779638671" /><trkpt lat="22.40452078125" lon="114.31322079638672" /><trkpt lat="22.40451878125" lon="114.31344979638672" /><trkpt lat="22.40458178125" lon="114.31386579638672" /><trkpt lat="22.40432478125" lon="114.31407379638672" /><trkpt lat="22.40430078125" lon="114.31425079638672" /><trkpt lat="22.40419578125" lon="114.31433479638672" /><trkpt lat="22.40418078125" lon="114.31446879638672" /><trkpt lat="22.40420878125" lon="114.31466579638672" /><trkpt lat="22.40427578125" lon="114.31492979638672" /><trkpt lat="22.40480678125" lon="114.31537279638673" /><trkpt lat="22.40485578125" lon="114.31567379638672" /><trkpt lat="22.40473778125" lon="114.31595379638672" /><trkpt lat="22.40471178125" lon="114.31620479638671" /><trkpt lat="22.40460778125" lon="114.31639279638672" /><trkpt lat="22.40454878125" lon="114.31660679638672" /><trkpt lat="22.40457078125" lon="114.31676979638672" /><trkpt lat="22.40459878125" lon="114.31698679638671" /><trkpt lat="22.40471278125" lon="114.31730979638672" /><trkpt lat="22.40473778125" lon="114.31742879638672" /><trkpt lat="22.40469578125" lon="114.31756779638673" /><trkpt lat="22.40453578125" lon="114.31771479638672" /><trkpt lat="22.40434778125" lon="114.31781079638672" /><trkpt lat="22.40420678125" lon="114.31783079638672" /><trkpt lat="22.40408578125" lon="114.31787479638672" /><trkpt lat="22.40384478125" lon="114.31803579638672" /><trkpt lat="22.40376378125" lon="114.31813879638672" /><trkpt lat="22.40371178125" lon="114.31820079638672" /><trkpt lat="22.40369578125" lon="114.31822479638672" /><trkpt lat="22.40367178125" lon="114.31827879638672" /><trkpt lat="22.40364678125" lon="114.31833279638671" /><trkpt lat="22.40359178125" lon="114.31834179638672" /><trkpt lat="22.40355478125" lon="114.31834879638672" /><trkpt lat="22.40351978125" lon="114.31835179638672" /><trkpt lat="22.40349278125" lon="114.31834479638673" /><trkpt lat="22.40347978125" lon="114.31833379638672" /><trkpt lat="22.40346278125" lon="114.31831079638673" /><trkpt lat="22.40344978125" lon="114.31830179638672" /><trkpt lat="22.40342578125" lon="114.31829579638672" /><trkpt lat="22.40335178125" lon="114.31829279638671" /><trkpt lat="22.40328578125" lon="114.31826579638673" /><trkpt lat="22.40324478125" lon="114.31825679638672" /><trkpt lat="22.40320578125" lon="114.31825179638672" /><trkpt lat="22.40302678125" lon="114.31823379638672" /><trkpt lat="22.40292578125" lon="114.31821279638672" /><trkpt lat="22.40289778125" lon="114.31820779638672" /><trkpt lat="22.40285978125" lon="114.31820879638671" /><trkpt lat="22.40274778125" lon="114.31822479638672" /><trkpt lat="22.40270578125" lon="114.31821779638672" /><trkpt lat="22.40267978125" lon="114.31821679638672" /><trkpt lat="22.40265578125" lon="114.31822479638672" /><trkpt lat="22.40263378125" lon="114.31823679638671" /><trkpt lat="22.40242478125" lon="114.31840379638672" /><trkpt lat="22.40237878125" lon="114.31844879638672" /><trkpt lat="22.40235278125" lon="114.31848979638671" /><trkpt lat="22.40231978125" lon="114.31855479638672" /><trkpt lat="22.40228378125" lon="114.31861179638672" /><trkpt lat="22.40215778125" lon="114.31870179638672" /><trkpt lat="22.40204878125" lon="114.31876379638672" /><trkpt lat="22.40201578125" lon="114.31877979638672" /><trkpt lat="22.40198678125" lon="114.31878379638673" /><trkpt lat="22.40190378125" lon="114.31878579638672" /><trkpt lat="22.40173978125" lon="114.31878979638672" /><trkpt lat="22.40165178125" lon="114.31876879638672" /><trkpt lat="22.40161678125" lon="114.31876979638672" /><trkpt lat="22.40153278125" lon="114.31879479638671" /><trkpt lat="22.40150078125" lon="114.31879779638672" /><trkpt lat="22.40146878125" lon="114.31878779638672" /><trkpt lat="22.40135678125" lon="114.31872779638672" /><trkpt lat="22.40127278125" lon="114.31868679638671" /><trkpt lat="22.40115078125" lon="114.31857079638672" /><trkpt lat="22.40109578125" lon="114.31851479638672" /><trkpt lat="22.40107178125" lon="114.31849179638672" /><trkpt lat="22.40105078125" lon="114.31847579638672" /><trkpt lat="22.40103378125" lon="114.31846179638671" /><trkpt lat="22.40100878125" lon="114.31844179638672" /><trkpt lat="22.40098178125" lon="114.31842679638672" /><trkpt lat="22.40095378125" lon="114.31841179638671" /><trkpt lat="22.40092578125" lon="114.31839979638671" /><trkpt lat="22.40089778125" lon="114.31838779638672" /><trkpt lat="22.40087478125" lon="114.31838079638672" /><trkpt lat="22.40085378125" lon="114.31837479638672" /><trkpt lat="22.40079978125" lon="114.31835979638672" /><trkpt lat="22.40074778125" lon="114.31834879638672" /><trkpt lat="22.40073278125" lon="114.31834879638672" /><trkpt lat="22.40071378125" lon="114.31835079638672" /><trkpt lat="22.40069578125" lon="114.31835579638673" /><trkpt lat="22.40068178125" lon="114.31836579638671" /><trkpt lat="22.40062778125" lon="114.31841979638672" /><trkpt lat="22.40061878125" lon="114.31842379638672" /><trkpt lat="22.40060578125" lon="114.31842379638672" /><trkpt lat="22.40059278125" lon="114.31842179638672" /><trkpt lat="22.40057378125" lon="114.31841779638673" /><trkpt lat="22.40056078125" lon="114.31841379638672" /><trkpt lat="22.40051078125" lon="114.31839379638672" /><trkpt lat="22.40048078125" lon="114.31837879638672" /><trkpt lat="22.40046378125" lon="114.31837179638671" /><trkpt lat="22.40044978125" lon="114.31836879638672" /><trkpt lat="22.40043378125" lon="114.31836979638672" /><trkpt lat="22.40041478125" lon="114.31837279638673" /><trkpt lat="22.40036678125" lon="114.31839979638671" /><trkpt lat="22.40034878125" lon="114.31840679638672" /><trkpt lat="22.40028878125" lon="114.31840779638672" /><trkpt lat="22.40027178125" lon="114.31841179638671" /><trkpt lat="22.40024978125" lon="114.31842479638672" /><trkpt lat="22.40014678125" lon="114.31850079638672" /><trkpt lat="22.40006978125" lon="114.31859379638672" /><trkpt lat="22.40004978125" lon="114.31861379638671" /><trkpt lat="22.39997978125" lon="114.31865679638672" /><trkpt lat="22.39992578125" lon="114.31868379638672" /><trkpt lat="22.39988278125" lon="114.31869679638672" /><trkpt lat="22.39984878125" lon="114.31870179638672" /><trkpt lat="22.39981678125" lon="114.31870579638672" /><trkpt lat="22.39977678125" lon="114.31870779638672" /><trkpt lat="22.39964878125" lon="114.31874779638672" /><trkpt lat="22.39961978125" lon="114.31874779638672" /><trkpt lat="22.39959278125" lon="114.31873879638673" /><trkpt lat="22.39957478125" lon="114.31873979638672" /><trkpt lat="22.39955878125" lon="114.31874079638672" /><trkpt lat="22.39953078125" lon="114.31874979638673" /><trkpt lat="22.39947878125" lon="114.31874679638672" /><trkpt lat="22.39941978125" lon="114.31874679638672" /><trkpt lat="22.39937478125" lon="114.31875079638672" /><trkpt lat="22.39933478125" lon="114.31875979638671" /><trkpt lat="22.39929378125" lon="114.31877179638671" /><trkpt lat="22.39922778125" lon="114.31879979638671" /><trkpt lat="22.39919678125" lon="114.31881179638673" /><trkpt lat="22.39913278125" lon="114.31883779638672" /><trkpt lat="22.39912378125" lon="114.31882279638671" /><trkpt lat="22.39908478125" lon="114.31878879638671" /><trkpt lat="22.39905378125" lon="114.31876579638671" /><trkpt lat="22.39901778125" lon="114.31874279638672" /><trkpt lat="22.39896078125" lon="114.31871079638672" /><trkpt lat="22.39889978125" lon="114.31868679638671" /><trkpt lat="22.39881678125" lon="114.31867379638672" /><trkpt lat="22.39876278125" lon="114.31867079638671" /><trkpt lat="22.39871178125" lon="114.31866679638672" /><trkpt lat="22.39865978125" lon="114.31865479638672" /><trkpt lat="22.39864978125" lon="114.31865479638672" /><trkpt lat="22.39863978125" lon="114.31865679638672" /><trkpt lat="22.39862378125" lon="114.31866379638672" /><trkpt lat="22.39860678125" lon="114.31867479638672" /><trkpt lat="22.39859978125" lon="114.31867879638672" /><trkpt lat="22.39859178125" lon="114.31868079638672" /><trkpt lat="22.39853178125" lon="114.31867879638672" /><trkpt lat="22.39851978125" lon="114.31867679638673" /><trkpt lat="22.39849678125" lon="114.31866879638672" /><trkpt lat="22.39842878125" lon="114.31865479638672" /><trkpt lat="22.39840678125" lon="114.31865179638672" /><trkpt lat="22.39837378125" lon="114.31863279638672" /><trkpt lat="22.39830978125" lon="114.31860879638671" /><trkpt lat="22.39826478125" lon="114.31860379638672" /><trkpt lat="22.39814678125" lon="114.31860179638672" /><trkpt lat="22.39805678125" lon="114.31860979638672" /><trkpt lat="22.39753678125" lon="114.31876379638672" /><trkpt lat="22.39749178125" lon="114.31923179638672" /><trkpt lat="22.39747678125" lon="114.31924979638671" /><trkpt lat="22.39745078125" lon="114.31927979638672" /><trkpt lat="22.39743078125" lon="114.31930279638672" /><trkpt lat="22.39743778125" lon="114.31932179638672" /><trkpt lat="22.39744178125" lon="114.31933979638671" /><trkpt lat="22.39744178125" lon="114.31935679638671" /><trkpt lat="22.39743778125" lon="114.31936979638672" /><trkpt lat="22.39739778125" lon="114.31941379638671" /><trkpt lat="22.39735678125" lon="114.31945779638671" /><trkpt lat="22.39730878125" lon="114.31951079638672" /><trkpt lat="22.39725378125" lon="114.31957579638672" /><trkpt lat="22.39715778125" lon="114.31968779638672" /><trkpt lat="22.39708478125" lon="114.31960679638672" /><trkpt lat="22.39710078125" lon="114.31959979638673" /><trkpt lat="22.39711478125" lon="114.31958979638672" /><trkpt lat="22.397133781249998" lon="114.31956879638672" /><trkpt lat="22.39714578125" lon="114.31954379638672" /><trkpt lat="22.39715178125" lon="114.31951779638672" /><trkpt lat="22.39715078125" lon="114.31948979638672" /><trkpt lat="22.39714578125" lon="114.31947079638672" /><trkpt lat="22.39713778125" lon="114.31945279638671" /><trkpt lat="22.39712678125" lon="114.31943779638672" /><trkpt lat="22.39710578125" lon="114.31941879638671" /><trkpt lat="22.39707678125" lon="114.31940679638672" /><trkpt lat="22.39705978125" lon="114.31940479638672" /><trkpt lat="22.39704278125" lon="114.31940579638672" /><trkpt lat="22.39701478125" lon="114.31941479638672" /><trkpt lat="22.39699778125" lon="114.31942579638672" /><trkpt lat="22.39698378125" lon="114.31944079638671" /><trkpt lat="22.39696778125" lon="114.31947079638672" /><trkpt lat="22.39674978125" lon="114.31923179638672" /><trkpt lat="22.396774137944135" lon="114.31920943530125" /></trkseg></trk></gpx>