<?xml version='1.0' encoding='UTF-8' ?><gpx version="1.1" creator="HikingTrailHK" xsi:schemaLocation="http://www.topografix.com/GPX/1/1 http://www.topografix.com/GPX/1/1/gpx.xsd" xmlns="http://www.topografix.com/GPX/1/1" xmlns:xsi="http://www.w3.org/2001/XMLSchema-instance"><metadata><name>長索島 @ 2022-11-19</name><desc></desc></metadata><trk><trkseg><trkpt lat="22.33279264405419" lon="114.02758729487098" /><trkpt lat="22.33269478125" lon="114.02757379638672" /><trkpt lat="22.33259978125" lon="114.02760379638671" /><trkpt lat="22.33228578125" lon="114.02779679638672" /><trkpt lat="22.33215078125" lon="114.02783479638671" /><trkpt lat="22.33201278125" lon="114.02783679638672" /><trkpt lat="22.33135778125" lon="114.02767879638672" /><trkpt lat="22.33066678125" lon="114.02749679638671" /><trkpt lat="22.33058778125" lon="114.02744579638671" /><trkpt lat="22.33026778125" lon="114.02717879638672" /><trkpt lat="22.32967978125" lon="114.02666479638673" /><trkpt lat="22.32900678125" lon="114.02608879638672" /><trkpt lat="22.32809678125" lon="114.02524079638673" /><trkpt lat="22.32776178125" lon="114.02488279638672" /><trkpt lat="22.32748478125" lon="114.02454979638672" /><trkpt lat="22.32703078125" lon="114.02393979638671" /><trkpt lat="22.32647078125" lon="114.02299379638671" /><trkpt lat="22.32619178125" lon="114.02245679638672" /><trkpt lat="22.32601678125" lon="114.02203579638672" /><trkpt lat="22.32572478125" lon="114.02121279638672" /><trkpt lat="22.32568278125" lon="114.02100279638672" /><trkpt lat="22.32579378125" lon="114.02064579638672" /><trkpt lat="22.32639478125" lon="114.02036079638673" /><trkpt lat="22.32640478125" lon="114.02036079638673" /><trkpt lat="22.32676278125" lon="114.02044679638672" /><trkpt lat="22.32692178125" lon="114.02066579638672" /><trkpt lat="22.32705978125" lon="114.02085479638671" /><trkpt lat="22.32761578125" lon="114.02161579638671" /><trkpt lat="22.32803278125" lon="114.02170179638672" /><trkpt lat="22.32814178125" lon="114.02190579638672" /><trkpt lat="22.32838978125" lon="114.02191679638672" /><trkpt lat="22.32857378125" lon="114.02202779638672" /><trkpt lat="22.32895578125" lon="114.02225979638672" /><trkpt lat="22.32924378125" lon="114.02222779638672" /><trkpt lat="22.32966778125" lon="114.02234879638672" /><trkpt lat="22.33001478125" lon="114.02257879638672" /><trkpt lat="22.33007878125" lon="114.02262179638672" /><trkpt lat="22.33019578125" lon="114.02261979638672" /><trkpt lat="22.33051878125" lon="114.02261379638672" /><trkpt lat="22.33049378125" lon="114.02286879638672" /><trkpt lat="22.33072278125" lon="114.02289379638673" /><trkpt lat="22.33095778125" lon="114.02282679638672" /><trkpt lat="22.33105478125" lon="114.02286679638672" /><trkpt lat="22.33125278125" lon="114.02295079638672" /><trkpt lat="22.33129078125" lon="114.02296579638671" /><trkpt lat="22.33132478125" lon="114.02311479638672" /><trkpt lat="22.33132578125" lon="114.02318679638672" /><trkpt lat="22.33132678125" lon="114.02330579638672" /><trkpt lat="22.33133378125" lon="114.02331979638672" /><trkpt lat="22.33140578125" lon="114.02348679638672" /><trkpt lat="22.33162478125" lon="114.02371379638672" /><trkpt lat="22.33171778125" lon="114.02392879638671" /><trkpt lat="22.33204778125" lon="114.02405679638672" /><trkpt lat="22.33213878125" lon="114.02419579638672" /><trkpt lat="22.33229078125" lon="114.02427479638672" /><trkpt lat="22.33237578125" lon="114.02425779638672" /><trkpt lat="22.33257578125" lon="114.02421579638671" /><trkpt lat="22.33260978125" lon="114.02419379638673" /><trkpt lat="22.33269078125" lon="114.02414579638672" /><trkpt lat="22.33290478125" lon="114.02417979638672" /><trkpt lat="22.33313078125" lon="114.02419579638672" /><trkpt lat="22.33322778125" lon="114.02438979638671" /><trkpt lat="22.33330978125" lon="114.02445679638672" /><trkpt lat="22.33337908312734" lon="114.02444792883466" /><trkpt lat="22.333449945629624" lon="114.02441658944002" /><trkpt lat="22.33349287662287" lon="114.0243309399716" /><trkpt lat="22.33355553988588" lon="114.02427952590585" /><trkpt lat="22.33371682038974" lon="114.02422998762057" /><trkpt lat="22.33377255705183" lon="114.02418186373512" /><trkpt lat="22.333836222680034" lon="114.02408968435805" /><trkpt lat="22.333748957984525" lon="114.02411972648605" /><trkpt lat="22.333698184285097" lon="114.02417785989076" /><trkpt lat="22.33337538462115" lon="114.0244128107617" /><trkpt lat="22.333308689268733" lon="114.02440891955763" /><trkpt lat="22.33330762570965" lon="114.02441110999314" /><trkpt lat="22.33330415257791" lon="114.02441169281644" /><trkpt lat="22.333286517800087" lon="114.02443778785315" /><trkpt lat="22.33322778125" lon="114.02438979638671" /><trkpt lat="22.33313078125" lon="114.02419579638672" /><trkpt lat="22.33290478125" lon="114.02417979638672" /><trkpt lat="22.33269078125" lon="114.02414579638672" /><trkpt lat="22.33268378125" lon="114.02414479638672" /><trkpt lat="22.33260978125" lon="114.02419379638673" /><trkpt lat="22.33257578125" lon="114.02421579638671" /><trkpt lat="22.33237578125" lon="114.02425779638672" /><trkpt lat="22.33229078125" lon="114.02427479638672" /><trkpt lat="22.33213878125" lon="114.02419579638672" /><trkpt lat="22.33204778125" lon="114.02405679638672" /><trkpt lat="22.33203478125" lon="114.02404479638672" /><trkpt lat="22.33171778125" lon="114.02392879638671" /><trkpt lat="22.33162478125" lon="114.02371379638672" /><trkpt lat="22.33140578125" lon="114.02348679638672" /><trkpt lat="22.33133378125" lon="114.02331979638672" /><trkpt lat="22.33132678125" lon="114.02330579638672" /><trkpt lat="22.33132578125" lon="114.02318679638672" /><trkpt lat="22.33132478125" lon="114.02311479638672" /><trkpt lat="22.33139778125" lon="114.02305779638672" /><trkpt lat="22.33149878125" lon="114.02291279638672" /><trkpt lat="22.33156578125" lon="114.02268879638672" /><trkpt lat="22.33163555074661" lon="114.0226362913418" /><trkpt lat="22.331729556445993" lon="114.02259884214186" /><trkpt lat="22.33182916993057" lon="114.02250209281812" /><trkpt lat="22.33173997583259" lon="114.02247533598057" /><trkpt lat="22.331654404040265" lon="114.02243046549546" /><trkpt lat="22.3316703970131" lon="114.02254638555684" /><trkpt lat="22.33163671425625" lon="114.02259722031437" /><trkpt lat="22.3316532807374" lon="114.02262294864704" /><trkpt lat="22.33156578125" lon="114.02268879638672" /><trkpt lat="22.33149878125" lon="114.02291279638672" /><trkpt lat="22.33139778125" lon="114.02305779638672" /><trkpt lat="22.33132478125" lon="114.02311479638672" /><trkpt lat="22.33129078125" lon="114.02296579638671" /><trkpt lat="22.33125278125" lon="114.02295079638672" /><trkpt lat="22.33105478125" lon="114.02286679638672" /><trkpt lat="22.33095778125" lon="114.02282679638672" /><trkpt lat="22.33072278125" lon="114.02289379638673" /><trkpt lat="22.33049378125" lon="114.02286879638672" /><trkpt lat="22.33051878125" lon="114.02261379638672" /><trkpt lat="22.33019578125" lon="114.02261979638672" /><trkpt lat="22.33007878125" lon="114.02262179638672" /><trkpt lat="22.33001478125" lon="114.02257879638672" /><trkpt lat="22.32966778125" lon="114.02234879638672" /><trkpt lat="22.32924378125" lon="114.02222779638672" /><trkpt lat="22.32895578125" lon="114.02225979638672" /><trkpt lat="22.32857378125" lon="114.02202779638672" /><trkpt lat="22.32838978125" lon="114.02191679638672" /><trkpt lat="22.32814178125" lon="114.02190579638672" /><trkpt lat="22.32803278125" lon="114.02170179638672" /><trkpt lat="22.32761578125" lon="114.02161579638671" /><trkpt lat="22.32705978125" lon="114.02085479638671" /><trkpt lat="22.32692178125" lon="114.02066579638672" /><trkpt lat="22.32676278125" lon="114.02044679638672" /><trkpt lat="22.32640478125" lon="114.02036079638673" /><trkpt lat="22.32639478125" lon="114.02036079638673" /><trkpt lat="22.32579378125" lon="114.02064579638672" /><trkpt lat="22.32568278125" lon="114.02100279638672" /><trkpt lat="22.32572478125" lon="114.02121279638672" /><trkpt lat="22.32601678125" lon="114.02203579638672" /><trkpt lat="22.32619178125" lon="114.02245679638672" /><trkpt lat="22.32647078125" lon="114.02299379638671" /><trkpt lat="22.32703078125" lon="114.02393979638671" /><trkpt lat="22.32748478125" lon="114.02454979638672" /><trkpt lat="22.32776178125" lon="114.02488279638672" /><trkpt lat="22.32809678125" lon="114.02524079638673" /><trkpt lat="22.32900678125" lon="114.02608879638672" /><trkpt lat="22.32967978125" lon="114.02666479638673" /><trkpt lat="22.33026778125" lon="114.02717879638672" /><trkpt lat="22.33058778125" lon="114.02744579638671" /><trkpt lat="22.33066678125" lon="114.02749679638671" /><trkpt lat="22.33135778125" lon="114.02767879638672" /><trkpt lat="22.33201278125" lon="114.02783679638672" /><trkpt lat="22.33215078125" lon="114.02783479638671" /><trkpt lat="22.33228578125" lon="114.02779679638672" /><trkpt lat="22.33259978125" lon="114.02760379638671" /><trkpt lat="22.332630609824477" lon="114.02759406089912" /></trkseg></trk></gpx>