<?xml version='1.0' encoding='UTF-8' ?><gpx version="1.1" creator="HikingTrailHK" xsi:schemaLocation="http://www.topografix.com/GPX/1/1 http://www.topografix.com/GPX/1/1/gpx.xsd https://hikingtrailhk.appspot.com/xml/gpxextensions/v1 https://hikingtrailhk.appspot.com/xml/gpxextensions/v1/gpxextensions.xsd" xmlns="http://www.topografix.com/GPX/1/1" xmlns:h="https://hikingtrailhk.appspot.com/xml/gpxextensions/v1" xmlns:xsi="http://www.w3.org/2001/XMLSchema-instance"><metadata><name>閒遊西貢西 @ 2017-4-1</name><desc></desc><extensions><h:categoryid>tour_route</h:categoryid></extensions></metadata><trk><trkseg><trkpt lat="22.420335528986666" lon="114.33166717085896" /><trkpt lat="22.42066678125" lon="114.33188079638671" /><trkpt lat="22.42072378125" lon="114.33179379638672" /><trkpt lat="22.42066478125" lon="114.33171879638672" /><trkpt lat="22.42062478125" lon="114.33162779638671" /><trkpt lat="22.42053578125" lon="114.33151579638673" /><trkpt lat="22.42053278125" lon="114.33139179638673" /><trkpt lat="22.42059978125" lon="114.33129779638672" /><trkpt lat="22.42077578125" lon="114.33122279638673" /><trkpt lat="22.42090978125" lon="114.33111279638672" /><trkpt lat="22.42097978125" lon="114.33108879638672" /><trkpt lat="22.42103178125" lon="114.33104879638672" /><trkpt lat="22.42113078125" lon="114.33097379638671" /><trkpt lat="22.42114578125" lon="114.33090679638671" /><trkpt lat="22.42127178125" lon="114.33085279638672" /><trkpt lat="22.42129578125" lon="114.33071379638672" /><trkpt lat="22.42139478125" lon="114.33056879638671" /><trkpt lat="22.42171278125" lon="114.33057379638672" /><trkpt lat="22.42171278125" lon="114.33038479638672" /><trkpt lat="22.42190978125" lon="114.33005879638672" /><trkpt lat="22.42214878125" lon="114.32992679638672" /><trkpt lat="22.42232278125" lon="114.32969179638673" /><trkpt lat="22.42254778125" lon="114.32957379638673" /><trkpt lat="22.42266278125" lon="114.32918979638671" /><trkpt lat="22.42293978125" lon="114.32830179638673" /><trkpt lat="22.42287778125" lon="114.32773879638673" /><trkpt lat="22.42248078125" lon="114.32722379638672" /><trkpt lat="22.42215578125" lon="114.32681379638672" /><trkpt lat="22.42209478125" lon="114.32650679638672" /><trkpt lat="22.42214778125" lon="114.32626679638672" /><trkpt lat="22.42233678125" lon="114.32613079638672" /><trkpt lat="22.42239178125" lon="114.32582079638672" /><trkpt lat="22.42235678125" lon="114.32551979638671" /><trkpt lat="22.42216278125" lon="114.32530179638673" /><trkpt lat="22.42220378125" lon="114.32430479638671" /><trkpt lat="22.42216778125" lon="114.32397179638672" /><trkpt lat="22.42233378125" lon="114.32370579638672" /><trkpt lat="22.42225478125" lon="114.32353879638671" /><trkpt lat="22.42226478125" lon="114.32346979638672" /><trkpt lat="22.42224978125" lon="114.32338179638671" /><trkpt lat="22.42227878125" lon="114.32329079638671" /><trkpt lat="22.42223978125" lon="114.32299979638672" /><trkpt lat="22.42225278125" lon="114.32287879638672" /><trkpt lat="22.42222878125" lon="114.32279279638672" /><trkpt lat="22.42218478125" lon="114.32273679638672" /><trkpt lat="22.42213878125" lon="114.32268979638673" /><trkpt lat="22.42211578125" lon="114.32262079638672" /><trkpt lat="22.42207278125" lon="114.32260079638672" /><trkpt lat="22.42203778125" lon="114.32262479638672" /><trkpt lat="22.42200478125" lon="114.32263079638672" /><trkpt lat="22.42197978125" lon="114.32260479638671" /><trkpt lat="22.42182878125" lon="114.32262079638672" /><trkpt lat="22.42172478125" lon="114.32255679638672" /><trkpt lat="22.42166478125" lon="114.32255179638672" /><trkpt lat="22.42158578125" lon="114.32255179638672" /><trkpt lat="22.42155078125" lon="114.32251079638672" /><trkpt lat="22.42145178125" lon="114.32244679638671" /><trkpt lat="22.42135778125" lon="114.32239479638672" /><trkpt lat="22.42128378125" lon="114.32237279638672" /><trkpt lat="22.42122378125" lon="114.32232079638672" /><trkpt lat="22.421306872709337" lon="114.32227561394342" /><trkpt lat="22.421427370315428" lon="114.3222578208983" /><trkpt lat="22.421490934485718" lon="114.32229698075702" /><trkpt lat="22.421550018865318" lon="114.32235021795663" /><trkpt lat="22.421638288695732" lon="114.3224026601851" /><trkpt lat="22.421660782577643" lon="114.32242930251343" /><trkpt lat="22.42168178125" lon="114.32241779638672" /><trkpt lat="22.42174878125" lon="114.32239979638672" /><trkpt lat="22.42178578125" lon="114.32239879638672" /><trkpt lat="22.42184678125" lon="114.32236779638671" /><trkpt lat="22.42187478125" lon="114.32236179638672" /><trkpt lat="22.42192878125" lon="114.32233279638672" /><trkpt lat="22.42200078125" lon="114.32233179638672" /><trkpt lat="22.42207678125" lon="114.32230779638672" /><trkpt lat="22.42218478125" lon="114.32231179638671" /><trkpt lat="22.42211478125" lon="114.32243779638672" /><trkpt lat="22.42207178125" lon="114.32251779638672" /><trkpt lat="22.42207278125" lon="114.32260079638672" /><trkpt lat="22.42211578125" lon="114.32262079638672" /><trkpt lat="22.42213878125" lon="114.32268979638673" /><trkpt lat="22.42218478125" lon="114.32273679638672" /><trkpt lat="22.42222878125" lon="114.32279279638672" /><trkpt lat="22.42225278125" lon="114.32287879638672" /><trkpt lat="22.422404781250002" lon="114.32286679638672" /><trkpt lat="22.42293378125" lon="114.32280079638672" /><trkpt lat="22.42382278125" lon="114.32148779638672" /><trkpt lat="22.42384278125" lon="114.32097279638671" /><trkpt lat="22.42398178125" lon="114.32070479638672" /><trkpt lat="22.42405078125" lon="114.32011479638672" /><trkpt lat="22.42473478125" lon="114.31971779638671" /><trkpt lat="22.42508178125" lon="114.31924579638672" /><trkpt lat="22.42541678125" lon="114.31906079638672" /><trkpt lat="22.42541678125" lon="114.31878179638672" /><trkpt lat="22.42578378125" lon="114.31809479638672" /><trkpt lat="22.42622978125" lon="114.31730079638672" /><trkpt lat="22.42611078125" lon="114.31613179638671" /><trkpt lat="22.42612378125" lon="114.31474079638672" /><trkpt lat="22.42629278125" lon="114.31387079638672" /><trkpt lat="22.42640878125" lon="114.31306179638672" /><trkpt lat="22.42658578125" lon="114.31275979638671" /><trkpt lat="22.42660678125" lon="114.31224579638672" /><trkpt lat="22.42650178125" lon="114.31181779638672" /><trkpt lat="22.42708278125" lon="114.31112979638672" /><trkpt lat="22.42761578125" lon="114.31073879638672" /><trkpt lat="22.42827278125" lon="114.31001479638672" /><trkpt lat="22.42865778125" lon="114.30971879638672" /><trkpt lat="22.42867978125" lon="114.30932979638672" /><trkpt lat="22.42857878125" lon="114.30877579638671" /><trkpt lat="22.42841578125" lon="114.30815379638672" /><trkpt lat="22.42851978125" lon="114.30777879638671" /><trkpt lat="22.42856878125" lon="114.30746879638671" /><trkpt lat="22.42845878125" lon="114.30723679638672" /><trkpt lat="22.42834778125" lon="114.30710279638672" /><trkpt lat="22.42812378125" lon="114.30698979638672" /><trkpt lat="22.42803078125" lon="114.30697779638672" /><trkpt lat="22.42781878125" lon="114.30707779638672" /><trkpt lat="22.42758478125" lon="114.30714679638672" /><trkpt lat="22.42736778125" lon="114.30733079638672" /><trkpt lat="22.42717078125" lon="114.30763179638672" /><trkpt lat="22.42686178125" lon="114.30797479638672" /><trkpt lat="22.42669678125" lon="114.30799879638671" /><trkpt lat="22.42657878125" lon="114.30803979638672" /><trkpt lat="22.42637578125" lon="114.30816379638672" /><trkpt lat="22.42627878125" lon="114.30822379638671" /><trkpt lat="22.42611978125" lon="114.30822079638672" /><trkpt lat="22.42596278125" lon="114.30812779638671" /><trkpt lat="22.42583878125" lon="114.30801179638672" /><trkpt lat="22.42558178125" lon="114.30761779638672" /><trkpt lat="22.42539378125" lon="114.30748679638671" /><trkpt lat="22.42504578125" lon="114.30747579638673" /><trkpt lat="22.42482378125" lon="114.30756679638672" /><trkpt lat="22.42471978125" lon="114.30714379638673" /><trkpt lat="22.42456878125" lon="114.30676579638671" /><trkpt lat="22.42441778125" lon="114.30639779638672" /><trkpt lat="22.42436178125" lon="114.30617879638672" /><trkpt lat="22.42387178125" lon="114.30605479638672" /><trkpt lat="22.42372178125" lon="114.30614979638672" /><trkpt lat="22.42360878125" lon="114.30620479638672" /><trkpt lat="22.42345978125" lon="114.30623879638672" /><trkpt lat="22.42324978125" lon="114.30634179638672" /><trkpt lat="22.42306978125" lon="114.30636379638672" /><trkpt lat="22.42285178125" lon="114.30648479638671" /><trkpt lat="22.42238378125" lon="114.30646879638672" /><trkpt lat="22.42218778125" lon="114.30634779638672" /><trkpt lat="22.42152478125" lon="114.30609179638672" /><trkpt lat="22.42138678125" lon="114.30607079638672" /><trkpt lat="22.42121178125" lon="114.30637479638672" /><trkpt lat="22.42087378125" lon="114.30653679638672" /><trkpt lat="22.42069978125" lon="114.30678679638672" /><trkpt lat="22.42040678125" lon="114.30701679638672" /><trkpt lat="22.42025978125" lon="114.30700779638671" /><trkpt lat="22.42005178125" lon="114.30702379638672" /><trkpt lat="22.41991478125" lon="114.30703779638672" /><trkpt lat="22.41979578125" lon="114.30700979638672" /><trkpt lat="22.41972278125" lon="114.30695979638672" /><trkpt lat="22.41963778125" lon="114.30694879638672" /><trkpt lat="22.41955078125" lon="114.30690379638672" /><trkpt lat="22.41938778125" lon="114.30654679638671" /><trkpt lat="22.41928578125" lon="114.30644179638672" /><trkpt lat="22.41905978125" lon="114.30644479638671" /><trkpt lat="22.41896478125" lon="114.30627279638672" /><trkpt lat="22.41882578125" lon="114.30643379638671" /><trkpt lat="22.41877978125" lon="114.30633979638672" /><trkpt lat="22.41884478125" lon="114.30606679638672" /><trkpt lat="22.41872578125" lon="114.30589179638672" /><trkpt lat="22.41869778125" lon="114.30577979638672" /><trkpt lat="22.41864878125" lon="114.30569379638672" /><trkpt lat="22.41854978125" lon="114.30567479638673" /><trkpt lat="22.41847778125" lon="114.30566679638672" /><trkpt lat="22.41834378125" lon="114.30566679638672" /><trkpt lat="22.41824978125" lon="114.30560779638672" /><trkpt lat="22.41813678125" lon="114.30559979638672" /><trkpt lat="22.41771978125" lon="114.30580979638673" /><trkpt lat="22.41745278125" lon="114.30602079638672" /><trkpt lat="22.41731878125" lon="114.30610979638672" /><trkpt lat="22.41712578125" lon="114.30625679638672" /><trkpt lat="22.41701578125" lon="114.30632379638672" /><trkpt lat="22.41690778125" lon="114.30636479638672" /><trkpt lat="22.41687078125" lon="114.30632079638671" /><trkpt lat="22.41671878125" lon="114.30616979638671" /><trkpt lat="22.41666878125" lon="114.30603279638672" /><trkpt lat="22.41658078125" lon="114.30593179638672" /><trkpt lat="22.41655778125" lon="114.30569179638672" /><trkpt lat="22.41644678125" lon="114.30564479638672" /><trkpt lat="22.41634078125" lon="114.30559779638672" /><trkpt lat="22.41612678125" lon="114.30535879638671" /><trkpt lat="22.41604378125" lon="114.30509279638672" /><trkpt lat="22.41589778125" lon="114.30491079638672" /><trkpt lat="22.41583078125" lon="114.30481179638672" /><trkpt lat="22.41567978125" lon="114.30457779638672" /><trkpt lat="22.41496778125" lon="114.30458079638672" /><trkpt lat="22.41412378125" lon="114.30482479638673" /><trkpt lat="22.41399778125" lon="114.30479379638672" /><trkpt lat="22.41367978125" lon="114.30444379638672" /><trkpt lat="22.41336878125" lon="114.30471179638671" /><trkpt lat="22.41271478125" lon="114.30513679638672" /><trkpt lat="22.41236178125" lon="114.30529379638672" /><trkpt lat="22.41174378125" lon="114.30586279638672" /><trkpt lat="22.41155278125" lon="114.30588579638672" /><trkpt lat="22.41149478125" lon="114.30609179638672" /><trkpt lat="22.41120278125" lon="114.30658179638672" /><trkpt lat="22.41087978125" lon="114.30695079638672" /><trkpt lat="22.41058778125" lon="114.30739979638672" /><trkpt lat="22.40938178125" lon="114.30793679638671" /><trkpt lat="22.40817178125" lon="114.30823779638672" /><trkpt lat="22.40783478125" lon="114.30804379638671" /><trkpt lat="22.40743778125" lon="114.30759379638671" /><trkpt lat="22.40690278125" lon="114.30731079638672" /><trkpt lat="22.40628778125" lon="114.30716079638673" /><trkpt lat="22.40593178125" lon="114.30705779638672" /><trkpt lat="22.40574978125" lon="114.30706279638672" /><trkpt lat="22.40569078125" lon="114.30703179638672" /><trkpt lat="22.40557378125" lon="114.30696579638672" /><trkpt lat="22.40545478125" lon="114.30691079638672" /><trkpt lat="22.40520078125" lon="114.30687079638672" /><trkpt lat="22.40505278125" lon="114.30688679638672" /><trkpt lat="22.40464078125" lon="114.30677679638671" /><trkpt lat="22.40454678125" lon="114.30680879638672" /><trkpt lat="22.40439378125" lon="114.30689579638671" /><trkpt lat="22.40432178125" lon="114.30691979638672" /><trkpt lat="22.40426878125" lon="114.30701679638672" /><trkpt lat="22.40418478125" lon="114.30706779638672" /><trkpt lat="22.40414378125" lon="114.30711679638672" /><trkpt lat="22.40408978125" lon="114.30715279638672" /><trkpt lat="22.40398978125" lon="114.30720379638672" /><trkpt lat="22.40394478125" lon="114.30724779638672" /><trkpt lat="22.40389778125" lon="114.30726879638672" /><trkpt lat="22.40384778125" lon="114.30732579638672" /><trkpt lat="22.40367778125" lon="114.30741079638672" /><trkpt lat="22.40357178125" lon="114.30756079638672" /><trkpt lat="22.40351278125" lon="114.30772779638671" /><trkpt lat="22.40333178125" lon="114.30771079638671" /><trkpt lat="22.40325478125" lon="114.30777679638672" /><trkpt lat="22.40316478125" lon="114.30782379638671" /><trkpt lat="22.40310878125" lon="114.30786679638672" /><trkpt lat="22.40297578125" lon="114.30793879638672" /><trkpt lat="22.40287478125" lon="114.30807879638672" /><trkpt lat="22.40268478125" lon="114.30819879638672" /><trkpt lat="22.40246878125" lon="114.30830679638672" /><trkpt lat="22.40242178125" lon="114.30835979638672" /><trkpt lat="22.40238178125" lon="114.30843379638672" /><trkpt lat="22.40235878125" lon="114.30852279638673" /><trkpt lat="22.40235778125" lon="114.30856779638673" /><trkpt lat="22.40237078125" lon="114.30862879638671" /><trkpt lat="22.40237578125" lon="114.30876579638672" /><trkpt lat="22.40235878125" lon="114.30892079638672" /><trkpt lat="22.40230978125" lon="114.30904679638672" /><trkpt lat="22.40228178125" lon="114.30913879638672" /><trkpt lat="22.40233578125" lon="114.30941479638672" /><trkpt lat="22.40226178125" lon="114.30953679638672" /><trkpt lat="22.40213678125" lon="114.30969579638672" /><trkpt lat="22.40198178125" lon="114.30979379638671" /><trkpt lat="22.40185278125" lon="114.30984279638672" /><trkpt lat="22.40162678125" lon="114.31009979638672" /><trkpt lat="22.40143578125" lon="114.31021179638672" /><trkpt lat="22.40126078125" lon="114.31021279638672" /><trkpt lat="22.40118578125" lon="114.31025079638673" /><trkpt lat="22.40103778125" lon="114.31027479638672" /><trkpt lat="22.40097778125" lon="114.31030179638672" /><trkpt lat="22.40085778125" lon="114.31033679638672" /><trkpt lat="22.40074378125" lon="114.31041179638672" /><trkpt lat="22.40058078125" lon="114.31048479638672" /><trkpt lat="22.40044878125" lon="114.31056679638672" /><trkpt lat="22.40034578125" lon="114.31059979638673" /><trkpt lat="22.40029878125" lon="114.31064279638672" /><trkpt lat="22.40016978125" lon="114.31069979638671" /><trkpt lat="22.40003278125" lon="114.31074979638672" /><trkpt lat="22.39996378125" lon="114.31079079638671" /><trkpt lat="22.39988278125" lon="114.31087179638672" /><trkpt lat="22.39976378125" lon="114.31092079638672" /><trkpt lat="22.39968578125" lon="114.31099979638672" /><trkpt lat="22.39954578125" lon="114.31108779638672" /><trkpt lat="22.39944078125" lon="114.31124279638672" /><trkpt lat="22.39935678125" lon="114.31131879638671" /><trkpt lat="22.39931078125" lon="114.31136079638672" /><trkpt lat="22.39914278125" lon="114.31147279638672" /><trkpt lat="22.39908478125" lon="114.31147479638672" /><trkpt lat="22.39905278125" lon="114.31147479638672" /><trkpt lat="22.39898078125" lon="114.31152379638672" /><trkpt lat="22.39896478125" lon="114.31162179638672" /><trkpt lat="22.39888178125" lon="114.31165079638672" /><trkpt lat="22.39883978125" lon="114.31172579638672" /><trkpt lat="22.39896578125" lon="114.31176579638672" /><trkpt lat="22.39902678125" lon="114.31184179638672" /><trkpt lat="22.39913678125" lon="114.31189279638672" /><trkpt lat="22.39927678125" lon="114.31218279638672" /><trkpt lat="22.39926078125" lon="114.31226379638672" /><trkpt lat="22.39921178125" lon="114.31238379638671" /><trkpt lat="22.39909778125" lon="114.31271579638671" /><trkpt lat="22.39909178125" lon="114.31300679638672" /><trkpt lat="22.39893178125" lon="114.31314579638672" /><trkpt lat="22.39863978125" lon="114.31350279638671" /><trkpt lat="22.39845678125" lon="114.31361979638672" /><trkpt lat="22.39839978125" lon="114.31380779638671" /><trkpt lat="22.39834778125" lon="114.31390679638672" /><trkpt lat="22.39824078125" lon="114.31400279638672" /><trkpt lat="22.39818078125" lon="114.31416379638672" /><trkpt lat="22.39816178125" lon="114.31426279638671" /><trkpt lat="22.39799878125" lon="114.31450279638672" /><trkpt lat="22.39790378125" lon="114.31459979638672" /><trkpt lat="22.39783678125" lon="114.31461979638672" /><trkpt lat="22.39777478125" lon="114.31465079638672" /><trkpt lat="22.39760778125" lon="114.31487379638672" /><trkpt lat="22.39756378125" lon="114.31497879638673" /><trkpt lat="22.39754678125" lon="114.31511879638671" /><trkpt lat="22.39752178125" lon="114.31522479638672" /><trkpt lat="22.39752078125" lon="114.31551079638672" /><trkpt lat="22.39746878125" lon="114.31560779638671" /><trkpt lat="22.39743678125" lon="114.31573079638672" /><trkpt lat="22.39735278125" lon="114.31591379638672" /><trkpt lat="22.39698478125" lon="114.31642179638672" /><trkpt lat="22.39693378125" lon="114.31645879638671" /><trkpt lat="22.39639778125" lon="114.31635479638672" /><trkpt lat="22.39621878125" lon="114.31640879638672" /><trkpt lat="22.39611378125" lon="114.31671479638672" /><trkpt lat="22.39602878125" lon="114.31679779638672" /><trkpt lat="22.39596078125" lon="114.31708879638671" /><trkpt lat="22.39568478125" lon="114.31735379638671" /><trkpt lat="22.39570978125" lon="114.31768179638672" /><trkpt lat="22.39571078125" lon="114.31791479638672" /><trkpt lat="22.39573178125" lon="114.31801879638672" /><trkpt lat="22.39585178125" lon="114.31821979638671" /><trkpt lat="22.39633778125" lon="114.31875779638672" /><trkpt lat="22.39659078125" lon="114.31902479638671" /><trkpt lat="22.39664978125" lon="114.31908779638673" /><trkpt lat="22.39678278125" lon="114.31922879638672" /><trkpt lat="22.39697378125" lon="114.31910579638672" /><trkpt lat="22.39700878125" lon="114.31908379638672" /><trkpt lat="22.39703978125" lon="114.31906379638671" /><trkpt lat="22.39707378125" lon="114.31904279638673" /><trkpt lat="22.39735227089718" lon="114.31932392981408" /></trkseg></trk></gpx>