<?xml version='1.0' encoding='UTF-8' ?><gpx version="1.1" creator="HikingTrailHK" xsi:schemaLocation="http://www.topografix.com/GPX/1/1 http://www.topografix.com/GPX/1/1/gpx.xsd" xmlns="http://www.topografix.com/GPX/1/1" xmlns:xsi="http://www.w3.org/2001/XMLSchema-instance"><metadata><name>雁谷黃金壁 @ 2024-03-16</name><desc></desc></metadata><trk><trkseg><trkpt lat="22.417898096393433" lon="114.23007509871024" /><trkpt lat="22.41783478125" lon="114.23012279638672" /><trkpt lat="22.41771578125" lon="114.23019679638672" /><trkpt lat="22.41753878125" lon="114.23038279638672" /><trkpt lat="22.41753078125" lon="114.23053979638672" /><trkpt lat="22.41751778125" lon="114.23055079638672" /><trkpt lat="22.41750078125" lon="114.23058079638672" /><trkpt lat="22.41744978125" lon="114.23064579638672" /><trkpt lat="22.41741978125" lon="114.23071279638671" /><trkpt lat="22.41732078125" lon="114.23083079638671" /><trkpt lat="22.41726878125" lon="114.23092079638671" /><trkpt lat="22.41723778125" lon="114.23101079638671" /><trkpt lat="22.41722578125" lon="114.23108879638671" /><trkpt lat="22.41720978125" lon="114.23113279638672" /><trkpt lat="22.41725378125" lon="114.23112279638671" /><trkpt lat="22.41732678125" lon="114.23113479638671" /><trkpt lat="22.41735978125" lon="114.23119679638671" /><trkpt lat="22.41734078125" lon="114.23118179638672" /><trkpt lat="22.41733278125" lon="114.23117579638672" /><trkpt lat="22.41729578125" lon="114.23115379638672" /><trkpt lat="22.41726978125" lon="114.23115179638671" /><trkpt lat="22.41725978125" lon="114.23115079638671" /><trkpt lat="22.41722378125" lon="114.23115879638672" /><trkpt lat="22.41721078125" lon="114.23116079638672" /><trkpt lat="22.417159222271803" lon="114.23117310033095" /><trkpt lat="22.41713978125" lon="114.23120579638672" /><trkpt lat="22.41713378125" lon="114.23125579638672" /><trkpt lat="22.41713678125" lon="114.23128779638672" /><trkpt lat="22.41715978125" lon="114.23132379638672" /><trkpt lat="22.41723978125" lon="114.23135379638671" /><trkpt lat="22.41720778125" lon="114.23139779638672" /><trkpt lat="22.41706078125" lon="114.23159779638672" /><trkpt lat="22.41703178125" lon="114.23163779638672" /><trkpt lat="22.41700678125" lon="114.23164879638672" /><trkpt lat="22.41698478125" lon="114.23164179638673" /><trkpt lat="22.41694978125" lon="114.23160579638672" /><trkpt lat="22.41666878125" lon="114.23121479638672" /><trkpt lat="22.41664278125" lon="114.23119679638671" /><trkpt lat="22.41660978125" lon="114.23121379638673" /><trkpt lat="22.41660578125" lon="114.23123079638673" /><trkpt lat="22.41661578125" lon="114.23125279638671" /><trkpt lat="22.416668726449103" lon="114.23131763481372" /><trkpt lat="22.41661027888363" lon="114.23133226766015" /><trkpt lat="22.41634978125" lon="114.23126779638672" /><trkpt lat="22.41614978125" lon="114.23144979638671" /><trkpt lat="22.41608278125" lon="114.23151079638671" /><trkpt lat="22.41624078125" lon="114.23210279638671" /><trkpt lat="22.41607178125" lon="114.23224779638672" /><trkpt lat="22.41609178125" lon="114.23236579638672" /><trkpt lat="22.41614278125" lon="114.23239179638672" /><trkpt lat="22.41619578125" lon="114.23242279638671" /><trkpt lat="22.41634078125" lon="114.23251879638671" /><trkpt lat="22.41644178125" lon="114.23257279638672" /><trkpt lat="22.41648178125" lon="114.23259479638672" /><trkpt lat="22.41654878125" lon="114.23264079638672" /><trkpt lat="22.41660578125" lon="114.23270079638672" /><trkpt lat="22.41664978125" lon="114.23275979638672" /><trkpt lat="22.41662278125" lon="114.23303779638672" /><trkpt lat="22.41635978125" lon="114.23310579638672" /><trkpt lat="22.41612078125" lon="114.23327179638672" /><trkpt lat="22.41614978125" lon="114.23331879638671" /><trkpt lat="22.41618278125" lon="114.23335979638672" /><trkpt lat="22.41620878125" lon="114.23338179638672" /><trkpt lat="22.41623178125" lon="114.23339779638673" /><trkpt lat="22.41628078125" lon="114.23342779638672" /><trkpt lat="22.41630178125" lon="114.23344479638672" /><trkpt lat="22.41632378125" lon="114.23346579638672" /><trkpt lat="22.416342781250002" lon="114.23349179638672" /><trkpt lat="22.41635978125" lon="114.23351979638672" /><trkpt lat="22.41643878125" lon="114.23367179638672" /><trkpt lat="22.41643778125" lon="114.23403279638671" /><trkpt lat="22.41657678125" lon="114.23424779638673" /><trkpt lat="22.41662178125" lon="114.23438879638672" /><trkpt lat="22.41632278125" lon="114.23416379638672" /><trkpt lat="22.41627578125" lon="114.23397279638672" /><trkpt lat="22.41608978125" lon="114.23399679638672" /><trkpt lat="22.41595678125" lon="114.23413179638672" /><trkpt lat="22.41552478125" lon="114.23420479638672" /><trkpt lat="22.41523178125" lon="114.23420579638672" /><trkpt lat="22.41506678125" lon="114.23429079638672" /><trkpt lat="22.41501278125" lon="114.23448279638671" /><trkpt lat="22.41496978125" lon="114.23463379638672" /><trkpt lat="22.41487078125" lon="114.23478379638672" /><trkpt lat="22.41467778125" lon="114.23493879638671" /><trkpt lat="22.41462578125" lon="114.23512679638672" /><trkpt lat="22.41444378125" lon="114.23517079638673" /><trkpt lat="22.41412778125" lon="114.23535879638672" /><trkpt lat="22.41388778125" lon="114.23568579638672" /><trkpt lat="22.41372078125" lon="114.23625279638672" /><trkpt lat="22.41315178125" lon="114.23728079638671" /><trkpt lat="22.41320978125" lon="114.23739979638673" /><trkpt lat="22.41322578125" lon="114.23751779638673" /><trkpt lat="22.41329078125" lon="114.23766179638672" /><trkpt lat="22.41335778125" lon="114.23780279638672" /><trkpt lat="22.41351578125" lon="114.23801779638671" /><trkpt lat="22.41356678125" lon="114.23814479638672" /><trkpt lat="22.41355178125" lon="114.23829179638672" /><trkpt lat="22.41344678125" lon="114.23837479638672" /><trkpt lat="22.41340378125" lon="114.23852179638672" /><trkpt lat="22.41342278125" lon="114.23869679638672" /><trkpt lat="22.41342178125" lon="114.23888179638672" /><trkpt lat="22.41345478125" lon="114.23897179638672" /><trkpt lat="22.41353178125" lon="114.23907179638672" /><trkpt lat="22.41361178125" lon="114.23906179638672" /><trkpt lat="22.41371478125" lon="114.23918179638672" /><trkpt lat="22.41379978125" lon="114.23921879638672" /><trkpt lat="22.41380378125" lon="114.23927079638672" /><trkpt lat="22.41382678125" lon="114.23930479638672" /><trkpt lat="22.41384278125" lon="114.23946879638672" /><trkpt lat="22.41393578125" lon="114.23954679638672" /><trkpt lat="22.41399278125" lon="114.23957479638672" /><trkpt lat="22.41402978125" lon="114.23962979638672" /><trkpt lat="22.41401878125" lon="114.23979879638672" /><trkpt lat="22.41403678125" lon="114.24000279638672" /><trkpt lat="22.41400178125" lon="114.24012779638672" /><trkpt lat="22.41395378125" lon="114.24040579638672" /><trkpt lat="22.41389278125" lon="114.24054579638671" /><trkpt lat="22.41396278125" lon="114.24064879638672" /><trkpt lat="22.41401678125" lon="114.24082379638672" /><trkpt lat="22.41418578125" lon="114.24079579638672" /><trkpt lat="22.41427278125" lon="114.24081279638672" /><trkpt lat="22.41433278125" lon="114.24089379638671" /><trkpt lat="22.41434578125" lon="114.24106479638672" /><trkpt lat="22.41444678125" lon="114.24109779638673" /><trkpt lat="22.41446078125" lon="114.24129679638672" /><trkpt lat="22.41452478125" lon="114.24135579638671" /><trkpt lat="22.41458678125" lon="114.24152779638672" /><trkpt lat="22.41459478125" lon="114.24167079638671" /><trkpt lat="22.41459078125" lon="114.24173979638672" /><trkpt lat="22.414618161693127" lon="114.24185975384258" /><trkpt lat="22.41466078125" lon="114.24182179638672" /><trkpt lat="22.41473978125" lon="114.24176679638671" /><trkpt lat="22.41486878125" lon="114.24180979638672" /><trkpt lat="22.41496878125" lon="114.24179279638672" /><trkpt lat="22.41504878125" lon="114.24186479638672" /><trkpt lat="22.41517478125" lon="114.24190979638672" /><trkpt lat="22.41528678125" lon="114.24191379638673" /><trkpt lat="22.41539078125" lon="114.24198579638671" /><trkpt lat="22.41545478125" lon="114.24189679638671" /><trkpt lat="22.41547278125" lon="114.24181679638671" /><trkpt lat="22.41559678125" lon="114.24178179638672" /><trkpt lat="22.41567778125" lon="114.24180679638673" /><trkpt lat="22.41580378125" lon="114.24177479638672" /><trkpt lat="22.41583278125" lon="114.24180379638672" /><trkpt lat="22.41593178125" lon="114.24176379638672" /><trkpt lat="22.41573478125" lon="114.24194379638672" /><trkpt lat="22.41570578125" lon="114.24198379638672" /><trkpt lat="22.41568378125" lon="114.24209779638672" /><trkpt lat="22.41564278125" lon="114.24212879638672" /><trkpt lat="22.41563278125" lon="114.24220079638673" /><trkpt lat="22.41562478125" lon="114.24221779638673" /><trkpt lat="22.41559578125" lon="114.24227379638671" /><trkpt lat="22.41559078125" lon="114.24237379638672" /><trkpt lat="22.41561178125" lon="114.24241979638671" /><trkpt lat="22.41559178125" lon="114.24246279638672" /><trkpt lat="22.415554781250002" lon="114.24244679638672" /><trkpt lat="22.41549578125" lon="114.24248379638672" /><trkpt lat="22.41534778125" lon="114.24243379638672" /><trkpt lat="22.41522478125" lon="114.24248679638671" /><trkpt lat="22.41511178125" lon="114.24261079638671" /><trkpt lat="22.41489678125" lon="114.24269079638673" /><trkpt lat="22.41474778125" lon="114.24279779638672" /><trkpt lat="22.41464078125" lon="114.24294979638672" /><trkpt lat="22.41460978125" lon="114.24307979638672" /><trkpt lat="22.41452678125" lon="114.24310279638672" /><trkpt lat="22.41447878125" lon="114.24301979638672" /><trkpt lat="22.41432278125" lon="114.24300979638672" /><trkpt lat="22.41425378125" lon="114.24293779638671" /><trkpt lat="22.41416078125" lon="114.24301379638672" /><trkpt lat="22.41410578125" lon="114.24307279638671" /><trkpt lat="22.41412778125" lon="114.24314479638672" /><trkpt lat="22.41408978125" lon="114.24321279638671" /><trkpt lat="22.41403478125" lon="114.24324379638672" /><trkpt lat="22.41395778125" lon="114.24346279638672" /><trkpt lat="22.41386178125" lon="114.24354079638672" /><trkpt lat="22.41391478125" lon="114.24372679638672" /><trkpt lat="22.41397378125" lon="114.24371479638671" /><trkpt lat="22.41397878125" lon="114.24381679638672" /><trkpt lat="22.41404478125" lon="114.24383179638671" /><trkpt lat="22.41407178125" lon="114.24387679638672" /><trkpt lat="22.41407578125" lon="114.24394979638672" /><trkpt lat="22.41402278125" lon="114.24410379638672" /><trkpt lat="22.41384578125" lon="114.24425079638672" /><trkpt lat="22.41380878125" lon="114.24434379638672" /><trkpt lat="22.41373778125" lon="114.24443779638672" /><trkpt lat="22.41377578125" lon="114.24449779638672" /><trkpt lat="22.41381778125" lon="114.24460279638672" /><trkpt lat="22.41372678125" lon="114.24481979638672" /><trkpt lat="22.41371578125" lon="114.24496379638671" /><trkpt lat="22.41373378125" lon="114.24501979638671" /><trkpt lat="22.41369178125" lon="114.24507379638672" /><trkpt lat="22.41362778125" lon="114.24516779638672" /><trkpt lat="22.41363078125" lon="114.24520079638671" /><trkpt lat="22.41367978125" lon="114.24524179638672" /><trkpt lat="22.41371378125" lon="114.24531979638672" /><trkpt lat="22.41372378125" lon="114.24539979638672" /><trkpt lat="22.41379978125" lon="114.24557579638672" /><trkpt lat="22.41381778125" lon="114.24570479638672" /><trkpt lat="22.41384578125" lon="114.24577579638672" /><trkpt lat="22.41385978125" lon="114.24595579638672" /><trkpt lat="22.41387978125" lon="114.24621579638672" /><trkpt lat="22.41384978125" lon="114.24633879638672" /><trkpt lat="22.41386778125" lon="114.24649479638671" /><trkpt lat="22.41387978125" lon="114.24672279638672" /><trkpt lat="22.41391478125" lon="114.24686479638672" /><trkpt lat="22.41391478125" lon="114.24697779638672" /><trkpt lat="22.41395778125" lon="114.24714579638672" /><trkpt lat="22.41396478125" lon="114.24728079638672" /><trkpt lat="22.41400678125" lon="114.24739279638672" /><trkpt lat="22.41403078125" lon="114.24743179638672" /><trkpt lat="22.41400678125" lon="114.24763879638672" /><trkpt lat="22.41403578125" lon="114.24774679638672" /><trkpt lat="22.41397878125" lon="114.24783879638672" /><trkpt lat="22.41399278125" lon="114.24793179638672" /><trkpt lat="22.41402078125" lon="114.24801579638672" /><trkpt lat="22.41410278125" lon="114.24816879638672" /><trkpt lat="22.41414678125" lon="114.24826979638672" /><trkpt lat="22.41425378125" lon="114.24850379638671" /><trkpt lat="22.41422178125" lon="114.24861379638672" /><trkpt lat="22.41417378125" lon="114.24862079638672" /><trkpt lat="22.41413878125" lon="114.24863279638672" /><trkpt lat="22.41403578125" lon="114.24875579638672" /><trkpt lat="22.41398478125" lon="114.24889879638671" /><trkpt lat="22.41393678125" lon="114.24893879638672" /><trkpt lat="22.41388778125" lon="114.24899679638672" /><trkpt lat="22.41378878125" lon="114.24908279638672" /><trkpt lat="22.41376678125" lon="114.24914679638673" /><trkpt lat="22.41369278125" lon="114.24924379638672" /><trkpt lat="22.41363178125" lon="114.24931079638672" /><trkpt lat="22.41348678125" lon="114.24942279638672" /><trkpt lat="22.41321878125" lon="114.24961079638672" /><trkpt lat="22.41313778125" lon="114.24965779638671" /><trkpt lat="22.41304278125" lon="114.24975879638671" /><trkpt lat="22.41286378125" lon="114.24985679638672" /><trkpt lat="22.41248678125" lon="114.25022879638672" /><trkpt lat="22.41236678125" lon="114.25034579638672" /><trkpt lat="22.41206678125" lon="114.25051279638672" /><trkpt lat="22.41194478125" lon="114.25061779638672" /><trkpt lat="22.41172478125" lon="114.25094579638672" /><trkpt lat="22.41156878125" lon="114.25107979638672" /><trkpt lat="22.41147378125" lon="114.25117979638672" /><trkpt lat="22.41088378125" lon="114.25143679638671" /><trkpt lat="22.41047178125" lon="114.25173779638672" /><trkpt lat="22.41031578125" lon="114.25178379638672" /><trkpt lat="22.41013478125" lon="114.25195179638672" /><trkpt lat="22.40996278125" lon="114.25206679638671" /><trkpt lat="22.40983378125" lon="114.25208879638672" /><trkpt lat="22.40970478125" lon="114.25210979638672" /><trkpt lat="22.40966678125" lon="114.25213779638672" /><trkpt lat="22.40944878125" lon="114.25229579638672" /><trkpt lat="22.40935978125" lon="114.25232179638672" /><trkpt lat="22.40919078125" lon="114.25239279638672" /><trkpt lat="22.40913278125" lon="114.25241579638671" /><trkpt lat="22.40904378125" lon="114.25244579638672" /><trkpt lat="22.40899978125" lon="114.25234079638672" /><trkpt lat="22.40896478125" lon="114.25231779638672" /><trkpt lat="22.40891278125" lon="114.25229379638672" /><trkpt lat="22.40895378125" lon="114.25211879638672" /><trkpt lat="22.40893678125" lon="114.25201779638672" /><trkpt lat="22.40886678125" lon="114.25197679638671" /><trkpt lat="22.40881178125" lon="114.25197179638671" /><trkpt lat="22.40875578125" lon="114.25196379638672" /><trkpt lat="22.408666781249998" lon="114.25177479638671" /><trkpt lat="22.40841578125" lon="114.25167979638672" /><trkpt lat="22.40812278125" lon="114.25165279638672" /><trkpt lat="22.40802678125" lon="114.25166179638671" /><trkpt lat="22.40780778125" lon="114.25169579638671" /><trkpt lat="22.40757478125" lon="114.25179379638672" /><trkpt lat="22.40751078125" lon="114.25183079638671" /><trkpt lat="22.40737178125" lon="114.25171179638672" /><trkpt lat="22.40732978125" lon="114.25171379638672" /><trkpt lat="22.40714878125" lon="114.25161279638672" /><trkpt lat="22.40702978125" lon="114.25167579638672" /><trkpt lat="22.40696578125" lon="114.25172179638672" /><trkpt lat="22.40686378125" lon="114.25179679638671" /><trkpt lat="22.40673578125" lon="114.25181779638672" /><trkpt lat="22.40656078125" lon="114.25181979638671" /><trkpt lat="22.40643878125" lon="114.25185979638673" /><trkpt lat="22.40633478125" lon="114.25184479638672" /><trkpt lat="22.40629378125" lon="114.25188179638671" /><trkpt lat="22.40621178125" lon="114.25190979638671" /><trkpt lat="22.40615278125" lon="114.25196179638672" /><trkpt lat="22.40594578125" lon="114.25201879638672" /><trkpt lat="22.40571978125" lon="114.25215379638672" /><trkpt lat="22.40555778125" lon="114.25244679638672" /><trkpt lat="22.40553578125" lon="114.25246979638672" /><trkpt lat="22.40552078125" lon="114.25249579638673" /><trkpt lat="22.40548578125" lon="114.25252679638672" /><trkpt lat="22.40548178125" lon="114.25253779638672" /><trkpt lat="22.40545278125" lon="114.25255679638671" /><trkpt lat="22.40543178125" lon="114.25258879638672" /><trkpt lat="22.40539978125" lon="114.25262879638672" /><trkpt lat="22.40532978125" lon="114.25267879638672" /><trkpt lat="22.40522878125" lon="114.25274079638672" /><trkpt lat="22.40518378125" lon="114.25281179638672" /><trkpt lat="22.40515878125" lon="114.25291379638672" /><trkpt lat="22.40515778125" lon="114.25298479638671" /><trkpt lat="22.40514478125" lon="114.25301979638672" /><trkpt lat="22.40511978125" lon="114.25306079638672" /><trkpt lat="22.40509678125" lon="114.25309879638672" /><trkpt lat="22.40506678125" lon="114.25313779638672" /><trkpt lat="22.40502578125" lon="114.25322179638673" /><trkpt lat="22.40501778125" lon="114.25326579638671" /><trkpt lat="22.40500878125" lon="114.25330079638672" /><trkpt lat="22.40498178125" lon="114.25333579638672" /><trkpt lat="22.40495878125" lon="114.25335879638672" /><trkpt lat="22.40492678125" lon="114.25337579638672" /><trkpt lat="22.40488378125" lon="114.25341479638672" /><trkpt lat="22.40477378125" lon="114.25344479638672" /><trkpt lat="22.40469678125" lon="114.25355579638672" /><trkpt lat="22.40453578125" lon="114.25360779638672" /><trkpt lat="22.40448278125" lon="114.25367479638672" /><trkpt lat="22.40438078125" lon="114.25368479638672" /><trkpt lat="22.40435278125" lon="114.25366279638672" /><trkpt lat="22.40431578125" lon="114.25368779638671" /><trkpt lat="22.40422378125" lon="114.25370779638672" /><trkpt lat="22.40416678125" lon="114.25371879638672" /><trkpt lat="22.40407678125" lon="114.25366279638672" /><trkpt lat="22.40397478125" lon="114.25366479638672" /><trkpt lat="22.40392378125" lon="114.25366579638671" /><trkpt lat="22.40386078125" lon="114.25359579638672" /><trkpt lat="22.40379578125" lon="114.25358379638672" /><trkpt lat="22.40373278125" lon="114.25354079638672" /><trkpt lat="22.40366878125" lon="114.25342179638672" /><trkpt lat="22.40361878125" lon="114.25340179638673" /><trkpt lat="22.40351978125" lon="114.25341779638671" /><trkpt lat="22.40340978125" lon="114.25332979638672" /><trkpt lat="22.40337578125" lon="114.25328379638673" /><trkpt lat="22.40332678125" lon="114.25324679638672" /><trkpt lat="22.40314678125" lon="114.25324179638672" /><trkpt lat="22.40308878125" lon="114.25319779638671" /><trkpt lat="22.40302278125" lon="114.25306579638672" /><trkpt lat="22.40296278125" lon="114.25309679638671" /><trkpt lat="22.40285678125" lon="114.25317579638671" /><trkpt lat="22.40280378125" lon="114.25322579638672" /><trkpt lat="22.40277178125" lon="114.25337279638671" /><trkpt lat="22.40266378125" lon="114.25347279638672" /><trkpt lat="22.40249078125" lon="114.25350979638672" /><trkpt lat="22.40229978125" lon="114.25370779638672" /><trkpt lat="22.40230178125" lon="114.25381779638671" /><trkpt lat="22.40226178125" lon="114.25389579638671" /><trkpt lat="22.40217378125" lon="114.25393579638671" /><trkpt lat="22.40209178125" lon="114.25396079638672" /><trkpt lat="22.40189278125" lon="114.25413479638672" /><trkpt lat="22.40177378125" lon="114.25418779638672" /><trkpt lat="22.40171478125" lon="114.25424579638671" /><trkpt lat="22.40154978125" lon="114.25433179638672" /><trkpt lat="22.40148878125" lon="114.25437979638671" /><trkpt lat="22.40143978125" lon="114.25441079638672" /><trkpt lat="22.40139178125" lon="114.25445479638672" /><trkpt lat="22.40133378125" lon="114.25448979638672" /><trkpt lat="22.40125778125" lon="114.25449979638672" /><trkpt lat="22.40119878125" lon="114.25448479638672" /><trkpt lat="22.40115678125" lon="114.25443379638672" /><trkpt lat="22.40106778125" lon="114.25430779638671" /><trkpt lat="22.40098278125" lon="114.25418179638672" /><trkpt lat="22.40090178125" lon="114.25407679638671" /><trkpt lat="22.40083778125" lon="114.25401179638672" /><trkpt lat="22.40079478125" lon="114.25391079638672" /><trkpt lat="22.40075478125" lon="114.25387079638672" /><trkpt lat="22.40068078125" lon="114.25381079638672" /><trkpt lat="22.40056678125" lon="114.25377579638672" /><trkpt lat="22.40049278125" lon="114.25375379638672" /><trkpt lat="22.40043378125" lon="114.25367579638672" /><trkpt lat="22.40039778125" lon="114.25362279638672" /><trkpt lat="22.40037278125" lon="114.25356979638671" /><trkpt lat="22.40033278125" lon="114.25352879638672" /><trkpt lat="22.40026078125" lon="114.25349479638672" /><trkpt lat="22.40020078125" lon="114.25342979638671" /><trkpt lat="22.40015678125" lon="114.25337179638672" /><trkpt lat="22.40010478125" lon="114.25333379638671" /><trkpt lat="22.40004278125" lon="114.25327079638672" /><trkpt lat="22.40000078125" lon="114.25324779638672" /><trkpt lat="22.39992778125" lon="114.25324379638671" /><trkpt lat="22.39989178125" lon="114.25318179638671" /><trkpt lat="22.39978778125" lon="114.25309079638672" /><trkpt lat="22.39978278125" lon="114.25307079638672" /><trkpt lat="22.39979278125" lon="114.25305579638672" /><trkpt lat="22.39992778125" lon="114.25306479638672" /><trkpt lat="22.40001378125" lon="114.25306379638671" /><trkpt lat="22.40013878125" lon="114.25302179638672" /><trkpt lat="22.40018078125" lon="114.25298479638671" /><trkpt lat="22.40021378125" lon="114.25295579638671" /><trkpt lat="22.40024778125" lon="114.25291779638673" /><trkpt lat="22.40027678125" lon="114.25288179638672" /><trkpt lat="22.40028278125" lon="114.25282979638672" /><trkpt lat="22.40023878125" lon="114.25281979638672" /><trkpt lat="22.40015378125" lon="114.25280879638672" /><trkpt lat="22.40009378125" lon="114.25279579638672" /><trkpt lat="22.40003878125" lon="114.25275179638672" /><trkpt lat="22.39999678125" lon="114.25268179638672" /><trkpt lat="22.39989178125" lon="114.25262979638671" /><trkpt lat="22.39983078125" lon="114.25259879638672" /><trkpt lat="22.39962578125" lon="114.25262479638671" /><trkpt lat="22.39949678125" lon="114.25267779638672" /><trkpt lat="22.39944478125" lon="114.25269379638672" /><trkpt lat="22.39935878125" lon="114.25272479638672" /><trkpt lat="22.39929478125" lon="114.25277879638672" /><trkpt lat="22.39922978125" lon="114.25280079638672" /><trkpt lat="22.39915678125" lon="114.25282779638673" /><trkpt lat="22.39909178125" lon="114.25283479638672" /><trkpt lat="22.39903678125" lon="114.25282879638672" /><trkpt lat="22.39893378125" lon="114.25277179638672" /><trkpt lat="22.39876978125" lon="114.25272379638672" /><trkpt lat="22.39876578125" lon="114.25255879638672" /><trkpt lat="22.39887478125" lon="114.25243279638671" /><trkpt lat="22.39887278125" lon="114.25228279638672" /><trkpt lat="22.39883078125" lon="114.25220479638672" /><trkpt lat="22.39883578125" lon="114.25211079638672" /><trkpt lat="22.39879978125" lon="114.25199679638672" /><trkpt lat="22.39875878125" lon="114.25190979638671" /><trkpt lat="22.39877378125" lon="114.25186479638671" /><trkpt lat="22.39874678125" lon="114.25180779638671" /><trkpt lat="22.39874678125" lon="114.25173279638672" /><trkpt lat="22.39870178125" lon="114.25165579638671" /><trkpt lat="22.39862578125" lon="114.25168879638672" /><trkpt lat="22.39851078125" lon="114.25164679638672" /><trkpt lat="22.39847678125" lon="114.25152279638672" /><trkpt lat="22.39842978125" lon="114.25140479638672" /><trkpt lat="22.39833778125" lon="114.25124679638672" /><trkpt lat="22.39824578125" lon="114.25108579638672" /><trkpt lat="22.39814878125" lon="114.25102479638672" /><trkpt lat="22.39802078125" lon="114.25103379638672" /><trkpt lat="22.39791278125" lon="114.25109079638672" /><trkpt lat="22.39775178125" lon="114.25094979638672" /><trkpt lat="22.39771678125" lon="114.25082079638672" /><trkpt lat="22.39763278125" lon="114.25072479638672" /><trkpt lat="22.39750778125" lon="114.25060879638671" /><trkpt lat="22.39744878125" lon="114.25049079638671" /><trkpt lat="22.39747378125" lon="114.25040779638672" /><trkpt lat="22.39741478125" lon="114.25027379638672" /><trkpt lat="22.39730578125" lon="114.25024179638672" /><trkpt lat="22.39715178125" lon="114.25018779638671" /><trkpt lat="22.39707278125" lon="114.25012379638672" /><trkpt lat="22.39699778125" lon="114.25010779638671" /><trkpt lat="22.39683978125" lon="114.24983979638672" /><trkpt lat="22.39670578125" lon="114.24973579638672" /><trkpt lat="22.39650778125" lon="114.24962479638671" /><trkpt lat="22.39629378125" lon="114.24951279638672" /><trkpt lat="22.39615578125" lon="114.24932579638671" /><trkpt lat="22.39598778125" lon="114.24909079638672" /><trkpt lat="22.39592878125" lon="114.24897579638672" /><trkpt lat="22.39580278125" lon="114.24908279638672" /><trkpt lat="22.39569378125" lon="114.24926579638672" /><trkpt lat="22.39565878125" lon="114.24936679638672" /><trkpt lat="22.39557478125" lon="114.24949079638672" /><trkpt lat="22.39541078125" lon="114.24970479638672" /><trkpt lat="22.39525178125" lon="114.24997379638671" /><trkpt lat="22.39522278125" lon="114.25029479638673" /><trkpt lat="22.39507778125" lon="114.25045279638672" /><trkpt lat="22.39510378125" lon="114.25070479638671" /><trkpt lat="22.39508178125" lon="114.25087279638672" /><trkpt lat="22.39503078125" lon="114.25096879638672" /><trkpt lat="22.39487478125" lon="114.25105679638672" /><trkpt lat="22.39466378125" lon="114.25118379638671" /><trkpt lat="22.39460278125" lon="114.25137879638672" /><trkpt lat="22.39447878125" lon="114.25160979638672" /><trkpt lat="22.39433478125" lon="114.25183479638672" /><trkpt lat="22.39400478125" lon="114.25197679638671" /><trkpt lat="22.39383878125" lon="114.25203279638671" /><trkpt lat="22.39377478125" lon="114.25205279638672" /><trkpt lat="22.39357078125" lon="114.25206579638672" /><trkpt lat="22.39345378125" lon="114.25207279638671" /><trkpt lat="22.39330478125" lon="114.25200779638672" /><trkpt lat="22.39315378125" lon="114.25207079638672" /><trkpt lat="22.39287978125" lon="114.25203379638671" /><trkpt lat="22.39258078125" lon="114.25209479638671" /><trkpt lat="22.39233478125" lon="114.25219479638672" /><trkpt lat="22.39223678125" lon="114.25219579638672" /><trkpt lat="22.39188278125" lon="114.25219779638672" /><trkpt lat="22.39176278125" lon="114.25225879638671" /><trkpt lat="22.39145478125" lon="114.25227579638671" /><trkpt lat="22.39115378125" lon="114.25220979638672" /><trkpt lat="22.39102778125" lon="114.25214879638672" /><trkpt lat="22.39067178125" lon="114.25199279638672" /><trkpt lat="22.39031078125" lon="114.25198179638672" /><trkpt lat="22.39010778125" lon="114.25190279638672" /><trkpt lat="22.39005278125" lon="114.25178579638671" /><trkpt lat="22.38999078125" lon="114.25161179638671" /><trkpt lat="22.38975378125" lon="114.25132679638672" /><trkpt lat="22.38963178125" lon="114.25131579638672" /><trkpt lat="22.38955778125" lon="114.25133479638671" /><trkpt lat="22.38949378125" lon="114.25140579638672" /><trkpt lat="22.38939578125" lon="114.25156979638672" /><trkpt lat="22.38933178125" lon="114.25164079638672" /><trkpt lat="22.38915978125" lon="114.25172379638671" /><trkpt lat="22.38898078125" lon="114.25177879638672" /><trkpt lat="22.38889178125" lon="114.25182479638671" /><trkpt lat="22.38880178125" lon="114.25185279638671" /><trkpt lat="22.38872978125" lon="114.25191479638671" /><trkpt lat="22.38864478125" lon="114.25196879638672" /><trkpt lat="22.38855478125" lon="114.25201679638671" /><trkpt lat="22.38845578125" lon="114.25210679638671" /><trkpt lat="22.38840878125" lon="114.25229179638671" /><trkpt lat="22.38841178125" lon="114.25235179638672" /><trkpt lat="22.38844778125" lon="114.25247079638672" /><trkpt lat="22.38834978125" lon="114.25260479638672" /><trkpt lat="22.388320781250002" lon="114.25268479638672" /><trkpt lat="22.38836278125" lon="114.25284779638672" /><trkpt lat="22.38835678125" lon="114.25294379638672" /><trkpt lat="22.38834178125" lon="114.25305279638673" /><trkpt lat="22.38820778125" lon="114.25318079638672" /><trkpt lat="22.38812778125" lon="114.25326079638671" /><trkpt lat="22.38800478125" lon="114.25333279638672" /><trkpt lat="22.38791478125" lon="114.25340179638673" /><trkpt lat="22.38784878125" lon="114.25349279638672" /><trkpt lat="22.38778778125" lon="114.25358479638672" /><trkpt lat="22.38772378125" lon="114.25370679638672" /><trkpt lat="22.38767378125" lon="114.25383579638672" /><trkpt lat="22.38760178125" lon="114.25388479638671" /><trkpt lat="22.38751178125" lon="114.25398979638672" /><trkpt lat="22.38746378125" lon="114.25406979638672" /><trkpt lat="22.38749778125" lon="114.25419379638672" /><trkpt lat="22.38737978125" lon="114.25431379638673" /><trkpt lat="22.38729978125" lon="114.25436279638672" /><trkpt lat="22.38724278125" lon="114.25440779638672" /><trkpt lat="22.38721578125" lon="114.25448479638672" /><trkpt lat="22.38703078125" lon="114.25461479638672" /><trkpt lat="22.38692078125" lon="114.25464579638673" /><trkpt lat="22.38681178125" lon="114.25468179638672" /><trkpt lat="22.38677578125" lon="114.25473079638672" /><trkpt lat="22.38672978125" lon="114.25473979638672" /><trkpt lat="22.386585781249998" lon="114.25495079638672" /><trkpt lat="22.38642678125" lon="114.25510079638671" /><trkpt lat="22.38647178125" lon="114.25522979638671" /><trkpt lat="22.38645678125" lon="114.25533679638671" /><trkpt lat="22.38647478125" lon="114.25552279638671" /><trkpt lat="22.38653578125" lon="114.25566479638672" /><trkpt lat="22.38666478125" lon="114.25590379638672" /><trkpt lat="22.38684378125" lon="114.25593279638672" /><trkpt lat="22.38690278125" lon="114.25606679638672" /><trkpt lat="22.38685878125" lon="114.25622879638672" /><trkpt lat="22.38672378125" lon="114.25646479638672" /><trkpt lat="22.38664478125" lon="114.25673179638672" /><trkpt lat="22.38656478125" lon="114.25695579638672" /><trkpt lat="22.38633278125" lon="114.25706479638671" /><trkpt lat="22.38622378125" lon="114.25719379638672" /><trkpt lat="22.38603478125" lon="114.25728479638671" /><trkpt lat="22.38593378125" lon="114.25736779638672" /><trkpt lat="22.38588478125" lon="114.25745279638672" /><trkpt lat="22.38581878125" lon="114.25754079638672" /><trkpt lat="22.38577178125" lon="114.25776279638671" /><trkpt lat="22.38570878125" lon="114.25784579638672" /><trkpt lat="22.38553078125" lon="114.25798879638671" /><trkpt lat="22.38545078125" lon="114.25818779638672" /><trkpt lat="22.38546778125" lon="114.25832979638672" /><trkpt lat="22.38545978125" lon="114.25840779638672" /><trkpt lat="22.38536878125" lon="114.25858479638671" /><trkpt lat="22.38534478125" lon="114.25867779638672" /><trkpt lat="22.38534778125" lon="114.25872679638672" /><trkpt lat="22.38535578125" lon="114.25878279638673" /><trkpt lat="22.38532978125" lon="114.25888279638671" /><trkpt lat="22.38531178125" lon="114.25898579638672" /><trkpt lat="22.38533178125" lon="114.25910279638671" /><trkpt lat="22.38538878125" lon="114.25920079638672" /><trkpt lat="22.38547578125" lon="114.25938679638672" /><trkpt lat="22.38551478125" lon="114.25960879638671" /><trkpt lat="22.38539578125" lon="114.25979579638671" /><trkpt lat="22.38531078125" lon="114.25989779638672" /><trkpt lat="22.38523778125" lon="114.26000679638672" /><trkpt lat="22.38526178125" lon="114.26003379638672" /><trkpt lat="22.38543278125" lon="114.26028579638673" /><trkpt lat="22.38541578125" lon="114.26033679638672" /><trkpt lat="22.38548878125" lon="114.26056379638672" /><trkpt lat="22.38556978125" lon="114.26058479638672" /><trkpt lat="22.38564978125" lon="114.26075779638671" /><trkpt lat="22.38555578125" lon="114.26089179638672" /><trkpt lat="22.38559178125" lon="114.26110379638672" /><trkpt lat="22.38552378125" lon="114.26126179638672" /><trkpt lat="22.38531578125" lon="114.26154479638672" /><trkpt lat="22.38521678125" lon="114.26166179638672" /><trkpt lat="22.38508278125" lon="114.26179279638671" /><trkpt lat="22.38492878125" lon="114.26191579638672" /><trkpt lat="22.38476178125" lon="114.26205179638671" /><trkpt lat="22.38450878125" lon="114.26235079638671" /><trkpt lat="22.38431378125" lon="114.26252779638672" /><trkpt lat="22.38411878125" lon="114.26270579638671" /><trkpt lat="22.38383578125" lon="114.26296279638672" /><trkpt lat="22.38343978125" lon="114.26348579638672" /><trkpt lat="22.38325478125" lon="114.26367579638672" /><trkpt lat="22.38318678125" lon="114.26374579638671" /><trkpt lat="22.38278978125" lon="114.26399279638672" /><trkpt lat="22.38267478125" lon="114.26418479638671" /><trkpt lat="22.38262078125" lon="114.26431779638672" /><trkpt lat="22.38260378125" lon="114.26437979638672" /><trkpt lat="22.38259478125" lon="114.26444679638672" /><trkpt lat="22.38262078125" lon="114.26446179638671" /><trkpt lat="22.38270178125" lon="114.26446979638672" /><trkpt lat="22.38253878125" lon="114.26467979638672" /><trkpt lat="22.38253778125" lon="114.26472179638672" /><trkpt lat="22.38253278125" lon="114.26493179638672" /><trkpt lat="22.38252978125" lon="114.26506879638671" /><trkpt lat="22.38252578125" lon="114.26527079638672" /><trkpt lat="22.38248778125" lon="114.26542479638672" /><trkpt lat="22.38223878125" lon="114.26587779638672" /><trkpt lat="22.38218378125" lon="114.26599979638672" /><trkpt lat="22.38244978125" lon="114.26589279638672" /><trkpt lat="22.38261778125" lon="114.26591479638672" /><trkpt lat="22.38270978125" lon="114.26593479638672" /><trkpt lat="22.38277778125" lon="114.26601079638672" /><trkpt lat="22.38280578125" lon="114.26614279638672" /><trkpt lat="22.38275878125" lon="114.26636579638672" /><trkpt lat="22.38261978125" lon="114.26646979638672" /><trkpt lat="22.38246078125" lon="114.26663479638673" /><trkpt lat="22.38228678125" lon="114.26681879638672" /><trkpt lat="22.38220278125" lon="114.26692079638671" /><trkpt lat="22.38206978125" lon="114.26708379638671" /><trkpt lat="22.38199378125" lon="114.26723279638672" /><trkpt lat="22.38196178125" lon="114.26731479638671" /><trkpt lat="22.38197778125" lon="114.26738479638672" /><trkpt lat="22.38210978125" lon="114.26744879638672" /><trkpt lat="22.38218478125" lon="114.26763879638672" /><trkpt lat="22.38235278125" lon="114.26778679638672" /><trkpt lat="22.38241078125" lon="114.26791679638671" /><trkpt lat="22.38240278125" lon="114.26805379638672" /><trkpt lat="22.38232278125" lon="114.26820879638672" /><trkpt lat="22.382258781250002" lon="114.26839779638672" /><trkpt lat="22.38224678125" lon="114.26851979638671" /><trkpt lat="22.38210378125" lon="114.26881879638673" /><trkpt lat="22.38202878125" lon="114.26901879638672" /><trkpt lat="22.38212178125" lon="114.26911279638672" /><trkpt lat="22.38208178125" lon="114.26949179638672" /><trkpt lat="22.38197978125" lon="114.26975879638672" /><trkpt lat="22.38191978125" lon="114.26988479638672" /><trkpt lat="22.38179378125" lon="114.27013979638672" /><trkpt lat="22.38171078125" lon="114.27018879638672" /><trkpt lat="22.38170078125" lon="114.27019079638671" /><trkpt lat="22.38168978125" lon="114.27019179638671" /><trkpt lat="22.38166978125" lon="114.27019479638672" /><trkpt lat="22.38165178125" lon="114.27019879638672" /><trkpt lat="22.38139978125" lon="114.27029779638671" /><trkpt lat="22.38135377287253" lon="114.27031967712794" /></trkseg></trk></gpx>