<?xml version='1.0' encoding='UTF-8' ?><gpx version="1.1" creator="HikingTrailHK" xsi:schemaLocation="http://www.topografix.com/GPX/1/1 http://www.topografix.com/GPX/1/1/gpx.xsd" xmlns="http://www.topografix.com/GPX/1/1" xmlns:xsi="http://www.w3.org/2001/XMLSchema-instance"><metadata><name>雞公嶺 @ 2017-3-4</name><desc></desc></metadata><trk><trkseg><trkpt lat="22.5023061498728" lon="114.0982313340862" /><trkpt lat="22.50225678125" lon="114.09859879638672" /><trkpt lat="22.50205578125" lon="114.09856479638673" /><trkpt lat="22.50187378125" lon="114.09858579638671" /><trkpt lat="22.50151478125" lon="114.09872279638672" /><trkpt lat="22.50131278125" lon="114.09880879638672" /><trkpt lat="22.50112078125" lon="114.09884679638672" /><trkpt lat="22.50091478125" lon="114.09892979638671" /><trkpt lat="22.50060578125" lon="114.09905079638672" /><trkpt lat="22.50031378125" lon="114.09914479638672" /><trkpt lat="22.50012678125" lon="114.09916579638671" /><trkpt lat="22.50005778125" lon="114.09914679638672" /><trkpt lat="22.49992378125" lon="114.09905179638672" /><trkpt lat="22.49977778125" lon="114.09883879638672" /><trkpt lat="22.49970978125" lon="114.09863379638672" /><trkpt lat="22.49969978125" lon="114.09848979638672" /><trkpt lat="22.49966178125" lon="114.09842979638672" /><trkpt lat="22.49963378125" lon="114.09834679638672" /><trkpt lat="22.49961878125" lon="114.09826079638673" /><trkpt lat="22.49955378125" lon="114.09814679638671" /><trkpt lat="22.49957378125" lon="114.09812279638672" /><trkpt lat="22.49958478125" lon="114.09801779638671" /><trkpt lat="22.49958078125" lon="114.09795679638673" /><trkpt lat="22.49956578125" lon="114.09789079638672" /><trkpt lat="22.49951678125" lon="114.09775279638671" /><trkpt lat="22.49946578125" lon="114.09767679638672" /><trkpt lat="22.49944478125" lon="114.09748379638671" /><trkpt lat="22.49932078125" lon="114.09727579638673" /><trkpt lat="22.49925978125" lon="114.09723879638672" /><trkpt lat="22.49915378125" lon="114.09708279638672" /><trkpt lat="22.49904478125" lon="114.09688979638672" /><trkpt lat="22.49907478125" lon="114.09674379638672" /><trkpt lat="22.49913178125" lon="114.09646579638672" /><trkpt lat="22.49919078125" lon="114.09625279638672" /><trkpt lat="22.49913478125" lon="114.09610179638672" /><trkpt lat="22.49907078125" lon="114.09606279638672" /><trkpt lat="22.49900278125" lon="114.09601079638672" /><trkpt lat="22.49894978125" lon="114.09591879638671" /><trkpt lat="22.49895178125" lon="114.09586879638672" /><trkpt lat="22.49900978125" lon="114.09581279638672" /><trkpt lat="22.49909578125" lon="114.09577279638673" /><trkpt lat="22.49917778125" lon="114.09578979638673" /><trkpt lat="22.49923678125" lon="114.09590879638672" /><trkpt lat="22.49927978125" lon="114.09598279638672" /><trkpt lat="22.49932178125" lon="114.09611979638672" /><trkpt lat="22.49937678125" lon="114.09622379638672" /><trkpt lat="22.49940378125" lon="114.09656779638672" /><trkpt lat="22.49945878125" lon="114.09666279638672" /><trkpt lat="22.49951378125" lon="114.09672179638672" /><trkpt lat="22.49971378125" lon="114.09684279638672" /><trkpt lat="22.49994978125" lon="114.09688479638672" /><trkpt lat="22.50010178125" lon="114.09689179638671" /><trkpt lat="22.50024178125" lon="114.09697079638671" /><trkpt lat="22.50032478125" lon="114.09707079638672" /><trkpt lat="22.50036878125" lon="114.09708079638672" /><trkpt lat="22.50040378125" lon="114.09706179638673" /><trkpt lat="22.50041778125" lon="114.09694979638672" /><trkpt lat="22.50029778125" lon="114.09681079638672" /><trkpt lat="22.50018278125" lon="114.09674779638672" /><trkpt lat="22.49994878125" lon="114.09659779638672" /><trkpt lat="22.49984078125" lon="114.09655979638671" /><trkpt lat="22.49981278125" lon="114.09651679638672" /><trkpt lat="22.49978478125" lon="114.09643579638671" /><trkpt lat="22.49982178125" lon="114.09632579638672" /><trkpt lat="22.49986878125" lon="114.09623279638672" /><trkpt lat="22.49988278125" lon="114.09612179638673" /><trkpt lat="22.49985478125" lon="114.09599879638672" /><trkpt lat="22.49977678125" lon="114.09586779638671" /><trkpt lat="22.49977378125" lon="114.09579179638672" /><trkpt lat="22.49982178125" lon="114.09567779638672" /><trkpt lat="22.49986878125" lon="114.09564779638671" /><trkpt lat="22.49988778125" lon="114.09560279638671" /><trkpt lat="22.49989178125" lon="114.09552479638671" /><trkpt lat="22.49993478125" lon="114.09541479638672" /><trkpt lat="22.49993478125" lon="114.09532479638672" /><trkpt lat="22.49992778125" lon="114.09524179638672" /><trkpt lat="22.49996678125" lon="114.09515379638673" /><trkpt lat="22.50003678125" lon="114.09509179638673" /><trkpt lat="22.50007178125" lon="114.09503679638672" /><trkpt lat="22.50009978125" lon="114.09500779638672" /><trkpt lat="22.50011378125" lon="114.09495179638672" /><trkpt lat="22.50004378125" lon="114.09480379638671" /><trkpt lat="22.50002978125" lon="114.09471179638672" /><trkpt lat="22.50005578125" lon="114.09452779638671" /><trkpt lat="22.50001078125" lon="114.09443979638672" /><trkpt lat="22.50002578125" lon="114.09434979638672" /><trkpt lat="22.50005578125" lon="114.09426779638672" /><trkpt lat="22.50001678125" lon="114.09420379638672" /><trkpt lat="22.49997378125" lon="114.09406279638672" /><trkpt lat="22.49995178125" lon="114.09400879638672" /><trkpt lat="22.49991078125" lon="114.09395279638672" /><trkpt lat="22.49985778125" lon="114.09385579638672" /><trkpt lat="22.49981078125" lon="114.09380379638672" /><trkpt lat="22.49978278125" lon="114.09372379638671" /><trkpt lat="22.49979378125" lon="114.09348179638671" /><trkpt lat="22.49974978125" lon="114.09336479638672" /><trkpt lat="22.49971478125" lon="114.09322479638672" /><trkpt lat="22.49967178125" lon="114.09315879638672" /><trkpt lat="22.49961178125" lon="114.09306679638672" /><trkpt lat="22.49959978125" lon="114.09299679638671" /><trkpt lat="22.49957478125" lon="114.09293179638672" /><trkpt lat="22.49954178125" lon="114.09288279638672" /><trkpt lat="22.49950878125" lon="114.09276779638672" /><trkpt lat="22.49949678125" lon="114.09274579638672" /><trkpt lat="22.49945778125" lon="114.09268279638673" /><trkpt lat="22.49946978125" lon="114.09256079638672" /><trkpt lat="22.49947878125" lon="114.09251779638672" /><trkpt lat="22.49949878125" lon="114.09244679638672" /><trkpt lat="22.49949678125" lon="114.09239879638672" /><trkpt lat="22.49946278125" lon="114.09233679638672" /><trkpt lat="22.49947378125" lon="114.09223279638672" /><trkpt lat="22.49942478125" lon="114.09207779638672" /><trkpt lat="22.49942078125" lon="114.09201079638672" /><trkpt lat="22.49942078125" lon="114.09196579638672" /><trkpt lat="22.49939278125" lon="114.09182079638671" /><trkpt lat="22.49937578125" lon="114.09174179638671" /><trkpt lat="22.49931678125" lon="114.09158979638671" /><trkpt lat="22.49917778125" lon="114.09144079638672" /><trkpt lat="22.49908278125" lon="114.09140079638672" /><trkpt lat="22.49905278125" lon="114.09131979638671" /><trkpt lat="22.49900478125" lon="114.09124379638672" /><trkpt lat="22.49899878125" lon="114.09121079638672" /><trkpt lat="22.49899278125" lon="114.09108179638672" /><trkpt lat="22.49901678125" lon="114.09096579638671" /><trkpt lat="22.49904178125" lon="114.09080079638672" /><trkpt lat="22.49907778125" lon="114.09069879638672" /><trkpt lat="22.49909578125" lon="114.09060779638672" /><trkpt lat="22.49906678125" lon="114.09054779638672" /><trkpt lat="22.49904078125" lon="114.09044279638672" /><trkpt lat="22.49900578125" lon="114.09034879638672" /><trkpt lat="22.49896178125" lon="114.09027679638672" /><trkpt lat="22.49888878125" lon="114.09022479638672" /><trkpt lat="22.49880578125" lon="114.09023379638671" /><trkpt lat="22.49867678125" lon="114.09016379638672" /><trkpt lat="22.49857678125" lon="114.09013379638672" /><trkpt lat="22.49853778125" lon="114.09005079638672" /><trkpt lat="22.49837278125" lon="114.09001679638672" /><trkpt lat="22.49829378125" lon="114.08996779638672" /><trkpt lat="22.49823878125" lon="114.08990779638673" /><trkpt lat="22.49809578125" lon="114.08984079638672" /><trkpt lat="22.49801078125" lon="114.08982279638671" /><trkpt lat="22.49793678125" lon="114.08976079638671" /><trkpt lat="22.49785178125" lon="114.08976179638672" /><trkpt lat="22.49776078125" lon="114.08973979638672" /><trkpt lat="22.49758878125" lon="114.08967479638672" /><trkpt lat="22.49753678125" lon="114.08956779638672" /><trkpt lat="22.49748478125" lon="114.08953779638672" /><trkpt lat="22.49741978125" lon="114.08948879638672" /><trkpt lat="22.49735678125" lon="114.08942979638672" /><trkpt lat="22.49731978125" lon="114.08937479638672" /><trkpt lat="22.49728178125" lon="114.08933079638672" /><trkpt lat="22.49722578125" lon="114.08924479638672" /><trkpt lat="22.49714178125" lon="114.08918679638671" /><trkpt lat="22.49704678125" lon="114.08914679638671" /><trkpt lat="22.49694678125" lon="114.08904879638672" /><trkpt lat="22.49687278125" lon="114.08891679638671" /><trkpt lat="22.49680978125" lon="114.08902279638671" /><trkpt lat="22.49673578125" lon="114.08907879638672" /><trkpt lat="22.49666778125" lon="114.08912379638672" /><trkpt lat="22.49663378125" lon="114.08917079638672" /><trkpt lat="22.49656778125" lon="114.08930979638671" /><trkpt lat="22.49645078125" lon="114.08939679638672" /><trkpt lat="22.49632078125" lon="114.08958879638672" /><trkpt lat="22.49613978125" lon="114.08991779638671" /><trkpt lat="22.49611678125" lon="114.09006379638672" /><trkpt lat="22.49608478125" lon="114.09014079638672" /><trkpt lat="22.49607278125" lon="114.09019279638672" /><trkpt lat="22.49591778125" lon="114.09029879638672" /><trkpt lat="22.49575678125" lon="114.09061779638672" /><trkpt lat="22.49570078125" lon="114.09069979638672" /><trkpt lat="22.49559078125" lon="114.09075779638673" /><trkpt lat="22.49552078125" lon="114.09075279638672" /><trkpt lat="22.49530878125" lon="114.09088379638672" /><trkpt lat="22.49523478125" lon="114.09097779638672" /><trkpt lat="22.49521578125" lon="114.09100179638672" /><trkpt lat="22.49510978125" lon="114.09108179638672" /><trkpt lat="22.49476778125" lon="114.09117179638672" /><trkpt lat="22.49471678125" lon="114.09118179638672" /><trkpt lat="22.49455578125" lon="114.09118579638672" /><trkpt lat="22.49432078125" lon="114.09129079638672" /><trkpt lat="22.49427378125" lon="114.09133979638672" /><trkpt lat="22.49421278125" lon="114.09137079638671" /><trkpt lat="22.49415578125" lon="114.09140479638671" /><trkpt lat="22.49408678125" lon="114.09148179638672" /><trkpt lat="22.49401978125" lon="114.09158479638671" /><trkpt lat="22.49392878125" lon="114.09167179638672" /><trkpt lat="22.49366678125" lon="114.09174879638672" /><trkpt lat="22.49363378125" lon="114.09174779638671" /><trkpt lat="22.49359478125" lon="114.09175179638672" /><trkpt lat="22.49342878125" lon="114.09183779638671" /><trkpt lat="22.49325278125" lon="114.09194879638672" /><trkpt lat="22.49318878125" lon="114.09202779638672" /><trkpt lat="22.49306078125" lon="114.09213979638672" /><trkpt lat="22.49291078125" lon="114.09233879638671" /><trkpt lat="22.49286878125" lon="114.09234979638671" /><trkpt lat="22.49276178125" lon="114.09233279638671" /><trkpt lat="22.49268678125" lon="114.09233979638672" /><trkpt lat="22.49257578125" lon="114.09229779638672" /><trkpt lat="22.49252178125" lon="114.09229379638671" /><trkpt lat="22.49246178125" lon="114.09231879638672" /><trkpt lat="22.49243178125" lon="114.09231079638671" /><trkpt lat="22.49236378125" lon="114.09232779638671" /><trkpt lat="22.49232178125" lon="114.09235979638672" /><trkpt lat="22.49230378125" lon="114.09242279638671" /><trkpt lat="22.492224781250002" lon="114.09247479638672" /><trkpt lat="22.49210878125" lon="114.09257579638673" /><trkpt lat="22.49191178125" lon="114.09261779638672" /><trkpt lat="22.49183878125" lon="114.09255579638672" /><trkpt lat="22.49174678125" lon="114.09231879638672" /><trkpt lat="22.49169978125" lon="114.09235279638672" /><trkpt lat="22.49163778125" lon="114.09243379638671" /><trkpt lat="22.49152478125" lon="114.09242879638671" /><trkpt lat="22.49139478125" lon="114.09243979638671" /><trkpt lat="22.49134278125" lon="114.09243879638672" /><trkpt lat="22.49123078125" lon="114.09245479638672" /><trkpt lat="22.49114278125" lon="114.09244379638672" /><trkpt lat="22.49104178125" lon="114.09236279638672" /><trkpt lat="22.49084378125" lon="114.09231979638672" /><trkpt lat="22.49072078125" lon="114.09229979638671" /><trkpt lat="22.49052878125" lon="114.09232079638672" /><trkpt lat="22.49048578125" lon="114.09246579638672" /><trkpt lat="22.49047378125" lon="114.09254179638671" /><trkpt lat="22.49037478125" lon="114.09253079638673" /><trkpt lat="22.49008078125" lon="114.09232279638672" /><trkpt lat="22.48991878125" lon="114.09233079638672" /><trkpt lat="22.48966278125" lon="114.09235079638673" /><trkpt lat="22.48893478125" lon="114.09244079638673" /><trkpt lat="22.48847878125" lon="114.09242079638672" /><trkpt lat="22.48837778125" lon="114.09239679638672" /><trkpt lat="22.48823378125" lon="114.09230379638672" /><trkpt lat="22.48807578125" lon="114.09225179638672" /><trkpt lat="22.48789278125" lon="114.09218879638672" /><trkpt lat="22.48770378125" lon="114.09213179638672" /><trkpt lat="22.48751878125" lon="114.09212879638672" /><trkpt lat="22.48717878125" lon="114.09205479638672" /><trkpt lat="22.48697278125" lon="114.09203379638672" /><trkpt lat="22.48680278125" lon="114.09201979638672" /><trkpt lat="22.48667778125" lon="114.09205179638671" /><trkpt lat="22.48652378125" lon="114.09210279638671" /><trkpt lat="22.48622078125" lon="114.09225079638672" /><trkpt lat="22.48610678125" lon="114.09215379638673" /><trkpt lat="22.48591878125" lon="114.09215379638673" /><trkpt lat="22.48582178125" lon="114.09218179638673" /><trkpt lat="22.48574478125" lon="114.09211479638672" /><trkpt lat="22.48557278125" lon="114.09219779638671" /><trkpt lat="22.48532078125" lon="114.09248279638672" /><trkpt lat="22.48519378125" lon="114.09249079638671" /><trkpt lat="22.48506878125" lon="114.09239079638672" /><trkpt lat="22.48503178125" lon="114.09232779638671" /><trkpt lat="22.48496978125" lon="114.09221679638672" /><trkpt lat="22.484707781250002" lon="114.09179479638672" /><trkpt lat="22.48459178125" lon="114.09150379638672" /><trkpt lat="22.48452678125" lon="114.09131979638671" /><trkpt lat="22.48434578125" lon="114.09115579638672" /><trkpt lat="22.48413278125" lon="114.09103279638671" /><trkpt lat="22.48372778125" lon="114.09085979638672" /><trkpt lat="22.48337078125" lon="114.09063479638672" /><trkpt lat="22.48330978125" lon="114.09059079638672" /><trkpt lat="22.48308578125" lon="114.09042879638672" /><trkpt lat="22.48292178125" lon="114.09028979638671" /><trkpt lat="22.48260178125" lon="114.09002779638672" /><trkpt lat="22.48225478125" lon="114.08983179638672" /><trkpt lat="22.48203678125" lon="114.08982179638672" /><trkpt lat="22.48192378125" lon="114.08974879638671" /><trkpt lat="22.48186778125" lon="114.08960179638672" /><trkpt lat="22.48191378125" lon="114.08951179638672" /><trkpt lat="22.48167978125" lon="114.08931279638672" /><trkpt lat="22.48158378125" lon="114.08928479638672" /><trkpt lat="22.48113878125" lon="114.08932379638672" /><trkpt lat="22.48087778125" lon="114.08956079638672" /><trkpt lat="22.48080378125" lon="114.08967179638672" /><trkpt lat="22.48055578125" lon="114.08997379638672" /><trkpt lat="22.48027278125" lon="114.08990979638672" /><trkpt lat="22.48005878125" lon="114.08989379638672" /><trkpt lat="22.47971278125" lon="114.08992079638672" /><trkpt lat="22.47957278125" lon="114.08994379638672" /><trkpt lat="22.47944678125" lon="114.08997779638672" /><trkpt lat="22.47925778125" lon="114.08994379638672" /><trkpt lat="22.47905378125" lon="114.08982579638672" /><trkpt lat="22.47856378125" lon="114.08976179638672" /><trkpt lat="22.47836478125" lon="114.08976879638672" /><trkpt lat="22.47820378125" lon="114.08987179638672" /><trkpt lat="22.47807378125" lon="114.08998179638672" /><trkpt lat="22.47784978125" lon="114.08998479638672" /><trkpt lat="22.47766078125" lon="114.08992379638671" /><trkpt lat="22.47752478125" lon="114.08971279638672" /><trkpt lat="22.47736978125" lon="114.08959779638671" /><trkpt lat="22.47716578125" lon="114.08954679638671" /><trkpt lat="22.47690778125" lon="114.08947779638672" /><trkpt lat="22.47665678125" lon="114.08943979638671" /><trkpt lat="22.47634278125" lon="114.08946979638672" /><trkpt lat="22.47612078125" lon="114.08936279638672" /><trkpt lat="22.47597378125" lon="114.08919679638672" /><trkpt lat="22.47578678125" lon="114.08914179638671" /><trkpt lat="22.47519278125" lon="114.08912479638671" /><trkpt lat="22.47476378125" lon="114.08895079638671" /><trkpt lat="22.47437578125" lon="114.08888279638671" /><trkpt lat="22.47417678125" lon="114.08891379638672" /><trkpt lat="22.47371778125" lon="114.08874879638672" /><trkpt lat="22.47354478125" lon="114.08875479638672" /><trkpt lat="22.47336878125" lon="114.08884879638671" /><trkpt lat="22.47316278125" lon="114.08926279638672" /><trkpt lat="22.47288378125" lon="114.08945179638673" /><trkpt lat="22.47267778125" lon="114.08962979638672" /><trkpt lat="22.47200478125" lon="114.08948479638671" /><trkpt lat="22.47176478125" lon="114.08936979638672" /><trkpt lat="22.47124078125" lon="114.08945579638672" /><trkpt lat="22.47106378125" lon="114.08958979638672" /><trkpt lat="22.47092278125" lon="114.08961379638671" /><trkpt lat="22.47084678125" lon="114.08973679638672" /><trkpt lat="22.47037978125" lon="114.08985479638672" /><trkpt lat="22.46969178125" lon="114.08970879638672" /><trkpt lat="22.46942078125" lon="114.08981879638672" /><trkpt lat="22.46865478125" lon="114.09000279638671" /><trkpt lat="22.46860378125" lon="114.09006379638672" /><trkpt lat="22.46829278125" lon="114.09013079638672" /><trkpt lat="22.46814478125" lon="114.09007679638673" /><trkpt lat="22.46794178125" lon="114.09010179638672" /><trkpt lat="22.46789078125" lon="114.09016179638672" /><trkpt lat="22.46764878125" lon="114.08990479638672" /><trkpt lat="22.46736278125" lon="114.08978179638672" /><trkpt lat="22.46721378125" lon="114.08958879638672" /><trkpt lat="22.46700778125" lon="114.08954679638671" /><trkpt lat="22.46658078125" lon="114.08920479638672" /><trkpt lat="22.46638178125" lon="114.08918579638672" /><trkpt lat="22.46605878125" lon="114.08929979638671" /><trkpt lat="22.46593878125" lon="114.08921979638671" /><trkpt lat="22.46616478125" lon="114.08867379638671" /><trkpt lat="22.46611378125" lon="114.08837879638672" /><trkpt lat="22.46608978125" lon="114.08795579638672" /><trkpt lat="22.46598878125" lon="114.08782979638671" /><trkpt lat="22.46577878125" lon="114.08753579638672" /><trkpt lat="22.46556878125" lon="114.08740879638673" /><trkpt lat="22.46547278125" lon="114.08707179638672" /><trkpt lat="22.46537178125" lon="114.08689479638672" /><trkpt lat="22.46531378125" lon="114.08665179638672" /><trkpt lat="22.46530078125" lon="114.08643379638671" /><trkpt lat="22.46532678125" lon="114.08572979638672" /><trkpt lat="22.46524178125" lon="114.08552779638671" /><trkpt lat="22.46491078125" lon="114.08519879638672" /><trkpt lat="22.46441278125" lon="114.08489979638672" /><trkpt lat="22.46421178125" lon="114.08471279638673" /><trkpt lat="22.46403878125" lon="114.08433379638672" /><trkpt lat="22.46381678125" lon="114.08404479638672" /><trkpt lat="22.46373178125" lon="114.08391479638672" /><trkpt lat="22.46356178125" lon="114.08377779638671" /><trkpt lat="22.46353978125" lon="114.08350079638672" /><trkpt lat="22.46354378125" lon="114.08308079638672" /><trkpt lat="22.46352278125" lon="114.08286679638672" /><trkpt lat="22.46342578125" lon="114.08268679638672" /><trkpt lat="22.46316678125" lon="114.08239279638671" /><trkpt lat="22.46309878125" lon="114.08232479638671" /><trkpt lat="22.46301878125" lon="114.08232879638672" /><trkpt lat="22.46288778125" lon="114.08230579638672" /><trkpt lat="22.46279578125" lon="114.08217679638672" /><trkpt lat="22.46263978125" lon="114.08196179638672" /><trkpt lat="22.46253978125" lon="114.08171779638671" /><trkpt lat="22.46240178125" lon="114.08150579638672" /><trkpt lat="22.46231478125" lon="114.08138479638671" /><trkpt lat="22.46220378125" lon="114.08123079638672" /><trkpt lat="22.46209378125" lon="114.08102979638672" /><trkpt lat="22.46200878125" lon="114.08083279638672" /><trkpt lat="22.46196278125" lon="114.08065579638672" /><trkpt lat="22.46194178125" lon="114.08035479638671" /><trkpt lat="22.46197078125" lon="114.08014079638671" /><trkpt lat="22.46195178125" lon="114.07996879638672" /><trkpt lat="22.46184778125" lon="114.07965279638672" /><trkpt lat="22.46175178125" lon="114.07951079638671" /><trkpt lat="22.46160078125" lon="114.07933779638672" /><trkpt lat="22.46153478125" lon="114.07917279638671" /><trkpt lat="22.46149478125" lon="114.07907579638672" /><trkpt lat="22.46140378125" lon="114.07887379638672" /><trkpt lat="22.46136078125" lon="114.07873979638671" /><trkpt lat="22.46133878125" lon="114.07853779638671" /><trkpt lat="22.46151778125" lon="114.07829279638672" /><trkpt lat="22.46155478125" lon="114.07818879638671" /><trkpt lat="22.46169478125" lon="114.07789479638672" /><trkpt lat="22.46176278125" lon="114.07740379638672" /><trkpt lat="22.46193778125" lon="114.07677979638672" /><trkpt lat="22.46202078125" lon="114.07660279638672" /><trkpt lat="22.46211678125" lon="114.07646679638673" /><trkpt lat="22.46231178125" lon="114.07614579638673" /><trkpt lat="22.46237178125" lon="114.07602879638672" /><trkpt lat="22.46245478125" lon="114.07586779638672" /><trkpt lat="22.46251478125" lon="114.07573479638671" /><trkpt lat="22.46262578125" lon="114.07559879638671" /><trkpt lat="22.46268278125" lon="114.07551779638672" /><trkpt lat="22.46270678125" lon="114.07544379638672" /><trkpt lat="22.46268278125" lon="114.07535279638672" /><trkpt lat="22.46259578125" lon="114.07520379638672" /><trkpt lat="22.46254478125" lon="114.07503179638672" /><trkpt lat="22.46251778125" lon="114.07481279638672" /><trkpt lat="22.46251078125" lon="114.07463379638672" /><trkpt lat="22.46252078125" lon="114.07432879638672" /><trkpt lat="22.46255878125" lon="114.07413179638672" /><trkpt lat="22.46269178125" lon="114.07357279638671" /><trkpt lat="22.46270878125" lon="114.07349579638672" /><trkpt lat="22.46279478125" lon="114.07299379638673" /><trkpt lat="22.46279278125" lon="114.07265979638672" /><trkpt lat="22.46291578125" lon="114.07231379638672" /><trkpt lat="22.46296378125" lon="114.07206579638672" /><trkpt lat="22.46304778125" lon="114.07156579638672" /><trkpt lat="22.46320978125" lon="114.07120279638671" /><trkpt lat="22.46324678125" lon="114.07106479638672" /><trkpt lat="22.46328478125" lon="114.07073579638671" /><trkpt lat="22.46325978125" lon="114.07063279638672" /><trkpt lat="22.46334378125" lon="114.07036679638672" /><trkpt lat="22.46340178125" lon="114.06979379638672" /><trkpt lat="22.46342878125" lon="114.06929879638672" /><trkpt lat="22.46349078125" lon="114.06908579638672" /><trkpt lat="22.46389978125" lon="114.06817979638672" /><trkpt lat="22.46395778125" lon="114.06796479638672" /><trkpt lat="22.46426678125" lon="114.06752479638672" /><trkpt lat="22.46436578125" lon="114.06706779638672" /><trkpt lat="22.46438178125" lon="114.06667779638671" /><trkpt lat="22.46423178125" lon="114.06613179638671" /><trkpt lat="22.46412478125" lon="114.06596679638672" /><trkpt lat="22.46389178125" lon="114.06582879638673" /><trkpt lat="22.46375278125" lon="114.06551979638672" /><trkpt lat="22.46366878125" lon="114.06539679638672" /><trkpt lat="22.46367778125" lon="114.06533179638672" /><trkpt lat="22.46359078125" lon="114.06521979638671" /><trkpt lat="22.46347778125" lon="114.06499079638672" /><trkpt lat="22.46346878125" lon="114.06448979638672" /><trkpt lat="22.46337978125" lon="114.06422379638671" /><trkpt lat="22.46336978125" lon="114.06400579638672" /><trkpt lat="22.46326078125" lon="114.06365679638672" /><trkpt lat="22.46328778125" lon="114.06343779638672" /><trkpt lat="22.46339778125" lon="114.06306279638672" /><trkpt lat="22.46340178125" lon="114.06296879638671" /><trkpt lat="22.46339178125" lon="114.06286779638671" /><trkpt lat="22.46327778125" lon="114.06263479638672" /><trkpt lat="22.46306678125" lon="114.06231679638672" /><trkpt lat="22.46288578125" lon="114.06195779638672" /><trkpt lat="22.46287278125" lon="114.06159479638671" /><trkpt lat="22.46277678125" lon="114.06135579638672" /><trkpt lat="22.46244378125" lon="114.06091279638672" /><trkpt lat="22.46242078125" lon="114.06076379638672" /><trkpt lat="22.46245178125" lon="114.06058679638672" /><trkpt lat="22.46239078125" lon="114.06044579638672" /><trkpt lat="22.46229778125" lon="114.06042979638671" /><trkpt lat="22.46202278125" lon="114.06038779638672" /><trkpt lat="22.46186378125" lon="114.06002579638673" /><trkpt lat="22.46143478125" lon="114.05970079638672" /><trkpt lat="22.46118478125" lon="114.05963079638671" /><trkpt lat="22.46083278125" lon="114.05941079638671" /><trkpt lat="22.46070478125" lon="114.05954579638671" /><trkpt lat="22.46066978125" lon="114.05972179638673" /><trkpt lat="22.46056378125" lon="114.05968279638672" /><trkpt lat="22.46045378125" lon="114.05942579638672" /><trkpt lat="22.46038078125" lon="114.05910279638672" /><trkpt lat="22.46034878125" lon="114.05903679638672" /><trkpt lat="22.46028578125" lon="114.05883779638671" /><trkpt lat="22.46015178125" lon="114.05872779638672" /><trkpt lat="22.46013078125" lon="114.05860179638672" /><trkpt lat="22.46004078125" lon="114.05844179638672" /><trkpt lat="22.46000278125" lon="114.05832479638671" /><trkpt lat="22.45987178125" lon="114.05803079638672" /><trkpt lat="22.45977578125" lon="114.05794479638672" /><trkpt lat="22.45971178125" lon="114.05781879638671" /><trkpt lat="22.45958278125" lon="114.05770379638672" /><trkpt lat="22.45949978125" lon="114.05761879638672" /><trkpt lat="22.45932478125" lon="114.05750679638672" /><trkpt lat="22.45926078125" lon="114.05729179638672" /><trkpt lat="22.45910978125" lon="114.05708779638672" /><trkpt lat="22.45877978125" lon="114.05680579638671" /><trkpt lat="22.45859278125" lon="114.05682179638671" /><trkpt lat="22.45846878125" lon="114.05689879638672" /><trkpt lat="22.45837678125" lon="114.05687679638672" /><trkpt lat="22.45821578125" lon="114.05678879638671" /><trkpt lat="22.45798778125" lon="114.05651979638672" /><trkpt lat="22.45796178125" lon="114.05642079638672" /><trkpt lat="22.45809978125" lon="114.05619179638671" /><trkpt lat="22.45831978125" lon="114.05583479638672" /><trkpt lat="22.45839278125" lon="114.05572379638672" /><trkpt lat="22.45857078125" lon="114.05547779638673" /><trkpt lat="22.45862278125" lon="114.05538879638672" /><trkpt lat="22.45863778125" lon="114.05534879638672" /><trkpt lat="22.45864678125" lon="114.05528879638672" /><trkpt lat="22.45864378125" lon="114.05522379638671" /><trkpt lat="22.45862778125" lon="114.05514279638672" /><trkpt lat="22.45860778125" lon="114.05505679638672" /><trkpt lat="22.45855078125" lon="114.05489979638672" /><trkpt lat="22.45842978125" lon="114.05458979638672" /><trkpt lat="22.45835178125" lon="114.05439179638672" /><trkpt lat="22.45824278125" lon="114.05411379638672" /><trkpt lat="22.45797578125" lon="114.05333879638673" /><trkpt lat="22.45794578125" lon="114.05321879638672" /><trkpt lat="22.45792978125" lon="114.05311679638672" /><trkpt lat="22.45791678125" lon="114.05301979638672" /><trkpt lat="22.45790878125" lon="114.05292779638671" /><trkpt lat="22.45790678125" lon="114.05283279638672" /><trkpt lat="22.45790878125" lon="114.05276779638672" /><trkpt lat="22.45792478125" lon="114.05243979638672" /><trkpt lat="22.457881050550874" lon="114.05243469009673" /></trkseg></trk></gpx>