<?xml version='1.0' encoding='UTF-8' ?><gpx version="1.1" creator="HikingTrailHK" xsi:schemaLocation="http://www.topografix.com/GPX/1/1 http://www.topografix.com/GPX/1/1/gpx.xsd" xmlns="http://www.topografix.com/GPX/1/1" xmlns:xsi="http://www.w3.org/2001/XMLSchema-instance"><metadata><name>雞公嶺 @ 2025-01-24</name><desc></desc></metadata><trk><trkseg><trkpt lat="22.45798578125" lon="114.05759779638672" /><trkpt lat="22.45806378125" lon="114.05755079638672" /><trkpt lat="22.45814278125" lon="114.05754579638672" /><trkpt lat="22.45829078125" lon="114.05753179638671" /><trkpt lat="22.45843178125" lon="114.05752579638671" /><trkpt lat="22.45860078125" lon="114.05757379638672" /><trkpt lat="22.45877978125" lon="114.05758379638672" /><trkpt lat="22.45894178125" lon="114.05750779638672" /><trkpt lat="22.45909178125" lon="114.05740179638671" /><trkpt lat="22.45919978125" lon="114.05739079638671" /><trkpt lat="22.45925478125" lon="114.05740879638672" /><trkpt lat="22.45950978125" lon="114.05758679638672" /><trkpt lat="22.45957878125" lon="114.05764879638672" /><trkpt lat="22.45972278125" lon="114.05775879638672" /><trkpt lat="22.45979978125" lon="114.05790879638671" /><trkpt lat="22.45988978125" lon="114.05795579638672" /><trkpt lat="22.45995878125" lon="114.05815879638672" /><trkpt lat="22.46003078125" lon="114.05830379638672" /><trkpt lat="22.46010978125" lon="114.05850379638672" /><trkpt lat="22.46014778125" lon="114.05853179638672" /><trkpt lat="22.46013078125" lon="114.05862379638671" /><trkpt lat="22.46030478125" lon="114.05879079638672" /><trkpt lat="22.46032678125" lon="114.05884179638672" /><trkpt lat="22.46033878125" lon="114.05894579638672" /><trkpt lat="22.46038778125" lon="114.05903279638672" /><trkpt lat="22.46042878125" lon="114.05902679638672" /><trkpt lat="22.46051378125" lon="114.05907879638671" /><trkpt lat="22.46054478125" lon="114.05906379638672" /><trkpt lat="22.46056778125" lon="114.05907179638672" /><trkpt lat="22.46062878125" lon="114.05904779638672" /><trkpt lat="22.46065678125" lon="114.05909779638672" /><trkpt lat="22.46069878125" lon="114.05908979638671" /><trkpt lat="22.46072278125" lon="114.05911979638672" /><trkpt lat="22.46070978125" lon="114.05920279638671" /><trkpt lat="22.46072278125" lon="114.05924179638671" /><trkpt lat="22.46071078125" lon="114.05928979638672" /><trkpt lat="22.46072478125" lon="114.05938179638672" /><trkpt lat="22.46076378125" lon="114.05943079638672" /><trkpt lat="22.46084978125" lon="114.05955479638672" /><trkpt lat="22.46092078125" lon="114.05960279638671" /><trkpt lat="22.46097078125" lon="114.05960379638672" /><trkpt lat="22.46100778125" lon="114.05957079638672" /><trkpt lat="22.46108778125" lon="114.05963779638672" /><trkpt lat="22.46117478125" lon="114.05961179638672" /><trkpt lat="22.46126578125" lon="114.05964479638672" /><trkpt lat="22.46132978125" lon="114.05968779638673" /><trkpt lat="22.46138678125" lon="114.05971979638672" /><trkpt lat="22.46142578125" lon="114.05972179638673" /><trkpt lat="22.46148078125" lon="114.05976579638671" /><trkpt lat="22.46153278125" lon="114.05977679638671" /><trkpt lat="22.46162378125" lon="114.05987679638672" /><trkpt lat="22.46169178125" lon="114.05992479638672" /><trkpt lat="22.46180478125" lon="114.05993079638672" /><trkpt lat="22.46185578125" lon="114.05999779638672" /><trkpt lat="22.46195778125" lon="114.06015979638671" /><trkpt lat="22.46199378125" lon="114.06027379638672" /><trkpt lat="22.46203078125" lon="114.06035279638672" /><trkpt lat="22.46205978125" lon="114.06036779638671" /><trkpt lat="22.46209178125" lon="114.06037079638672" /><trkpt lat="22.46214178125" lon="114.06041079638672" /><trkpt lat="22.46216778125" lon="114.06043379638672" /><trkpt lat="22.46225078125" lon="114.06045979638672" /><trkpt lat="22.46228878125" lon="114.06053179638671" /><trkpt lat="22.46229778125" lon="114.06059379638671" /><trkpt lat="22.46231378125" lon="114.06062179638671" /><trkpt lat="22.46231778125" lon="114.06067979638672" /><trkpt lat="22.46233678125" lon="114.06072679638672" /><trkpt lat="22.46241078125" lon="114.06079179638672" /><trkpt lat="22.46244778125" lon="114.06088779638672" /><trkpt lat="22.46271078125" lon="114.06124079638671" /><trkpt lat="22.46277378125" lon="114.06127679638672" /><trkpt lat="22.46281878125" lon="114.06133379638672" /><trkpt lat="22.46288678125" lon="114.06158679638672" /><trkpt lat="22.46287678125" lon="114.06185379638671" /><trkpt lat="22.46290078125" lon="114.06195779638672" /><trkpt lat="22.46291878125" lon="114.06201979638672" /><trkpt lat="22.46299378125" lon="114.06210779638671" /><trkpt lat="22.46304978125" lon="114.06224579638672" /><trkpt lat="22.46304678125" lon="114.06230479638671" /><trkpt lat="22.46314778125" lon="114.06247279638671" /><trkpt lat="22.46327778125" lon="114.06263479638672" /><trkpt lat="22.46336478125" lon="114.06281279638672" /><trkpt lat="22.46339178125" lon="114.06286779638671" /><trkpt lat="22.46340178125" lon="114.06296879638671" /><trkpt lat="22.46339978125" lon="114.06304479638672" /><trkpt lat="22.46336378125" lon="114.06318679638672" /><trkpt lat="22.46331078125" lon="114.06327079638672" /><trkpt lat="22.46328778125" lon="114.06343779638672" /><trkpt lat="22.46325278125" lon="114.06359579638672" /><trkpt lat="22.46331278125" lon="114.06384379638672" /><trkpt lat="22.46336578125" lon="114.06390279638671" /><trkpt lat="22.46339278125" lon="114.06398279638672" /><trkpt lat="22.46337178125" lon="114.06409279638672" /><trkpt lat="22.46336678125" lon="114.06411879638672" /><trkpt lat="22.46337978125" lon="114.06422379638671" /><trkpt lat="22.46346878125" lon="114.06448979638672" /><trkpt lat="22.46349678125" lon="114.06497979638672" /><trkpt lat="22.46351578125" lon="114.06502779638672" /><trkpt lat="22.46356578125" lon="114.06515979638672" /><trkpt lat="22.46366578125" lon="114.06526279638672" /><trkpt lat="22.46370378125" lon="114.06540279638672" /><trkpt lat="22.46375678125" lon="114.06544979638672" /><trkpt lat="22.46399178125" lon="114.06576579638671" /><trkpt lat="22.46403778125" lon="114.06585879638672" /><trkpt lat="22.46411478125" lon="114.06595279638672" /><trkpt lat="22.46419178125" lon="114.06600179638671" /><trkpt lat="22.46425778125" lon="114.06612079638671" /><trkpt lat="22.46427278125" lon="114.06626379638672" /><trkpt lat="22.46437578125" lon="114.06665979638672" /><trkpt lat="22.46434678125" lon="114.06675279638672" /><trkpt lat="22.46436678125" lon="114.06683279638672" /><trkpt lat="22.46435378125" lon="114.06691479638671" /><trkpt lat="22.46435478125" lon="114.06696279638672" /><trkpt lat="22.46435478125" lon="114.06704379638671" /><trkpt lat="22.46430678125" lon="114.06731679638672" /><trkpt lat="22.46425178125" lon="114.06747679638671" /><trkpt lat="22.46395778125" lon="114.06796479638672" /><trkpt lat="22.46389478125" lon="114.06816979638671" /><trkpt lat="22.46386078125" lon="114.06821279638672" /><trkpt lat="22.46383078125" lon="114.06831379638672" /><trkpt lat="22.46373178125" lon="114.06850779638673" /><trkpt lat="22.46370378125" lon="114.06858279638672" /><trkpt lat="22.46365578125" lon="114.06866279638672" /><trkpt lat="22.46357378125" lon="114.06888479638671" /><trkpt lat="22.46346878125" lon="114.06906879638672" /><trkpt lat="22.46343578125" lon="114.06919479638672" /><trkpt lat="22.46341778125" lon="114.06950579638672" /><trkpt lat="22.46338878125" lon="114.06972479638672" /><trkpt lat="22.46337678125" lon="114.06979879638672" /><trkpt lat="22.46335478125" lon="114.07026179638672" /><trkpt lat="22.46331178125" lon="114.07036379638672" /><trkpt lat="22.46323578125" lon="114.07060579638672" /><trkpt lat="22.46327778125" lon="114.07075579638672" /><trkpt lat="22.46324678125" lon="114.07106479638672" /><trkpt lat="22.46318778125" lon="114.07119379638672" /><trkpt lat="22.46313978125" lon="114.07126079638672" /><trkpt lat="22.46306878125" lon="114.07144479638671" /><trkpt lat="22.46306178125" lon="114.07153579638671" /><trkpt lat="22.46302578125" lon="114.07161979638671" /><trkpt lat="22.46300378125" lon="114.07171479638671" /><trkpt lat="22.46298778125" lon="114.07178279638671" /><trkpt lat="22.46297078125" lon="114.07208379638672" /><trkpt lat="22.46291578125" lon="114.07231379638672" /><trkpt lat="22.46278878125" lon="114.07257579638672" /><trkpt lat="22.46274478125" lon="114.07283879638672" /><trkpt lat="22.46275578125" lon="114.07298579638672" /><trkpt lat="22.46270378125" lon="114.07326879638671" /><trkpt lat="22.46270478125" lon="114.07331379638671" /><trkpt lat="22.46270878125" lon="114.07349579638672" /><trkpt lat="22.46267878125" lon="114.07356979638672" /><trkpt lat="22.46260778125" lon="114.07378479638672" /><trkpt lat="22.46257178125" lon="114.07389479638672" /><trkpt lat="22.46256178125" lon="114.07407079638672" /><trkpt lat="22.46249278125" lon="114.07429279638671" /><trkpt lat="22.46250078125" lon="114.07444979638672" /><trkpt lat="22.46247678125" lon="114.07456779638672" /><trkpt lat="22.46248678125" lon="114.07481279638672" /><trkpt lat="22.46247778125" lon="114.07504679638672" /><trkpt lat="22.46231378125" lon="114.07543179638672" /><trkpt lat="22.46230278125" lon="114.07547079638672" /><trkpt lat="22.46220078125" lon="114.07583079638673" /><trkpt lat="22.46210378125" lon="114.07593379638672" /><trkpt lat="22.46211978125" lon="114.07624579638671" /><trkpt lat="22.46201978125" lon="114.07654779638672" /><trkpt lat="22.46196578125" lon="114.07664879638672" /><trkpt lat="22.46190878125" lon="114.07681579638673" /><trkpt lat="22.46185378125" lon="114.07701979638672" /><trkpt lat="22.46175278125" lon="114.07736479638672" /><trkpt lat="22.46175178125" lon="114.07750679638671" /><trkpt lat="22.46175878125" lon="114.07779879638672" /><trkpt lat="22.46171578125" lon="114.07791679638672" /><trkpt lat="22.46170378125" lon="114.07794979638672" /><trkpt lat="22.46163378125" lon="114.07806179638672" /><trkpt lat="22.46154778125" lon="114.07814479638672" /><trkpt lat="22.46153978125" lon="114.07820479638671" /><trkpt lat="22.46147078125" lon="114.07834479638672" /><trkpt lat="22.46141978125" lon="114.07840779638671" /><trkpt lat="22.461368781250002" lon="114.07846979638671" /><trkpt lat="22.46133178125" lon="114.07850579638672" /><trkpt lat="22.46133878125" lon="114.07855479638671" /><trkpt lat="22.46134178125" lon="114.07868479638672" /><trkpt lat="22.46140378125" lon="114.07887379638672" /><trkpt lat="22.46146578125" lon="114.07900479638671" /><trkpt lat="22.46151278125" lon="114.07917279638671" /><trkpt lat="22.46151678125" lon="114.07918879638672" /><trkpt lat="22.46160078125" lon="114.07933779638672" /><trkpt lat="22.46173378125" lon="114.07945579638672" /><trkpt lat="22.46186378125" lon="114.07964779638672" /><trkpt lat="22.46198278125" lon="114.07997379638672" /><trkpt lat="22.46197978125" lon="114.08004479638672" /><trkpt lat="22.46197878125" lon="114.08008079638672" /><trkpt lat="22.46197578125" lon="114.08014979638672" /><trkpt lat="22.46194578125" lon="114.08037179638671" /><trkpt lat="22.46194578125" lon="114.08048979638671" /><trkpt lat="22.46194578125" lon="114.08055479638672" /><trkpt lat="22.46196878125" lon="114.08074379638671" /><trkpt lat="22.46207678125" lon="114.08093879638672" /><trkpt lat="22.46212578125" lon="114.08107379638672" /><trkpt lat="22.46217578125" lon="114.08114979638673" /><trkpt lat="22.46222178125" lon="114.08126479638672" /><trkpt lat="22.46229978125" lon="114.08136779638671" /><trkpt lat="22.46237478125" lon="114.08146579638672" /><trkpt lat="22.46260778125" lon="114.08161779638672" /><trkpt lat="22.46275978125" lon="114.08165879638672" /><trkpt lat="22.46288478125" lon="114.08172879638671" /><trkpt lat="22.46297578125" lon="114.08182179638672" /><trkpt lat="22.46302178125" lon="114.08189979638672" /><trkpt lat="22.46304278125" lon="114.08199379638671" /><trkpt lat="22.46307278125" lon="114.08213679638672" /><trkpt lat="22.46315378125" lon="114.08234379638672" /><trkpt lat="22.46316678125" lon="114.08239279638671" /><trkpt lat="22.46323578125" lon="114.08247179638671" /><trkpt lat="22.46335078125" lon="114.08258679638672" /><trkpt lat="22.46340878125" lon="114.08270479638672" /><trkpt lat="22.46347678125" lon="114.08278779638673" /><trkpt lat="22.46350078125" lon="114.08294179638672" /><trkpt lat="22.46353478125" lon="114.08305779638673" /><trkpt lat="22.46353078125" lon="114.08309479638672" /><trkpt lat="22.46350178125" lon="114.08329579638672" /><trkpt lat="22.46349978125" lon="114.08350079638672" /><trkpt lat="22.46349978125" lon="114.08350479638672" /><trkpt lat="22.46350978125" lon="114.08363779638672" /><trkpt lat="22.46353578125" lon="114.08374879638671" /><trkpt lat="22.46365478125" lon="114.08383779638672" /><trkpt lat="22.46373478125" lon="114.08390879638672" /><trkpt lat="22.46381478125" lon="114.08402479638671" /><trkpt lat="22.46407378125" lon="114.08436979638672" /><trkpt lat="22.46417178125" lon="114.08458079638672" /><trkpt lat="22.46417878125" lon="114.08467279638671" /><trkpt lat="22.46424878125" lon="114.08481279638671" /><trkpt lat="22.46427078125" lon="114.08485579638672" /><trkpt lat="22.46431578125" lon="114.08499779638672" /><trkpt lat="22.46442578125" lon="114.08515379638672" /><trkpt lat="22.46446678125" lon="114.08518779638672" /><trkpt lat="22.46452978125" lon="114.08522979638671" /><trkpt lat="22.46474378125" lon="114.08549879638672" /><trkpt lat="22.46480378125" lon="114.08556179638671" /><trkpt lat="22.46486678125" lon="114.08560179638671" /><trkpt lat="22.46491478125" lon="114.08567079638672" /><trkpt lat="22.46495478125" lon="114.08575479638672" /><trkpt lat="22.46494878125" lon="114.08584479638672" /><trkpt lat="22.46503178125" lon="114.08598879638672" /><trkpt lat="22.46506578125" lon="114.08601879638672" /><trkpt lat="22.46508378125" lon="114.08613079638671" /><trkpt lat="22.465066781250002" lon="114.08615979638672" /><trkpt lat="22.46510178125" lon="114.08624279638671" /><trkpt lat="22.46517178125" lon="114.08629679638672" /><trkpt lat="22.46521978125" lon="114.08633279638671" /><trkpt lat="22.46527178125" lon="114.08639479638671" /><trkpt lat="22.46527878125" lon="114.08641279638672" /><trkpt lat="22.46528678125" lon="114.08643879638672" /><trkpt lat="22.465327790906642" lon="114.0865465374602" /><trkpt lat="22.46535178125" lon="114.08667479638672" /><trkpt lat="22.46538778125" lon="114.08675979638672" /><trkpt lat="22.46544578125" lon="114.08685979638672" /><trkpt lat="22.46551078125" lon="114.08701079638672" /><trkpt lat="22.46552178125" lon="114.08709879638671" /><trkpt lat="22.46555378125" lon="114.08715479638671" /><trkpt lat="22.46564078125" lon="114.08727079638672" /><trkpt lat="22.46567778125" lon="114.08736779638672" /><trkpt lat="22.46572178125" lon="114.08751379638672" /><trkpt lat="22.46577978125" lon="114.08753579638672" /><trkpt lat="22.46580478125" lon="114.08754879638671" /><trkpt lat="22.46584878125" lon="114.08757179638671" /><trkpt lat="22.46590078125" lon="114.08767479638672" /><trkpt lat="22.46594478125" lon="114.08779479638672" /><trkpt lat="22.46594978125" lon="114.08780679638672" /><trkpt lat="22.46603778125" lon="114.08789679638672" /><trkpt lat="22.46608478125" lon="114.08796779638672" /><trkpt lat="22.46609778125" lon="114.08802279638672" /><trkpt lat="22.46610178125" lon="114.08808679638672" /><trkpt lat="22.46611278125" lon="114.08828879638672" /><trkpt lat="22.46608378125" lon="114.08833979638672" /><trkpt lat="22.46608578125" lon="114.08837679638673" /><trkpt lat="22.46609778125" lon="114.08853779638672" /><trkpt lat="22.46611578125" lon="114.08856779638671" /><trkpt lat="22.46612478125" lon="114.08866779638672" /><trkpt lat="22.46604778125" lon="114.08880579638672" /><trkpt lat="22.46603378125" lon="114.08888179638672" /><trkpt lat="22.46593878125" lon="114.08905779638673" /><trkpt lat="22.46591878125" lon="114.08912779638672" /><trkpt lat="22.46592278125" lon="114.08916779638672" /><trkpt lat="22.46592878125" lon="114.08924979638672" /><trkpt lat="22.46596078125" lon="114.08940079638671" /><trkpt lat="22.46597778125" lon="114.08943279638672" /><trkpt lat="22.46599978125" lon="114.08948679638672" /><trkpt lat="22.46600878125" lon="114.08950879638672" /><trkpt lat="22.46601178125" lon="114.08953679638672" /><trkpt lat="22.46602178125" lon="114.08960979638672" /><trkpt lat="22.46610478125" lon="114.08971579638671" /><trkpt lat="22.46615478125" lon="114.08980079638673" /><trkpt lat="22.46618978125" lon="114.08991379638672" /><trkpt lat="22.46614178125" lon="114.08996979638673" /><trkpt lat="22.46601778125" lon="114.09011179638672" /><trkpt lat="22.46591778125" lon="114.09034179638672" /><trkpt lat="22.465892781249998" lon="114.09042979638672" /><trkpt lat="22.46589578125" lon="114.09047779638672" /><trkpt lat="22.46591178125" lon="114.09076079638672" /><trkpt lat="22.46588278125" lon="114.09086979638671" /><trkpt lat="22.46587578125" lon="114.09110379638672" /><trkpt lat="22.46587478125" lon="114.09111579638672" /><trkpt lat="22.46586978125" lon="114.09124479638672" /><trkpt lat="22.46590078125" lon="114.09135179638672" /><trkpt lat="22.46594278125" lon="114.09141379638672" /><trkpt lat="22.46598978125" lon="114.09148479638672" /><trkpt lat="22.46601678125" lon="114.09153579638672" /><trkpt lat="22.46604178125" lon="114.09158379638671" /><trkpt lat="22.46607178125" lon="114.09169379638672" /><trkpt lat="22.46604378125" lon="114.09183579638672" /><trkpt lat="22.46603578125" lon="114.09187579638672" /><trkpt lat="22.46599578125" lon="114.09212479638671" /><trkpt lat="22.46601578125" lon="114.09226979638672" /><trkpt lat="22.46600678125" lon="114.09241279638672" /><trkpt lat="22.46607578125" lon="114.09257279638672" /><trkpt lat="22.46618578125" lon="114.09278979638673" /><trkpt lat="22.46623478125" lon="114.09281579638672" /><trkpt lat="22.46634878125" lon="114.09301179638672" /><trkpt lat="22.46647978125" lon="114.09329779638672" /><trkpt lat="22.46649878125" lon="114.09335679638671" /><trkpt lat="22.46648278125" lon="114.09345579638672" /><trkpt lat="22.46649278125" lon="114.09353079638672" /><trkpt lat="22.46652678125" lon="114.09357679638671" /><trkpt lat="22.46658178125" lon="114.09374579638671" /><trkpt lat="22.46667878125" lon="114.09396979638672" /><trkpt lat="22.46670078125" lon="114.09400379638672" /><trkpt lat="22.46671078125" lon="114.09401879638672" /><trkpt lat="22.46675778125" lon="114.09411079638672" /><trkpt lat="22.46679778125" lon="114.09418979638671" /><trkpt lat="22.46681978125" lon="114.09426579638672" /><trkpt lat="22.46680278125" lon="114.09442179638671" /><trkpt lat="22.46676378125" lon="114.09456679638672" /><trkpt lat="22.46677278125" lon="114.09474779638671" /><trkpt lat="22.46675478125" lon="114.09491379638672" /><trkpt lat="22.46677078125" lon="114.09494779638672" /><trkpt lat="22.46675878125" lon="114.09506179638672" /><trkpt lat="22.46672778125" lon="114.09509979638672" /><trkpt lat="22.46671478125" lon="114.09513679638673" /><trkpt lat="22.46672178125" lon="114.09521679638672" /><trkpt lat="22.46675478125" lon="114.09534179638672" /><trkpt lat="22.46675478125" lon="114.09555579638672" /><trkpt lat="22.46672878125" lon="114.09563379638672" /><trkpt lat="22.46670178125" lon="114.09566579638673" /><trkpt lat="22.46666278125" lon="114.09567179638672" /><trkpt lat="22.46660478125" lon="114.09572179638671" /><trkpt lat="22.46663078125" lon="114.09580879638672" /><trkpt lat="22.46662778125" lon="114.09587379638671" /><trkpt lat="22.46660778125" lon="114.09591279638671" /><trkpt lat="22.46659178125" lon="114.09597479638671" /><trkpt lat="22.46658978125" lon="114.09608379638672" /><trkpt lat="22.46660378125" lon="114.09617379638672" /><trkpt lat="22.46661878125" lon="114.09621279638672" /><trkpt lat="22.46664878125" lon="114.09628579638672" /><trkpt lat="22.46666378125" lon="114.09632279638672" /><trkpt lat="22.46669378125" lon="114.09640579638672" /><trkpt lat="22.46676778125" lon="114.09656579638671" /><trkpt lat="22.46678278125" lon="114.09660379638672" /><trkpt lat="22.46683878125" lon="114.09675279638672" /><trkpt lat="22.46686478125" lon="114.09684379638672" /><trkpt lat="22.46687478125" lon="114.09687779638672" /><trkpt lat="22.46687478125" lon="114.09706679638671" /><trkpt lat="22.46686878125" lon="114.09716479638672" /><trkpt lat="22.46688878125" lon="114.09719179638672" /><trkpt lat="22.46693078125" lon="114.09724679638671" /><trkpt lat="22.46697078125" lon="114.09733579638672" /><trkpt lat="22.46704378125" lon="114.09740779638672" /><trkpt lat="22.46708478125" lon="114.09747979638672" /><trkpt lat="22.46708778125" lon="114.09758379638671" /><trkpt lat="22.46727878125" lon="114.09786679638673" /><trkpt lat="22.46729978125" lon="114.09794379638672" /><trkpt lat="22.46731878125" lon="114.09815479638672" /><trkpt lat="22.46738678125" lon="114.09827579638672" /><trkpt lat="22.46744378125" lon="114.09842479638672" /><trkpt lat="22.46744378125" lon="114.09848479638671" /><trkpt lat="22.46739678125" lon="114.09858779638672" /><trkpt lat="22.46739978125" lon="114.09872579638672" /><trkpt lat="22.46733978125" lon="114.09916479638672" /><trkpt lat="22.46735678125" lon="114.09927479638672" /><trkpt lat="22.46735078125" lon="114.09947279638672" /><trkpt lat="22.46741178125" lon="114.09966179638671" /><trkpt lat="22.46747578125" lon="114.09986879638672" /><trkpt lat="22.46752378125" lon="114.09997779638672" /><trkpt lat="22.46759778125" lon="114.10005279638672" /><trkpt lat="22.46768378125" lon="114.10019879638672" /><trkpt lat="22.46768878125" lon="114.10024879638672" /><trkpt lat="22.46771378125" lon="114.10028479638672" /><trkpt lat="22.46772878125" lon="114.10035379638671" /><trkpt lat="22.46780178125" lon="114.10044279638672" /><trkpt lat="22.46786778125" lon="114.10062279638672" /><trkpt lat="22.46790878125" lon="114.10067479638671" /><trkpt lat="22.46798478125" lon="114.10092179638671" /><trkpt lat="22.46800878125" lon="114.10112779638672" /><trkpt lat="22.46801078125" lon="114.10126479638672" /><trkpt lat="22.46804278125" lon="114.10134979638671" /><trkpt lat="22.46810178125" lon="114.10138379638671" /><trkpt lat="22.46815078125" lon="114.10138179638672" /><trkpt lat="22.46830778125" lon="114.10143779638672" /><trkpt lat="22.46834878125" lon="114.10145479638672" /><trkpt lat="22.46841078125" lon="114.10145279638672" /><trkpt lat="22.46854778125" lon="114.10153579638671" /><trkpt lat="22.46865578125" lon="114.10164179638672" /><trkpt lat="22.46866278125" lon="114.10172779638673" /><trkpt lat="22.46871578125" lon="114.10184279638672" /><trkpt lat="22.46871278125" lon="114.10190579638672" /><trkpt lat="22.46877478125" lon="114.10195279638671" /><trkpt lat="22.46881078125" lon="114.10201979638671" /><trkpt lat="22.46891478125" lon="114.10209979638672" /><trkpt lat="22.46895378125" lon="114.10220979638672" /><trkpt lat="22.46913278125" lon="114.10248179638671" /><trkpt lat="22.46921978125" lon="114.10269679638672" /><trkpt lat="22.46923378125" lon="114.10285879638671" /><trkpt lat="22.46932778125" lon="114.10294979638672" /><trkpt lat="22.46937878125" lon="114.10301379638672" /><trkpt lat="22.46952978125" lon="114.10319479638672" /><trkpt lat="22.46955578125" lon="114.10328279638672" /><trkpt lat="22.46959578125" lon="114.10333779638673" /><trkpt lat="22.46975978125" lon="114.10362279638672" /><trkpt lat="22.46988778125" lon="114.10379479638672" /><trkpt lat="22.46995978125" lon="114.10398479638671" /><trkpt lat="22.47004178125" lon="114.10420779638672" /><trkpt lat="22.47008078125" lon="114.10441479638672" /><trkpt lat="22.47015978125" lon="114.10452079638672" /><trkpt lat="22.47020378125" lon="114.10457579638671" /><trkpt lat="22.47027978125" lon="114.10460379638671" /><trkpt lat="22.47033078125" lon="114.10477679638672" /><trkpt lat="22.47036778125" lon="114.10491679638672" /><trkpt lat="22.47047578125" lon="114.10497579638673" /><trkpt lat="22.47064178125" lon="114.10501579638672" /><trkpt lat="22.47052078125" lon="114.10514279638672" /><trkpt lat="22.47036378125" lon="114.10529479638672" /><trkpt lat="22.47035878125" lon="114.10541779638672" /><trkpt lat="22.47036778125" lon="114.10544079638672" /><trkpt lat="22.47034378125" lon="114.10549779638671" /><trkpt lat="22.47031578125" lon="114.10551279638672" /><trkpt lat="22.47031078125" lon="114.10560179638672" /><trkpt lat="22.47028278125" lon="114.10565479638672" /><trkpt lat="22.47023878125" lon="114.10571079638672" /><trkpt lat="22.47020878125" lon="114.10580679638672" /><trkpt lat="22.47017478125" lon="114.10591579638672" /><trkpt lat="22.47014178125" lon="114.10616379638672" /><trkpt lat="22.469946781250002" lon="114.10646779638672" /><trkpt lat="22.46979978125" lon="114.10669279638672" /><trkpt lat="22.46968778125" lon="114.10673679638671" /><trkpt lat="22.46966278125" lon="114.10683979638672" /><trkpt lat="22.46954578125" lon="114.10696679638671" /><trkpt lat="22.46950478125" lon="114.10702979638671" /><trkpt lat="22.46926978125" lon="114.10716379638671" /><trkpt lat="22.46917078125" lon="114.10731579638671" /><trkpt lat="22.469279781250002" lon="114.10733179638672" /><trkpt lat="22.46944178125" lon="114.10737879638671" /><trkpt lat="22.46962378125" lon="114.10749279638672" /><trkpt lat="22.46970978125" lon="114.10756479638673" /><trkpt lat="22.46972978125" lon="114.10763979638672" /><trkpt lat="22.46978578125" lon="114.10765879638672" /><trkpt lat="22.46978378125" lon="114.10784879638672" /><trkpt lat="22.46980378125" lon="114.10798879638672" /><trkpt lat="22.46980078125" lon="114.10811779638672" /><trkpt lat="22.46980878125" lon="114.10823479638672" /><trkpt lat="22.46981378125" lon="114.10826879638672" /><trkpt lat="22.46992978125" lon="114.10847479638672" /><trkpt lat="22.46994578125" lon="114.10849579638672" /><trkpt lat="22.46996378125" lon="114.10849979638672" /><trkpt lat="22.47003878125" lon="114.10853179638671" /><trkpt lat="22.470130603919767" lon="114.10861140588273" /><trkpt lat="22.47010278125" lon="114.10861979638672" /><trkpt lat="22.46997078125" lon="114.10865979638672" /><trkpt lat="22.46975878125" lon="114.10871179638671" /><trkpt lat="22.46962078125" lon="114.10872079638672" /><trkpt lat="22.46949078125" lon="114.10872379638671" /><trkpt lat="22.469400380611308" lon="114.10872014310891" /></trkseg></trk></gpx>