<?xml version='1.0' encoding='UTF-8' ?><gpx version="1.1" creator="HikingTrailHK" xsi:schemaLocation="http://www.topografix.com/GPX/1/1 http://www.topografix.com/GPX/1/1/gpx.xsd" xmlns="http://www.topografix.com/GPX/1/1" xmlns:xsi="http://www.w3.org/2001/XMLSchema-instance"><metadata><name>青大石澗</name><desc></desc></metadata><trk><trkseg><trkpt lat="22.426740331594182" lon="113.94290699107034" /><trkpt lat="22.42670378125" lon="113.94286279638672" /><trkpt lat="22.42646178125" lon="113.94294979638671" /><trkpt lat="22.42628878125" lon="113.94318979638672" /><trkpt lat="22.42619978125" lon="113.94318079638671" /><trkpt lat="22.42538178125" lon="113.94265479638672" /><trkpt lat="22.42503778125" lon="113.94249079638672" /><trkpt lat="22.42477478125" lon="113.94228079638673" /><trkpt lat="22.42475178125" lon="113.94227879638672" /><trkpt lat="22.42468478125" lon="113.94233779638672" /><trkpt lat="22.42465678125" lon="113.94234579638672" /><trkpt lat="22.42448478125" lon="113.94228579638671" /><trkpt lat="22.42439578125" lon="113.94227579638672" /><trkpt lat="22.42430778125" lon="113.94223679638672" /><trkpt lat="22.42425878125" lon="113.94223879638672" /><trkpt lat="22.42420678125" lon="113.94224779638672" /><trkpt lat="22.42408078125" lon="113.94221579638672" /><trkpt lat="22.42398378125" lon="113.94217479638672" /><trkpt lat="22.42387978125" lon="113.94208179638672" /><trkpt lat="22.42377278125" lon="113.94200879638672" /><trkpt lat="22.42368178125" lon="113.94191879638672" /><trkpt lat="22.42344778125" lon="113.94180279638672" /><trkpt lat="22.42333578125" lon="113.94169479638671" /><trkpt lat="22.42315278125" lon="113.94157479638672" /><trkpt lat="22.42309878125" lon="113.94157279638672" /><trkpt lat="22.42306478125" lon="113.94158079638672" /><trkpt lat="22.42302278125" lon="113.94158979638672" /><trkpt lat="22.42295078125" lon="113.94158479638672" /><trkpt lat="22.42289878125" lon="113.94156179638672" /><trkpt lat="22.42284878125" lon="113.94148779638672" /><trkpt lat="22.42279878125" lon="113.94137679638672" /><trkpt lat="22.42277078125" lon="113.94135779638673" /><trkpt lat="22.42270978125" lon="113.94133579638672" /><trkpt lat="22.42267678125" lon="113.94131179638671" /><trkpt lat="22.42264478125" lon="113.94124279638672" /><trkpt lat="22.42263678125" lon="113.94119979638671" /><trkpt lat="22.42256278125" lon="113.94113979638672" /><trkpt lat="22.42230178125" lon="113.94078779638672" /><trkpt lat="22.42227878125" lon="113.94077979638672" /><trkpt lat="22.42222278125" lon="113.94078079638672" /><trkpt lat="22.42218878125" lon="113.94074679638672" /><trkpt lat="22.42214778125" lon="113.94064179638671" /><trkpt lat="22.42211278125" lon="113.94057779638672" /><trkpt lat="22.42207378125" lon="113.94052679638672" /><trkpt lat="22.42187678125" lon="113.94034279638672" /><trkpt lat="22.42183978125" lon="113.94027079638671" /><trkpt lat="22.42183178125" lon="113.94020179638672" /><trkpt lat="22.42181478125" lon="113.94011579638672" /><trkpt lat="22.42178478125" lon="113.94005979638672" /><trkpt lat="22.42171678125" lon="113.94001779638671" /><trkpt lat="22.42160678125" lon="113.93992479638672" /><trkpt lat="22.42145078125" lon="113.93982479638672" /><trkpt lat="22.42141278125" lon="113.93980679638672" /><trkpt lat="22.42129478125" lon="113.93979079638672" /><trkpt lat="22.42123878125" lon="113.93978279638672" /><trkpt lat="22.42105878125" lon="113.93975779638671" /><trkpt lat="22.42100978125" lon="113.93973479638672" /><trkpt lat="22.42090178125" lon="113.93963079638672" /><trkpt lat="22.42076878125" lon="113.93953679638672" /><trkpt lat="22.42079178125" lon="113.93941579638673" /><trkpt lat="22.42067778125" lon="113.93932079638672" /><trkpt lat="22.42063478125" lon="113.93930279638671" /><trkpt lat="22.42059678125" lon="113.93930079638672" /><trkpt lat="22.42051978125" lon="113.93931679638672" /><trkpt lat="22.42041778125" lon="113.93935279638671" /><trkpt lat="22.42035778125" lon="113.93936779638672" /><trkpt lat="22.42030578125" lon="113.93932879638672" /><trkpt lat="22.42027378125" lon="113.93926779638672" /><trkpt lat="22.42024378125" lon="113.93923179638672" /><trkpt lat="22.42021378125" lon="113.93920979638672" /><trkpt lat="22.42015778125" lon="113.93917079638672" /><trkpt lat="22.42002478125" lon="113.93915379638672" /><trkpt lat="22.41982578125" lon="113.93911579638672" /><trkpt lat="22.41962578125" lon="113.93906379638672" /><trkpt lat="22.41900578125" lon="113.93905179638672" /><trkpt lat="22.41838078125" lon="113.93889079638672" /><trkpt lat="22.41797378125" lon="113.93877279638671" /><trkpt lat="22.41798503318203" lon="113.93844218326743" /><trkpt lat="22.41795578125" lon="113.93843979638672" /><trkpt lat="22.41765478125" lon="113.93841479638672" /><trkpt lat="22.41724578125" lon="113.93846479638673" /><trkpt lat="22.41681178125" lon="113.93841179638672" /><trkpt lat="22.41652078125" lon="113.93835479638672" /><trkpt lat="22.41612178125" lon="113.93825979638672" /><trkpt lat="22.41601078125" lon="113.93814079638672" /><trkpt lat="22.41591178125" lon="113.93808479638672" /><trkpt lat="22.41577278125" lon="113.93805579638672" /><trkpt lat="22.41569878125" lon="113.93806679638672" /><trkpt lat="22.41565478125" lon="113.93807779638672" /><trkpt lat="22.41553478125" lon="113.93811979638672" /><trkpt lat="22.41543878125" lon="113.93817979638672" /><trkpt lat="22.41534378125" lon="113.93832879638671" /><trkpt lat="22.41506578125" lon="113.93867279638673" /><trkpt lat="22.41476578125" lon="113.93884379638672" /><trkpt lat="22.41406378125" lon="113.93899379638673" /><trkpt lat="22.41351678125" lon="113.93930579638672" /><trkpt lat="22.41317978125" lon="113.93974479638672" /><trkpt lat="22.41298578125" lon="113.93994379638671" /><trkpt lat="22.41267478125" lon="113.94026179638672" /><trkpt lat="22.41239778125" lon="113.94043179638672" /><trkpt lat="22.41196078125" lon="113.94039879638672" /><trkpt lat="22.41141278125" lon="113.94022879638672" /><trkpt lat="22.41086378125" lon="113.94036579638671" /><trkpt lat="22.41022078125" lon="113.94041179638671" /><trkpt lat="22.40956278125" lon="113.94028079638672" /><trkpt lat="22.40929178125" lon="113.94049879638672" /><trkpt lat="22.40928678125" lon="113.94059279638672" /><trkpt lat="22.40923478125" lon="113.94066579638672" /><trkpt lat="22.40917278125" lon="113.94072179638673" /><trkpt lat="22.40906378125" lon="113.94073479638672" /><trkpt lat="22.40898678125" lon="113.94069779638671" /><trkpt lat="22.40888478125" lon="113.94076179638672" /><trkpt lat="22.40868178125" lon="113.94083679638672" /><trkpt lat="22.40845578125" lon="113.94100079638672" /><trkpt lat="22.40822778125" lon="113.94106979638671" /><trkpt lat="22.40823978125" lon="113.94146179638672" /><trkpt lat="22.40786878125" lon="113.94178379638672" /><trkpt lat="22.40773578125" lon="113.94222379638671" /><trkpt lat="22.40738878125" lon="113.94242779638672" /><trkpt lat="22.40725178125" lon="113.94245579638672" /><trkpt lat="22.40731378125" lon="113.94253679638672" /><trkpt lat="22.40721078125" lon="113.94252579638672" /><trkpt lat="22.40715678125" lon="113.94247479638672" /><trkpt lat="22.40670478125" lon="113.94256679638671" /><trkpt lat="22.40636678125" lon="113.94269579638672" /><trkpt lat="22.40594478125" lon="113.94267779638672" /><trkpt lat="22.40558378125" lon="113.94266379638673" /><trkpt lat="22.40509778125" lon="113.94270679638672" /><trkpt lat="22.40450278125" lon="113.94265279638672" /><trkpt lat="22.40384778125" lon="113.94256679638671" /><trkpt lat="22.40354978125" lon="113.94263079638672" /><trkpt lat="22.40333178125" lon="113.94304979638672" /><trkpt lat="22.40308378125" lon="113.94314579638672" /><trkpt lat="22.40282078125" lon="113.94310579638672" /><trkpt lat="22.40227478125" lon="113.94328079638672" /><trkpt lat="22.40209678125" lon="113.94327579638671" /><trkpt lat="22.40193778125" lon="113.94313079638673" /><trkpt lat="22.40170978125" lon="113.94264479638672" /><trkpt lat="22.40175378125" lon="113.94240879638672" /><trkpt lat="22.40161278125" lon="113.94219879638672" /><trkpt lat="22.40122478125" lon="113.94248679638672" /><trkpt lat="22.40073778125" lon="113.94275679638672" /><trkpt lat="22.40064463784216" lon="113.94273667677228" /><trkpt lat="22.40064578125" lon="113.94278179638673" /><trkpt lat="22.40068978125" lon="113.94281379638672" /><trkpt lat="22.40075678125" lon="113.94286379638672" /><trkpt lat="22.40080778125" lon="113.94288679638672" /><trkpt lat="22.40083078125" lon="113.94292479638672" /><trkpt lat="22.40087078125" lon="113.94294879638672" /><trkpt lat="22.40090378125" lon="113.94298779638672" /><trkpt lat="22.40094378125" lon="113.94298779638672" /><trkpt lat="22.40098178125" lon="113.94300779638672" /><trkpt lat="22.40100778125" lon="113.94303879638672" /><trkpt lat="22.40104078125" lon="113.94305279638672" /><trkpt lat="22.40108978125" lon="113.94307479638672" /><trkpt lat="22.40112778125" lon="113.94307479638672" /><trkpt lat="22.40118578125" lon="113.94308679638672" /><trkpt lat="22.40128878125" lon="113.94313879638672" /><trkpt lat="22.40140778125" lon="113.94314279638672" /><trkpt lat="22.40155978125" lon="113.94324979638672" /><trkpt lat="22.40161378125" lon="113.94325079638672" /><trkpt lat="22.40170378125" lon="113.94324079638672" /><trkpt lat="22.40182078125" lon="113.94319279638673" /><trkpt lat="22.40192478125" lon="113.94318879638672" /><trkpt lat="22.40195278125" lon="113.94326479638671" /><trkpt lat="22.40200578125" lon="113.94329479638672" /><trkpt lat="22.40207078125" lon="113.94331979638672" /><trkpt lat="22.40210378125" lon="113.94331779638672" /><trkpt lat="22.40214278125" lon="113.94331179638672" /><trkpt lat="22.40217578125" lon="113.94333079638672" /><trkpt lat="22.40220878125" lon="113.94334879638672" /><trkpt lat="22.40221278125" lon="113.94340679638672" /><trkpt lat="22.40221378125" lon="113.94341779638673" /><trkpt lat="22.40225078125" lon="113.94349679638673" /><trkpt lat="22.40225578125" lon="113.94355779638671" /><trkpt lat="22.40225378125" lon="113.94361079638672" /><trkpt lat="22.40226778125" lon="113.94364579638672" /><trkpt lat="22.40228678125" lon="113.94366179638672" /><trkpt lat="22.40241778125" lon="113.94368079638672" /><trkpt lat="22.40247878125" lon="113.94370879638672" /><trkpt lat="22.40251378125" lon="113.94375379638672" /><trkpt lat="22.40253978125" lon="113.94383779638672" /><trkpt lat="22.40257478125" lon="113.94385279638672" /><trkpt lat="22.40260178125" lon="113.94390179638673" /><trkpt lat="22.40263878125" lon="113.94396479638672" /><trkpt lat="22.40264278125" lon="113.94401479638672" /><trkpt lat="22.40263944824188" lon="113.94409451016703" /><trkpt lat="22.40265178125" lon="113.94407079638673" /><trkpt lat="22.40269778125" lon="113.94405479638672" /><trkpt lat="22.40279278125" lon="113.94422379638672" /><trkpt lat="22.40287378125" lon="113.94427879638671" /><trkpt lat="22.40295678125" lon="113.94457279638672" /><trkpt lat="22.40292878125" lon="113.94462579638672" /><trkpt lat="22.40297278125" lon="113.94478079638672" /><trkpt lat="22.40301778125" lon="113.94486679638672" /><trkpt lat="22.40303478125" lon="113.94498579638672" /><trkpt lat="22.40308978125" lon="113.94510279638672" /><trkpt lat="22.40312078125" lon="113.94519679638672" /><trkpt lat="22.40322778125" lon="113.94531379638671" /><trkpt lat="22.40326678125" lon="113.94541879638672" /><trkpt lat="22.40330278125" lon="113.94566379638673" /><trkpt lat="22.40338078125" lon="113.94587079638671" /><trkpt lat="22.40341378125" lon="113.94603879638672" /><trkpt lat="22.40347178125" lon="113.94640579638671" /><trkpt lat="22.40346878125" lon="113.94657979638671" /><trkpt lat="22.40341878125" lon="113.94672179638673" /><trkpt lat="22.40340378125" lon="113.94684679638672" /><trkpt lat="22.40345278125" lon="113.94697879638672" /><trkpt lat="22.40347478125" lon="113.94721179638672" /><trkpt lat="22.40346678125" lon="113.94732079638672" /><trkpt lat="22.40343878125" lon="113.94743779638672" /><trkpt lat="22.40346478125" lon="113.94753579638672" /><trkpt lat="22.40347578125" lon="113.94769479638671" /><trkpt lat="22.40339978125" lon="113.94782379638671" /><trkpt lat="22.40340278125" lon="113.94796779638672" /><trkpt lat="22.40345078125" lon="113.94819079638673" /><trkpt lat="22.40337678125" lon="113.94830479638672" /><trkpt lat="22.40340078125" lon="113.94850579638671" /><trkpt lat="22.40342478125" lon="113.94872179638672" /><trkpt lat="22.40346078125" lon="113.94892579638672" /><trkpt lat="22.40344178125" lon="113.94899379638672" /><trkpt lat="22.40349478125" lon="113.94910179638671" /><trkpt lat="22.40354578125" lon="113.94915579638672" /><trkpt lat="22.40362878125" lon="113.94939679638672" /><trkpt lat="22.40368478125" lon="113.94947279638671" /><trkpt lat="22.40371078125" lon="113.94957379638672" /><trkpt lat="22.40379178125" lon="113.94968779638671" /><trkpt lat="22.40380478125" lon="113.94977679638671" /><trkpt lat="22.40381878125" lon="113.94984779638672" /><trkpt lat="22.40383078125" lon="113.94988879638672" /><trkpt lat="22.40384078125" lon="113.94998279638672" /><trkpt lat="22.40383378125" lon="113.95003979638672" /><trkpt lat="22.40385078125" lon="113.95010579638672" /><trkpt lat="22.40396078125" lon="113.95026179638671" /><trkpt lat="22.40406578125" lon="113.95029979638672" /><trkpt lat="22.40428978125" lon="113.95053079638672" /><trkpt lat="22.40431778125" lon="113.95054879638671" /><trkpt lat="22.40461178125" lon="113.95054879638671" /><trkpt lat="22.40488578125" lon="113.95065079638673" /><trkpt lat="22.40501478125" lon="113.95101379638672" /><trkpt lat="22.40524878125" lon="113.95123079638672" /><trkpt lat="22.40530378125" lon="113.95123979638672" /><trkpt lat="22.40535978125" lon="113.95122979638671" /><trkpt lat="22.40536678125" lon="113.95127179638672" /><trkpt lat="22.40536678125" lon="113.95141579638671" /><trkpt lat="22.40540978125" lon="113.95152379638672" /><trkpt lat="22.40542578125" lon="113.95165379638672" /><trkpt lat="22.40547078125" lon="113.95179079638672" /><trkpt lat="22.40550178125" lon="113.95184979638672" /><trkpt lat="22.40557078125" lon="113.95190179638672" /><trkpt lat="22.40566978125" lon="113.95193879638671" /><trkpt lat="22.40572378125" lon="113.95195079638673" /><trkpt lat="22.40586378125" lon="113.95196979638672" /><trkpt lat="22.40590578125" lon="113.95194279638672" /><trkpt lat="22.40593778125" lon="113.95189779638672" /><trkpt lat="22.40606078125" lon="113.95180379638671" /><trkpt lat="22.40610178125" lon="113.95176879638672" /><trkpt lat="22.40615578125" lon="113.95178579638672" /><trkpt lat="22.40620678125" lon="113.95180579638672" /><trkpt lat="22.40624478125" lon="113.95183679638671" /><trkpt lat="22.40625778125" lon="113.95184779638672" /><trkpt lat="22.40629478125" lon="113.95190779638672" /><trkpt lat="22.40633078125" lon="113.95202479638672" /><trkpt lat="22.40636178125" lon="113.95209579638671" /><trkpt lat="22.40641978125" lon="113.95218079638671" /><trkpt lat="22.40652278125" lon="113.95227879638672" /><trkpt lat="22.40655478125" lon="113.95231279638672" /><trkpt lat="22.40657778125" lon="113.95237479638672" /><trkpt lat="22.40659478125" lon="113.95240579638671" /><trkpt lat="22.40666678125" lon="113.95245779638672" /><trkpt lat="22.40669378125" lon="113.95247579638672" /><trkpt lat="22.40672478125" lon="113.95249079638671" /><trkpt lat="22.40673378125" lon="113.95249079638671" /><trkpt lat="22.40674978125" lon="113.95249279638672" /><trkpt lat="22.40677478125" lon="113.95250679638671" /><trkpt lat="22.40679378125" lon="113.95252879638672" /><trkpt lat="22.40681578125" lon="113.95255579638672" /><trkpt lat="22.40682578125" lon="113.95258479638672" /><trkpt lat="22.40681078125" lon="113.95265579638672" /><trkpt lat="22.40678878125" lon="113.95273079638672" /><trkpt lat="22.40678478125" lon="113.95274379638671" /><trkpt lat="22.406779781250002" lon="113.95280279638672" /><trkpt lat="22.40678378125" lon="113.95284679638672" /><trkpt lat="22.406779781250002" lon="113.95289479638672" /><trkpt lat="22.40678978125" lon="113.95293279638672" /><trkpt lat="22.40682878125" lon="113.95298879638672" /><trkpt lat="22.40684578125" lon="113.95300979638672" /><trkpt lat="22.40688378125" lon="113.95303179638672" /><trkpt lat="22.40694578125" lon="113.95308779638673" /><trkpt lat="22.40692778125" lon="113.95317679638671" /><trkpt lat="22.40689978125" lon="113.95316979638672" /><trkpt lat="22.40667678125" lon="113.95313479638672" /><trkpt lat="22.40664378125" lon="113.95312079638671" /><trkpt lat="22.40662578125" lon="113.95309979638672" /><trkpt lat="22.40655478125" lon="113.95301679638672" /><trkpt lat="22.40644778125" lon="113.95289479638672" /><trkpt lat="22.40625478125" lon="113.95271779638672" /><trkpt lat="22.40610078125" lon="113.95258879638672" /><trkpt lat="22.40605178125" lon="113.95256879638671" /><trkpt lat="22.40602778125" lon="113.95256679638672" /><trkpt lat="22.40597978125" lon="113.95259479638672" /><trkpt lat="22.40596778125" lon="113.95262479638671" /><trkpt lat="22.40597278125" lon="113.95265379638671" /><trkpt lat="22.40598078125" lon="113.95267679638673" /><trkpt lat="22.40603478125" lon="113.95281879638672" /><trkpt lat="22.40608378125" lon="113.95296779638672" /><trkpt lat="22.40609678125" lon="113.95303879638672" /><trkpt lat="22.40608978125" lon="113.95309179638672" /><trkpt lat="22.40607478125" lon="113.95312079638671" /><trkpt lat="22.40605278125" lon="113.95313779638671" /><trkpt lat="22.40594278125" lon="113.95312079638671" /><trkpt lat="22.405794781250002" lon="113.95308679638671" /><trkpt lat="22.40575078125" lon="113.95308679638671" /><trkpt lat="22.40572278125" lon="113.95310679638672" /><trkpt lat="22.40549078125" lon="113.95349279638671" /><trkpt lat="22.40523078125" lon="113.95359879638671" /><trkpt lat="22.40501478125" lon="113.95364079638672" /><trkpt lat="22.40491278125" lon="113.95369279638672" /><trkpt lat="22.40487078125" lon="113.95382679638672" /><trkpt lat="22.40488678125" lon="113.95396079638672" /><trkpt lat="22.40496078125" lon="113.95412379638672" /><trkpt lat="22.40501578125" lon="113.95421579638672" /><trkpt lat="22.40506478125" lon="113.95437479638672" /><trkpt lat="22.40505778125" lon="113.95440379638671" /><trkpt lat="22.40502578125" lon="113.95443779638671" /><trkpt lat="22.40490178125" lon="113.95451579638672" /><trkpt lat="22.40480178125" lon="113.95473879638672" /><trkpt lat="22.40471378125" lon="113.95503879638672" /><trkpt lat="22.40459378125" lon="113.95526479638671" /><trkpt lat="22.40442278125" lon="113.95542679638672" /><trkpt lat="22.40421978125" lon="113.95557379638672" /><trkpt lat="22.40390878125" lon="113.95589679638672" /><trkpt lat="22.40379078125" lon="113.95603879638672" /><trkpt lat="22.40381678125" lon="113.95627679638672" /><trkpt lat="22.40393878125" lon="113.95642479638671" /><trkpt lat="22.40429278125" lon="113.95662579638672" /><trkpt lat="22.40443778125" lon="113.95714879638672" /><trkpt lat="22.40463378125" lon="113.95756879638672" /><trkpt lat="22.40463578125" lon="113.95775879638671" /><trkpt lat="22.40459778125" lon="113.95799879638672" /><trkpt lat="22.40458878125" lon="113.95818579638672" /><trkpt lat="22.40463978125" lon="113.95848079638672" /><trkpt lat="22.40463578125" lon="113.95899579638672" /><trkpt lat="22.40477778125" lon="113.95930379638672" /><trkpt lat="22.40491778125" lon="113.95949479638672" /><trkpt lat="22.40493478125" lon="113.95957679638671" /><trkpt lat="22.40493078125" lon="113.95985679638672" /><trkpt lat="22.40484878125" lon="113.95989179638671" /><trkpt lat="22.40476778125" lon="113.95994679638672" /><trkpt lat="22.40456778125" lon="113.96030279638671" /><trkpt lat="22.40439578125" lon="113.96055479638672" /><trkpt lat="22.40433178125" lon="113.96061579638672" /><trkpt lat="22.40409578125" lon="113.96083879638672" /><trkpt lat="22.40390978125" lon="113.96106579638672" /><trkpt lat="22.40371878125" lon="113.96134579638672" /><trkpt lat="22.40371578125" lon="113.96142279638671" /><trkpt lat="22.40374778125" lon="113.96147379638671" /><trkpt lat="22.40426978125" lon="113.96190479638672" /><trkpt lat="22.40538578125" lon="113.96295379638671" /><trkpt lat="22.40554578125" lon="113.96313279638672" /><trkpt lat="22.405567403726142" lon="113.96325254971043" /></trkseg></trk></gpx>