<?xml version='1.0' encoding='UTF-8' ?><gpx version="1.1" creator="HikingTrailHK" xsi:schemaLocation="http://www.topografix.com/GPX/1/1 http://www.topografix.com/GPX/1/1/gpx.xsd https://hikingtrailhk.appspot.com/xml/gpxextensions/v1 https://hikingtrailhk.appspot.com/xml/gpxextensions/v1/gpxextensions.xsd" xmlns="http://www.topografix.com/GPX/1/1" xmlns:h="https://hikingtrailhk.appspot.com/xml/gpxextensions/v1" xmlns:xsi="http://www.w3.org/2001/XMLSchema-instance"><metadata><name>青山 @ 2015-12-25</name><desc></desc><extensions><h:categoryid>scenery_route</h:categoryid></extensions></metadata><trk><trkseg><trkpt lat="22.390740560815395" lon="113.96726385059965" /><trkpt lat="22.39059078125" lon="113.96719479638672" /><trkpt lat="22.39060278125" lon="113.96716479638673" /><trkpt lat="22.39061878125" lon="113.96712279638672" /><trkpt lat="22.39064478125" lon="113.96707379638671" /><trkpt lat="22.39072578125" lon="113.96710979638672" /><trkpt lat="22.39074178125" lon="113.96706979638672" /><trkpt lat="22.39062978125" lon="113.96702279638671" /><trkpt lat="22.39063978125" lon="113.96699479638671" /><trkpt lat="22.39060278125" lon="113.96695579638671" /><trkpt lat="22.39061378125" lon="113.96690079638672" /><trkpt lat="22.39062478125" lon="113.96679079638672" /><trkpt lat="22.39068678125" lon="113.96664179638672" /><trkpt lat="22.39077578125" lon="113.96651479638672" /><trkpt lat="22.39079378125" lon="113.96637679638673" /><trkpt lat="22.39102578125" lon="113.96644379638671" /><trkpt lat="22.39117978125" lon="113.96644779638672" /><trkpt lat="22.39135178125" lon="113.96642179638671" /><trkpt lat="22.39164978125" lon="113.96630079638672" /><trkpt lat="22.39172978125" lon="113.96625179638671" /><trkpt lat="22.39166478125" lon="113.96614379638672" /><trkpt lat="22.39151178125" lon="113.96603179638672" /><trkpt lat="22.39143278125" lon="113.96582879638672" /><trkpt lat="22.39148578125" lon="113.96539579638672" /><trkpt lat="22.39144578125" lon="113.96479679638672" /><trkpt lat="22.39149578125" lon="113.96445979638672" /><trkpt lat="22.39149278125" lon="113.96434779638672" /><trkpt lat="22.39148878125" lon="113.96423179638671" /><trkpt lat="22.39181978125" lon="113.96323279638672" /><trkpt lat="22.39204678125" lon="113.96284079638671" /><trkpt lat="22.39219978125" lon="113.96228279638672" /><trkpt lat="22.39215678125" lon="113.96193879638672" /><trkpt lat="22.39204978125" lon="113.96162479638672" /><trkpt lat="22.39187378125" lon="113.96141479638672" /><trkpt lat="22.39177278125" lon="113.96135379638672" /><trkpt lat="22.39170778125" lon="113.96120079638672" /><trkpt lat="22.39172478125" lon="113.96089979638671" /><trkpt lat="22.39169278125" lon="113.96066379638673" /><trkpt lat="22.39163478125" lon="113.96040479638671" /><trkpt lat="22.39124478125" lon="113.95995579638672" /><trkpt lat="22.39120078125" lon="113.95986279638672" /><trkpt lat="22.39081278125" lon="113.95974779638672" /><trkpt lat="22.39066278125" lon="113.95973679638672" /><trkpt lat="22.39056278125" lon="113.95970279638672" /><trkpt lat="22.39050478125" lon="113.95969479638671" /><trkpt lat="22.39038178125" lon="113.95964779638672" /><trkpt lat="22.39018378125" lon="113.95954479638672" /><trkpt lat="22.39003278125" lon="113.95956479638672" /><trkpt lat="22.38994478125" lon="113.95955079638672" /><trkpt lat="22.38989278125" lon="113.95951479638671" /><trkpt lat="22.38986978125" lon="113.95947179638672" /><trkpt lat="22.38983178125" lon="113.95938079638672" /><trkpt lat="22.38988078125" lon="113.95933779638672" /><trkpt lat="22.38992878125" lon="113.95904279638673" /><trkpt lat="22.39004978125" lon="113.95877479638672" /><trkpt lat="22.39027778125" lon="113.95862279638672" /><trkpt lat="22.39042778125" lon="113.95844379638672" /><trkpt lat="22.39055478125" lon="113.95846279638671" /><trkpt lat="22.39060978125" lon="113.95827979638672" /><trkpt lat="22.39056778125" lon="113.95815379638672" /><trkpt lat="22.39041378125" lon="113.95794579638672" /><trkpt lat="22.39020578125" lon="113.95788179638672" /><trkpt lat="22.39029178125" lon="113.95776179638672" /><trkpt lat="22.39013878125" lon="113.95770379638672" /><trkpt lat="22.38984878125" lon="113.95731579638672" /><trkpt lat="22.38984078125" lon="113.95672579638672" /><trkpt lat="22.38982278125" lon="113.95657179638673" /><trkpt lat="22.38981178125" lon="113.95621279638672" /><trkpt lat="22.38990178125" lon="113.95601579638672" /><trkpt lat="22.38996178125" lon="113.95580179638672" /><trkpt lat="22.39005178125" lon="113.95581779638673" /><trkpt lat="22.38999178125" lon="113.95570479638671" /><trkpt lat="22.39010678125" lon="113.95567279638672" /><trkpt lat="22.39009478125" lon="113.95558679638673" /><trkpt lat="22.39002378125" lon="113.95551079638672" /><trkpt lat="22.390010781249998" lon="113.95546879638673" /><trkpt lat="22.38995678125" lon="113.95543479638673" /><trkpt lat="22.38995778125" lon="113.95538679638672" /><trkpt lat="22.38993378125" lon="113.95533979638672" /><trkpt lat="22.38992078125" lon="113.95521679638672" /><trkpt lat="22.38987678125" lon="113.95518879638672" /><trkpt lat="22.38986378125" lon="113.95506079638672" /><trkpt lat="22.38977378125" lon="113.95505979638672" /><trkpt lat="22.38967478125" lon="113.95511179638672" /><trkpt lat="22.38957278125" lon="113.95514279638672" /><trkpt lat="22.38951378125" lon="113.95513479638672" /><trkpt lat="22.38958178125" lon="113.95497179638672" /><trkpt lat="22.38958278125" lon="113.95490879638672" /><trkpt lat="22.38951478125" lon="113.95487579638672" /><trkpt lat="22.38950578125" lon="113.95473979638672" /><trkpt lat="22.38947378125" lon="113.95468479638672" /><trkpt lat="22.38940778125" lon="113.95467179638672" /><trkpt lat="22.38935278125" lon="113.95468079638673" /><trkpt lat="22.38931178125" lon="113.95467079638672" /><trkpt lat="22.38939278125" lon="113.95453279638672" /><trkpt lat="22.38939278125" lon="113.95442579638672" /><trkpt lat="22.38934078125" lon="113.95420379638672" /><trkpt lat="22.38927478125" lon="113.95408979638673" /><trkpt lat="22.38926078125" lon="113.95383679638672" /><trkpt lat="22.38921478125" lon="113.95376479638672" /><trkpt lat="22.38907278125" lon="113.95342779638672" /><trkpt lat="22.38899678125" lon="113.95314179638672" /><trkpt lat="22.38941278125" lon="113.95322379638672" /><trkpt lat="22.38950978125" lon="113.95323079638672" /><trkpt lat="22.38961278125" lon="113.95319679638672" /><trkpt lat="22.38974678125" lon="113.95313179638671" /><trkpt lat="22.39015478125" lon="113.95301479638673" /><trkpt lat="22.39025478125" lon="113.95300379638672" /><trkpt lat="22.39035678125" lon="113.95300679638672" /><trkpt lat="22.39047278125" lon="113.95298579638671" /><trkpt lat="22.39079878125" lon="113.95302879638672" /><trkpt lat="22.39091278125" lon="113.95313379638672" /><trkpt lat="22.39100278125" lon="113.95314279638671" /><trkpt lat="22.39110778125" lon="113.95320379638672" /><trkpt lat="22.39121978125" lon="113.95323779638672" /><trkpt lat="22.39128378125" lon="113.95340779638671" /><trkpt lat="22.39133178125" lon="113.95341579638672" /><trkpt lat="22.39145778125" lon="113.95328079638672" /><trkpt lat="22.39152378125" lon="113.95331079638672" /><trkpt lat="22.39160178125" lon="113.95337279638672" /><trkpt lat="22.39172578125" lon="113.95362579638672" /><trkpt lat="22.391821781250002" lon="113.95390679638672" /><trkpt lat="22.39186278125" lon="113.95395579638672" /><trkpt lat="22.39196278125" lon="113.95392979638672" /><trkpt lat="22.39209178125" lon="113.95387879638672" /><trkpt lat="22.39230478125" lon="113.95383479638672" /><trkpt lat="22.39244178125" lon="113.95381079638672" /><trkpt lat="22.39256378125" lon="113.95376079638672" /><trkpt lat="22.39265478125" lon="113.95366679638671" /><trkpt lat="22.39272578125" lon="113.95366579638672" /><trkpt lat="22.39274678125" lon="113.95375179638671" /><trkpt lat="22.39280978125" lon="113.95390679638672" /><trkpt lat="22.39280578125" lon="113.95396879638672" /><trkpt lat="22.39285778125" lon="113.95402579638672" /><trkpt lat="22.39291578125" lon="113.95402079638671" /><trkpt lat="22.39309878125" lon="113.95394579638672" /><trkpt lat="22.39329778125" lon="113.95408279638671" /><trkpt lat="22.39338978125" lon="113.95406879638672" /><trkpt lat="22.39349678125" lon="113.95397979638672" /><trkpt lat="22.39358978125" lon="113.95383979638672" /><trkpt lat="22.39383578125" lon="113.95378579638673" /><trkpt lat="22.39395178125" lon="113.95365579638671" /><trkpt lat="22.39406778125" lon="113.95356379638672" /><trkpt lat="22.39435778125" lon="113.95356679638672" /><trkpt lat="22.39468478125" lon="113.95365679638672" /><trkpt lat="22.39482278125" lon="113.95372379638673" /><trkpt lat="22.39491778125" lon="113.95375379638672" /><trkpt lat="22.39517178125" lon="113.95391579638672" /><trkpt lat="22.39527178125" lon="113.95400879638672" /><trkpt lat="22.39531478125" lon="113.95404379638671" /><trkpt lat="22.39536478125" lon="113.95408379638671" /><trkpt lat="22.39552578125" lon="113.95406879638672" /><trkpt lat="22.39583178125" lon="113.95389879638672" /><trkpt lat="22.39605578125" lon="113.95381379638673" /><trkpt lat="22.39632478125" lon="113.95361679638673" /><trkpt lat="22.39645378125" lon="113.95355179638672" /><trkpt lat="22.39658378125" lon="113.95350479638672" /><trkpt lat="22.39680978125" lon="113.95334179638672" /><trkpt lat="22.39712578125" lon="113.95326479638672" /><trkpt lat="22.39724478125" lon="113.95314379638671" /><trkpt lat="22.39746778125" lon="113.95307279638672" /><trkpt lat="22.39751778125" lon="113.95306879638672" /><trkpt lat="22.39774078125" lon="113.95293079638672" /><trkpt lat="22.39799578125" lon="113.95290279638672" /><trkpt lat="22.39825278125" lon="113.95298279638672" /><trkpt lat="22.39833078125" lon="113.95297279638672" /><trkpt lat="22.39848878125" lon="113.95297279638672" /><trkpt lat="22.39861378125" lon="113.95292279638672" /><trkpt lat="22.39874478125" lon="113.95288079638672" /><trkpt lat="22.39904078125" lon="113.95311479638671" /><trkpt lat="22.39926578125" lon="113.95304079638672" /><trkpt lat="22.39945878125" lon="113.95309279638671" /><trkpt lat="22.39952878125" lon="113.95295379638672" /><trkpt lat="22.39962978125" lon="113.95290179638671" /><trkpt lat="22.39972878125" lon="113.95283479638672" /><trkpt lat="22.39991478125" lon="113.95278279638671" /><trkpt lat="22.40001978125" lon="113.95260279638671" /><trkpt lat="22.40012178125" lon="113.95249479638672" /><trkpt lat="22.40023678125" lon="113.95226079638672" /><trkpt lat="22.40029578125" lon="113.95214279638672" /><trkpt lat="22.40033178125" lon="113.95205979638672" /><trkpt lat="22.40035578125" lon="113.95194179638672" /><trkpt lat="22.40047978125" lon="113.95189979638671" /><trkpt lat="22.40067778125" lon="113.95166479638672" /><trkpt lat="22.40075878125" lon="113.95137879638672" /><trkpt lat="22.40084578125" lon="113.95133379638672" /><trkpt lat="22.40094178125" lon="113.95115679638671" /><trkpt lat="22.40101978125" lon="113.95115579638671" /><trkpt lat="22.40112578125" lon="113.95105079638672" /><trkpt lat="22.40126578125" lon="113.95097979638672" /><trkpt lat="22.40129278125" lon="113.95089679638671" /><trkpt lat="22.40142978125" lon="113.95073779638672" /><trkpt lat="22.40154478125" lon="113.95069379638672" /><trkpt lat="22.40160878125" lon="113.95063879638671" /><trkpt lat="22.40169478125" lon="113.95061279638672" /><trkpt lat="22.40174278125" lon="113.95068779638672" /><trkpt lat="22.40176078125" lon="113.95074579638671" /><trkpt lat="22.40188078125" lon="113.95071379638672" /><trkpt lat="22.40206678125" lon="113.95076579638672" /><trkpt lat="22.40215778125" lon="113.95078879638672" /><trkpt lat="22.40222178125" lon="113.95089679638671" /><trkpt lat="22.40236378125" lon="113.95102479638672" /><trkpt lat="22.40240378125" lon="113.95102979638672" /><trkpt lat="22.40254478125" lon="113.95118479638671" /><trkpt lat="22.40264178125" lon="113.95120079638671" /><trkpt lat="22.40272478125" lon="113.95124179638673" /><trkpt lat="22.40297278125" lon="113.95127279638672" /><trkpt lat="22.40305178125" lon="113.95128979638672" /><trkpt lat="22.40313978125" lon="113.95123779638672" /><trkpt lat="22.40322578125" lon="113.95125079638672" /><trkpt lat="22.40327878125" lon="113.95135579638672" /><trkpt lat="22.40334978125" lon="113.95139579638672" /><trkpt lat="22.40348378125" lon="113.95142179638673" /><trkpt lat="22.40359478125" lon="113.95136979638671" /><trkpt lat="22.40375078125" lon="113.95138479638672" /><trkpt lat="22.40384878125" lon="113.95131979638671" /><trkpt lat="22.40399378125" lon="113.95126979638673" /><trkpt lat="22.40428778125" lon="113.95130279638671" /><trkpt lat="22.40452478125" lon="113.95130379638672" /><trkpt lat="22.40481578125" lon="113.95160379638672" /><trkpt lat="22.40498878125" lon="113.95174579638672" /><trkpt lat="22.40510178125" lon="113.95174779638671" /><trkpt lat="22.40519978125" lon="113.95186179638672" /><trkpt lat="22.40539478125" lon="113.95198779638672" /><trkpt lat="22.40571978125" lon="113.95202379638671" /><trkpt lat="22.40585878125" lon="113.95196679638671" /><trkpt lat="22.40597278125" lon="113.95205079638671" /><trkpt lat="22.40596378125" lon="113.95216479638673" /><trkpt lat="22.40600178125" lon="113.95231879638672" /><trkpt lat="22.40597978125" lon="113.95246179638671" /><trkpt lat="22.40598278125" lon="113.95258479638672" /><trkpt lat="22.40602778125" lon="113.95256679638672" /><trkpt lat="22.40605178125" lon="113.95256879638671" /><trkpt lat="22.40610078125" lon="113.95258879638672" /><trkpt lat="22.40625729614528" lon="113.952720102789" /><trkpt lat="22.406274931886728" lon="113.95277899996641" /><trkpt lat="22.406232706822976" lon="113.9527929522336" /><trkpt lat="22.406209219456784" lon="113.95275741742522" /><trkpt lat="22.406229479791804" lon="113.95269660228261" /><trkpt lat="22.40610078125" lon="113.95258879638672" /><trkpt lat="22.40605178125" lon="113.95256879638671" /><trkpt lat="22.40602778125" lon="113.95256679638672" /><trkpt lat="22.40598278125" lon="113.95258479638672" /><trkpt lat="22.40596778125" lon="113.95262479638671" /><trkpt lat="22.40597278125" lon="113.95265379638671" /><trkpt lat="22.40598078125" lon="113.95267679638673" /><trkpt lat="22.40603478125" lon="113.95281879638672" /><trkpt lat="22.40608378125" lon="113.95296779638672" /><trkpt lat="22.40609678125" lon="113.95303879638672" /><trkpt lat="22.40608978125" lon="113.95309179638672" /><trkpt lat="22.40607478125" lon="113.95312079638671" /><trkpt lat="22.40605278125" lon="113.95313779638671" /><trkpt lat="22.40594278125" lon="113.95312079638671" /><trkpt lat="22.405794781250002" lon="113.95308679638671" /><trkpt lat="22.40575078125" lon="113.95308679638671" /><trkpt lat="22.40572278125" lon="113.95310679638672" /><trkpt lat="22.40549078125" lon="113.95349279638671" /><trkpt lat="22.40523078125" lon="113.95359879638671" /><trkpt lat="22.40501478125" lon="113.95364079638672" /><trkpt lat="22.40491278125" lon="113.95369279638672" /><trkpt lat="22.40487078125" lon="113.95382679638672" /><trkpt lat="22.40488678125" lon="113.95396079638672" /><trkpt lat="22.40496078125" lon="113.95412379638672" /><trkpt lat="22.40501578125" lon="113.95421579638672" /><trkpt lat="22.40506478125" lon="113.95437479638672" /><trkpt lat="22.40502578125" lon="113.95443779638671" /><trkpt lat="22.40490178125" lon="113.95451579638672" /><trkpt lat="22.40480178125" lon="113.95473879638672" /><trkpt lat="22.40471378125" lon="113.95503879638672" /><trkpt lat="22.40459378125" lon="113.95526479638671" /><trkpt lat="22.40442278125" lon="113.95542679638672" /><trkpt lat="22.40421978125" lon="113.95557379638672" /><trkpt lat="22.40390878125" lon="113.95589679638672" /><trkpt lat="22.40379078125" lon="113.95603879638672" /><trkpt lat="22.40381678125" lon="113.95627679638672" /><trkpt lat="22.40393878125" lon="113.95642479638671" /><trkpt lat="22.40429278125" lon="113.95662579638672" /><trkpt lat="22.40443778125" lon="113.95714879638672" /><trkpt lat="22.40463378125" lon="113.95756879638672" /><trkpt lat="22.40463578125" lon="113.95775879638671" /><trkpt lat="22.40459778125" lon="113.95799879638672" /><trkpt lat="22.40458878125" lon="113.95818579638672" /><trkpt lat="22.40463978125" lon="113.95848079638672" /><trkpt lat="22.40463578125" lon="113.95899579638672" /><trkpt lat="22.40477778125" lon="113.95930379638672" /><trkpt lat="22.40491778125" lon="113.95949479638672" /><trkpt lat="22.40493478125" lon="113.95957679638671" /><trkpt lat="22.40493078125" lon="113.95985679638672" /><trkpt lat="22.40484878125" lon="113.95989179638671" /><trkpt lat="22.40476778125" lon="113.95994679638672" /><trkpt lat="22.40456778125" lon="113.96030279638671" /><trkpt lat="22.40439578125" lon="113.96055479638672" /><trkpt lat="22.40433178125" lon="113.96061579638672" /><trkpt lat="22.40409578125" lon="113.96083879638672" /><trkpt lat="22.40390978125" lon="113.96106579638672" /><trkpt lat="22.40371878125" lon="113.96134579638672" /><trkpt lat="22.40371578125" lon="113.96142279638671" /><trkpt lat="22.40374778125" lon="113.96147379638671" /><trkpt lat="22.40426978125" lon="113.96190479638672" /><trkpt lat="22.40538578125" lon="113.96295379638671" /><trkpt lat="22.40554578125" lon="113.96313279638672" /><trkpt lat="22.40558478125" lon="113.96334879638673" /><trkpt lat="22.40560178125" lon="113.96340679638672" /><trkpt lat="22.40563278125" lon="113.96348579638672" /><trkpt lat="22.40570478125" lon="113.96344479638672" /><trkpt lat="22.405794781250002" lon="113.96340879638672" /><trkpt lat="22.40589178125" lon="113.96338979638672" /><trkpt lat="22.40602678125" lon="113.96340279638672" /><trkpt lat="22.40611178125" lon="113.96343779638671" /><trkpt lat="22.40619978125" lon="113.96351079638671" /><trkpt lat="22.40629778125" lon="113.96360279638672" /><trkpt lat="22.40639178125" lon="113.96350079638673" /><trkpt lat="22.40640878125" lon="113.96348179638672" /><trkpt lat="22.40644078125" lon="113.96344879638671" /><trkpt lat="22.40646578125" lon="113.96342279638672" /><trkpt lat="22.40655178125" lon="113.96350379638672" /></trkseg></trk></gpx>