<?xml version='1.0' encoding='UTF-8' ?><gpx version="1.1" creator="HikingTrailHK" xsi:schemaLocation="http://www.topografix.com/GPX/1/1 http://www.topografix.com/GPX/1/1/gpx.xsd" xmlns="http://www.topografix.com/GPX/1/1" xmlns:xsi="http://www.w3.org/2001/XMLSchema-instance"><metadata><name>青蛙石 @ 2023-10-21</name><desc></desc></metadata><trk><trkseg><trkpt lat="22.407598938476053" lon="114.22257494778414" /><trkpt lat="22.40752678125" lon="114.22270279638671" /><trkpt lat="22.40733178125" lon="114.22305679638671" /><trkpt lat="22.40735678125" lon="114.22307479638671" /><trkpt lat="22.407446781250002" lon="114.22314379638672" /><trkpt lat="22.40747578125" lon="114.22316479638671" /><trkpt lat="22.40750278125" lon="114.22312779638672" /><trkpt lat="22.40766978125" lon="114.22325079638672" /><trkpt lat="22.40774078125" lon="114.22331179638672" /><trkpt lat="22.40781878125" lon="114.22340979638672" /><trkpt lat="22.40788778125" lon="114.22350379638672" /><trkpt lat="22.40812778125" lon="114.22387379638671" /><trkpt lat="22.40808978125" lon="114.22392579638672" /><trkpt lat="22.40808978125" lon="114.22403479638672" /><trkpt lat="22.40815578125" lon="114.22433679638672" /><trkpt lat="22.40829878125" lon="114.22452679638671" /><trkpt lat="22.40842078125" lon="114.22470979638672" /><trkpt lat="22.40845178125" lon="114.22488379638672" /><trkpt lat="22.408272781249998" lon="114.22541579638671" /><trkpt lat="22.40829178125" lon="114.22562079638672" /><trkpt lat="22.40844578125" lon="114.22585979638671" /><trkpt lat="22.40855978125" lon="114.22594079638672" /><trkpt lat="22.40863978125" lon="114.22606279638671" /><trkpt lat="22.40867578125" lon="114.22619579638672" /><trkpt lat="22.40879078125" lon="114.22625679638672" /><trkpt lat="22.40882978125" lon="114.22644479638672" /><trkpt lat="22.40895278125" lon="114.22660079638672" /><trkpt lat="22.40908178125" lon="114.22689079638671" /><trkpt lat="22.40915478125" lon="114.22694679638671" /><trkpt lat="22.40931178125" lon="114.22704979638672" /><trkpt lat="22.40941478125" lon="114.22718479638672" /><trkpt lat="22.40950078125" lon="114.22727679638672" /><trkpt lat="22.40955178125" lon="114.22738479638672" /><trkpt lat="22.40957178125" lon="114.22747679638672" /><trkpt lat="22.40956178125" lon="114.22756879638672" /><trkpt lat="22.40963178125" lon="114.22764879638672" /><trkpt lat="22.40970878125" lon="114.22769979638672" /><trkpt lat="22.40975778125" lon="114.22776879638671" /><trkpt lat="22.40977978125" lon="114.22787779638672" /><trkpt lat="22.40982978125" lon="114.22797279638672" /><trkpt lat="22.40980178125" lon="114.22816779638671" /><trkpt lat="22.40975078125" lon="114.22825379638672" /><trkpt lat="22.40976778125" lon="114.22845779638672" /><trkpt lat="22.40972478125" lon="114.22854579638671" /><trkpt lat="22.40956778125" lon="114.22865579638672" /><trkpt lat="22.40960178125" lon="114.22872279638672" /><trkpt lat="22.41002878125" lon="114.22914779638671" /><trkpt lat="22.41017778125" lon="114.22958579638671" /><trkpt lat="22.41048678125" lon="114.23000579638672" /><trkpt lat="22.41061878125" lon="114.23007579638671" /><trkpt lat="22.41049178125" lon="114.23023779638672" /><trkpt lat="22.41053778125" lon="114.23041079638672" /><trkpt lat="22.41042378125" lon="114.23072479638672" /><trkpt lat="22.41044778125" lon="114.23093779638671" /><trkpt lat="22.41036978125" lon="114.23129379638672" /><trkpt lat="22.41047378125" lon="114.23179979638672" /><trkpt lat="22.41039578125" lon="114.23205479638672" /><trkpt lat="22.41039678125" lon="114.23235179638672" /><trkpt lat="22.41034578125" lon="114.23248079638672" /><trkpt lat="22.41021178125" lon="114.23242679638672" /><trkpt lat="22.41019378125" lon="114.23253379638672" /><trkpt lat="22.41001678125" lon="114.23268879638673" /><trkpt lat="22.40990978125" lon="114.23266879638672" /><trkpt lat="22.40980078125" lon="114.23275379638672" /><trkpt lat="22.40968678125" lon="114.23303879638672" /><trkpt lat="22.40944178125" lon="114.23340279638671" /><trkpt lat="22.40925178125" lon="114.23353779638671" /><trkpt lat="22.40911678125" lon="114.23347879638672" /><trkpt lat="22.40904578125" lon="114.23351479638671" /><trkpt lat="22.40897978125" lon="114.23341179638672" /><trkpt lat="22.40895978125" lon="114.23315879638672" /><trkpt lat="22.40901978125" lon="114.23309379638673" /><trkpt lat="22.40892378125" lon="114.23294979638672" /><trkpt lat="22.40886378125" lon="114.23289979638672" /><trkpt lat="22.40883678125" lon="114.23260979638673" /><trkpt lat="22.40878478125" lon="114.23258679638671" /><trkpt lat="22.40877178125" lon="114.23233179638672" /><trkpt lat="22.40869478125" lon="114.23238979638671" /><trkpt lat="22.408666781249998" lon="114.23232679638672" /><trkpt lat="22.40869878125" lon="114.23202479638672" /><trkpt lat="22.40855178125" lon="114.23196479638672" /><trkpt lat="22.40851178125" lon="114.23207879638672" /><trkpt lat="22.40820678125" lon="114.23217979638672" /><trkpt lat="22.40813178125" lon="114.23229379638671" /><trkpt lat="22.40798178125" lon="114.23225179638672" /><trkpt lat="22.40798189484775" lon="114.23235318594226" /><trkpt lat="22.40807223031908" lon="114.23237456770278" /><trkpt lat="22.40813178125" lon="114.23229379638671" /><trkpt lat="22.40820678125" lon="114.23217979638672" /><trkpt lat="22.40851178125" lon="114.23207879638672" /><trkpt lat="22.40855178125" lon="114.23196479638672" /><trkpt lat="22.40869878125" lon="114.23202479638672" /><trkpt lat="22.408666781249998" lon="114.23232679638672" /><trkpt lat="22.40869478125" lon="114.23238979638671" /><trkpt lat="22.40877178125" lon="114.23233179638672" /><trkpt lat="22.40878478125" lon="114.23258679638671" /><trkpt lat="22.40883678125" lon="114.23260979638673" /><trkpt lat="22.40886378125" lon="114.23289979638672" /><trkpt lat="22.40892378125" lon="114.23294979638672" /><trkpt lat="22.40901978125" lon="114.23309379638673" /><trkpt lat="22.40895978125" lon="114.23315879638672" /><trkpt lat="22.40897978125" lon="114.23341179638672" /><trkpt lat="22.40904578125" lon="114.23351479638671" /><trkpt lat="22.40895478125" lon="114.23392679638673" /><trkpt lat="22.40876678125" lon="114.23411579638672" /><trkpt lat="22.40874778125" lon="114.23417579638672" /><trkpt lat="22.40870078125" lon="114.23431779638672" /><trkpt lat="22.40856778125" lon="114.23450679638673" /><trkpt lat="22.40848778125" lon="114.23508979638672" /><trkpt lat="22.40847978125" lon="114.23549079638671" /><trkpt lat="22.40828478125" lon="114.23566079638672" /><trkpt lat="22.40823978125" lon="114.23572379638672" /><trkpt lat="22.40823978125" lon="114.23582279638671" /><trkpt lat="22.40823378125" lon="114.23583879638672" /><trkpt lat="22.40822378125" lon="114.23584779638672" /><trkpt lat="22.40814278125" lon="114.23588379638672" /><trkpt lat="22.40808978125" lon="114.23596479638672" /><trkpt lat="22.40803578125" lon="114.23602779638672" /><trkpt lat="22.40800178125" lon="114.23608579638672" /><trkpt lat="22.40801078125" lon="114.23612479638672" /><trkpt lat="22.40802978125" lon="114.23616379638672" /><trkpt lat="22.40805878125" lon="114.23621479638672" /><trkpt lat="22.40806578125" lon="114.23626579638672" /><trkpt lat="22.40803378125" lon="114.23637879638672" /><trkpt lat="22.40803878125" lon="114.23641979638671" /><trkpt lat="22.40801778125" lon="114.23655179638672" /><trkpt lat="22.40797278125" lon="114.23659479638673" /><trkpt lat="22.40797378125" lon="114.23664279638672" /><trkpt lat="22.40809778125" lon="114.23677379638671" /><trkpt lat="22.40814078125" lon="114.23683079638671" /><trkpt lat="22.40811178125" lon="114.23684079638672" /><trkpt lat="22.40807278125" lon="114.23685279638671" /><trkpt lat="22.40804878125" lon="114.23685679638672" /><trkpt lat="22.40797678125" lon="114.23685779638672" /><trkpt lat="22.40789078125" lon="114.23686579638672" /><trkpt lat="22.40779978125" lon="114.23688179638673" /><trkpt lat="22.40766778125" lon="114.23692379638672" /><trkpt lat="22.40757878125" lon="114.23695879638672" /><trkpt lat="22.40753278125" lon="114.23697679638671" /><trkpt lat="22.40749678125" lon="114.23699179638672" /><trkpt lat="22.40741178125" lon="114.23703879638671" /><trkpt lat="22.40702978125" lon="114.23731579638672" /><trkpt lat="22.40668478125" lon="114.23753879638672" /><trkpt lat="22.40654878125" lon="114.23762179638672" /><trkpt lat="22.40640078125" lon="114.23774779638671" /><trkpt lat="22.40617778125" lon="114.23792579638672" /><trkpt lat="22.40588578125" lon="114.23804779638672" /><trkpt lat="22.40571478125" lon="114.23812279638672" /><trkpt lat="22.40566578125" lon="114.23815479638672" /><trkpt lat="22.40562478125" lon="114.23819679638672" /><trkpt lat="22.40560478125" lon="114.23823779638671" /><trkpt lat="22.40553878125" lon="114.23847379638671" /><trkpt lat="22.40542978125" lon="114.23891179638672" /><trkpt lat="22.40539278125" lon="114.23902679638672" /><trkpt lat="22.40532878125" lon="114.23915179638672" /><trkpt lat="22.40526878125" lon="114.23923079638672" /><trkpt lat="22.40517778125" lon="114.23932479638673" /><trkpt lat="22.40510678125" lon="114.23938179638672" /><trkpt lat="22.40505778125" lon="114.23941679638672" /><trkpt lat="22.40501078125" lon="114.23944179638671" /><trkpt lat="22.40493378125" lon="114.23946179638672" /><trkpt lat="22.40485378125" lon="114.23947779638672" /><trkpt lat="22.40459978125" lon="114.23946779638672" /><trkpt lat="22.40455178125" lon="114.23947079638671" /><trkpt lat="22.40451378125" lon="114.23947979638672" /><trkpt lat="22.40446178125" lon="114.23950379638671" /><trkpt lat="22.40437178125" lon="114.23957879638672" /><trkpt lat="22.40433478125" lon="114.23960379638672" /><trkpt lat="22.40430178125" lon="114.23961879638672" /><trkpt lat="22.40417878125" lon="114.23963279638672" /><trkpt lat="22.40405378125" lon="114.23966879638672" /><trkpt lat="22.40401178125" lon="114.23968479638671" /><trkpt lat="22.40395878125" lon="114.23972679638672" /><trkpt lat="22.40391378125" lon="114.23977579638672" /><trkpt lat="22.40387178125" lon="114.23982779638672" /><trkpt lat="22.40380678125" lon="114.23993279638673" /><trkpt lat="22.40378178125" lon="114.23999079638672" /><trkpt lat="22.40376178125" lon="114.24004579638672" /><trkpt lat="22.40370378125" lon="114.24026779638672" /><trkpt lat="22.40365278125" lon="114.24042779638671" /><trkpt lat="22.40363878125" lon="114.24053579638672" /><trkpt lat="22.40360978125" lon="114.24133479638672" /><trkpt lat="22.40361078125" lon="114.24142579638672" /><trkpt lat="22.40361478125" lon="114.24151979638673" /><trkpt lat="22.40363878125" lon="114.24179679638672" /><trkpt lat="22.40364878125" lon="114.24193079638673" /><trkpt lat="22.40364578125" lon="114.24196379638671" /><trkpt lat="22.40363978125" lon="114.24199479638672" /><trkpt lat="22.40362578125" lon="114.24204379638672" /><trkpt lat="22.40360478125" lon="114.24208979638672" /><trkpt lat="22.40359078125" lon="114.24211079638673" /><trkpt lat="22.40353278125" lon="114.24218879638671" /><trkpt lat="22.40350878125" lon="114.24222579638672" /><trkpt lat="22.40348778125" lon="114.24226479638672" /><trkpt lat="22.40346978125" lon="114.24231779638671" /><trkpt lat="22.40345478125" lon="114.24237779638672" /><trkpt lat="22.40343278125" lon="114.24251079638672" /><trkpt lat="22.40341578125" lon="114.24264579638673" /><trkpt lat="22.40340078125" lon="114.24277879638672" /><trkpt lat="22.40315978125" lon="114.24282579638673" /><trkpt lat="22.40310978125" lon="114.24284079638672" /><trkpt lat="22.40306078125" lon="114.24285679638672" /><trkpt lat="22.40302478125" lon="114.24287179638672" /><trkpt lat="22.40299078125" lon="114.24289279638671" /><trkpt lat="22.40283278125" lon="114.24301379638672" /><trkpt lat="22.40277478125" lon="114.24305879638672" /><trkpt lat="22.40272178125" lon="114.24309279638672" /><trkpt lat="22.40266478125" lon="114.24312379638671" /><trkpt lat="22.40242478125" lon="114.24323479638672" /><trkpt lat="22.40231478125" lon="114.24329279638673" /><trkpt lat="22.40224378125" lon="114.24333179638671" /><trkpt lat="22.40218778125" lon="114.24336979638672" /><trkpt lat="22.40210678125" lon="114.24343579638672" /><trkpt lat="22.40203578125" lon="114.24349079638672" /><trkpt lat="22.40199478125" lon="114.24352179638672" /><trkpt lat="22.40190478125" lon="114.24357479638672" /><trkpt lat="22.40179278125" lon="114.24363779638672" /><trkpt lat="22.40177778125" lon="114.24362279638672" /><trkpt lat="22.40172378125" lon="114.24362979638671" /><trkpt lat="22.40167578125" lon="114.24364179638673" /><trkpt lat="22.40162578125" lon="114.24358379638672" /><trkpt lat="22.40160678125" lon="114.24354979638672" /><trkpt lat="22.40155178125" lon="114.24356279638671" /><trkpt lat="22.40152878125" lon="114.24357479638672" /><trkpt lat="22.40151178125" lon="114.24356579638672" /><trkpt lat="22.40149978125" lon="114.24354379638672" /><trkpt lat="22.40149478125" lon="114.24351879638672" /><trkpt lat="22.40146978125" lon="114.24348979638673" /><trkpt lat="22.40147578125" lon="114.24340379638672" /><trkpt lat="22.40146578125" lon="114.24340179638672" /><trkpt lat="22.40146678125" lon="114.24335979638671" /><trkpt lat="22.40148378125" lon="114.24331279638672" /><trkpt lat="22.40149078125" lon="114.24329279638673" /><trkpt lat="22.40151878125" lon="114.24324279638672" /><trkpt lat="22.40152378125" lon="114.24323179638672" /><trkpt lat="22.40152478125" lon="114.24322279638672" /><trkpt lat="22.40152778125" lon="114.24318379638672" /><trkpt lat="22.401520160342834" lon="114.24312394356656" /><trkpt lat="22.40140878125" lon="114.24313579638672" /><trkpt lat="22.40138378125" lon="114.24313179638672" /><trkpt lat="22.40133778125" lon="114.24311579638672" /><trkpt lat="22.40132078125" lon="114.24302479638672" /><trkpt lat="22.40128378125" lon="114.24301779638672" /><trkpt lat="22.40123378125" lon="114.24295079638672" /><trkpt lat="22.401262832865" lon="114.24288037126394" /><trkpt lat="22.401250483022608" lon="114.24281725511759" /><trkpt lat="22.401256568876022" lon="114.24269569094537" /><trkpt lat="22.401230618337692" lon="114.24262116346745" /><trkpt lat="22.4012805528764" lon="114.24260935738545" /><trkpt lat="22.40130919298454" lon="114.24266144242631" /><trkpt lat="22.401311154718982" lon="114.24272936511039" /><trkpt lat="22.401298626890537" lon="114.24278367796109" /><trkpt lat="22.40129692215143" lon="114.24278376884524" /><trkpt lat="22.40129683714197" lon="114.24278561184042" /><trkpt lat="22.401295137055783" lon="114.24278570461183" /><trkpt lat="22.401295047538824" lon="114.24278753493286" /><trkpt lat="22.40126622146454" lon="114.24278176571075" /><trkpt lat="22.40123378125" lon="114.24295079638672" /><trkpt lat="22.40125778125" lon="114.24298679638672" /><trkpt lat="22.40128378125" lon="114.24301779638672" /><trkpt lat="22.40132078125" lon="114.24302479638672" /><trkpt lat="22.40132878125" lon="114.24304379638671" /><trkpt lat="22.40133778125" lon="114.24311579638672" /><trkpt lat="22.40140878125" lon="114.24313579638672" /><trkpt lat="22.40142578125" lon="114.24313279638672" /><trkpt lat="22.40142778125" lon="114.24314579638671" /><trkpt lat="22.40152078125" lon="114.24312379638671" /><trkpt lat="22.40152478125" lon="114.24314679638672" /><trkpt lat="22.40152778125" lon="114.24318379638672" /><trkpt lat="22.40152478125" lon="114.24322279638672" /><trkpt lat="22.40152378125" lon="114.24323179638672" /><trkpt lat="22.40151878125" lon="114.24324279638672" /><trkpt lat="22.40148378125" lon="114.24331279638672" /><trkpt lat="22.40146678125" lon="114.24335979638671" /><trkpt lat="22.40146578125" lon="114.24340179638672" /><trkpt lat="22.40147578125" lon="114.24340379638672" /><trkpt lat="22.40146978125" lon="114.24348979638673" /><trkpt lat="22.40149478125" lon="114.24351879638672" /><trkpt lat="22.40149978125" lon="114.24354379638672" /><trkpt lat="22.40151178125" lon="114.24356579638672" /><trkpt lat="22.40152878125" lon="114.24357479638672" /><trkpt lat="22.40155178125" lon="114.24356279638671" /><trkpt lat="22.40160678125" lon="114.24354979638672" /><trkpt lat="22.40160578125" lon="114.24356079638672" /><trkpt lat="22.40162578125" lon="114.24358379638672" /><trkpt lat="22.40164378125" lon="114.24360379638672" /><trkpt lat="22.40167578125" lon="114.24364179638673" /><trkpt lat="22.40172378125" lon="114.24362979638671" /><trkpt lat="22.40177778125" lon="114.24362279638672" /><trkpt lat="22.40179278125" lon="114.24363779638672" /><trkpt lat="22.40190478125" lon="114.24357479638672" /><trkpt lat="22.40193378125" lon="114.24362679638672" /><trkpt lat="22.40197678125" lon="114.24362179638672" /><trkpt lat="22.40199678125" lon="114.24362079638672" /><trkpt lat="22.40202678125" lon="114.24362579638672" /><trkpt lat="22.40205078125" lon="114.24363679638672" /><trkpt lat="22.40206178125" lon="114.24366479638672" /><trkpt lat="22.40209478125" lon="114.24372279638672" /><trkpt lat="22.40212078125" lon="114.24376079638672" /><trkpt lat="22.40215478125" lon="114.24380379638671" /><trkpt lat="22.40218078125" lon="114.24382579638672" /><trkpt lat="22.40222778125" lon="114.24383679638672" /><trkpt lat="22.40227478125" lon="114.24384479638672" /><trkpt lat="22.40233278125" lon="114.24384279638672" /><trkpt lat="22.40242078125" lon="114.24382979638672" /><trkpt lat="22.40248278125" lon="114.24381379638672" /><trkpt lat="22.40251578125" lon="114.24383679638672" /><trkpt lat="22.40255278125" lon="114.24378979638672" /><trkpt lat="22.40259078125" lon="114.24374179638671" /><trkpt lat="22.40263978125" lon="114.24367379638672" /><trkpt lat="22.40269778125" lon="114.24357779638672" /><trkpt lat="22.40270578125" lon="114.24356979638672" /><trkpt lat="22.40271378125" lon="114.24356079638672" /><trkpt lat="22.40273178125" lon="114.24354679638672" /><trkpt lat="22.40275078125" lon="114.24353379638671" /><trkpt lat="22.40277078125" lon="114.24352179638672" /><trkpt lat="22.40278878125" lon="114.24351779638671" /><trkpt lat="22.40280778125" lon="114.24351579638672" /><trkpt lat="22.40282378125" lon="114.24351779638671" /><trkpt lat="22.40283978125" lon="114.24352279638671" /><trkpt lat="22.40285378125" lon="114.24353479638673" /><trkpt lat="22.40286578125" lon="114.24354779638672" /><trkpt lat="22.40287978125" lon="114.24356879638673" /><trkpt lat="22.40289078125" lon="114.24359179638672" /><trkpt lat="22.40289878125" lon="114.24361579638672" /><trkpt lat="22.40290478125" lon="114.24363879638672" /><trkpt lat="22.40290978125" lon="114.24366979638671" /><trkpt lat="22.40291278125" lon="114.24369879638672" /><trkpt lat="22.40291578125" lon="114.24376879638672" /><trkpt lat="22.40290178125" lon="114.24416379638672" /><trkpt lat="22.40290578125" lon="114.24422279638672" /><trkpt lat="22.40305078125" lon="114.24418379638672" /><trkpt lat="22.40304178125" lon="114.24414079638672" /><trkpt lat="22.40303878125" lon="114.24407979638671" /><trkpt lat="22.40304178125" lon="114.24402779638672" /><trkpt lat="22.40305178125" lon="114.24395279638672" /><trkpt lat="22.40308578125" lon="114.24380279638672" /><trkpt lat="22.40309478125" lon="114.24376279638672" /><trkpt lat="22.40312278125" lon="114.24367079638672" /><trkpt lat="22.40315078125" lon="114.24359879638672" /><trkpt lat="22.40323806700836" lon="114.24344088958917" /><trkpt lat="22.40324178125" lon="114.24347579638672" /><trkpt lat="22.40324778125" lon="114.24351979638672" /><trkpt lat="22.40326278125" lon="114.24356479638672" /><trkpt lat="22.40327778125" lon="114.24360079638672" /><trkpt lat="22.40329478125" lon="114.24363079638673" /><trkpt lat="22.40331578125" lon="114.24365879638673" /><trkpt lat="22.40350878125" lon="114.24383879638673" /><trkpt lat="22.40352178125" lon="114.24386079638671" /><trkpt lat="22.40353178125" lon="114.24388579638672" /><trkpt lat="22.40353878125" lon="114.24391079638671" /><trkpt lat="22.40354378125" lon="114.24394079638672" /><trkpt lat="22.40354578125" lon="114.24396779638671" /><trkpt lat="22.40354378125" lon="114.24399479638672" /><trkpt lat="22.40354178125" lon="114.24401679638672" /><trkpt lat="22.40353778125" lon="114.24403879638672" /><trkpt lat="22.40352978125" lon="114.24406079638672" /><trkpt lat="22.40352078125" lon="114.24407879638672" /><trkpt lat="22.40349378125" lon="114.24412379638672" /><trkpt lat="22.40346478125" lon="114.24418379638672" /><trkpt lat="22.40343778125" lon="114.24425679638672" /><trkpt lat="22.40340078125" lon="114.24438779638672" /><trkpt lat="22.40337778125" lon="114.24451779638672" /><trkpt lat="22.40332278125" lon="114.24468479638672" /><trkpt lat="22.40325478125" lon="114.24486479638672" /><trkpt lat="22.40319778125" lon="114.24495979638672" /><trkpt lat="22.403138755997432" lon="114.24498511390016" /><trkpt lat="22.40312654383878" lon="114.24490927118126" /><trkpt lat="22.403183439566504" lon="114.24489375111557" /><trkpt lat="22.40318353377363" lon="114.24489165245012" /><trkpt lat="22.403194649632468" lon="114.2448915495317" /><trkpt lat="22.40319879887069" lon="114.24488824734522" /><trkpt lat="22.403201651882867" lon="114.24488934813724" /><trkpt lat="22.40320378466032" lon="114.24488934813724" /><trkpt lat="22.403205922651438" lon="114.24488734018564" /><trkpt lat="22.403232373245118" lon="114.24490214204913" /><trkpt lat="22.40325478125" lon="114.24486479638672" /><trkpt lat="22.40332278125" lon="114.24468479638672" /><trkpt lat="22.40337778125" lon="114.24451779638672" /><trkpt lat="22.40340078125" lon="114.24438779638672" /><trkpt lat="22.40343778125" lon="114.24425679638672" /><trkpt lat="22.40346478125" lon="114.24418379638672" /><trkpt lat="22.40349378125" lon="114.24412379638672" /><trkpt lat="22.40352078125" lon="114.24407879638672" /><trkpt lat="22.40352978125" lon="114.24406079638672" /><trkpt lat="22.40353778125" lon="114.24403879638672" /><trkpt lat="22.40354178125" lon="114.24401679638672" /><trkpt lat="22.40354378125" lon="114.24399479638672" /><trkpt lat="22.40354578125" lon="114.24396779638671" /><trkpt lat="22.40354378125" lon="114.24394079638672" /><trkpt lat="22.40353878125" lon="114.24391079638671" /><trkpt lat="22.40353178125" lon="114.24388579638672" /><trkpt lat="22.40350878125" lon="114.24383879638673" /><trkpt lat="22.40331578125" lon="114.24365879638673" /><trkpt lat="22.40329478125" lon="114.24363079638673" /><trkpt lat="22.40327778125" lon="114.24360079638672" /><trkpt lat="22.40326278125" lon="114.24356479638672" /><trkpt lat="22.40324778125" lon="114.24351979638672" /><trkpt lat="22.403220055926816" lon="114.24346284491217" /><trkpt lat="22.40315078125" lon="114.24359879638672" /><trkpt lat="22.40312278125" lon="114.24367079638672" /><trkpt lat="22.40309478125" lon="114.24376279638672" /><trkpt lat="22.40308578125" lon="114.24380279638672" /><trkpt lat="22.40305178125" lon="114.24395279638672" /><trkpt lat="22.40304178125" lon="114.24402779638672" /><trkpt lat="22.40303878125" lon="114.24407979638671" /><trkpt lat="22.40304178125" lon="114.24414079638672" /><trkpt lat="22.40305078125" lon="114.24418379638672" /><trkpt lat="22.40290578125" lon="114.24422279638672" /><trkpt lat="22.40290178125" lon="114.24416379638672" /><trkpt lat="22.40291578125" lon="114.24376879638672" /><trkpt lat="22.40291278125" lon="114.24369879638672" /><trkpt lat="22.40290978125" lon="114.24366979638671" /><trkpt lat="22.40290478125" lon="114.24363879638672" /><trkpt lat="22.40289878125" lon="114.24361579638672" /><trkpt lat="22.40289078125" lon="114.24359179638672" /><trkpt lat="22.40287978125" lon="114.24356879638673" /><trkpt lat="22.40286578125" lon="114.24354779638672" /><trkpt lat="22.40285378125" lon="114.24353479638673" /><trkpt lat="22.40283978125" lon="114.24352279638671" /><trkpt lat="22.40282378125" lon="114.24351779638671" /><trkpt lat="22.40280778125" lon="114.24351579638672" /><trkpt lat="22.40278878125" lon="114.24351779638671" /><trkpt lat="22.40277078125" lon="114.24352179638672" /><trkpt lat="22.40275078125" lon="114.24353379638671" /><trkpt lat="22.40273178125" lon="114.24354679638672" /><trkpt lat="22.40271378125" lon="114.24356079638672" /><trkpt lat="22.40270578125" lon="114.24356979638672" /><trkpt lat="22.40269778125" lon="114.24357779638672" /><trkpt lat="22.40263978125" lon="114.24367379638672" /><trkpt lat="22.40259078125" lon="114.24374179638671" /><trkpt lat="22.40255278125" lon="114.24378979638672" /><trkpt lat="22.40251578125" lon="114.24383679638672" /><trkpt lat="22.40251278125" lon="114.24384079638672" /><trkpt lat="22.40247778125" lon="114.24386979638672" /><trkpt lat="22.40244978125" lon="114.24389779638672" /><trkpt lat="22.40243078125" lon="114.24392579638672" /><trkpt lat="22.40241378125" lon="114.24395379638672" /><trkpt lat="22.40239778125" lon="114.24398279638672" /><trkpt lat="22.40238678125" lon="114.24400779638673" /><trkpt lat="22.40238078125" lon="114.24403479638671" /><trkpt lat="22.40237678125" lon="114.24405979638672" /><trkpt lat="22.40237478125" lon="114.24408979638672" /><trkpt lat="22.40237578125" lon="114.24411979638671" /><trkpt lat="22.40238178125" lon="114.24418179638671" /><trkpt lat="22.40238178125" lon="114.24426779638672" /><trkpt lat="22.40238378125" lon="114.24429979638671" /><trkpt lat="22.40238178125" lon="114.24431279638672" /><trkpt lat="22.40237578125" lon="114.24433379638671" /><trkpt lat="22.40237078125" lon="114.24435079638671" /><trkpt lat="22.40236778125" lon="114.24436579638672" /><trkpt lat="22.40236778125" lon="114.24438279638672" /><trkpt lat="22.40237278125" lon="114.24442379638671" /><trkpt lat="22.40237178125" lon="114.24444679638673" /><trkpt lat="22.40236878125" lon="114.24446979638672" /><trkpt lat="22.40236578125" lon="114.24448679638672" /><trkpt lat="22.40236078125" lon="114.24450379638672" /><trkpt lat="22.40225278125" lon="114.24465279638672" /><trkpt lat="22.40210278125" lon="114.24479079638672" /><trkpt lat="22.40188678125" lon="114.24493279638672" /><trkpt lat="22.40155578125" lon="114.24510979638671" /><trkpt lat="22.40143278125" lon="114.24525579638672" /><trkpt lat="22.40131778125" lon="114.24539479638672" /><trkpt lat="22.40124678125" lon="114.24549779638672" /><trkpt lat="22.40106378125" lon="114.24569279638672" /><trkpt lat="22.40102178125" lon="114.24575079638672" /><trkpt lat="22.40094978125" lon="114.24590979638671" /><trkpt lat="22.40091378125" lon="114.24596579638671" /><trkpt lat="22.40077678125" lon="114.24629079638672" /><trkpt lat="22.40042478125" lon="114.24646279638672" /><trkpt lat="22.40022978125" lon="114.24657179638672" /><trkpt lat="22.40023778125" lon="114.24683379638672" /><trkpt lat="22.40019578125" lon="114.24690179638672" /><trkpt lat="22.40013578125" lon="114.24699579638671" /><trkpt lat="22.40008378125" lon="114.24707879638672" /><trkpt lat="22.39949178125" lon="114.24736679638671" /><trkpt lat="22.39918878125" lon="114.24767479638672" /><trkpt lat="22.39901478125" lon="114.24770179638672" /><trkpt lat="22.39861078125" lon="114.24809479638672" /><trkpt lat="22.39799778125" lon="114.24837979638671" /><trkpt lat="22.39768078125" lon="114.24857379638672" /><trkpt lat="22.39748778125" lon="114.24862179638671" /><trkpt lat="22.39660478125" lon="114.24864879638672" /><trkpt lat="22.39592878125" lon="114.24897579638672" /><trkpt lat="22.39580278125" lon="114.24908279638672" /><trkpt lat="22.39569378125" lon="114.24926579638672" /><trkpt lat="22.39565878125" lon="114.24936679638672" /><trkpt lat="22.39557478125" lon="114.24949079638672" /><trkpt lat="22.39541078125" lon="114.24970479638672" /><trkpt lat="22.39525178125" lon="114.24997379638671" /><trkpt lat="22.39522278125" lon="114.25029479638673" /><trkpt lat="22.39507778125" lon="114.25045279638672" /><trkpt lat="22.39510378125" lon="114.25070479638671" /><trkpt lat="22.39508178125" lon="114.25087279638672" /><trkpt lat="22.39503078125" lon="114.25096879638672" /><trkpt lat="22.39487478125" lon="114.25105679638672" /><trkpt lat="22.39466378125" lon="114.25118379638671" /><trkpt lat="22.39460278125" lon="114.25137879638672" /><trkpt lat="22.39447878125" lon="114.25160979638672" /><trkpt lat="22.39433478125" lon="114.25183479638672" /><trkpt lat="22.39400478125" lon="114.25197679638671" /><trkpt lat="22.39383878125" lon="114.25203279638671" /><trkpt lat="22.39377478125" lon="114.25205279638672" /><trkpt lat="22.39357078125" lon="114.25206579638672" /><trkpt lat="22.39345378125" lon="114.25207279638671" /><trkpt lat="22.39330478125" lon="114.25200779638672" /><trkpt lat="22.39315378125" lon="114.25207079638672" /><trkpt lat="22.39287978125" lon="114.25203379638671" /><trkpt lat="22.39258078125" lon="114.25209479638671" /><trkpt lat="22.39233478125" lon="114.25219479638672" /><trkpt lat="22.39223678125" lon="114.25219579638672" /><trkpt lat="22.39188278125" lon="114.25219779638672" /><trkpt lat="22.39176278125" lon="114.25225879638671" /><trkpt lat="22.39145478125" lon="114.25227579638671" /><trkpt lat="22.39115378125" lon="114.25220979638672" /><trkpt lat="22.39102778125" lon="114.25214879638672" /><trkpt lat="22.39067178125" lon="114.25199279638672" /><trkpt lat="22.39031078125" lon="114.25198179638672" /><trkpt lat="22.39010778125" lon="114.25190279638672" /><trkpt lat="22.39005278125" lon="114.25178579638671" /><trkpt lat="22.38999078125" lon="114.25161179638671" /><trkpt lat="22.38975378125" lon="114.25132679638672" /><trkpt lat="22.38963178125" lon="114.25131579638672" /><trkpt lat="22.38955778125" lon="114.25133479638671" /><trkpt lat="22.38949378125" lon="114.25140579638672" /><trkpt lat="22.38939578125" lon="114.25156979638672" /><trkpt lat="22.38933178125" lon="114.25164079638672" /><trkpt lat="22.38915978125" lon="114.25172379638671" /><trkpt lat="22.38898078125" lon="114.25177879638672" /><trkpt lat="22.38889178125" lon="114.25182479638671" /><trkpt lat="22.38880178125" lon="114.25185279638671" /><trkpt lat="22.38872978125" lon="114.25191479638671" /><trkpt lat="22.38864478125" lon="114.25196879638672" /><trkpt lat="22.38855478125" lon="114.25201679638671" /><trkpt lat="22.38849078125" lon="114.25218379638672" /><trkpt lat="22.38847078125" lon="114.25229679638672" /><trkpt lat="22.38845678125" lon="114.25247079638672" /><trkpt lat="22.38838178125" lon="114.25263479638672" /><trkpt lat="22.38836378125" lon="114.25273879638672" /><trkpt lat="22.38837878125" lon="114.25284779638672" /><trkpt lat="22.38835678125" lon="114.25294379638672" /><trkpt lat="22.38834178125" lon="114.25305279638673" /><trkpt lat="22.38820778125" lon="114.25318079638672" /><trkpt lat="22.38812778125" lon="114.25326079638671" /><trkpt lat="22.38800878125" lon="114.25335279638672" /><trkpt lat="22.38794978125" lon="114.25344879638672" /><trkpt lat="22.38785578125" lon="114.25353479638672" /><trkpt lat="22.38781578125" lon="114.25364179638672" /><trkpt lat="22.38775078125" lon="114.25378079638672" /><trkpt lat="22.38769178125" lon="114.25384079638673" /><trkpt lat="22.38762278125" lon="114.25389379638672" /><trkpt lat="22.38754378125" lon="114.25398979638672" /><trkpt lat="22.38749778125" lon="114.25419379638672" /><trkpt lat="22.38739078125" lon="114.25434379638672" /><trkpt lat="22.38730178125" lon="114.25439679638671" /><trkpt lat="22.38704678125" lon="114.25466679638672" /><trkpt lat="22.38692278125" lon="114.25462379638672" /><trkpt lat="22.38681878125" lon="114.25470379638672" /><trkpt lat="22.38669978125" lon="114.25485479638672" /><trkpt lat="22.38667478125" lon="114.25494579638672" /><trkpt lat="22.386585781249998" lon="114.25495079638672" /><trkpt lat="22.38642678125" lon="114.25510079638671" /><trkpt lat="22.38647178125" lon="114.25522979638671" /><trkpt lat="22.38645678125" lon="114.25533679638671" /><trkpt lat="22.38647478125" lon="114.25552279638671" /><trkpt lat="22.38653578125" lon="114.25566479638672" /><trkpt lat="22.38666478125" lon="114.25590379638672" /><trkpt lat="22.38684378125" lon="114.25593279638672" /><trkpt lat="22.38690278125" lon="114.25606679638672" /><trkpt lat="22.38685878125" lon="114.25622879638672" /><trkpt lat="22.38672378125" lon="114.25646479638672" /><trkpt lat="22.38664478125" lon="114.25673179638672" /><trkpt lat="22.38656478125" lon="114.25695579638672" /><trkpt lat="22.38633278125" lon="114.25706479638671" /><trkpt lat="22.38622378125" lon="114.25719379638672" /><trkpt lat="22.38603478125" lon="114.25728479638671" /><trkpt lat="22.38593378125" lon="114.25736779638672" /><trkpt lat="22.38588478125" lon="114.25745279638672" /><trkpt lat="22.38581878125" lon="114.25754079638672" /><trkpt lat="22.38577178125" lon="114.25776279638671" /><trkpt lat="22.38570878125" lon="114.25784579638672" /><trkpt lat="22.38553078125" lon="114.25798879638671" /><trkpt lat="22.38545078125" lon="114.25818779638672" /><trkpt lat="22.38546778125" lon="114.25832979638672" /><trkpt lat="22.38545978125" lon="114.25840779638672" /><trkpt lat="22.38536878125" lon="114.25858479638671" /><trkpt lat="22.38534478125" lon="114.25867779638672" /><trkpt lat="22.38534778125" lon="114.25872679638672" /><trkpt lat="22.38535578125" lon="114.25878279638673" /><trkpt lat="22.38532978125" lon="114.25888279638671" /><trkpt lat="22.38531178125" lon="114.25898579638672" /><trkpt lat="22.38533178125" lon="114.25910279638671" /><trkpt lat="22.38538878125" lon="114.25920079638672" /><trkpt lat="22.38547578125" lon="114.25938679638672" /><trkpt lat="22.38551478125" lon="114.25960879638671" /><trkpt lat="22.38539578125" lon="114.25979579638671" /><trkpt lat="22.38531078125" lon="114.25989779638672" /><trkpt lat="22.38523778125" lon="114.26000679638672" /><trkpt lat="22.38526178125" lon="114.26003379638672" /><trkpt lat="22.38543278125" lon="114.26028579638673" /><trkpt lat="22.38541578125" lon="114.26033679638672" /><trkpt lat="22.38548878125" lon="114.26056379638672" /><trkpt lat="22.38556978125" lon="114.26058479638672" /><trkpt lat="22.38564978125" lon="114.26075779638671" /><trkpt lat="22.38555578125" lon="114.26089179638672" /><trkpt lat="22.38559178125" lon="114.26110379638672" /><trkpt lat="22.38552378125" lon="114.26126179638672" /><trkpt lat="22.38531578125" lon="114.26154479638672" /><trkpt lat="22.38521678125" lon="114.26166179638672" /><trkpt lat="22.38508278125" lon="114.26179279638671" /><trkpt lat="22.38492878125" lon="114.26191579638672" /><trkpt lat="22.38476178125" lon="114.26205179638671" /><trkpt lat="22.38450878125" lon="114.26235079638671" /><trkpt lat="22.38431378125" lon="114.26252779638672" /><trkpt lat="22.38411878125" lon="114.26270579638671" /><trkpt lat="22.38383578125" lon="114.26296279638672" /><trkpt lat="22.38343978125" lon="114.26348579638672" /><trkpt lat="22.38325478125" lon="114.26367579638672" /><trkpt lat="22.38318678125" lon="114.26374579638671" /><trkpt lat="22.38278978125" lon="114.26399279638672" /><trkpt lat="22.38267478125" lon="114.26418479638671" /><trkpt lat="22.38262078125" lon="114.26431779638672" /><trkpt lat="22.38260378125" lon="114.26437979638672" /><trkpt lat="22.38259478125" lon="114.26444679638672" /><trkpt lat="22.382623492873595" lon="114.26448205300537" /><trkpt lat="22.38270178125" lon="114.26446979638672" /><trkpt lat="22.38253878125" lon="114.26467979638672" /><trkpt lat="22.38253778125" lon="114.26472179638672" /><trkpt lat="22.38253278125" lon="114.26493179638672" /><trkpt lat="22.38252978125" lon="114.26506879638671" /><trkpt lat="22.38252578125" lon="114.26527079638672" /><trkpt lat="22.38248778125" lon="114.26542479638672" /><trkpt lat="22.38223878125" lon="114.26587779638672" /><trkpt lat="22.38218378125" lon="114.26599979638672" /><trkpt lat="22.38216178125" lon="114.26605379638671" /><trkpt lat="22.38203678125" lon="114.26634379638672" /><trkpt lat="22.38195778125" lon="114.26650079638672" /><trkpt lat="22.38182378125" lon="114.26672379638671" /><trkpt lat="22.38163978125" lon="114.26704079638672" /><trkpt lat="22.38158478125" lon="114.26704179638672" /><trkpt lat="22.38149978125" lon="114.26703679638672" /><trkpt lat="22.38141678125" lon="114.26701179638673" /><trkpt lat="22.38135078125" lon="114.26697479638672" /><trkpt lat="22.38126378125" lon="114.26690979638671" /><trkpt lat="22.38107078125" lon="114.26704079638672" /><trkpt lat="22.38103978125" lon="114.26706379638672" /><trkpt lat="22.38105078125" lon="114.26716979638672" /><trkpt lat="22.38100578125" lon="114.26721379638671" /><trkpt lat="22.38096978125" lon="114.26735279638672" /><trkpt lat="22.38099978125" lon="114.26746279638672" /><trkpt lat="22.38099578125" lon="114.26755079638671" /><trkpt lat="22.38095378125" lon="114.26754779638672" /><trkpt lat="22.38100478125" lon="114.26774879638671" /><trkpt lat="22.38101878125" lon="114.26807579638673" /><trkpt lat="22.38100778125" lon="114.26834479638671" /><trkpt lat="22.38109078125" lon="114.26847379638671" /><trkpt lat="22.38115878125" lon="114.26864979638673" /><trkpt lat="22.38118178125" lon="114.26880779638672" /><trkpt lat="22.38118578125" lon="114.26890979638672" /><trkpt lat="22.38120678125" lon="114.26960979638672" /><trkpt lat="22.38115178125" lon="114.26964079638672" /><trkpt lat="22.38115326459909" lon="114.26964691857157" /></trkseg></trk></gpx>