<?xml version='1.0' encoding='UTF-8' ?><gpx version="1.1" creator="HikingTrailHK" xsi:schemaLocation="http://www.topografix.com/GPX/1/1 http://www.topografix.com/GPX/1/1/gpx.xsd" xmlns="http://www.topografix.com/GPX/1/1" xmlns:xsi="http://www.w3.org/2001/XMLSchema-instance"><metadata><name>青龍石澗上段 @ 2022-09-24</name><desc></desc></metadata><trk><trkseg><trkpt lat="22.25553278125" lon="113.98660879638672" /><trkpt lat="22.25553478125" lon="113.98657279638672" /><trkpt lat="22.25553978125" lon="113.98654179638672" /><trkpt lat="22.25555478125" lon="113.98649279638671" /><trkpt lat="22.25557378125" lon="113.98644579638672" /><trkpt lat="22.25559678125" lon="113.98639979638672" /><trkpt lat="22.25567778125" lon="113.98625879638672" /><trkpt lat="22.25570478125" lon="113.98620279638672" /><trkpt lat="22.25572378125" lon="113.98615679638672" /><trkpt lat="22.25573078125" lon="113.98612379638672" /><trkpt lat="22.25573578125" lon="113.98608079638672" /><trkpt lat="22.25573378125" lon="113.98603279638672" /><trkpt lat="22.25578478125" lon="113.98602979638672" /><trkpt lat="22.25589978125" lon="113.98603079638671" /><trkpt lat="22.25593278125" lon="113.98603179638671" /><trkpt lat="22.25596378125" lon="113.98603579638672" /><trkpt lat="22.25599478125" lon="113.98604279638671" /><trkpt lat="22.25602378125" lon="113.98605379638671" /><trkpt lat="22.25605378125" lon="113.98606779638672" /><trkpt lat="22.25608978125" lon="113.98608779638671" /><trkpt lat="22.25613978125" lon="113.98611779638672" /><trkpt lat="22.25622178125" lon="113.98617379638672" /><trkpt lat="22.25626078125" lon="113.98620279638672" /><trkpt lat="22.25632878125" lon="113.98625779638672" /><trkpt lat="22.25640878125" lon="113.98632879638672" /><trkpt lat="22.25643478125" lon="113.98634979638672" /><trkpt lat="22.25646578125" lon="113.98636879638671" /><trkpt lat="22.25649078125" lon="113.98638079638671" /><trkpt lat="22.25650878125" lon="113.98638579638671" /><trkpt lat="22.25652778125" lon="113.98638779638672" /><trkpt lat="22.25654978125" lon="113.98638579638671" /><trkpt lat="22.25657078125" lon="113.98638179638672" /><trkpt lat="22.25659178125" lon="113.98637579638672" /><trkpt lat="22.25661278125" lon="113.98636479638672" /><trkpt lat="22.25662778125" lon="113.98635379638672" /><trkpt lat="22.25664078125" lon="113.98633979638672" /><trkpt lat="22.25665278125" lon="113.98632179638672" /><trkpt lat="22.25666378125" lon="113.98630279638672" /><trkpt lat="22.25667978125" lon="113.98626979638672" /><trkpt lat="22.25669278125" lon="113.98624879638672" /><trkpt lat="22.25670778125" lon="113.98622879638671" /><trkpt lat="22.25672278125" lon="113.98621079638671" /><trkpt lat="22.25674078125" lon="113.98619479638671" /><trkpt lat="22.25675578125" lon="113.98618479638672" /><trkpt lat="22.25676878125" lon="113.98617879638672" /><trkpt lat="22.25678578125" lon="113.98617379638672" /><trkpt lat="22.25685078125" lon="113.98616079638671" /><trkpt lat="22.25687078125" lon="113.98615379638672" /><trkpt lat="22.25688678125" lon="113.98614579638672" /><trkpt lat="22.25690178125" lon="113.98613579638672" /><trkpt lat="22.25691578125" lon="113.98612279638672" /><trkpt lat="22.25692878125" lon="113.98610579638672" /><trkpt lat="22.25693978125" lon="113.98608879638672" /><trkpt lat="22.25694678125" lon="113.98606979638672" /><trkpt lat="22.25695178125" lon="113.98604979638672" /><trkpt lat="22.25695378125" lon="113.98602979638672" /><trkpt lat="22.25695478125" lon="113.98592879638672" /><trkpt lat="22.25690778125" lon="113.98583979638671" /><trkpt lat="22.25673678125" lon="113.98556679638672" /><trkpt lat="22.25670278125" lon="113.98547379638671" /><trkpt lat="22.25668478125" lon="113.98536479638672" /><trkpt lat="22.25670678125" lon="113.98528379638672" /><trkpt lat="22.25678978125" lon="113.98512279638672" /><trkpt lat="22.25686778125" lon="113.98499379638672" /><trkpt lat="22.25690078125" lon="113.98494179638672" /><trkpt lat="22.25694278125" lon="113.98484879638671" /><trkpt lat="22.25689878125" lon="113.98468579638671" /><trkpt lat="22.25688178125" lon="113.98455679638671" /><trkpt lat="22.25706778125" lon="113.98427679638672" /><trkpt lat="22.25719278125" lon="113.98420279638673" /><trkpt lat="22.25728678125" lon="113.98412479638672" /><trkpt lat="22.25731278125" lon="113.98388979638672" /><trkpt lat="22.25746478125" lon="113.98374579638671" /><trkpt lat="22.25767378125" lon="113.98357679638671" /><trkpt lat="22.25784778125" lon="113.98335879638672" /><trkpt lat="22.25804278125" lon="113.98320279638672" /><trkpt lat="22.25795478125" lon="113.98295379638672" /><trkpt lat="22.25802678125" lon="113.98265879638672" /><trkpt lat="22.25786378125" lon="113.98256479638673" /><trkpt lat="22.25768578125" lon="113.98272179638671" /><trkpt lat="22.25735978125" lon="113.98271879638672" /><trkpt lat="22.25724578125" lon="113.98257379638672" /><trkpt lat="22.25723478125" lon="113.98236379638672" /><trkpt lat="22.25716778125" lon="113.98206679638672" /><trkpt lat="22.25718878125" lon="113.98174379638672" /><trkpt lat="22.25729878125" lon="113.98149779638672" /><trkpt lat="22.25727678125" lon="113.98126379638671" /><trkpt lat="22.25723678125" lon="113.98121079638672" /><trkpt lat="22.25704478125" lon="113.98112479638672" /><trkpt lat="22.25707078125" lon="113.98092879638672" /><trkpt lat="22.25737678125" lon="113.98084879638672" /><trkpt lat="22.25740478125" lon="113.98073679638672" /><trkpt lat="22.25741378125" lon="113.98069779638672" /><trkpt lat="22.25748578125" lon="113.98067179638672" /><trkpt lat="22.25763678125" lon="113.98046779638672" /><trkpt lat="22.25779578125" lon="113.98040079638672" /><trkpt lat="22.25795678125" lon="113.98020179638672" /><trkpt lat="22.25807178125" lon="113.98000079638672" /><trkpt lat="22.25816178125" lon="113.97976679638671" /><trkpt lat="22.25832478125" lon="113.97954279638672" /><trkpt lat="22.25853978125" lon="113.97922779638672" /><trkpt lat="22.25855278125" lon="113.97904479638672" /><trkpt lat="22.25842078125" lon="113.97894479638671" /><trkpt lat="22.25841978125" lon="113.97882879638672" /><trkpt lat="22.25843878125" lon="113.97870279638671" /><trkpt lat="22.25865878125" lon="113.97818779638672" /><trkpt lat="22.25861778125" lon="113.97808879638671" /><trkpt lat="22.25846078125" lon="113.97795679638672" /><trkpt lat="22.25839878125" lon="113.97781479638672" /><trkpt lat="22.25835478125" lon="113.97754379638671" /><trkpt lat="22.25830978125" lon="113.97746679638672" /><trkpt lat="22.25818578125" lon="113.97748479638672" /><trkpt lat="22.25810978125" lon="113.97741779638672" /><trkpt lat="22.25797678125" lon="113.97732479638672" /><trkpt lat="22.25785378125" lon="113.97726679638671" /><trkpt lat="22.25776378125" lon="113.97707979638672" /><trkpt lat="22.25798578125" lon="113.97643779638672" /><trkpt lat="22.25804478125" lon="113.97623279638672" /><trkpt lat="22.25801978125" lon="113.97609879638672" /><trkpt lat="22.25788978125" lon="113.97602279638672" /><trkpt lat="22.25769178125" lon="113.97608779638672" /><trkpt lat="22.25762478125" lon="113.97597779638672" /><trkpt lat="22.25750278125" lon="113.97591579638672" /><trkpt lat="22.25743378125" lon="113.97581579638671" /><trkpt lat="22.25744778125" lon="113.97563779638672" /><trkpt lat="22.25745478125" lon="113.97554979638672" /><trkpt lat="22.25731478125" lon="113.97545379638672" /><trkpt lat="22.25703378125" lon="113.97531479638671" /><trkpt lat="22.25675978125" lon="113.97523479638672" /><trkpt lat="22.25661678125" lon="113.97515979638672" /><trkpt lat="22.25652878125" lon="113.97491179638672" /><trkpt lat="22.25661678125" lon="113.97465479638672" /><trkpt lat="22.25661678125" lon="113.97446279638672" /><trkpt lat="22.25653978125" lon="113.97439779638673" /><trkpt lat="22.25652678125" lon="113.97428879638672" /><trkpt lat="22.25651778125" lon="113.97421579638672" /><trkpt lat="22.25637378125" lon="113.97424179638672" /><trkpt lat="22.25623978125" lon="113.97424779638672" /><trkpt lat="22.25606578125" lon="113.97426079638672" /><trkpt lat="22.25582578125" lon="113.97439279638672" /><trkpt lat="22.25576778125" lon="113.97443279638672" /><trkpt lat="22.25546878125" lon="113.97452879638672" /><trkpt lat="22.25534978125" lon="113.97449979638672" /><trkpt lat="22.25524178125" lon="113.97459579638672" /><trkpt lat="22.25511778125" lon="113.97459379638671" /><trkpt lat="22.25491878125" lon="113.97440579638672" /><trkpt lat="22.25484278125" lon="113.97437279638672" /><trkpt lat="22.25473478125" lon="113.97424179638672" /><trkpt lat="22.25470378125" lon="113.97421179638673" /><trkpt lat="22.25451478125" lon="113.97420179638672" /><trkpt lat="22.25428878125" lon="113.97385079638671" /><trkpt lat="22.25419878125" lon="113.97379179638672" /><trkpt lat="22.25409378125" lon="113.97374479638673" /><trkpt lat="22.25395578125" lon="113.97379679638672" /><trkpt lat="22.25382178125" lon="113.97372179638671" /><trkpt lat="22.25350878125" lon="113.97334679638672" /><trkpt lat="22.25347878125" lon="113.97320179638672" /><trkpt lat="22.25336978125" lon="113.97304579638671" /><trkpt lat="22.25320978125" lon="113.97287079638672" /><trkpt lat="22.25332078125" lon="113.97261179638672" /><trkpt lat="22.25329578125" lon="113.97229479638672" /><trkpt lat="22.25291778125" lon="113.97221479638672" /><trkpt lat="22.25273478125" lon="113.97212879638671" /><trkpt lat="22.25257978125" lon="113.97198879638673" /><trkpt lat="22.25246378125" lon="113.97182579638672" /><trkpt lat="22.25235178125" lon="113.97171579638672" /><trkpt lat="22.25233678125" lon="113.97152779638672" /><trkpt lat="22.25244078125" lon="113.97142779638672" /><trkpt lat="22.25252578125" lon="113.97138279638672" /><trkpt lat="22.25257578125" lon="113.97124379638672" /><trkpt lat="22.25257478125" lon="113.97109479638672" /><trkpt lat="22.25249578125" lon="113.97093779638672" /><trkpt lat="22.25238078125" lon="113.97085379638672" /><trkpt lat="22.25225778125" lon="113.97081479638672" /><trkpt lat="22.25193478125" lon="113.97074179638672" /><trkpt lat="22.25174378125" lon="113.97049279638672" /><trkpt lat="22.25169678125" lon="113.97028279638671" /><trkpt lat="22.25175578125" lon="113.97014379638672" /><trkpt lat="22.25168578125" lon="113.97004879638672" /><trkpt lat="22.25159478125" lon="113.96987879638672" /><trkpt lat="22.25144578125" lon="113.96963979638672" /><trkpt lat="22.25136278125" lon="113.96933579638672" /><trkpt lat="22.25126278125" lon="113.96913779638672" /><trkpt lat="22.25119978125" lon="113.96900679638672" /><trkpt lat="22.25109978125" lon="113.96887979638672" /><trkpt lat="22.25095478125" lon="113.96830179638673" /><trkpt lat="22.25082478125" lon="113.96826679638671" /><trkpt lat="22.25070278125" lon="113.96843979638672" /><trkpt lat="22.25063278125" lon="113.96853079638672" /><trkpt lat="22.25040778125" lon="113.96863579638672" /><trkpt lat="22.25036578125" lon="113.96851279638672" /><trkpt lat="22.25024078125" lon="113.96830579638672" /><trkpt lat="22.25010678125" lon="113.96823079638672" /><trkpt lat="22.24986678125" lon="113.96805679638672" /><trkpt lat="22.24986978125" lon="113.96780279638672" /><trkpt lat="22.24971978125" lon="113.96757079638672" /><trkpt lat="22.24959378125" lon="113.96741579638672" /><trkpt lat="22.24952178125" lon="113.96731679638673" /><trkpt lat="22.24961078125" lon="113.96707679638672" /><trkpt lat="22.24967478125" lon="113.96700179638673" /><trkpt lat="22.24973478125" lon="113.96700179638673" /><trkpt lat="22.24967978125" lon="113.96682479638672" /><trkpt lat="22.24968978125" lon="113.96664279638672" /><trkpt lat="22.24978878125" lon="113.96651879638672" /><trkpt lat="22.24987478125" lon="113.96647979638672" /><trkpt lat="22.24987378125" lon="113.96642279638672" /><trkpt lat="22.24979978125" lon="113.96637779638672" /><trkpt lat="22.24970578125" lon="113.96629779638671" /><trkpt lat="22.24965978125" lon="113.96622379638671" /><trkpt lat="22.24967078125" lon="113.96601379638672" /><trkpt lat="22.24985278125" lon="113.96574779638672" /><trkpt lat="22.24978878125" lon="113.96566479638672" /><trkpt lat="22.24970878125" lon="113.96550879638671" /><trkpt lat="22.24956978125" lon="113.96543379638672" /><trkpt lat="22.24954678125" lon="113.96537779638672" /><trkpt lat="22.24958678125" lon="113.96510979638671" /><trkpt lat="22.24957078125" lon="113.96451879638671" /><trkpt lat="22.24964078125" lon="113.96433079638672" /><trkpt lat="22.24979378125" lon="113.96429279638672" /><trkpt lat="22.24995278125" lon="113.96415379638673" /><trkpt lat="22.25019478125" lon="113.96396979638672" /><trkpt lat="22.25053278125" lon="113.96399079638672" /><trkpt lat="22.25064178125" lon="113.96397979638672" /><trkpt lat="22.25088178125" lon="113.96411979638673" /><trkpt lat="22.25111078125" lon="113.96390779638672" /><trkpt lat="22.25129978125" lon="113.96397979638672" /><trkpt lat="22.25143078125" lon="113.96388679638672" /><trkpt lat="22.25156278125" lon="113.96387879638672" /><trkpt lat="22.25168078125" lon="113.96386879638672" /><trkpt lat="22.25187978125" lon="113.96373479638672" /><trkpt lat="22.25190878125" lon="113.96357379638673" /><trkpt lat="22.25187978125" lon="113.96341179638672" /><trkpt lat="22.25192478125" lon="113.96320179638671" /><trkpt lat="22.25184478125" lon="113.96311279638672" /><trkpt lat="22.25185578125" lon="113.96296079638672" /><trkpt lat="22.25181478125" lon="113.96286079638672" /><trkpt lat="22.25161178125" lon="113.96269979638672" /><trkpt lat="22.25153678125" lon="113.96260679638672" /><trkpt lat="22.25147378125" lon="113.96242979638671" /><trkpt lat="22.25150578125" lon="113.96219079638672" /><trkpt lat="22.25160778125" lon="113.96210779638672" /><trkpt lat="22.25161178125" lon="113.96200279638671" /><trkpt lat="22.25161578125" lon="113.96191879638671" /><trkpt lat="22.25179278125" lon="113.96188879638672" /><trkpt lat="22.25201178125" lon="113.96184579638673" /><trkpt lat="22.25225078125" lon="113.96187379638671" /><trkpt lat="22.25261578125" lon="113.96170879638672" /><trkpt lat="22.25289778125" lon="113.96162579638671" /><trkpt lat="22.25321078125" lon="113.96163779638673" /><trkpt lat="22.25329878125" lon="113.96177579638672" /><trkpt lat="22.25350678125" lon="113.96171979638672" /><trkpt lat="22.25366878125" lon="113.96171579638671" /><trkpt lat="22.25382278125" lon="113.96174579638672" /><trkpt lat="22.25399178125" lon="113.96170579638672" /><trkpt lat="22.25412478125" lon="113.96167979638672" /><trkpt lat="22.25433878125" lon="113.96159979638672" /><trkpt lat="22.25461078125" lon="113.96154879638672" /><trkpt lat="22.25477978125" lon="113.96143379638671" /><trkpt lat="22.25490078125" lon="113.96140379638672" /><trkpt lat="22.25516178125" lon="113.96149379638672" /><trkpt lat="22.25531278125" lon="113.96159679638671" /><trkpt lat="22.25574478125" lon="113.96162579638671" /><trkpt lat="22.25591978125" lon="113.96159979638672" /><trkpt lat="22.25597978125" lon="113.96181879638672" /><trkpt lat="22.25609378125" lon="113.96191779638671" /><trkpt lat="22.25620778125" lon="113.96193479638671" /><trkpt lat="22.25641178125" lon="113.96184879638672" /><trkpt lat="22.25660378125" lon="113.96179279638672" /><trkpt lat="22.256667781250002" lon="113.96171179638672" /><trkpt lat="22.25681478125" lon="113.96165179638672" /><trkpt lat="22.25682578125" lon="113.96145479638672" /><trkpt lat="22.25671178125" lon="113.96128179638671" /><trkpt lat="22.25666478125" lon="113.96098479638673" /><trkpt lat="22.25668878125" lon="113.96069079638671" /><trkpt lat="22.25660978125" lon="113.96036979638671" /><trkpt lat="22.25667078125" lon="113.96026179638672" /><trkpt lat="22.25674378125" lon="113.96027379638672" /><trkpt lat="22.25679078125" lon="113.96025579638672" /><trkpt lat="22.25682978125" lon="113.96025579638672" /><trkpt lat="22.25687278125" lon="113.96025679638672" /><trkpt lat="22.25691578125" lon="113.96024879638672" /><trkpt lat="22.25698278125" lon="113.96023279638672" /><trkpt lat="22.25710178125" lon="113.96027579638672" /><trkpt lat="22.25714978125" lon="113.96027979638671" /><trkpt lat="22.25719978125" lon="113.96027579638672" /><trkpt lat="22.25725778125" lon="113.96030479638672" /><trkpt lat="22.25730878125" lon="113.96034179638671" /><trkpt lat="22.25737678125" lon="113.96037179638672" /><trkpt lat="22.25743278125" lon="113.96041479638671" /><trkpt lat="22.25745278125" lon="113.96043779638671" /><trkpt lat="22.25755278125" lon="113.96043779638671" /><trkpt lat="22.25760978125" lon="113.96043079638672" /><trkpt lat="22.25766578125" lon="113.96042579638672" /><trkpt lat="22.25773278125" lon="113.96047979638672" /><trkpt lat="22.25779878125" lon="113.96047079638672" /><trkpt lat="22.25783478125" lon="113.96046879638672" /><trkpt lat="22.25794878125" lon="113.96035279638672" /><trkpt lat="22.25810778125" lon="113.96030179638672" /><trkpt lat="22.25819278125" lon="113.96030879638671" /><trkpt lat="22.25826578125" lon="113.96025079638672" /><trkpt lat="22.25844378125" lon="113.96012879638671" /><trkpt lat="22.25843478125" lon="113.96001979638672" /><trkpt lat="22.25838078125" lon="113.95993779638673" /><trkpt lat="22.25826578125" lon="113.95971879638672" /><trkpt lat="22.25821778125" lon="113.95952879638672" /><trkpt lat="22.25823678125" lon="113.95939579638672" /><trkpt lat="22.25826278125" lon="113.95921379638672" /><trkpt lat="22.25830478125" lon="113.95907779638672" /><trkpt lat="22.25823378125" lon="113.95874479638672" /><trkpt lat="22.25822178125" lon="113.95868879638672" /><trkpt lat="22.25814278125" lon="113.95850579638672" /><trkpt lat="22.25811478125" lon="113.95835579638671" /><trkpt lat="22.25804978125" lon="113.95814479638672" /><trkpt lat="22.25796878125" lon="113.95795079638673" /><trkpt lat="22.25800778125" lon="113.95763479638671" /><trkpt lat="22.25809178125" lon="113.95728379638672" /><trkpt lat="22.25801778125" lon="113.95702779638673" /><trkpt lat="22.25790278125" lon="113.95681279638671" /><trkpt lat="22.25790378125" lon="113.95668979638671" /><trkpt lat="22.25787378125" lon="113.95658079638672" /><trkpt lat="22.25782878125" lon="113.95652579638671" /><trkpt lat="22.25782678125" lon="113.95645579638672" /><trkpt lat="22.25785678125" lon="113.95634479638672" /><trkpt lat="22.25776378125" lon="113.95609179638672" /><trkpt lat="22.25762778125" lon="113.95594279638672" /><trkpt lat="22.25764378125" lon="113.95583879638671" /><trkpt lat="22.25764978125" lon="113.95582179638672" /><trkpt lat="22.25764478125" lon="113.95579979638671" /><trkpt lat="22.25763578125" lon="113.95574779638672" /><trkpt lat="22.25761378125" lon="113.95564279638671" /><trkpt lat="22.25757978125" lon="113.95555479638672" /><trkpt lat="22.25753078125" lon="113.95546979638672" /><trkpt lat="22.25749478125" lon="113.95542879638671" /><trkpt lat="22.25746778125" lon="113.95541779638671" /><trkpt lat="22.25745878125" lon="113.95537779638671" /><trkpt lat="22.25744278125" lon="113.95533679638672" /><trkpt lat="22.25735878125" lon="113.95523879638672" /><trkpt lat="22.25734878125" lon="113.95518879638672" /><trkpt lat="22.25735878125" lon="113.95513779638672" /><trkpt lat="22.25734978125" lon="113.95506979638672" /><trkpt lat="22.25733778125" lon="113.95503779638672" /><trkpt lat="22.25734378125" lon="113.95492479638672" /><trkpt lat="22.25733478125" lon="113.95486679638672" /><trkpt lat="22.25734078125" lon="113.95478779638673" /><trkpt lat="22.25734078125" lon="113.95475279638671" /><trkpt lat="22.25734778125" lon="113.95469179638673" /><trkpt lat="22.25734678125" lon="113.95465579638672" /><trkpt lat="22.25736678125" lon="113.95459579638671" /><trkpt lat="22.25736478125" lon="113.95455479638672" /><trkpt lat="22.25735778125" lon="113.95453679638672" /><trkpt lat="22.25732478125" lon="113.95450079638672" /><trkpt lat="22.25730478125" lon="113.95449279638672" /><trkpt lat="22.25719878125" lon="113.95454679638672" /><trkpt lat="22.25719078125" lon="113.95453979638671" /><trkpt lat="22.25718878125" lon="113.95451279638672" /><trkpt lat="22.25721078125" lon="113.95446879638672" /><trkpt lat="22.25721078125" lon="113.95442079638671" /><trkpt lat="22.25722678125" lon="113.95439079638672" /><trkpt lat="22.25723478125" lon="113.95436179638672" /><trkpt lat="22.25724378125" lon="113.95436079638672" /><trkpt lat="22.25724878125" lon="113.95434579638672" /><trkpt lat="22.25724478125" lon="113.95431479638673" /><trkpt lat="22.25723978125" lon="113.95427879638672" /><trkpt lat="22.25722478125" lon="113.95426679638672" /><trkpt lat="22.25721978125" lon="113.95415479638672" /><trkpt lat="22.25720678125" lon="113.95413679638672" /><trkpt lat="22.25718878125" lon="113.95412679638672" /><trkpt lat="22.25716078125" lon="113.95409579638672" /><trkpt lat="22.25713578125" lon="113.95409579638672" /><trkpt lat="22.25712978125" lon="113.95408579638672" /><trkpt lat="22.25713578125" lon="113.95403279638671" /><trkpt lat="22.25712778125" lon="113.95391179638672" /><trkpt lat="22.25711878125" lon="113.95390479638672" /><trkpt lat="22.25712178125" lon="113.95387279638672" /><trkpt lat="22.25713178125" lon="113.95384879638672" /><trkpt lat="22.25711478125" lon="113.95379979638672" /><trkpt lat="22.25711878125" lon="113.95376179638671" /><trkpt lat="22.25712778125" lon="113.95374079638673" /><trkpt lat="22.25713178125" lon="113.95369579638673" /><trkpt lat="22.25710378125" lon="113.95363179638672" /><trkpt lat="22.25708678125" lon="113.95360579638673" /><trkpt lat="22.25709878125" lon="113.95354679638672" /><trkpt lat="22.25709378125" lon="113.95347879638672" /><trkpt lat="22.25709978125" lon="113.95341879638671" /><trkpt lat="22.25709278125" lon="113.95338479638671" /><trkpt lat="22.25708578125" lon="113.95335579638672" /><trkpt lat="22.25708678125" lon="113.95331079638672" /><trkpt lat="22.25709378125" lon="113.95330479638672" /><trkpt lat="22.25709178125" lon="113.95320279638672" /><trkpt lat="22.25710078125" lon="113.95315979638671" /><trkpt lat="22.25708678125" lon="113.95303179638672" /><trkpt lat="22.25709878125" lon="113.95299179638671" /><trkpt lat="22.25721878125" lon="113.95290579638672" /><trkpt lat="22.25720878125" lon="113.95301079638672" /><trkpt lat="22.25720578125" lon="113.95310279638672" /><trkpt lat="22.25718878125" lon="113.95318679638672" /><trkpt lat="22.25719478125" lon="113.95327779638671" /><trkpt lat="22.25720378125" lon="113.95346279638672" /><trkpt lat="22.25719678125" lon="113.95355579638672" /><trkpt lat="22.25729978125" lon="113.95379879638672" /><trkpt lat="22.25731478125" lon="113.95395479638672" /><trkpt lat="22.25734578125" lon="113.95404079638672" /><trkpt lat="22.25737978125" lon="113.95411979638672" /><trkpt lat="22.25738378125" lon="113.95421179638672" /><trkpt lat="22.25736978125" lon="113.95429779638673" /><trkpt lat="22.25739278125" lon="113.95437979638672" /><trkpt lat="22.25740678125" lon="113.95447079638672" /><trkpt lat="22.25736478125" lon="113.95455479638672" /><trkpt lat="22.25736978125" lon="113.95456579638672" /><trkpt lat="22.25736678125" lon="113.95459579638671" /><trkpt lat="22.25734678125" lon="113.95465579638672" /><trkpt lat="22.25734778125" lon="113.95469179638673" /><trkpt lat="22.25734078125" lon="113.95475279638671" /><trkpt lat="22.25734078125" lon="113.95478779638673" /><trkpt lat="22.25733478125" lon="113.95486679638672" /><trkpt lat="22.25734378125" lon="113.95492479638672" /><trkpt lat="22.25733778125" lon="113.95503779638672" /><trkpt lat="22.25734978125" lon="113.95506979638672" /><trkpt lat="22.25735878125" lon="113.95513779638672" /><trkpt lat="22.25734878125" lon="113.95518879638672" /><trkpt lat="22.25735878125" lon="113.95523879638672" /><trkpt lat="22.25744278125" lon="113.95533679638672" /><trkpt lat="22.25745878125" lon="113.95537779638671" /><trkpt lat="22.25746778125" lon="113.95541779638671" /><trkpt lat="22.25749478125" lon="113.95542879638671" /><trkpt lat="22.25753078125" lon="113.95546979638672" /><trkpt lat="22.25757978125" lon="113.95555479638672" /><trkpt lat="22.25761378125" lon="113.95564279638671" /><trkpt lat="22.25763578125" lon="113.95574779638672" /><trkpt lat="22.25764478125" lon="113.95579979638671" /><trkpt lat="22.25764378125" lon="113.95583879638671" /><trkpt lat="22.25762778125" lon="113.95594279638672" /><trkpt lat="22.25776378125" lon="113.95609179638672" /><trkpt lat="22.25785678125" lon="113.95634479638672" /><trkpt lat="22.25782678125" lon="113.95645579638672" /><trkpt lat="22.25782878125" lon="113.95652579638671" /><trkpt lat="22.25787378125" lon="113.95658079638672" /><trkpt lat="22.25790378125" lon="113.95668979638671" /><trkpt lat="22.25790278125" lon="113.95681279638671" /><trkpt lat="22.25801778125" lon="113.95702779638673" /><trkpt lat="22.25809178125" lon="113.95728379638672" /><trkpt lat="22.25800778125" lon="113.95763479638671" /><trkpt lat="22.25796878125" lon="113.95795079638673" /><trkpt lat="22.25804978125" lon="113.95814479638672" /><trkpt lat="22.25811478125" lon="113.95835579638671" /><trkpt lat="22.25814278125" lon="113.95850579638672" /><trkpt lat="22.25822178125" lon="113.95868879638672" /><trkpt lat="22.25823378125" lon="113.95874479638672" /><trkpt lat="22.25830478125" lon="113.95907779638672" /><trkpt lat="22.25826278125" lon="113.95921379638672" /><trkpt lat="22.25823678125" lon="113.95939579638672" /><trkpt lat="22.25821778125" lon="113.95952879638672" /><trkpt lat="22.25826578125" lon="113.95971879638672" /><trkpt lat="22.25838078125" lon="113.95993779638673" /><trkpt lat="22.25843478125" lon="113.96001979638672" /><trkpt lat="22.25844378125" lon="113.96012879638671" /><trkpt lat="22.25845878125" lon="113.96023779638672" /><trkpt lat="22.25846078125" lon="113.96041979638672" /><trkpt lat="22.25850078125" lon="113.96048779638672" /><trkpt lat="22.25854178125" lon="113.96053579638672" /><trkpt lat="22.25857778125" lon="113.96061979638672" /><trkpt lat="22.25861978125" lon="113.96066479638672" /><trkpt lat="22.25872678125" lon="113.96070979638672" /><trkpt lat="22.25879678125" lon="113.96071479638672" /><trkpt lat="22.25886878125" lon="113.96073979638672" /><trkpt lat="22.25897078125" lon="113.96079879638671" /><trkpt lat="22.25903778125" lon="113.96085879638672" /><trkpt lat="22.25909078125" lon="113.96088379638672" /><trkpt lat="22.25914178125" lon="113.96093779638672" /><trkpt lat="22.25919678125" lon="113.96102379638671" /><trkpt lat="22.25928778125" lon="113.96109279638672" /><trkpt lat="22.25937478125" lon="113.96113279638672" /><trkpt lat="22.25946078125" lon="113.96117779638672" /><trkpt lat="22.25950878125" lon="113.96118779638672" /><trkpt lat="22.25956878125" lon="113.96117079638672" /><trkpt lat="22.25963878125" lon="113.96116479638673" /><trkpt lat="22.25970278125" lon="113.96119579638672" /><trkpt lat="22.25971078125" lon="113.96122779638672" /><trkpt lat="22.25972078125" lon="113.96128679638672" /><trkpt lat="22.25972178125" lon="113.96133579638672" /><trkpt lat="22.25971478125" lon="113.96139479638671" /><trkpt lat="22.25974578125" lon="113.96145179638673" /><trkpt lat="22.25980378125" lon="113.96150779638671" /><trkpt lat="22.25999378125" lon="113.96159079638672" /><trkpt lat="22.26011978125" lon="113.96162079638673" /><trkpt lat="22.26018178125" lon="113.96164879638673" /><trkpt lat="22.26016478125" lon="113.96161579638672" /><trkpt lat="22.260130781249998" lon="113.96158479638672" /><trkpt lat="22.26009278125" lon="113.96140679638673" /><trkpt lat="22.26009478125" lon="113.96130479638671" /><trkpt lat="22.260130781249998" lon="113.96121579638672" /><trkpt lat="22.26021478125" lon="113.96111679638672" /><trkpt lat="22.26025578125" lon="113.96106579638672" /><trkpt lat="22.26026878125" lon="113.96098279638672" /><trkpt lat="22.26030378125" lon="113.96094779638672" /><trkpt lat="22.26031978125" lon="113.96089179638672" /><trkpt lat="22.26028478125" lon="113.96085079638672" /><trkpt lat="22.26024478125" lon="113.96082579638671" /><trkpt lat="22.26020978125" lon="113.96077779638672" /><trkpt lat="22.26013478125" lon="113.96055679638673" /><trkpt lat="22.26009378125" lon="113.96052079638672" /><trkpt lat="22.26000578125" lon="113.96045679638672" /><trkpt lat="22.25996678125" lon="113.96037879638672" /><trkpt lat="22.25990178125" lon="113.96035279638672" /><trkpt lat="22.25980278125" lon="113.96022679638672" /><trkpt lat="22.25985978125" lon="113.96012579638672" /><trkpt lat="22.25989478125" lon="113.95986879638671" /><trkpt lat="22.25986978125" lon="113.95962179638671" /><trkpt lat="22.25989478125" lon="113.95938079638672" /><trkpt lat="22.25997878125" lon="113.95918179638672" /><trkpt lat="22.26003378125" lon="113.95890879638672" /><trkpt lat="22.26007378125" lon="113.95864079638672" /><trkpt lat="22.26018778125" lon="113.95839879638672" /><trkpt lat="22.26044578125" lon="113.95794279638672" /><trkpt lat="22.26056978125" lon="113.95777179638672" /><trkpt lat="22.26068878125" lon="113.95765879638672" /><trkpt lat="22.26082778125" lon="113.95759379638672" /><trkpt lat="22.26086278125" lon="113.95744979638671" /><trkpt lat="22.26086278125" lon="113.95729879638672" /><trkpt lat="22.26096678125" lon="113.95715979638672" /><trkpt lat="22.26101678125" lon="113.95699879638671" /><trkpt lat="22.26099178125" lon="113.95687579638673" /><trkpt lat="22.26106678125" lon="113.95670379638672" /><trkpt lat="22.26116078125" lon="113.95646279638672" /><trkpt lat="22.26122478125" lon="113.95623179638672" /><trkpt lat="22.26116078125" lon="113.95604979638672" /><trkpt lat="22.26126478125" lon="113.95592579638672" /><trkpt lat="22.26129978125" lon="113.95579179638672" /><trkpt lat="22.26135378125" lon="113.95572179638671" /><trkpt lat="22.26141378125" lon="113.95553979638672" /><trkpt lat="22.26152778125" lon="113.95538379638671" /><trkpt lat="22.26158278125" lon="113.95518579638671" /><trkpt lat="22.26167678125" lon="113.95498679638672" /><trkpt lat="22.26175678125" lon="113.95488479638672" /><trkpt lat="22.26195978125" lon="113.95480479638672" /><trkpt lat="22.26198478125" lon="113.95472479638671" /><trkpt lat="22.26222278125" lon="113.95457979638672" /><trkpt lat="22.26230278125" lon="113.95447179638671" /><trkpt lat="22.26226778125" lon="113.95437579638671" /><trkpt lat="22.26234178125" lon="113.95436479638671" /><trkpt lat="22.26244378125" lon="113.95422879638672" /><trkpt lat="22.26268478125" lon="113.95421979638672" /><trkpt lat="22.26272978125" lon="113.95414479638671" /><trkpt lat="22.26281378125" lon="113.95413979638671" /><trkpt lat="22.26287878125" lon="113.95402679638671" /><trkpt lat="22.26295278125" lon="113.95402179638671" /><trkpt lat="22.26306678125" lon="113.95403779638671" /><trkpt lat="22.26317178125" lon="113.95402179638671" /><trkpt lat="22.26332478125" lon="113.95402179638671" /><trkpt lat="22.26338978125" lon="113.95391379638671" /><trkpt lat="22.26344478125" lon="113.95380679638671" /><trkpt lat="22.26376178125" lon="113.95377979638671" /><trkpt lat="22.26381678125" lon="113.95372079638672" /><trkpt lat="22.26404478125" lon="113.95361879638672" /><trkpt lat="22.26406978125" lon="113.95353379638672" /><trkpt lat="22.26418878125" lon="113.95352779638672" /><trkpt lat="22.26434278125" lon="113.95347479638671" /><trkpt lat="22.26447678125" lon="113.95345279638671" /><trkpt lat="22.26451178125" lon="113.95335079638672" /><trkpt lat="22.26463578125" lon="113.95328679638672" /><trkpt lat="22.26476978125" lon="113.95325479638672" /><trkpt lat="22.26491878125" lon="113.95313679638672" /><trkpt lat="22.26516478125" lon="113.95292179638672" /><trkpt lat="22.26525578125" lon="113.95286579638672" /><trkpt lat="22.26534078125" lon="113.95281479638672" /><trkpt lat="22.26550978125" lon="113.95273979638672" /><trkpt lat="22.26564778125" lon="113.95272879638672" /><trkpt lat="22.26580778125" lon="113.95279879638672" /><trkpt lat="22.26595678125" lon="113.95279879638672" /><trkpt lat="22.26605078125" lon="113.95273379638672" /><trkpt lat="22.26620478125" lon="113.95266979638672" /><trkpt lat="22.26638778125" lon="113.95267479638672" /><trkpt lat="22.26664678125" lon="113.95276079638671" /><trkpt lat="22.26680078125" lon="113.95279879638672" /><trkpt lat="22.267018781250002" lon="113.95282579638672" /><trkpt lat="22.26714278125" lon="113.95278279638671" /><trkpt lat="22.26730678125" lon="113.95281479638672" /><trkpt lat="22.26742578125" lon="113.95279279638672" /><trkpt lat="22.26758478125" lon="113.95290079638671" /><trkpt lat="22.26772378125" lon="113.95299679638671" /><trkpt lat="22.26781278125" lon="113.95308279638672" /><trkpt lat="22.26801178125" lon="113.95324379638672" /><trkpt lat="22.26838378125" lon="113.95324379638672" /><trkpt lat="22.26843878125" lon="113.95326279638672" /><trkpt lat="22.26847778125" lon="113.95323079638672" /><trkpt lat="22.26851078125" lon="113.95325179638672" /><trkpt lat="22.26854278125" lon="113.95321179638673" /><trkpt lat="22.26855978125" lon="113.95316879638672" /><trkpt lat="22.26857778125" lon="113.95320579638671" /><trkpt lat="22.26861678125" lon="113.95319579638672" /><trkpt lat="22.26860778125" lon="113.95315779638672" /><trkpt lat="22.26863678125" lon="113.95314179638672" /><trkpt lat="22.26868678125" lon="113.95317979638672" /><trkpt lat="22.26878078125" lon="113.95314179638672" /><trkpt lat="22.26896978125" lon="113.95305579638672" /><trkpt lat="22.26912378125" lon="113.95305579638672" /><trkpt lat="22.26921278125" lon="113.95298579638671" /><trkpt lat="22.26935678125" lon="113.95290579638672" /><trkpt lat="22.26965978125" lon="113.95278779638672" /><trkpt lat="22.26972878125" lon="113.95267479638672" /><trkpt lat="22.26980378125" lon="113.95248779638672" /><trkpt lat="22.26996278125" lon="113.95239579638672" /><trkpt lat="22.27006178125" lon="113.95222479638672" /><trkpt lat="22.27016078125" lon="113.95200979638672" /><trkpt lat="22.27012178125" lon="113.95186479638672" /><trkpt lat="22.27040978125" lon="113.95155979638672" /><trkpt lat="22.27060278125" lon="113.95157579638672" /><trkpt lat="22.27070678125" lon="113.95150079638672" /><trkpt lat="22.27077678125" lon="113.95139279638671" /><trkpt lat="22.27091578125" lon="113.95128079638671" /><trkpt lat="22.27103478125" lon="113.95125879638672" /><trkpt lat="22.27107478125" lon="113.95119479638672" /><trkpt lat="22.27126278125" lon="113.95115179638672" /><trkpt lat="22.27135778125" lon="113.95104479638673" /><trkpt lat="22.27158578125" lon="113.95108679638672" /><trkpt lat="22.27187378125" lon="113.95103879638671" /><trkpt lat="22.27205478125" lon="113.95097879638672" /><trkpt lat="22.27202978125" lon="113.95091779638672" /><trkpt lat="22.27191678125" lon="113.95064779638672" /><trkpt lat="22.27169878125" lon="113.95033679638672" /><trkpt lat="22.27167278125" lon="113.95030079638671" /><trkpt lat="22.27155978125" lon="113.95011079638672" /><trkpt lat="22.27149778125" lon="113.94995979638672" /><trkpt lat="22.27137578125" lon="113.94967579638671" /><trkpt lat="22.27129178125" lon="113.94950479638672" /><trkpt lat="22.27124378125" lon="113.94940779638672" /><trkpt lat="22.27121478125" lon="113.94931779638672" /><trkpt lat="22.27117678125" lon="113.94911179638672" /><trkpt lat="22.27112078125" lon="113.94898079638672" /><trkpt lat="22.27106878125" lon="113.94881979638672" /><trkpt lat="22.27110078125" lon="113.94864779638672" /><trkpt lat="22.27117978125" lon="113.94842879638672" /><trkpt lat="22.27127278125" lon="113.94828179638672" /><trkpt lat="22.27133078125" lon="113.94819679638672" /><trkpt lat="22.27139578125" lon="113.94813079638672" /><trkpt lat="22.27149178125" lon="113.94801479638672" /><trkpt lat="22.27156278125" lon="113.94792979638672" /><trkpt lat="22.27161478125" lon="113.94789779638671" /><trkpt lat="22.27167578125" lon="113.94786179638672" /><trkpt lat="22.27194078125" lon="113.94772179638672" /><trkpt lat="22.27210878125" lon="113.94764279638672" /><trkpt lat="22.27227378125" lon="113.94758779638671" /><trkpt lat="22.27240478125" lon="113.94753879638672" /><trkpt lat="22.27256378125" lon="113.94754179638672" /><trkpt lat="22.27271278125" lon="113.94750279638671" /><trkpt lat="22.27279278125" lon="113.94747279638672" /><trkpt lat="22.27285978125" lon="113.94742279638672" /><trkpt lat="22.27292978125" lon="113.94733879638672" /><trkpt lat="22.27304678125" lon="113.94712279638672" /><trkpt lat="22.27310778125" lon="113.94707379638672" /><trkpt lat="22.27316578125" lon="113.94704479638672" /><trkpt lat="22.27352578125" lon="113.94691379638672" /><trkpt lat="22.27358878125" lon="113.94686979638672" /><trkpt lat="22.27366778125" lon="113.94678879638671" /><trkpt lat="22.27383878125" lon="113.94656279638671" /><trkpt lat="22.27386578125" lon="113.94650479638672" /><trkpt lat="22.27394578125" lon="113.94627379638672" /><trkpt lat="22.27407278125" lon="113.94606979638672" /><trkpt lat="22.27420278125" lon="113.94570479638672" /><trkpt lat="22.27427778125" lon="113.94559579638671" /><trkpt lat="22.27432978125" lon="113.94545579638672" /><trkpt lat="22.27446078125" lon="113.94519879638672" /><trkpt lat="22.27452578125" lon="113.94509279638672" /><trkpt lat="22.27462578125" lon="113.94498279638672" /><trkpt lat="22.27472978125" lon="113.94491379638671" /><trkpt lat="22.27487678125" lon="113.94475779638672" /><trkpt lat="22.27491678125" lon="113.94469979638671" /><trkpt lat="22.27497478125" lon="113.94464679638672" /><trkpt lat="22.27506578125" lon="113.94453279638672" /><trkpt lat="22.27522378125" lon="113.94438379638672" /><trkpt lat="22.27527978125" lon="113.94430079638671" /><trkpt lat="22.27534478125" lon="113.94422079638672" /><trkpt lat="22.27543178125" lon="113.94411779638672" /><trkpt lat="22.27551778125" lon="113.94401579638672" /><trkpt lat="22.27555678125" lon="113.94392579638672" /><trkpt lat="22.27560278125" lon="113.94376279638672" /><trkpt lat="22.27564678125" lon="113.94368379638672" /><trkpt lat="22.27580578125" lon="113.94356079638672" /><trkpt lat="22.27594578125" lon="113.94337179638671" /><trkpt lat="22.27613378125" lon="113.94319879638672" /><trkpt lat="22.27624978125" lon="113.94307979638671" /><trkpt lat="22.27626578125" lon="113.94304279638672" /><trkpt lat="22.27636778125" lon="113.94286279638672" /><trkpt lat="22.27654578125" lon="113.94263179638672" /><trkpt lat="22.27657978125" lon="113.94258479638673" /><trkpt lat="22.27661078125" lon="113.94253779638672" /><trkpt lat="22.27664178125" lon="113.94248879638671" /><trkpt lat="22.27675378125" lon="113.94230579638672" /><trkpt lat="22.27691978125" lon="113.94203279638671" /><trkpt lat="22.27698378125" lon="113.94192779638672" /><trkpt lat="22.27705278125" lon="113.94183679638672" /><trkpt lat="22.27713678125" lon="113.94177179638672" /><trkpt lat="22.27726978125" lon="113.94170579638671" /><trkpt lat="22.27740878125" lon="113.94168379638671" /><trkpt lat="22.27769078125" lon="113.94162279638672" /><trkpt lat="22.27793878125" lon="113.94157379638672" /><trkpt lat="22.27798978125" lon="113.94155379638671" /><trkpt lat="22.27807478125" lon="113.94150679638672" /><trkpt lat="22.27815478125" lon="113.94144879638672" /><trkpt lat="22.27829278125" lon="113.94125679638672" /><trkpt lat="22.27842278125" lon="113.94107079638673" /><trkpt lat="22.27857078125" lon="113.94084079638672" /><trkpt lat="22.27864978125" lon="113.94072079638671" /><trkpt lat="22.27867578125" lon="113.94069479638672" /><trkpt lat="22.27887778125" lon="113.94052979638671" /><trkpt lat="22.27896878125" lon="113.94046579638672" /><trkpt lat="22.27901578125" lon="113.94043579638672" /><trkpt lat="22.27906278125" lon="113.94040979638672" /><trkpt lat="22.27913578125" lon="113.94034179638672" /><trkpt lat="22.279224729856377" lon="113.94025565775358" /></trkseg></trk></gpx>