<?xml version='1.0' encoding='UTF-8' ?><gpx version="1.1" creator="HikingTrailHK" xsi:schemaLocation="http://www.topografix.com/GPX/1/1 http://www.topografix.com/GPX/1/1/gpx.xsd" xmlns="http://www.topografix.com/GPX/1/1" xmlns:xsi="http://www.w3.org/2001/XMLSchema-instance"><metadata><name>飛鳳石澗 @ 2017-9-16 10:00</name><desc></desc></metadata><trk><trkseg><trkpt lat="22.405566454471785" lon="114.27642050866794" /><trkpt lat="22.40552778125" lon="114.27650479638672" /><trkpt lat="22.40546778125" lon="114.27668579638672" /><trkpt lat="22.40542678125" lon="114.27693979638671" /><trkpt lat="22.40542678125" lon="114.27720479638671" /><trkpt lat="22.40548578125" lon="114.27797279638672" /><trkpt lat="22.40548978125" lon="114.27815079638673" /><trkpt lat="22.40546678125" lon="114.27839879638672" /><trkpt lat="22.40541078125" lon="114.27862579638672" /><trkpt lat="22.40517878125" lon="114.27897579638672" /><trkpt lat="22.40525978125" lon="114.27903879638671" /><trkpt lat="22.40531878125" lon="114.27905679638671" /><trkpt lat="22.40538478125" lon="114.27903179638672" /><trkpt lat="22.40556678125" lon="114.27891579638671" /><trkpt lat="22.40572578125" lon="114.27883679638671" /><trkpt lat="22.40714178125" lon="114.27812179638671" /><trkpt lat="22.40739678125" lon="114.27802179638672" /><trkpt lat="22.40771878125" lon="114.27778879638672" /><trkpt lat="22.40822978125" lon="114.27737479638672" /><trkpt lat="22.40840978125" lon="114.27725279638672" /><trkpt lat="22.40858178125" lon="114.27718679638672" /><trkpt lat="22.40869578125" lon="114.27716779638672" /><trkpt lat="22.40953478125" lon="114.27682079638672" /><trkpt lat="22.40994978125" lon="114.27678879638673" /><trkpt lat="22.41012478125" lon="114.27677279638672" /><trkpt lat="22.41028378125" lon="114.27671779638672" /><trkpt lat="22.41046178125" lon="114.27664179638671" /><trkpt lat="22.41064678125" lon="114.27654779638672" /><trkpt lat="22.41079078125" lon="114.27647679638672" /><trkpt lat="22.41092778125" lon="114.27645579638671" /><trkpt lat="22.41103578125" lon="114.27644079638672" /><trkpt lat="22.41129778125" lon="114.27644679638672" /><trkpt lat="22.41168878125" lon="114.27644979638671" /><trkpt lat="22.41187178125" lon="114.27643579638672" /><trkpt lat="22.41214578125" lon="114.27641879638672" /><trkpt lat="22.41235178125" lon="114.27642579638672" /><trkpt lat="22.41258778125" lon="114.27651379638672" /><trkpt lat="22.41277278125" lon="114.27650479638672" /><trkpt lat="22.41291878125" lon="114.27643179638672" /><trkpt lat="22.41316378125" lon="114.27630779638672" /><trkpt lat="22.41336078125" lon="114.27620179638672" /><trkpt lat="22.41362578125" lon="114.27611879638673" /><trkpt lat="22.41377578125" lon="114.27606779638671" /><trkpt lat="22.41391778125" lon="114.27598579638672" /><trkpt lat="22.41402078125" lon="114.27589779638672" /><trkpt lat="22.41414178125" lon="114.27580279638671" /><trkpt lat="22.41431278125" lon="114.27571279638671" /><trkpt lat="22.41453178125" lon="114.27560379638672" /><trkpt lat="22.41472278125" lon="114.27556179638673" /><trkpt lat="22.41492078125" lon="114.27552979638672" /><trkpt lat="22.41502978125" lon="114.27553979638672" /><trkpt lat="22.41522878125" lon="114.27557579638672" /><trkpt lat="22.41559478125" lon="114.27563679638672" /><trkpt lat="22.41572978125" lon="114.27567979638673" /><trkpt lat="22.41589178125" lon="114.27573579638671" /><trkpt lat="22.41618878125" lon="114.27589979638672" /><trkpt lat="22.41641878125" lon="114.27595579638673" /><trkpt lat="22.41658278125" lon="114.27598779638672" /><trkpt lat="22.41667078125" lon="114.27597779638671" /><trkpt lat="22.41681578125" lon="114.27601779638672" /><trkpt lat="22.41696578125" lon="114.27612079638672" /><trkpt lat="22.41705378125" lon="114.27614479638672" /><trkpt lat="22.41749678125" lon="114.27615579638672" /><trkpt lat="22.41757678125" lon="114.27616879638671" /><trkpt lat="22.41768378125" lon="114.27619179638671" /><trkpt lat="22.41778078125" lon="114.27618779638672" /><trkpt lat="22.41790878125" lon="114.27613279638672" /><trkpt lat="22.41804478125" lon="114.27609879638672" /><trkpt lat="22.41817978125" lon="114.27613779638672" /><trkpt lat="22.41825778125" lon="114.27615079638672" /><trkpt lat="22.41833478125" lon="114.27618579638671" /><trkpt lat="22.41846278125" lon="114.27626979638671" /><trkpt lat="22.41849178125" lon="114.27632179638672" /><trkpt lat="22.41850478125" lon="114.27638079638672" /><trkpt lat="22.41854678125" lon="114.27646579638672" /><trkpt lat="22.418585781250002" lon="114.27658079638672" /><trkpt lat="22.41861478125" lon="114.27661779638672" /><trkpt lat="22.41871378125" lon="114.27667779638672" /><trkpt lat="22.41883278125" lon="114.27673179638671" /><trkpt lat="22.41893178125" lon="114.27682479638672" /><trkpt lat="22.41898978125" lon="114.27690179638672" /><trkpt lat="22.41904378125" lon="114.27698579638673" /><trkpt lat="22.41909378125" lon="114.27709179638671" /><trkpt lat="22.41915678125" lon="114.27724779638672" /><trkpt lat="22.41916378125" lon="114.27755979638673" /><trkpt lat="22.41917978125" lon="114.27780079638671" /><trkpt lat="22.41923178125" lon="114.27800579638672" /><trkpt lat="22.41926478125" lon="114.27818479638672" /><trkpt lat="22.41933478125" lon="114.27825279638672" /><trkpt lat="22.41937678125" lon="114.27844079638672" /><trkpt lat="22.41937578125" lon="114.27859579638672" /><trkpt lat="22.41939078125" lon="114.27866079638672" /><trkpt lat="22.41947778125" lon="114.27879979638672" /><trkpt lat="22.41959678125" lon="114.27893179638671" /><trkpt lat="22.41965078125" lon="114.27908479638671" /><trkpt lat="22.41969978125" lon="114.27922179638672" /><trkpt lat="22.41971478125" lon="114.27942979638672" /><trkpt lat="22.41973778125" lon="114.27969679638672" /><trkpt lat="22.41980478125" lon="114.27984879638672" /><trkpt lat="22.41987978125" lon="114.27993779638672" /><trkpt lat="22.42003678125" lon="114.28013479638672" /><trkpt lat="22.42021778125" lon="114.28030579638671" /><trkpt lat="22.42027878125" lon="114.28033879638672" /><trkpt lat="22.42041378125" lon="114.28036279638673" /><trkpt lat="22.42064978125" lon="114.28039179638672" /><trkpt lat="22.42076178125" lon="114.28047479638671" /><trkpt lat="22.42096078125" lon="114.28070779638672" /><trkpt lat="22.42120078125" lon="114.28099079638672" /><trkpt lat="22.42131578125" lon="114.28118479638673" /><trkpt lat="22.42137578125" lon="114.28138279638672" /><trkpt lat="22.42142778125" lon="114.28158579638672" /><trkpt lat="22.42144278125" lon="114.28177479638671" /><trkpt lat="22.42156678125" lon="114.28208979638671" /><trkpt lat="22.42167978125" lon="114.28225379638671" /><trkpt lat="22.42172978125" lon="114.28239979638671" /><trkpt lat="22.42177978125" lon="114.28255779638671" /><trkpt lat="22.42186278125" lon="114.28270779638672" /><trkpt lat="22.42196878125" lon="114.28286879638672" /><trkpt lat="22.42210278125" lon="114.28308779638672" /><trkpt lat="22.42220278125" lon="114.28320379638672" /><trkpt lat="22.42225478125" lon="114.28327979638672" /><trkpt lat="22.42227578125" lon="114.28336379638672" /><trkpt lat="22.42225878125" lon="114.28345179638671" /><trkpt lat="22.42218078125" lon="114.28366779638672" /><trkpt lat="22.42209378125" lon="114.28385979638672" /><trkpt lat="22.42207578125" lon="114.28395679638672" /><trkpt lat="22.421115835388633" lon="114.28435254294766" /><trkpt lat="22.42100023164329" lon="114.28440618712796" /><trkpt lat="22.42108205349929" lon="114.28440886933697" /><trkpt lat="22.42101053992603" lon="114.28436630412872" /><trkpt lat="22.42025878125" lon="114.28429779638672" /><trkpt lat="22.41989178125" lon="114.28438379638672" /><trkpt lat="22.41957378125" lon="114.28430879638672" /><trkpt lat="22.41900878125" lon="114.28437279638672" /><trkpt lat="22.41780878125" lon="114.28428679638672" /><trkpt lat="22.41720378125" lon="114.28415879638672" /><trkpt lat="22.41687678125" lon="114.28414779638672" /><trkpt lat="22.41670778125" lon="114.28439479638672" /><trkpt lat="22.41609278125" lon="114.28454479638673" /><trkpt lat="22.41593378125" lon="114.28491979638672" /><trkpt lat="22.41574578125" lon="114.28479179638671" /><trkpt lat="22.41546178125" lon="114.28468779638672" /><trkpt lat="22.41523478125" lon="114.28475279638671" /><trkpt lat="22.41499778125" lon="114.28477679638672" /><trkpt lat="22.41486278125" lon="114.28461479638672" /><trkpt lat="22.414684665369265" lon="114.28471952182247" /><trkpt lat="22.414714420130025" lon="114.28487236124295" /><trkpt lat="22.414714420130025" lon="114.28490191203548" /><trkpt lat="22.41470946100368" lon="114.28490727645351" /><trkpt lat="22.41470450187714" lon="114.28490727645351" /><trkpt lat="22.41470450187714" lon="114.28492873412563" /><trkpt lat="22.41470946100368" lon="114.28492873412563" /><trkpt lat="22.414718848766363" lon="114.28497389306665" /><trkpt lat="22.41450478125" lon="114.28505479638672" /><trkpt lat="22.41441578125" lon="114.28521579638672" /><trkpt lat="22.41452478125" lon="114.28547379638673" /><trkpt lat="22.41444478125" lon="114.28579579638672" /><trkpt lat="22.41445478125" lon="114.28604179638671" /><trkpt lat="22.41432578125" lon="114.28620279638672" /><trkpt lat="22.41428678125" lon="114.28656779638672" /><trkpt lat="22.41438578125" lon="114.28726579638672" /><trkpt lat="22.41428678125" lon="114.28754379638671" /><trkpt lat="22.414310525586856" lon="114.28769976413844" /><trkpt lat="22.414311678199624" lon="114.28770117907573" /><trkpt lat="22.414319064849096" lon="114.28770236973162" /><trkpt lat="22.414322923438007" lon="114.28770386128474" /><trkpt lat="22.414325403008107" lon="114.28770654349375" /><trkpt lat="22.414322923438007" lon="114.28770654349375" /><trkpt lat="22.414334515659338" lon="114.28765939119849" /><trkpt lat="22.41450278125" lon="114.28770779638671" /><trkpt lat="22.41465378125" lon="114.28786379638672" /><trkpt lat="22.41478878125" lon="114.28795179638672" /><trkpt lat="22.41487278125" lon="114.28812379638671" /><trkpt lat="22.41507578125" lon="114.28826979638671" /><trkpt lat="22.41523678125" lon="114.28838979638672" /><trkpt lat="22.41527878125" lon="114.28848879638672" /><trkpt lat="22.41529878125" lon="114.28867079638673" /><trkpt lat="22.41535678125" lon="114.28892579638672" /><trkpt lat="22.41533578125" lon="114.28904579638672" /><trkpt lat="22.41537178125" lon="114.28924879638672" /><trkpt lat="22.41542978125" lon="114.28956079638672" /><trkpt lat="22.41555978125" lon="114.28965979638672" /><trkpt lat="22.41561178125" lon="114.28985279638673" /><trkpt lat="22.41572578125" lon="114.29005079638672" /><trkpt lat="22.41592978125" lon="114.29021679638672" /><trkpt lat="22.41610678125" lon="114.29040979638673" /><trkpt lat="22.41614278125" lon="114.29053479638672" /><trkpt lat="22.41624178125" lon="114.29071179638672" /><trkpt lat="22.41637178125" lon="114.29084179638672" /><trkpt lat="22.41658578125" lon="114.29093079638672" /><trkpt lat="22.41663178125" lon="114.29096979638672" /><trkpt lat="22.41687078125" lon="114.29094279638672" /><trkpt lat="22.41711678125" lon="114.29108279638672" /><trkpt lat="22.41734278125" lon="114.29085579638672" /><trkpt lat="22.41733378125" lon="114.29075379638672" /><trkpt lat="22.41756678125" lon="114.29055479638671" /><trkpt lat="22.41808678125" lon="114.29048679638672" /><trkpt lat="22.41823978125" lon="114.29031279638671" /><trkpt lat="22.41852678125" lon="114.29013279638671" /><trkpt lat="22.41875578125" lon="114.29015379638672" /><trkpt lat="22.41890978125" lon="114.29001679638672" /><trkpt lat="22.41942578125" lon="114.29010479638671" /><trkpt lat="22.41968878125" lon="114.28999279638671" /><trkpt lat="22.41976078125" lon="114.28999379638672" /><trkpt lat="22.42015578125" lon="114.28999779638671" /><trkpt lat="22.42039578125" lon="114.29006279638672" /><trkpt lat="22.42052678125" lon="114.29021779638671" /><trkpt lat="22.42061678125" lon="114.29022479638672" /><trkpt lat="22.42073278125" lon="114.29050479638671" /><trkpt lat="22.42130278125" lon="114.29078379638672" /><trkpt lat="22.42132078125" lon="114.29088679638672" /><trkpt lat="22.42155878125" lon="114.29087979638672" /><trkpt lat="22.42187978125" lon="114.29100479638672" /><trkpt lat="22.42192478125" lon="114.29115179638671" /><trkpt lat="22.42200978125" lon="114.29110079638671" /><trkpt lat="22.42226378125" lon="114.29121379638671" /><trkpt lat="22.42243378125" lon="114.29135679638672" /><trkpt lat="22.42307478125" lon="114.29158079638673" /><trkpt lat="22.42306778125" lon="114.29172579638671" /><trkpt lat="22.42325178125" lon="114.29185479638672" /><trkpt lat="22.42328578125" lon="114.29195079638671" /><trkpt lat="22.42359478125" lon="114.29206279638672" /><trkpt lat="22.42386278125" lon="114.29223979638672" /><trkpt lat="22.42388278125" lon="114.29233679638672" /><trkpt lat="22.42398278125" lon="114.29241379638673" /><trkpt lat="22.42394278125" lon="114.29253879638672" /><trkpt lat="22.42402678125" lon="114.29260179638672" /><trkpt lat="22.42414978125" lon="114.29283879638672" /><trkpt lat="22.42423978125" lon="114.29275779638672" /><trkpt lat="22.42429878125" lon="114.29268279638671" /><trkpt lat="22.42437978125" lon="114.29258979638672" /><trkpt lat="22.42435478125" lon="114.29249879638672" /><trkpt lat="22.42431378125" lon="114.29228779638672" /><trkpt lat="22.42433778125" lon="114.29196579638672" /><trkpt lat="22.42443478125" lon="114.29178679638672" /><trkpt lat="22.42444278125" lon="114.29156679638672" /><trkpt lat="22.42446778125" lon="114.29146279638672" /><trkpt lat="22.42451578125" lon="114.29137379638672" /><trkpt lat="22.42461078125" lon="114.29126879638672" /><trkpt lat="22.42465978125" lon="114.29119379638672" /><trkpt lat="22.42468278125" lon="114.29105279638672" /><trkpt lat="22.42446578125" lon="114.28958779638671" /><trkpt lat="22.42444878125" lon="114.28935179638673" /><trkpt lat="22.42449378125" lon="114.28917879638672" /><trkpt lat="22.42462178125" lon="114.28861779638672" /><trkpt lat="22.42471178125" lon="114.28843479638672" /><trkpt lat="22.42471678125" lon="114.28830379638671" /><trkpt lat="22.42466578125" lon="114.28817279638672" /><trkpt lat="22.42463778125" lon="114.28808079638672" /><trkpt lat="22.42464078125" lon="114.28791879638672" /><trkpt lat="22.42467278125" lon="114.28779379638672" /><trkpt lat="22.42479078125" lon="114.28749879638671" /><trkpt lat="22.42477478125" lon="114.28731279638671" /><trkpt lat="22.42477978125" lon="114.28717479638672" /><trkpt lat="22.42482078125" lon="114.28699479638672" /><trkpt lat="22.42481078125" lon="114.28687279638672" /><trkpt lat="22.42474178125" lon="114.28673679638672" /><trkpt lat="22.42458678125" lon="114.28662279638672" /><trkpt lat="22.42410978125" lon="114.28626679638671" /><trkpt lat="22.42399178125" lon="114.28624679638672" /><trkpt lat="22.42386178125" lon="114.28632179638672" /><trkpt lat="22.42381278125" lon="114.28642179638672" /><trkpt lat="22.42374678125" lon="114.28665079638672" /><trkpt lat="22.42359978125" lon="114.28684179638672" /><trkpt lat="22.42345178125" lon="114.28696579638672" /><trkpt lat="22.42330878125" lon="114.28700479638673" /><trkpt lat="22.42317178125" lon="114.28696679638672" /><trkpt lat="22.42304278125" lon="114.28683179638672" /><trkpt lat="22.42294278125" lon="114.28661579638671" /><trkpt lat="22.42291478125" lon="114.28643379638672" /><trkpt lat="22.42297678125" lon="114.28627079638672" /><trkpt lat="22.42302678125" lon="114.28598879638672" /><trkpt lat="22.42299078125" lon="114.28572479638672" /><trkpt lat="22.42305778125" lon="114.28543979638673" /><trkpt lat="22.42303978125" lon="114.28531379638672" /><trkpt lat="22.42300778125" lon="114.28515279638673" /><trkpt lat="22.42295478125" lon="114.28499579638672" /><trkpt lat="22.42293278125" lon="114.28487279638672" /><trkpt lat="22.42294378125" lon="114.28465379638672" /><trkpt lat="22.42287878125" lon="114.28449679638672" /><trkpt lat="22.42274278125" lon="114.28441379638672" /><trkpt lat="22.42257578125" lon="114.28439379638672" /><trkpt lat="22.42246878125" lon="114.28443579638672" /><trkpt lat="22.42232678125" lon="114.28442479638672" /><trkpt lat="22.42221478125" lon="114.28436779638672" /><trkpt lat="22.42215178125" lon="114.28429079638671" /><trkpt lat="22.42210278125" lon="114.28416279638672" /><trkpt lat="22.42206578125" lon="114.28401579638673" /><trkpt lat="22.42207578125" lon="114.28395679638672" /><trkpt lat="22.42209378125" lon="114.28385979638672" /><trkpt lat="22.42218078125" lon="114.28366779638672" /><trkpt lat="22.42225878125" lon="114.28345179638671" /><trkpt lat="22.42227578125" lon="114.28336379638672" /><trkpt lat="22.42225478125" lon="114.28327979638672" /><trkpt lat="22.42220278125" lon="114.28320379638672" /><trkpt lat="22.42210278125" lon="114.28308779638672" /><trkpt lat="22.42196878125" lon="114.28286879638672" /><trkpt lat="22.42186278125" lon="114.28270779638672" /><trkpt lat="22.42177978125" lon="114.28255779638671" /><trkpt lat="22.42172978125" lon="114.28239979638671" /><trkpt lat="22.42167978125" lon="114.28225379638671" /><trkpt lat="22.42156678125" lon="114.28208979638671" /><trkpt lat="22.42144278125" lon="114.28177479638671" /><trkpt lat="22.42142778125" lon="114.28158579638672" /><trkpt lat="22.42137578125" lon="114.28138279638672" /><trkpt lat="22.42131578125" lon="114.28118479638673" /><trkpt lat="22.42120078125" lon="114.28099079638672" /><trkpt lat="22.42096078125" lon="114.28070779638672" /><trkpt lat="22.42076178125" lon="114.28047479638671" /><trkpt lat="22.42064978125" lon="114.28039179638672" /><trkpt lat="22.42041378125" lon="114.28036279638673" /><trkpt lat="22.42027878125" lon="114.28033879638672" /><trkpt lat="22.42021778125" lon="114.28030579638671" /><trkpt lat="22.42003678125" lon="114.28013479638672" /><trkpt lat="22.41987978125" lon="114.27993779638672" /><trkpt lat="22.41980478125" lon="114.27984879638672" /><trkpt lat="22.41973778125" lon="114.27969679638672" /><trkpt lat="22.41971478125" lon="114.27942979638672" /><trkpt lat="22.41969978125" lon="114.27922179638672" /><trkpt lat="22.41965078125" lon="114.27908479638671" /><trkpt lat="22.41959678125" lon="114.27893179638671" /><trkpt lat="22.41947778125" lon="114.27879979638672" /><trkpt lat="22.41939078125" lon="114.27866079638672" /><trkpt lat="22.41937578125" lon="114.27859579638672" /><trkpt lat="22.41937678125" lon="114.27844079638672" /><trkpt lat="22.41933478125" lon="114.27825279638672" /><trkpt lat="22.41926478125" lon="114.27818479638672" /><trkpt lat="22.41923178125" lon="114.27800579638672" /><trkpt lat="22.41917978125" lon="114.27780079638671" /><trkpt lat="22.41916378125" lon="114.27755979638673" /><trkpt lat="22.41915678125" lon="114.27724779638672" /><trkpt lat="22.41909378125" lon="114.27709179638671" /><trkpt lat="22.41904378125" lon="114.27698579638673" /><trkpt lat="22.41898978125" lon="114.27690179638672" /><trkpt lat="22.41893178125" lon="114.27682479638672" /><trkpt lat="22.41883278125" lon="114.27673179638671" /><trkpt lat="22.41871378125" lon="114.27667779638672" /><trkpt lat="22.41861478125" lon="114.27661779638672" /><trkpt lat="22.418585781250002" lon="114.27658079638672" /><trkpt lat="22.41854678125" lon="114.27646579638672" /><trkpt lat="22.41850478125" lon="114.27638079638672" /><trkpt lat="22.41849178125" lon="114.27632179638672" /><trkpt lat="22.41846278125" lon="114.27626979638671" /><trkpt lat="22.41833478125" lon="114.27618579638671" /><trkpt lat="22.41825778125" lon="114.27615079638672" /><trkpt lat="22.41817978125" lon="114.27613779638672" /><trkpt lat="22.41804478125" lon="114.27609879638672" /><trkpt lat="22.41790878125" lon="114.27613279638672" /><trkpt lat="22.41778078125" lon="114.27618779638672" /><trkpt lat="22.41768378125" lon="114.27619179638671" /><trkpt lat="22.41757678125" lon="114.27616879638671" /><trkpt lat="22.41749678125" lon="114.27615579638672" /><trkpt lat="22.41705378125" lon="114.27614479638672" /><trkpt lat="22.41696578125" lon="114.27612079638672" /><trkpt lat="22.41681578125" lon="114.27601779638672" /><trkpt lat="22.41667078125" lon="114.27597779638671" /><trkpt lat="22.41658278125" lon="114.27598779638672" /><trkpt lat="22.41641878125" lon="114.27595579638673" /><trkpt lat="22.41618878125" lon="114.27589979638672" /><trkpt lat="22.41589178125" lon="114.27573579638671" /><trkpt lat="22.41572978125" lon="114.27567979638673" /><trkpt lat="22.41559478125" lon="114.27563679638672" /><trkpt lat="22.41522878125" lon="114.27557579638672" /><trkpt lat="22.41502978125" lon="114.27553979638672" /><trkpt lat="22.41492078125" lon="114.27552979638672" /><trkpt lat="22.41472278125" lon="114.27556179638673" /><trkpt lat="22.41453178125" lon="114.27560379638672" /><trkpt lat="22.41431278125" lon="114.27571279638671" /><trkpt lat="22.41414178125" lon="114.27580279638671" /><trkpt lat="22.41402078125" lon="114.27589779638672" /><trkpt lat="22.41391778125" lon="114.27598579638672" /><trkpt lat="22.41377578125" lon="114.27606779638671" /><trkpt lat="22.41362578125" lon="114.27611879638673" /><trkpt lat="22.41336078125" lon="114.27620179638672" /><trkpt lat="22.41316378125" lon="114.27630779638672" /><trkpt lat="22.41291878125" lon="114.27643179638672" /><trkpt lat="22.41277278125" lon="114.27650479638672" /><trkpt lat="22.41258778125" lon="114.27651379638672" /><trkpt lat="22.41235178125" lon="114.27642579638672" /><trkpt lat="22.41214578125" lon="114.27641879638672" /><trkpt lat="22.41187178125" lon="114.27643579638672" /><trkpt lat="22.41168878125" lon="114.27644979638671" /><trkpt lat="22.41129778125" lon="114.27644679638672" /><trkpt lat="22.41103578125" lon="114.27644079638672" /><trkpt lat="22.41092778125" lon="114.27645579638671" /><trkpt lat="22.41079078125" lon="114.27647679638672" /><trkpt lat="22.41064678125" lon="114.27654779638672" /><trkpt lat="22.41046178125" lon="114.27664179638671" /><trkpt lat="22.41028378125" lon="114.27671779638672" /><trkpt lat="22.41012478125" lon="114.27677279638672" /><trkpt lat="22.40994978125" lon="114.27678879638673" /><trkpt lat="22.40953478125" lon="114.27682079638672" /><trkpt lat="22.40943478125" lon="114.27676579638671" /><trkpt lat="22.40922878125" lon="114.27670879638671" /><trkpt lat="22.40920078125" lon="114.27669779638671" /><trkpt lat="22.40915678125" lon="114.27666179638672" /><trkpt lat="22.40910378125" lon="114.27657379638671" /><trkpt lat="22.40906278125" lon="114.27649179638672" /><trkpt lat="22.40899078125" lon="114.27641479638672" /><trkpt lat="22.40887678125" lon="114.27631579638673" /><trkpt lat="22.40885378125" lon="114.27626779638672" /><trkpt lat="22.40884578125" lon="114.27620879638671" /><trkpt lat="22.40885978125" lon="114.27614079638671" /><trkpt lat="22.40896578125" lon="114.27597379638672" /><trkpt lat="22.40906678125" lon="114.27581979638671" /><trkpt lat="22.40916278125" lon="114.27573679638672" /><trkpt lat="22.40946278125" lon="114.27558779638672" /><trkpt lat="22.40967078125" lon="114.27552179638671" /><trkpt lat="22.40976478125" lon="114.27546579638671" /><trkpt lat="22.40981878125" lon="114.27542079638671" /><trkpt lat="22.40987578125" lon="114.27537479638671" /><trkpt lat="22.41013278125" lon="114.27525379638672" /><trkpt lat="22.41051678125" lon="114.27505179638672" /><trkpt lat="22.41095478125" lon="114.27477879638671" /><trkpt lat="22.41094078125" lon="114.27474279638672" /><trkpt lat="22.41096978125" lon="114.27467679638671" /><trkpt lat="22.41084178125" lon="114.27456079638672" /><trkpt lat="22.41082678125" lon="114.27457179638672" /><trkpt lat="22.41040078125" lon="114.27484579638671" /><trkpt lat="22.41016378125" lon="114.27479079638672" /><trkpt lat="22.41002878125" lon="114.27457079638671" /><trkpt lat="22.41004878125" lon="114.27449979638672" /><trkpt lat="22.41007678125" lon="114.27440079638671" /><trkpt lat="22.41004678125" lon="114.27432579638672" /><trkpt lat="22.41006778125" lon="114.27424679638672" /><trkpt lat="22.41001478125" lon="114.27415379638671" /><trkpt lat="22.40992078125" lon="114.27400779638671" /><trkpt lat="22.40995878125" lon="114.27386979638672" /><trkpt lat="22.41003778125" lon="114.27377279638672" /><trkpt lat="22.41026978125" lon="114.27361279638671" /><trkpt lat="22.41027878125" lon="114.27351079638672" /><trkpt lat="22.41013678125" lon="114.27353679638672" /><trkpt lat="22.41000778125" lon="114.27353679638672" /><trkpt lat="22.40981878125" lon="114.27354679638673" /><trkpt lat="22.40973178125" lon="114.27344579638672" /><trkpt lat="22.40955478125" lon="114.27358179638672" /><trkpt lat="22.40916278125" lon="114.27376879638672" /><trkpt lat="22.408820699184023" lon="114.27394432537814" /></trkseg></trk></gpx>