<?xml version='1.0' encoding='UTF-8' ?><gpx version="1.1" creator="HikingTrailHK" xsi:schemaLocation="http://www.topografix.com/GPX/1/1 http://www.topografix.com/GPX/1/1/gpx.xsd" xmlns="http://www.topografix.com/GPX/1/1" xmlns:xsi="http://www.w3.org/2001/XMLSchema-instance"><metadata><name>首次自殺崖 @ 2016-07-24 14:02:30</name><desc></desc></metadata><trk><trkseg><trkpt lat="22.334100017954693" lon="114.22250099614884" /><trkpt lat="22.33413378125" lon="114.22264179638672" /><trkpt lat="22.33444478125" lon="114.22377479638672" /><trkpt lat="22.33447878125" lon="114.22391179638672" /><trkpt lat="22.33448178125" lon="114.22399479638672" /><trkpt lat="22.33448278125" lon="114.22405179638672" /><trkpt lat="22.33447778125" lon="114.22412179638673" /><trkpt lat="22.33443678125" lon="114.22425279638672" /><trkpt lat="22.33440378125" lon="114.22428779638672" /><trkpt lat="22.33436078125" lon="114.22437479638671" /><trkpt lat="22.33430778125" lon="114.22446379638671" /><trkpt lat="22.33424678125" lon="114.22456079638673" /><trkpt lat="22.33420778125" lon="114.22463979638673" /><trkpt lat="22.33416878125" lon="114.22473079638672" /><trkpt lat="22.33413878125" lon="114.22482679638672" /><trkpt lat="22.33412378125" lon="114.22492879638672" /><trkpt lat="22.33412278125" lon="114.22501179638672" /><trkpt lat="22.33412778125" lon="114.22506379638672" /><trkpt lat="22.33418278125" lon="114.22508179638672" /><trkpt lat="22.33421678125" lon="114.22509879638672" /><trkpt lat="22.33427178125" lon="114.22519179638672" /><trkpt lat="22.33428478125" lon="114.22521879638671" /><trkpt lat="22.33433578125" lon="114.22550879638672" /><trkpt lat="22.33434578125" lon="114.22553179638672" /><trkpt lat="22.33443678125" lon="114.22571779638672" /><trkpt lat="22.33469378125" lon="114.22612679638672" /><trkpt lat="22.33471378125" lon="114.22615179638672" /><trkpt lat="22.33477378125" lon="114.22608479638671" /><trkpt lat="22.33478378125" lon="114.22605279638672" /><trkpt lat="22.33477678125" lon="114.22601679638672" /><trkpt lat="22.33472078125" lon="114.22589179638672" /><trkpt lat="22.33470778125" lon="114.22580979638671" /><trkpt lat="22.33487178125" lon="114.22566879638671" /><trkpt lat="22.33500078125" lon="114.22549679638672" /><trkpt lat="22.33507978125" lon="114.22535779638672" /><trkpt lat="22.33528078125" lon="114.22538879638672" /><trkpt lat="22.33535778125" lon="114.22540079638672" /><trkpt lat="22.33571578125" lon="114.22541179638672" /><trkpt lat="22.33596678125" lon="114.22543879638671" /><trkpt lat="22.33614178125" lon="114.22545479638671" /><trkpt lat="22.33635078125" lon="114.22532579638671" /><trkpt lat="22.33647978125" lon="114.22532579638671" /><trkpt lat="22.33653478125" lon="114.22528779638672" /><trkpt lat="22.33669778125" lon="114.22517579638672" /><trkpt lat="22.33688878125" lon="114.22507679638672" /><trkpt lat="22.33698878125" lon="114.22498379638672" /><trkpt lat="22.33703778125" lon="114.22495579638672" /><trkpt lat="22.33711378125" lon="114.22494379638673" /><trkpt lat="22.33720078125" lon="114.22488679638671" /><trkpt lat="22.33727878125" lon="114.22487579638671" /><trkpt lat="22.33733778125" lon="114.22483179638672" /><trkpt lat="22.33737478125" lon="114.22473879638672" /><trkpt lat="22.33749478125" lon="114.22462979638672" /><trkpt lat="22.33751678125" lon="114.22471179638671" /><trkpt lat="22.33754878125" lon="114.22462779638671" /><trkpt lat="22.33767578125" lon="114.22456579638671" /><trkpt lat="22.33773378125" lon="114.22441079638672" /><trkpt lat="22.33765178125" lon="114.22423279638672" /><trkpt lat="22.33768878125" lon="114.22417979638672" /><trkpt lat="22.33765978125" lon="114.22411379638672" /><trkpt lat="22.33773678125" lon="114.22388979638671" /><trkpt lat="22.33774578125" lon="114.22386579638672" /><trkpt lat="22.33784210580999" lon="114.22373226658604" /><trkpt lat="22.33788078125" lon="114.22373279638671" /><trkpt lat="22.33792378125" lon="114.22369979638673" /><trkpt lat="22.33798578125" lon="114.22361679638672" /><trkpt lat="22.33803278125" lon="114.22357679638672" /><trkpt lat="22.33801278125" lon="114.22351479638672" /><trkpt lat="22.33802278125" lon="114.22343479638671" /><trkpt lat="22.33809478125" lon="114.22334379638671" /><trkpt lat="22.33816678125" lon="114.22331379638672" /><trkpt lat="22.33820878125" lon="114.22331679638671" /><trkpt lat="22.33823878125" lon="114.22336979638672" /><trkpt lat="22.33830778125" lon="114.22336979638672" /><trkpt lat="22.33835278125" lon="114.22332179638671" /><trkpt lat="22.33839978125" lon="114.22337579638672" /><trkpt lat="22.33845478125" lon="114.22327879638672" /><trkpt lat="22.33847678125" lon="114.22319279638671" /><trkpt lat="22.33849178125" lon="114.22314279638672" /><trkpt lat="22.33852578125" lon="114.22313979638672" /><trkpt lat="22.33856578125" lon="114.22316379638671" /><trkpt lat="22.33860578125" lon="114.22317479638672" /><trkpt lat="22.33867778125" lon="114.22319279638671" /><trkpt lat="22.33871778125" lon="114.22323879638672" /><trkpt lat="22.33879878125" lon="114.22323379638672" /><trkpt lat="22.33888378125" lon="114.22320179638672" /><trkpt lat="22.33895278125" lon="114.22315279638671" /><trkpt lat="22.33897278125" lon="114.22319579638672" /><trkpt lat="22.33903778125" lon="114.22320179638672" /><trkpt lat="22.33907978125" lon="114.22318279638672" /><trkpt lat="22.33917578125" lon="114.22319079638672" /><trkpt lat="22.33923078125" lon="114.22317979638672" /><trkpt lat="22.33934778125" lon="114.22309179638673" /><trkpt lat="22.33937978125" lon="114.22309679638671" /><trkpt lat="22.33945878125" lon="114.22307479638671" /><trkpt lat="22.33965278125" lon="114.22304879638672" /><trkpt lat="22.33969678125" lon="114.22309979638672" /><trkpt lat="22.33974478125" lon="114.22310979638672" /><trkpt lat="22.33979178125" lon="114.22307479638671" /><trkpt lat="22.33983878125" lon="114.22305879638672" /><trkpt lat="22.33991078125" lon="114.22309679638671" /><trkpt lat="22.33994078125" lon="114.22314279638672" /><trkpt lat="22.33998978125" lon="114.22319079638672" /><trkpt lat="22.34009378125" lon="114.22323879638672" /><trkpt lat="22.34023278125" lon="114.22330879638672" /><trkpt lat="22.34042978125" lon="114.22333979638672" /><trkpt lat="22.34052078125" lon="114.22334579638672" /><trkpt lat="22.34059578125" lon="114.22334579638672" /><trkpt lat="22.34064778125" lon="114.22334779638672" /><trkpt lat="22.34066178125" lon="114.22329779638672" /><trkpt lat="22.34075678125" lon="114.22329179638672" /><trkpt lat="22.34080878125" lon="114.22326779638672" /><trkpt lat="22.34086378125" lon="114.22321379638672" /><trkpt lat="22.34092978125" lon="114.22317979638672" /><trkpt lat="22.34098578125" lon="114.22312579638673" /><trkpt lat="22.34103378125" lon="114.22303279638672" /><trkpt lat="22.34109178125" lon="114.22296779638671" /><trkpt lat="22.34115578125" lon="114.22294379638672" /><trkpt lat="22.34121978125" lon="114.22290479638671" /><trkpt lat="22.34134078125" lon="114.22294279638672" /><trkpt lat="22.34142178125" lon="114.22290779638672" /><trkpt lat="22.34146778125" lon="114.22287079638672" /><trkpt lat="22.34155078125" lon="114.22278679638671" /><trkpt lat="22.34160178125" lon="114.22276479638671" /><trkpt lat="22.34164078125" lon="114.22279179638672" /><trkpt lat="22.34168778125" lon="114.22283679638672" /><trkpt lat="22.34172778125" lon="114.22285979638671" /><trkpt lat="22.34175778125" lon="114.22290779638672" /><trkpt lat="22.34177178125" lon="114.22293779638672" /><trkpt lat="22.34178278125" lon="114.22296579638672" /><trkpt lat="22.34179378125" lon="114.22304679638673" /><trkpt lat="22.34185578125" lon="114.22310679638672" /><trkpt lat="22.34188078125" lon="114.22314679638671" /><trkpt lat="22.34190878125" lon="114.22318579638672" /><trkpt lat="22.34191878125" lon="114.22322679638673" /><trkpt lat="22.34192378125" lon="114.22329179638672" /><trkpt lat="22.34194678125" lon="114.22331679638671" /><trkpt lat="22.34199678125" lon="114.22335079638673" /><trkpt lat="22.34201578125" lon="114.22343279638672" /><trkpt lat="22.34200978125" lon="114.22351279638671" /><trkpt lat="22.34196678125" lon="114.22358779638672" /><trkpt lat="22.34193978125" lon="114.22366179638672" /><trkpt lat="22.34195678125" lon="114.22372779638673" /><trkpt lat="22.34197678125" lon="114.22377279638673" /><trkpt lat="22.34199078125" lon="114.22381079638672" /><trkpt lat="22.34196378125" lon="114.22391279638671" /><trkpt lat="22.34199478125" lon="114.22394979638672" /><trkpt lat="22.34200978125" lon="114.22398079638671" /><trkpt lat="22.34200978125" lon="114.22409079638672" /><trkpt lat="22.34200578125" lon="114.22416779638672" /><trkpt lat="22.34203078125" lon="114.22420479638672" /><trkpt lat="22.34206878125" lon="114.22429079638673" /><trkpt lat="22.34212078125" lon="114.22433279638672" /><trkpt lat="22.34215978125" lon="114.22438079638673" /><trkpt lat="22.34222178125" lon="114.22446479638671" /><trkpt lat="22.34230178125" lon="114.22451779638672" /><trkpt lat="22.34234778125" lon="114.22458879638671" /><trkpt lat="22.34242778125" lon="114.22464179638672" /><trkpt lat="22.34229478125" lon="114.22489779638671" /><trkpt lat="22.34235778125" lon="114.22500979638671" /><trkpt lat="22.34237878125" lon="114.22511879638672" /><trkpt lat="22.34252778125" lon="114.22518079638672" /><trkpt lat="22.34258278125" lon="114.22527079638672" /><trkpt lat="22.34267278125" lon="114.22532579638671" /><trkpt lat="22.34274978125" lon="114.22536179638672" /><trkpt lat="22.34278878125" lon="114.22543979638672" /><trkpt lat="22.34283878125" lon="114.22546979638672" /><trkpt lat="22.34285378125" lon="114.22552579638672" /><trkpt lat="22.34288378125" lon="114.22557879638671" /><trkpt lat="22.34294478125" lon="114.22563079638672" /><trkpt lat="22.34298978125" lon="114.22565779638671" /><trkpt lat="22.34301578125" lon="114.22569979638672" /><trkpt lat="22.34305078125" lon="114.22572779638672" /><trkpt lat="22.34312478125" lon="114.22581579638671" /><trkpt lat="22.34317878125" lon="114.22584879638671" /><trkpt lat="22.34319778125" lon="114.22590579638671" /><trkpt lat="22.34319778125" lon="114.22598479638671" /><trkpt lat="22.34324878125" lon="114.22605879638672" /><trkpt lat="22.34331078125" lon="114.22615279638671" /><trkpt lat="22.34338278125" lon="114.22625979638671" /><trkpt lat="22.34343678125" lon="114.22631279638672" /><trkpt lat="22.34346578125" lon="114.22635079638673" /><trkpt lat="22.34349678125" lon="114.22639779638672" /><trkpt lat="22.34353178125" lon="114.22642279638671" /><trkpt lat="22.34358978125" lon="114.22647279638672" /><trkpt lat="22.34362978125" lon="114.22649879638672" /><trkpt lat="22.34366078125" lon="114.22652879638672" /><trkpt lat="22.34369778125" lon="114.22660479638672" /><trkpt lat="22.34373578125" lon="114.22667179638673" /><trkpt lat="22.34379878125" lon="114.22674079638672" /><trkpt lat="22.34380778125" lon="114.22676679638671" /><trkpt lat="22.34385578125" lon="114.22682379638673" /><trkpt lat="22.34384178125" lon="114.22687179638672" /><trkpt lat="22.34384578125" lon="114.22695179638671" /><trkpt lat="22.34384878125" lon="114.22701579638672" /><trkpt lat="22.34391878125" lon="114.22722379638672" /><trkpt lat="22.34395578125" lon="114.22736279638671" /><trkpt lat="22.34396778125" lon="114.22748979638672" /><trkpt lat="22.34396078125" lon="114.22753079638672" /><trkpt lat="22.34394978125" lon="114.22759279638672" /><trkpt lat="22.34388878125" lon="114.22769979638672" /><trkpt lat="22.34387178125" lon="114.22773079638672" /><trkpt lat="22.34374978125" lon="114.22782779638672" /><trkpt lat="22.34365878125" lon="114.22787179638672" /><trkpt lat="22.34358478125" lon="114.22787979638672" /><trkpt lat="22.34350678125" lon="114.22787979638672" /><trkpt lat="22.34338178125" lon="114.22788879638672" /><trkpt lat="22.34333978125" lon="114.22789579638672" /><trkpt lat="22.34330478125" lon="114.22790179638672" /><trkpt lat="22.34319478125" lon="114.22796479638671" /><trkpt lat="22.34307178125" lon="114.22803579638672" /><trkpt lat="22.34292878125" lon="114.22811279638672" /><trkpt lat="22.34279378125" lon="114.22812679638672" /><trkpt lat="22.34263578125" lon="114.22808979638671" /><trkpt lat="22.342506781250002" lon="114.22798079638672" /><trkpt lat="22.34236378125" lon="114.22790079638672" /><trkpt lat="22.34230178125" lon="114.22785279638671" /><trkpt lat="22.34221278125" lon="114.22781379638671" /><trkpt lat="22.34212778125" lon="114.22781479638672" /><trkpt lat="22.34203878125" lon="114.22783679638673" /><trkpt lat="22.34197778125" lon="114.22786279638672" /><trkpt lat="22.34189078125" lon="114.22789879638673" /><trkpt lat="22.34176978125" lon="114.22793479638672" /><trkpt lat="22.34156778125" lon="114.22795579638672" /><trkpt lat="22.34148178125" lon="114.22796479638671" /><trkpt lat="22.34134778125" lon="114.22798779638671" /><trkpt lat="22.34121378125" lon="114.22809779638672" /><trkpt lat="22.34118478125" lon="114.22813179638672" /><trkpt lat="22.34111778125" lon="114.22821379638673" /><trkpt lat="22.34098878125" lon="114.22849479638671" /><trkpt lat="22.34096278125" lon="114.22855179638672" /><trkpt lat="22.34088078125" lon="114.22866279638671" /><trkpt lat="22.34079078125" lon="114.22874779638671" /><trkpt lat="22.34065578125" lon="114.22884279638672" /><trkpt lat="22.34051878125" lon="114.22892979638672" /><trkpt lat="22.34038678125" lon="114.22901079638672" /><trkpt lat="22.34020878125" lon="114.22908779638672" /><trkpt lat="22.34002178125" lon="114.22915279638671" /><trkpt lat="22.33983478125" lon="114.22923479638672" /><trkpt lat="22.33966078125" lon="114.22934079638672" /><trkpt lat="22.33958478125" lon="114.22944379638672" /><trkpt lat="22.33956178125" lon="114.22956279638672" /><trkpt lat="22.33959278125" lon="114.22965979638671" /><trkpt lat="22.33963478125" lon="114.22971379638672" /><trkpt lat="22.33968178125" lon="114.22978779638672" /><trkpt lat="22.33967578125" lon="114.22986279638671" /><trkpt lat="22.33964878125" lon="114.22991579638672" /><trkpt lat="22.33956878125" lon="114.22995879638673" /><trkpt lat="22.33945378125" lon="114.22999179638671" /><trkpt lat="22.33935678125" lon="114.23000479638672" /><trkpt lat="22.33920778125" lon="114.23002679638672" /><trkpt lat="22.33907478125" lon="114.23006179638672" /><trkpt lat="22.33892978125" lon="114.23007279638672" /><trkpt lat="22.33881778125" lon="114.23007179638672" /><trkpt lat="22.33871178125" lon="114.23002479638672" /><trkpt lat="22.33864978125" lon="114.22996479638672" /><trkpt lat="22.33854978125" lon="114.22978779638672" /><trkpt lat="22.33846778125" lon="114.22955979638672" /><trkpt lat="22.33840178125" lon="114.22943679638672" /><trkpt lat="22.33833178125" lon="114.22938079638672" /><trkpt lat="22.33825078125" lon="114.22934679638672" /><trkpt lat="22.33816578125" lon="114.22933479638672" /><trkpt lat="22.33807978125" lon="114.22934679638672" /><trkpt lat="22.33799978125" lon="114.22939579638673" /><trkpt lat="22.33762078125" lon="114.22960479638672" /><trkpt lat="22.33750778125" lon="114.22963379638672" /><trkpt lat="22.33739278125" lon="114.22963079638672" /><trkpt lat="22.33728178125" lon="114.22959779638671" /><trkpt lat="22.33718178125" lon="114.22954579638672" /><trkpt lat="22.33690878125" lon="114.22939979638672" /><trkpt lat="22.33674178125" lon="114.22924479638672" /><trkpt lat="22.33653278125" lon="114.22896379638672" /><trkpt lat="22.33614978125" lon="114.22838479638672" /><trkpt lat="22.33574278125" lon="114.22758979638672" /><trkpt lat="22.33566278125" lon="114.22734879638672" /><trkpt lat="22.33561378125" lon="114.22721379638672" /><trkpt lat="22.33557178125" lon="114.22710979638671" /><trkpt lat="22.33542978125" lon="114.22688379638672" /><trkpt lat="22.33509078125" lon="114.22650779638671" /><trkpt lat="22.33486678125" lon="114.22632879638672" /><trkpt lat="22.33471378125" lon="114.22615179638672" /><trkpt lat="22.33469378125" lon="114.22612679638672" /><trkpt lat="22.33443678125" lon="114.22571779638672" /><trkpt lat="22.33434578125" lon="114.22553179638672" /><trkpt lat="22.33433578125" lon="114.22550879638672" /><trkpt lat="22.33428478125" lon="114.22521879638671" /><trkpt lat="22.33427178125" lon="114.22519179638672" /><trkpt lat="22.33421678125" lon="114.22509879638672" /><trkpt lat="22.33418278125" lon="114.22508179638672" /><trkpt lat="22.33418678125" lon="114.22521279638671" /><trkpt lat="22.33417878125" lon="114.22526279638672" /><trkpt lat="22.33414778125" lon="114.22521079638672" /><trkpt lat="22.33413378125" lon="114.22512979638672" /><trkpt lat="22.33412778125" lon="114.22506379638672" /><trkpt lat="22.33412278125" lon="114.22501179638672" /><trkpt lat="22.33412378125" lon="114.22492879638672" /><trkpt lat="22.33413878125" lon="114.22482679638672" /><trkpt lat="22.33416878125" lon="114.22473079638672" /><trkpt lat="22.33420778125" lon="114.22463979638673" /><trkpt lat="22.33424678125" lon="114.22456079638673" /><trkpt lat="22.33430778125" lon="114.22446379638671" /><trkpt lat="22.33436078125" lon="114.22437479638671" /><trkpt lat="22.33440378125" lon="114.22428779638672" /><trkpt lat="22.33443678125" lon="114.22425279638672" /><trkpt lat="22.33447778125" lon="114.22412179638673" /><trkpt lat="22.33448278125" lon="114.22405179638672" /><trkpt lat="22.33448178125" lon="114.22399479638672" /><trkpt lat="22.33447878125" lon="114.22391179638672" /><trkpt lat="22.33444478125" lon="114.22377479638672" /><trkpt lat="22.33413378125" lon="114.22264179638672" /><trkpt lat="22.33408678125" lon="114.22244579638672" /><trkpt lat="22.33394478125" lon="114.22182879638672" /><trkpt lat="22.33393978125" lon="114.22179379638672" /><trkpt lat="22.33391778125" lon="114.22160979638672" /><trkpt lat="22.333945442135576" lon="114.22169303976729" /></trkseg></trk></gpx>