<?xml version='1.0' encoding='UTF-8' ?><gpx version="1.1" creator="HikingTrailHK" xsi:schemaLocation="http://www.topografix.com/GPX/1/1 http://www.topografix.com/GPX/1/1/gpx.xsd" xmlns="http://www.topografix.com/GPX/1/1" xmlns:xsi="http://www.w3.org/2001/XMLSchema-instance"><metadata><name>香港仔水塘 @ 2025-10-07</name><desc></desc></metadata><trk><trkseg><trkpt lat="22.249465403648554" lon="114.1556970340618" /><trkpt lat="22.24946278125" lon="114.15571279638672" /><trkpt lat="22.24946678125" lon="114.15575379638672" /><trkpt lat="22.24941178125" lon="114.15580079638671" /><trkpt lat="22.24943878125" lon="114.15582479638672" /><trkpt lat="22.24947178125" lon="114.15585779638671" /><trkpt lat="22.24950778125" lon="114.15588079638673" /><trkpt lat="22.24978178125" lon="114.15602879638672" /><trkpt lat="22.25004678125" lon="114.15618979638671" /><trkpt lat="22.25012878125" lon="114.15623879638672" /><trkpt lat="22.25038978125" lon="114.15639579638672" /><trkpt lat="22.25053978125" lon="114.15642679638673" /><trkpt lat="22.25076378125" lon="114.15644379638672" /><trkpt lat="22.25106478125" lon="114.15643279638672" /><trkpt lat="22.25115778125" lon="114.15644179638672" /><trkpt lat="22.25123678125" lon="114.15646879638672" /><trkpt lat="22.25132778125" lon="114.15652379638672" /><trkpt lat="22.25144078125" lon="114.15661879638672" /><trkpt lat="22.25157578125" lon="114.15675579638672" /><trkpt lat="22.25161078125" lon="114.15679679638671" /><trkpt lat="22.25186178125" lon="114.15709079638673" /><trkpt lat="22.25208278125" lon="114.15741379638672" /><trkpt lat="22.25222778125" lon="114.15762579638672" /><trkpt lat="22.25264378125" lon="114.15814379638672" /><trkpt lat="22.25293778125" lon="114.15848679638673" /><trkpt lat="22.25298978125" lon="114.15852679638672" /><trkpt lat="22.25304578125" lon="114.15856479638671" /><trkpt lat="22.25309578125" lon="114.15858479638672" /><trkpt lat="22.25321278125" lon="114.15861679638672" /><trkpt lat="22.25341778125" lon="114.15869679638672" /><trkpt lat="22.25350078125" lon="114.15872879638673" /><trkpt lat="22.25371178125" lon="114.15886279638671" /><trkpt lat="22.25374678125" lon="114.15888579638671" /><trkpt lat="22.25400578125" lon="114.15904979638673" /><trkpt lat="22.25410978125" lon="114.15910379638672" /><trkpt lat="22.25421178125" lon="114.15916279638672" /><trkpt lat="22.25429078125" lon="114.15929179638673" /><trkpt lat="22.25429878125" lon="114.15930479638672" /><trkpt lat="22.25432778125" lon="114.15935179638672" /><trkpt lat="22.25437778125" lon="114.15939479638672" /><trkpt lat="22.25466478125" lon="114.15948279638671" /><trkpt lat="22.25492278125" lon="114.15963679638672" /><trkpt lat="22.25495478125" lon="114.15974879638672" /><trkpt lat="22.25498878125" lon="114.15986479638671" /><trkpt lat="22.25510978125" lon="114.16006179638671" /><trkpt lat="22.25536278125" lon="114.16015579638672" /><trkpt lat="22.25570778125" lon="114.16016079638672" /><trkpt lat="22.25611778125" lon="114.16026179638672" /><trkpt lat="22.25638378125" lon="114.16049879638672" /><trkpt lat="22.25682878125" lon="114.16054579638671" /><trkpt lat="22.25694878125" lon="114.16056779638672" /><trkpt lat="22.25706878125" lon="114.16062679638672" /><trkpt lat="22.25712478125" lon="114.16066079638672" /><trkpt lat="22.25713178125" lon="114.16067779638672" /><trkpt lat="22.25713778125" lon="114.16069579638672" /><trkpt lat="22.25714078125" lon="114.16071179638672" /><trkpt lat="22.25714178125" lon="114.16073179638671" /><trkpt lat="22.25714078125" lon="114.16075179638672" /><trkpt lat="22.25711778125" lon="114.16093979638671" /><trkpt lat="22.25710978125" lon="114.16101879638671" /><trkpt lat="22.25709078125" lon="114.16121079638671" /><trkpt lat="22.25709178125" lon="114.16123379638672" /><trkpt lat="22.25709378125" lon="114.16125679638672" /><trkpt lat="22.25709978125" lon="114.16127779638671" /><trkpt lat="22.25710678125" lon="114.16129779638672" /><trkpt lat="22.25711578125" lon="114.16131579638672" /><trkpt lat="22.25712778125" lon="114.16133179638672" /><trkpt lat="22.25714378125" lon="114.16134879638672" /><trkpt lat="22.25715878125" lon="114.16136079638672" /><trkpt lat="22.25717578125" lon="114.16136979638672" /><trkpt lat="22.25719478125" lon="114.16137779638672" /><trkpt lat="22.25721678125" lon="114.16138479638671" /><trkpt lat="22.25723778125" lon="114.16138779638672" /><trkpt lat="22.25725978125" lon="114.16138979638671" /><trkpt lat="22.25732178125" lon="114.16139079638671" /><trkpt lat="22.25733478125" lon="114.16139179638672" /><trkpt lat="22.25734678125" lon="114.16139379638672" /><trkpt lat="22.25735878125" lon="114.16139679638673" /><trkpt lat="22.25739078125" lon="114.16141179638672" /><trkpt lat="22.25741278125" lon="114.16142479638673" /><trkpt lat="22.25745278125" lon="114.16145179638671" /><trkpt lat="22.25747278125" lon="114.16146379638671" /><trkpt lat="22.25750578125" lon="114.16148179638672" /><trkpt lat="22.25752278125" lon="114.16148979638672" /><trkpt lat="22.25754178125" lon="114.16149779638671" /><trkpt lat="22.25756278125" lon="114.16150479638672" /><trkpt lat="22.25758578125" lon="114.16151079638672" /><trkpt lat="22.25761178125" lon="114.16151379638671" /><trkpt lat="22.25763578125" lon="114.16151479638671" /><trkpt lat="22.25765478125" lon="114.16151279638672" /><trkpt lat="22.25767578125" lon="114.16150779638672" /><trkpt lat="22.25769678125" lon="114.16150079638672" /><trkpt lat="22.25771278125" lon="114.16149379638672" /><trkpt lat="22.25772578125" lon="114.16148579638671" /><trkpt lat="22.25776378125" lon="114.16146279638672" /><trkpt lat="22.25778078125" lon="114.16145279638671" /><trkpt lat="22.25779778125" lon="114.16144379638672" /><trkpt lat="22.25782178125" lon="114.16143379638672" /><trkpt lat="22.25784578125" lon="114.16142679638672" /><trkpt lat="22.25787278125" lon="114.16142179638672" /><trkpt lat="22.25790278125" lon="114.16141879638671" /><trkpt lat="22.25793178125" lon="114.16141779638671" /><trkpt lat="22.25795378125" lon="114.16142079638672" /><trkpt lat="22.25796678125" lon="114.16142279638672" /><trkpt lat="22.25797878125" lon="114.16142679638672" /><trkpt lat="22.25799178125" lon="114.16143379638672" /><trkpt lat="22.25800578125" lon="114.16144279638672" /><trkpt lat="22.25801878125" lon="114.16145379638672" /><trkpt lat="22.25804578125" lon="114.16147879638672" /><trkpt lat="22.25806078125" lon="114.16149179638671" /><trkpt lat="22.25807578125" lon="114.16150379638673" /><trkpt lat="22.25810178125" lon="114.16152179638672" /><trkpt lat="22.25811878125" lon="114.16153179638673" /><trkpt lat="22.25813778125" lon="114.16154179638671" /><trkpt lat="22.25815478125" lon="114.16154779638671" /><trkpt lat="22.25817478125" lon="114.16155279638672" /><trkpt lat="22.25819978125" lon="114.16155679638672" /><trkpt lat="22.25822878125" lon="114.16155979638671" /><trkpt lat="22.25826678125" lon="114.16156079638672" /><trkpt lat="22.25865178125" lon="114.16156379638672" /><trkpt lat="22.25867278125" lon="114.16156479638671" /><trkpt lat="22.25869078125" lon="114.16156779638672" /><trkpt lat="22.25870678125" lon="114.16157379638672" /><trkpt lat="22.25872678125" lon="114.16158479638672" /><trkpt lat="22.25874378125" lon="114.16159679638672" /><trkpt lat="22.25889578125" lon="114.16172179638671" /><trkpt lat="22.25891078125" lon="114.16173779638672" /><trkpt lat="22.25892178125" lon="114.16175479638672" /><trkpt lat="22.25893178125" lon="114.16177279638671" /><trkpt lat="22.25893978125" lon="114.16179279638672" /><trkpt lat="22.25894478125" lon="114.16181379638672" /><trkpt lat="22.25894578125" lon="114.16183479638671" /><trkpt lat="22.25894478125" lon="114.16185679638672" /><trkpt lat="22.25894078125" lon="114.16187779638672" /><trkpt lat="22.25893678125" lon="114.16189479638672" /><trkpt lat="22.25892978125" lon="114.16191079638672" /><trkpt lat="22.25892078125" lon="114.16192879638672" /><trkpt lat="22.25891078125" lon="114.16194279638673" /><trkpt lat="22.25889978125" lon="114.16195579638672" /><trkpt lat="22.25888678125" lon="114.16196679638672" /><trkpt lat="22.25887278125" lon="114.16197779638672" /><trkpt lat="22.25885578125" lon="114.16198879638672" /><trkpt lat="22.25883578125" lon="114.16199879638671" /><trkpt lat="22.25869578125" lon="114.16205979638671" /><trkpt lat="22.25867978125" lon="114.16206779638672" /><trkpt lat="22.25866978125" lon="114.16207479638672" /><trkpt lat="22.25865978125" lon="114.16208279638671" /><trkpt lat="22.25864978125" lon="114.16209279638672" /><trkpt lat="22.25863978125" lon="114.16210579638673" /><trkpt lat="22.25853278125" lon="114.16226579638672" /><trkpt lat="22.25851978125" lon="114.16228779638672" /><trkpt lat="22.25850878125" lon="114.16230979638672" /><trkpt lat="22.25850178125" lon="114.16233079638671" /><trkpt lat="22.25848678125" lon="114.16266579638672" /><trkpt lat="22.25849178125" lon="114.16273079638673" /><trkpt lat="22.25850578125" lon="114.16276079638672" /><trkpt lat="22.25855678125" lon="114.16282279638672" /><trkpt lat="22.25872278125" lon="114.16297779638671" /><trkpt lat="22.25877478125" lon="114.16307879638671" /><trkpt lat="22.25880578125" lon="114.16317579638672" /><trkpt lat="22.25882078125" lon="114.16322279638672" /><trkpt lat="22.25879378125" lon="114.16327079638671" /><trkpt lat="22.25877778125" lon="114.16330979638671" /><trkpt lat="22.25875478125" lon="114.16335079638672" /><trkpt lat="22.25871578125" lon="114.16338279638671" /><trkpt lat="22.25884278125" lon="114.16338379638673" /><trkpt lat="22.25885278125" lon="114.16345079638671" /><trkpt lat="22.25884078125" lon="114.16350979638672" /><trkpt lat="22.25880178125" lon="114.16356579638672" /><trkpt lat="22.25877378125" lon="114.16363879638672" /><trkpt lat="22.25858278125" lon="114.16363079638671" /><trkpt lat="22.25840378125" lon="114.16372479638672" /><trkpt lat="22.25833678125" lon="114.16375179638672" /><trkpt lat="22.25825678125" lon="114.16376579638671" /><trkpt lat="22.25818978125" lon="114.16378179638671" /><trkpt lat="22.25822478125" lon="114.16396079638672" /><trkpt lat="22.25825878125" lon="114.16403679638672" /><trkpt lat="22.25818778125" lon="114.16421779638672" /><trkpt lat="22.25821378125" lon="114.16431979638672" /><trkpt lat="22.25829378125" lon="114.16429779638672" /><trkpt lat="22.25834278125" lon="114.16414379638672" /><trkpt lat="22.258172566184527" lon="114.16381995475967" /><trkpt lat="22.258170502856032" lon="114.16381772047606" /><trkpt lat="22.258148023879343" lon="114.16377580630541" /><trkpt lat="22.258148007903273" lon="114.16376904842502" /><trkpt lat="22.258146314963767" lon="114.16376752498178" /><trkpt lat="22.25816054645722" lon="114.16373934909727" /><trkpt lat="22.25797678125" lon="114.16361779638672" /><trkpt lat="22.25781478125" lon="114.16357179638672" /><trkpt lat="22.25768678125" lon="114.16350679638671" /><trkpt lat="22.25747978125" lon="114.16337479638672" /><trkpt lat="22.25738378125" lon="114.16328079638672" /><trkpt lat="22.25742278125" lon="114.16319479638672" /><trkpt lat="22.256413568248746" lon="114.16334299610207" /><trkpt lat="22.25636933180114" lon="114.16333181912995" /><trkpt lat="22.25628885107153" lon="114.16333799826805" /><trkpt lat="22.25630043705499" lon="114.16340530713524" /><trkpt lat="22.256340907435032" lon="114.16340523755605" /><trkpt lat="22.25639125684455" lon="114.16338779911842" /><trkpt lat="22.25642695771768" lon="114.16335141752499" /><trkpt lat="22.25643078125" lon="114.16335179638672" /><trkpt lat="22.25735478125" lon="114.16320679638672" /><trkpt lat="22.257419526305952" lon="114.1631686704538" /><trkpt lat="22.25741178125" lon="114.16316979638673" /><trkpt lat="22.25739078125" lon="114.16316479638672" /><trkpt lat="22.25737978125" lon="114.16315279638673" /><trkpt lat="22.25728178125" lon="114.16294079638672" /><trkpt lat="22.25703378125" lon="114.16294779638672" /><trkpt lat="22.25685278125" lon="114.16258779638672" /><trkpt lat="22.25681278125" lon="114.16235679638672" /><trkpt lat="22.25686978125" lon="114.16208979638672" /><trkpt lat="22.25680078125" lon="114.16176679638671" /><trkpt lat="22.25654078125" lon="114.16138779638672" /><trkpt lat="22.25605978125" lon="114.16096579638672" /><trkpt lat="22.25599478125" lon="114.16083579638672" /><trkpt lat="22.25595578125" lon="114.16078979638672" /><trkpt lat="22.25577678125" lon="114.16057679638672" /><trkpt lat="22.25542878125" lon="114.16056879638671" /><trkpt lat="22.25526778125" lon="114.16065779638672" /><trkpt lat="22.25480678125" lon="114.16122479638672" /><trkpt lat="22.25476478125" lon="114.16126879638672" /><trkpt lat="22.25473578125" lon="114.16129179638672" /><trkpt lat="22.25467978125" lon="114.16129779638672" /><trkpt lat="22.25463478125" lon="114.16128879638671" /><trkpt lat="22.25451178125" lon="114.16127879638672" /><trkpt lat="22.25438978125" lon="114.16128179638672" /><trkpt lat="22.25426678125" lon="114.16131279638672" /><trkpt lat="22.25416378125" lon="114.16134179638672" /><trkpt lat="22.25409078125" lon="114.16134279638672" /><trkpt lat="22.25401778125" lon="114.16131179638671" /><trkpt lat="22.25394778125" lon="114.16124379638671" /><trkpt lat="22.25393378125" lon="114.16116379638672" /><trkpt lat="22.25393878125" lon="114.16091779638671" /><trkpt lat="22.25375578125" lon="114.16049379638672" /><trkpt lat="22.25349486629179" lon="114.16066619705231" /><trkpt lat="22.253514559757775" lon="114.16063540295414" /><trkpt lat="22.253540833623745" lon="114.16061211862007" /><trkpt lat="22.2535836075008" lon="114.16059350322956" /><trkpt lat="22.25364301631882" lon="114.1605816291326" /><trkpt lat="22.253709108601385" lon="114.16053629667971" /><trkpt lat="22.25375578125" lon="114.16049379638672" /><trkpt lat="22.25370978125" lon="114.16035579638672" /><trkpt lat="22.25361978125" lon="114.15996379638672" /><trkpt lat="22.25350978125" lon="114.15949179638672" /><trkpt lat="22.25342078125" lon="114.15914079638672" /><trkpt lat="22.25312978125" lon="114.15868379638673" /><trkpt lat="22.25309578125" lon="114.15858479638672" /><trkpt lat="22.25304578125" lon="114.15856479638671" /><trkpt lat="22.25298978125" lon="114.15852679638672" /><trkpt lat="22.25300078125" lon="114.15856879638672" /><trkpt lat="22.25291878125" lon="114.15852579638671" /><trkpt lat="22.25285378125" lon="114.15846179638672" /><trkpt lat="22.25228278125" lon="114.15775879638672" /><trkpt lat="22.25224178125" lon="114.15772779638672" /><trkpt lat="22.252190463223485" lon="114.15770916462361" /><trkpt lat="22.252169619084597" lon="114.1576896079842" /><trkpt lat="22.25213078125" lon="114.15764779638671" /><trkpt lat="22.25213878125" lon="114.15760879638673" /><trkpt lat="22.25213478125" lon="114.15757679638672" /><trkpt lat="22.25211778125" lon="114.15753679638672" /><trkpt lat="22.25206081351727" lon="114.15744344054092" /><trkpt lat="22.25182478125" lon="114.15711279638671" /><trkpt lat="22.25158078125" lon="114.15683479638672" /><trkpt lat="22.25139878125" lon="114.15663979638671" /><trkpt lat="22.25130778125" lon="114.15655679638672" /><trkpt lat="22.25122778125" lon="114.15650179638672" /><trkpt lat="22.25117678125" lon="114.15648579638672" /><trkpt lat="22.25106678125" lon="114.15647979638672" /><trkpt lat="22.25084578125" lon="114.15648279638671" /><trkpt lat="22.25081878125" lon="114.15649579638672" /><trkpt lat="22.25079378125" lon="114.15653379638673" /><trkpt lat="22.25075378125" lon="114.15697179638671" /><trkpt lat="22.25073378125" lon="114.15705479638672" /><trkpt lat="22.25070678125" lon="114.15712479638673" /><trkpt lat="22.25068178125" lon="114.15715779638671" /><trkpt lat="22.25066378125" lon="114.15718079638673" /><trkpt lat="22.25061078125" lon="114.15724079638672" /><trkpt lat="22.25055378125" lon="114.15727679638672" /><trkpt lat="22.25048078125" lon="114.15730779638672" /><trkpt lat="22.25040478125" lon="114.15733379638672" /><trkpt lat="22.25036478125" lon="114.15733579638672" /><trkpt lat="22.25031978125" lon="114.15736979638672" /><trkpt lat="22.25023978125" lon="114.15735979638671" /><trkpt lat="22.25017778125" lon="114.15730379638671" /><trkpt lat="22.25012678125" lon="114.15728479638672" /><trkpt lat="22.25004978125" lon="114.15724379638672" /><trkpt lat="22.250036445547288" lon="114.15725787197917" /></trkseg></trk></gpx>