<?xml version='1.0' encoding='UTF-8' ?><gpx version="1.1" creator="HikingTrailHK" xsi:schemaLocation="http://www.topografix.com/GPX/1/1 http://www.topografix.com/GPX/1/1/gpx.xsd" xmlns="http://www.topografix.com/GPX/1/1" xmlns:xsi="http://www.w3.org/2001/XMLSchema-instance"><metadata><name>馬西石澗 @ 2017-8-12 11:00</name><desc></desc></metadata><trk><trkseg><trkpt lat="22.382953578650433" lon="114.27466043359823" /><trkpt lat="22.38297678125" lon="114.27468179638672" /><trkpt lat="22.38307178125" lon="114.27471279638672" /><trkpt lat="22.38312878125" lon="114.27469479638673" /><trkpt lat="22.38319478125" lon="114.27466979638672" /><trkpt lat="22.38333678125" lon="114.27459379638672" /><trkpt lat="22.38329878125" lon="114.27456279638672" /><trkpt lat="22.38383578125" lon="114.27386779638672" /><trkpt lat="22.38426278125" lon="114.27331479638671" /><trkpt lat="22.38427778125" lon="114.27284679638672" /><trkpt lat="22.38419178125" lon="114.27275679638672" /><trkpt lat="22.38415578125" lon="114.27270379638672" /><trkpt lat="22.38414078125" lon="114.27266579638672" /><trkpt lat="22.38412478125" lon="114.27261779638673" /><trkpt lat="22.38411378125" lon="114.27256379638672" /><trkpt lat="22.384107781250002" lon="114.27251079638671" /><trkpt lat="22.38410978125" lon="114.27245079638672" /><trkpt lat="22.38412578125" lon="114.27236779638672" /><trkpt lat="22.38415878125" lon="114.27227979638671" /><trkpt lat="22.38429878125" lon="114.27204479638672" /><trkpt lat="22.384342781249998" lon="114.27198479638672" /><trkpt lat="22.38439478125" lon="114.27190879638673" /><trkpt lat="22.38460978125" lon="114.27163179638671" /><trkpt lat="22.38465578125" lon="114.27165179638672" /><trkpt lat="22.38469678125" lon="114.27166579638671" /><trkpt lat="22.38472278125" lon="114.27166879638672" /><trkpt lat="22.38475778125" lon="114.27166879638672" /><trkpt lat="22.38479978125" lon="114.27166779638672" /><trkpt lat="22.38484378125" lon="114.27166279638672" /><trkpt lat="22.38511278125" lon="114.27159879638671" /><trkpt lat="22.38545978125" lon="114.27150279638671" /><trkpt lat="22.38553578125" lon="114.27148779638672" /><trkpt lat="22.38631678125" lon="114.27141379638672" /><trkpt lat="22.38640078125" lon="114.27141479638672" /><trkpt lat="22.38648178125" lon="114.27142079638672" /><trkpt lat="22.38654278125" lon="114.27143779638672" /><trkpt lat="22.38659478125" lon="114.27146379638671" /><trkpt lat="22.38664178125" lon="114.27149979638672" /><trkpt lat="22.38681378125" lon="114.27162579638672" /><trkpt lat="22.38690078125" lon="114.27168979638672" /><trkpt lat="22.38710078125" lon="114.27183579638672" /><trkpt lat="22.38714478125" lon="114.27186779638672" /><trkpt lat="22.38727578125" lon="114.27180079638671" /><trkpt lat="22.38743078125" lon="114.27175479638672" /><trkpt lat="22.38745278125" lon="114.27172479638672" /><trkpt lat="22.38751578125" lon="114.27164979638673" /><trkpt lat="22.38759878125" lon="114.27158779638673" /><trkpt lat="22.38772178125" lon="114.27150579638672" /><trkpt lat="22.38781978125" lon="114.27137879638671" /><trkpt lat="22.38787078125" lon="114.27132379638672" /><trkpt lat="22.38792078125" lon="114.27128279638671" /><trkpt lat="22.38797978125" lon="114.27125279638672" /><trkpt lat="22.38820078125" lon="114.27100379638672" /><trkpt lat="22.38850978125" lon="114.27139979638672" /><trkpt lat="22.38881878125" lon="114.27141579638672" /><trkpt lat="22.38929578125" lon="114.27115579638672" /><trkpt lat="22.39004078125" lon="114.27114079638672" /><trkpt lat="22.39032378125" lon="114.27098779638672" /><trkpt lat="22.39078078125" lon="114.27035479638671" /><trkpt lat="22.39088778125" lon="114.27027879638672" /><trkpt lat="22.39097778125" lon="114.27024079638672" /><trkpt lat="22.39117378125" lon="114.27029379638672" /><trkpt lat="22.39154778125" lon="114.27020979638672" /><trkpt lat="22.39192378125" lon="114.27025579638672" /><trkpt lat="22.39208578125" lon="114.26990479638673" /><trkpt lat="22.39278178125" lon="114.26889779638672" /><trkpt lat="22.39279578125" lon="114.26864579638672" /><trkpt lat="22.39283878125" lon="114.26853879638672" /><trkpt lat="22.39294778125" lon="114.26846279638671" /><trkpt lat="22.39362278125" lon="114.26829479638671" /><trkpt lat="22.39375970946727" lon="114.26815934854092" /><trkpt lat="22.39378756726145" lon="114.26813999570895" /><trkpt lat="22.39379478125" lon="114.26815379638671" /><trkpt lat="22.39384078125" lon="114.26819679638672" /><trkpt lat="22.39392078125" lon="114.26825179638672" /><trkpt lat="22.39399278125" lon="114.26828479638672" /><trkpt lat="22.39404078125" lon="114.26829179638672" /><trkpt lat="22.39433678125" lon="114.26826579638671" /><trkpt lat="22.39436678125" lon="114.26826479638672" /><trkpt lat="22.39439878125" lon="114.26828579638672" /><trkpt lat="22.39442771218798" lon="114.26834641042927" /><trkpt lat="22.39449078125" lon="114.26832579638672" /><trkpt lat="22.39472378125" lon="114.26827179638671" /><trkpt lat="22.39516178125" lon="114.26859579638672" /><trkpt lat="22.39539978125" lon="114.26846979638673" /><trkpt lat="22.39550578125" lon="114.26825679638672" /><trkpt lat="22.39556478125" lon="114.26818379638672" /><trkpt lat="22.39559678125" lon="114.26814979638672" /><trkpt lat="22.39564178125" lon="114.26806079638672" /><trkpt lat="22.39576678125" lon="114.26802779638672" /><trkpt lat="22.39583578125" lon="114.26798279638672" /><trkpt lat="22.39587978125" lon="114.26790379638672" /><trkpt lat="22.39600478125" lon="114.26780979638671" /><trkpt lat="22.39608578125" lon="114.26756179638672" /><trkpt lat="22.39617278125" lon="114.26747079638672" /><trkpt lat="22.39651878125" lon="114.26732579638671" /><trkpt lat="22.39667178125" lon="114.26725579638672" /><trkpt lat="22.39674778125" lon="114.26719279638672" /><trkpt lat="22.39680878125" lon="114.26712879638671" /><trkpt lat="22.39686078125" lon="114.26707979638672" /><trkpt lat="22.39696278125" lon="114.26711979638672" /><trkpt lat="22.39702978125" lon="114.26711979638672" /><trkpt lat="22.39712878125" lon="114.26711979638672" /><trkpt lat="22.39733478125" lon="114.26708179638672" /><trkpt lat="22.39763078125" lon="114.26675379638672" /><trkpt lat="22.39760378125" lon="114.26655579638673" /><trkpt lat="22.39744878125" lon="114.26615879638672" /><trkpt lat="22.39745478125" lon="114.26602879638672" /><trkpt lat="22.39764778125" lon="114.26571679638671" /><trkpt lat="22.39774278125" lon="114.26576979638672" /><trkpt lat="22.39784778125" lon="114.26566279638672" /><trkpt lat="22.39789578125" lon="114.26554879638672" /><trkpt lat="22.39785178125" lon="114.26548779638672" /><trkpt lat="22.39800078125" lon="114.26508279638672" /><trkpt lat="22.39823178125" lon="114.26496079638672" /><trkpt lat="22.39832878125" lon="114.26497679638672" /><trkpt lat="22.39844478125" lon="114.26483179638672" /><trkpt lat="22.39868478125" lon="114.26474779638671" /><trkpt lat="22.39875978125" lon="114.26465579638672" /><trkpt lat="22.39881078125" lon="114.26447279638671" /><trkpt lat="22.39878978125" lon="114.26429679638672" /><trkpt lat="22.39874278125" lon="114.26425879638671" /><trkpt lat="22.39881078125" lon="114.26402979638672" /><trkpt lat="22.39900578125" lon="114.26377079638672" /><trkpt lat="22.39899778125" lon="114.26374079638671" /><trkpt lat="22.39905878125" lon="114.26371779638671" /><trkpt lat="22.39919678125" lon="114.26379379638672" /><trkpt lat="22.39920578125" lon="114.26371779638671" /><trkpt lat="22.39940578125" lon="114.26370979638672" /><trkpt lat="22.39951378125" lon="114.26364179638672" /><trkpt lat="22.39963278125" lon="114.26363379638671" /><trkpt lat="22.39973378125" lon="114.26357279638673" /><trkpt lat="22.39978378125" lon="114.26355679638672" /><trkpt lat="22.40000578125" lon="114.26348579638672" /><trkpt lat="22.40016378125" lon="114.26354679638672" /><trkpt lat="22.40027178125" lon="114.26353479638672" /><trkpt lat="22.40038678125" lon="114.26336879638671" /><trkpt lat="22.40049878125" lon="114.26324879638672" /><trkpt lat="22.40058878125" lon="114.26319379638672" /><trkpt lat="22.40069978125" lon="114.26319579638673" /><trkpt lat="22.40088778125" lon="114.26323079638672" /><trkpt lat="22.40118178125" lon="114.26330579638672" /><trkpt lat="22.40132878125" lon="114.26325179638673" /><trkpt lat="22.40142078125" lon="114.26299979638672" /><trkpt lat="22.40150878125" lon="114.26281779638671" /><trkpt lat="22.40144678125" lon="114.26263279638673" /><trkpt lat="22.40145878125" lon="114.26240779638673" /><trkpt lat="22.40140178125" lon="114.26207979638671" /><trkpt lat="22.40157678125" lon="114.26180479638671" /><trkpt lat="22.40182678125" lon="114.26165079638672" /><trkpt lat="22.40196878125" lon="114.26150479638672" /><trkpt lat="22.40213078125" lon="114.26145179638672" /><trkpt lat="22.40227078125" lon="114.26145279638672" /><trkpt lat="22.40247578125" lon="114.26142179638671" /><trkpt lat="22.40252478125" lon="114.26140079638672" /><trkpt lat="22.40260178125" lon="114.26129979638672" /><trkpt lat="22.40262678125" lon="114.26119779638672" /><trkpt lat="22.40272478125" lon="114.26113879638672" /><trkpt lat="22.40275178125" lon="114.26101679638671" /><trkpt lat="22.40286778125" lon="114.26103179638672" /><trkpt lat="22.40307478125" lon="114.26070779638673" /><trkpt lat="22.403157781250002" lon="114.26061179638671" /><trkpt lat="22.40321678125" lon="114.26052679638671" /><trkpt lat="22.40326478125" lon="114.26048279638673" /><trkpt lat="22.40336178125" lon="114.26040579638672" /><trkpt lat="22.40345578125" lon="114.26042879638672" /><trkpt lat="22.40361778125" lon="114.26036079638672" /><trkpt lat="22.40380478125" lon="114.26039879638672" /><trkpt lat="22.40381078125" lon="114.26033779638672" /><trkpt lat="22.40401578125" lon="114.26028379638672" /><trkpt lat="22.40431178125" lon="114.25984979638672" /><trkpt lat="22.40437878125" lon="114.25985679638671" /><trkpt lat="22.40445278125" lon="114.25963579638672" /><trkpt lat="22.40445478125" lon="114.25964379638671" /><trkpt lat="22.40452278125" lon="114.25954279638673" /><trkpt lat="22.40458078125" lon="114.25949879638672" /><trkpt lat="22.40494778125" lon="114.25915879638671" /><trkpt lat="22.40496778125" lon="114.25906279638671" /><trkpt lat="22.40491978125" lon="114.25902279638672" /><trkpt lat="22.40491978125" lon="114.25890979638672" /><trkpt lat="22.40499978125" lon="114.25883979638672" /><trkpt lat="22.40517278125" lon="114.25881379638672" /><trkpt lat="22.40533178125" lon="114.25855579638672" /><trkpt lat="22.40546578125" lon="114.25855079638671" /><trkpt lat="22.40567078125" lon="114.25811079638672" /><trkpt lat="22.40581278125" lon="114.25800479638671" /><trkpt lat="22.40614978125" lon="114.25818179638672" /><trkpt lat="22.40659878125" lon="114.25812579638672" /><trkpt lat="22.40683878125" lon="114.25851279638673" /><trkpt lat="22.40673178125" lon="114.25862279638672" /><trkpt lat="22.40661578125" lon="114.25879679638672" /><trkpt lat="22.40660578125" lon="114.25894879638672" /><trkpt lat="22.40657878125" lon="114.25916379638672" /><trkpt lat="22.40660578125" lon="114.25959879638671" /><trkpt lat="22.40672378125" lon="114.25977079638672" /><trkpt lat="22.40679678125" lon="114.25995479638672" /><trkpt lat="22.40667478125" lon="114.26005079638672" /><trkpt lat="22.40666578125" lon="114.26009279638672" /><trkpt lat="22.40673678125" lon="114.26012979638672" /><trkpt lat="22.40665578125" lon="114.26019879638672" /><trkpt lat="22.40677678125" lon="114.26019279638672" /><trkpt lat="22.40692478125" lon="114.26020879638672" /><trkpt lat="22.40689878125" lon="114.26031379638673" /><trkpt lat="22.40677178125" lon="114.26044579638672" /><trkpt lat="22.40660578125" lon="114.26058279638671" /><trkpt lat="22.40657278125" lon="114.26071179638672" /><trkpt lat="22.40655678125" lon="114.26087279638672" /><trkpt lat="22.40650578125" lon="114.26093379638672" /><trkpt lat="22.40634878125" lon="114.26102379638672" /><trkpt lat="22.40623478125" lon="114.26116879638671" /><trkpt lat="22.40620878125" lon="114.26131679638672" /><trkpt lat="22.40609578125" lon="114.26141979638672" /><trkpt lat="22.40595578125" lon="114.26153479638671" /><trkpt lat="22.40591178125" lon="114.26165279638671" /><trkpt lat="22.40595978125" lon="114.26177679638671" /><trkpt lat="22.40604678125" lon="114.26195879638672" /><trkpt lat="22.40611478125" lon="114.26215579638672" /><trkpt lat="22.40615778125" lon="114.26233979638671" /><trkpt lat="22.40611578125" lon="114.26248579638671" /><trkpt lat="22.40604078125" lon="114.26257179638672" /><trkpt lat="22.40593178125" lon="114.26250279638671" /><trkpt lat="22.40575078125" lon="114.26252379638672" /><trkpt lat="22.40561078125" lon="114.26259879638671" /><trkpt lat="22.40546578125" lon="114.26271779638672" /><trkpt lat="22.40530478125" lon="114.26278179638672" /><trkpt lat="22.40520778125" lon="114.26276079638671" /><trkpt lat="22.40500578125" lon="114.26271779638672" /><trkpt lat="22.40489178125" lon="114.26273379638671" /><trkpt lat="22.40479378125" lon="114.26276479638672" /><trkpt lat="22.40470178125" lon="114.26274979638671" /><trkpt lat="22.40456778125" lon="114.26276079638671" /><trkpt lat="22.40442278125" lon="114.26270079638672" /><trkpt lat="22.40429378125" lon="114.26266879638672" /><trkpt lat="22.40384178125" lon="114.26282979638673" /><trkpt lat="22.40376678125" lon="114.26295379638673" /><trkpt lat="22.40368078125" lon="114.26303479638672" /><trkpt lat="22.40360578125" lon="114.26313679638672" /><trkpt lat="22.40342778125" lon="114.26328679638672" /><trkpt lat="22.40325578125" lon="114.26338979638672" /><trkpt lat="22.40326678125" lon="114.26366379638672" /><trkpt lat="22.40335278125" lon="114.26377079638672" /><trkpt lat="22.40333078125" lon="114.26384079638672" /><trkpt lat="22.40336878125" lon="114.26392679638671" /><trkpt lat="22.40349778125" lon="114.26395379638672" /><trkpt lat="22.40360578125" lon="114.26399179638672" /><trkpt lat="22.40358378125" lon="114.26405579638671" /><trkpt lat="22.40364278125" lon="114.26412579638672" /><trkpt lat="22.40367478125" lon="114.26427679638672" /><trkpt lat="22.40369178125" lon="114.26445379638672" /><trkpt lat="22.40361578125" lon="114.26462579638672" /><trkpt lat="22.40349278125" lon="114.26463179638672" /><trkpt lat="22.40327778125" lon="114.26464779638673" /><trkpt lat="22.40310678125" lon="114.26465579638672" /><trkpt lat="22.40279878125" lon="114.26452879638671" /><trkpt lat="22.40265578125" lon="114.26430179638672" /><trkpt lat="22.40246578125" lon="114.26436779638672" /><trkpt lat="22.40231978125" lon="114.26446979638672" /><trkpt lat="22.40216978125" lon="114.26464179638671" /><trkpt lat="22.40213178125" lon="114.26491079638672" /><trkpt lat="22.40213778125" lon="114.26538979638671" /><trkpt lat="22.40205678125" lon="114.26558879638672" /><trkpt lat="22.40185778125" lon="114.26572779638671" /><trkpt lat="22.40169078125" lon="114.26600779638672" /><trkpt lat="22.40148678125" lon="114.26612079638672" /><trkpt lat="22.40121278125" lon="114.26657779638671" /><trkpt lat="22.40120178125" lon="114.26690079638672" /><trkpt lat="22.40128778125" lon="114.26711579638672" /><trkpt lat="22.40140678125" lon="114.26728279638672" /><trkpt lat="22.40152478125" lon="114.26744879638672" /><trkpt lat="22.40165878125" lon="114.26766879638672" /><trkpt lat="22.40168078125" lon="114.26793279638672" /><trkpt lat="22.40154578125" lon="114.26843279638672" /><trkpt lat="22.40137978125" lon="114.26861579638671" /><trkpt lat="22.40126078125" lon="114.26888479638671" /><trkpt lat="22.40118078125" lon="114.26907279638672" /><trkpt lat="22.40107778125" lon="114.26930379638672" /><trkpt lat="22.40095978125" lon="114.26956679638671" /><trkpt lat="22.40078278125" lon="114.26974979638672" /><trkpt lat="22.40062078125" lon="114.26995479638671" /><trkpt lat="22.40064778125" lon="114.27023979638672" /><trkpt lat="22.40055178125" lon="114.27032579638671" /><trkpt lat="22.40043478125" lon="114.27040979638672" /><trkpt lat="22.40023578125" lon="114.27034479638672" /><trkpt lat="22.40010678125" lon="114.27028079638671" /><trkpt lat="22.39985878125" lon="114.27010879638672" /><trkpt lat="22.39972978125" lon="114.27001279638672" /><trkpt lat="22.39955178125" lon="114.26990579638672" /><trkpt lat="22.39928378125" lon="114.27013079638672" /><trkpt lat="22.39907578125" lon="114.27048479638673" /><trkpt lat="22.39899278125" lon="114.27056579638672" /><trkpt lat="22.39886978125" lon="114.27061379638671" /><trkpt lat="22.39872978125" lon="114.27061879638671" /><trkpt lat="22.39835878125" lon="114.27060079638672" /><trkpt lat="22.39814778125" lon="114.27060779638671" /><trkpt lat="22.39800578125" lon="114.27064979638672" /><trkpt lat="22.39792478125" lon="114.27072179638672" /><trkpt lat="22.39790778125" lon="114.27077679638671" /><trkpt lat="22.39790578125" lon="114.27085079638672" /><trkpt lat="22.39792978125" lon="114.27092979638672" /><trkpt lat="22.39800878125" lon="114.27111079638672" /><trkpt lat="22.39802378125" lon="114.27141779638671" /><trkpt lat="22.39811378125" lon="114.27178279638672" /><trkpt lat="22.39807378125" lon="114.27215779638672" /><trkpt lat="22.39815878125" lon="114.27225379638672" /><trkpt lat="22.39840278125" lon="114.27233679638672" /><trkpt lat="22.39858478125" lon="114.27257579638672" /><trkpt lat="22.39866878125" lon="114.27279979638672" /><trkpt lat="22.39884578125" lon="114.27290979638671" /><trkpt lat="22.39908478125" lon="114.27299279638672" /><trkpt lat="22.39928278125" lon="114.27309179638672" /><trkpt lat="22.39946478125" lon="114.27323279638672" /><trkpt lat="22.39963678125" lon="114.27335179638672" /><trkpt lat="22.39981978125" lon="114.27346179638671" /><trkpt lat="22.39997578125" lon="114.27353979638671" /><trkpt lat="22.40015778125" lon="114.27362779638672" /><trkpt lat="22.40059478125" lon="114.27357579638672" /><trkpt lat="22.40090778125" lon="114.27362279638672" /><trkpt lat="22.40112078125" lon="114.27372679638673" /><trkpt lat="22.40138178125" lon="114.27367979638672" /><trkpt lat="22.40161578125" lon="114.27362279638672" /><trkpt lat="22.40195978125" lon="114.27365379638672" /><trkpt lat="22.40228778125" lon="114.27379979638673" /><trkpt lat="22.40259978125" lon="114.27394079638673" /><trkpt lat="22.40282378125" lon="114.27416979638672" /><trkpt lat="22.40281878125" lon="114.27445079638672" /><trkpt lat="22.40267778125" lon="114.27492979638671" /><trkpt lat="22.40246978125" lon="114.27518479638672" /><trkpt lat="22.40226678125" lon="114.27543979638672" /><trkpt lat="22.40207378125" lon="114.27567979638673" /><trkpt lat="22.40206878125" lon="114.27585179638672" /><trkpt lat="22.40218878125" lon="114.27606479638672" /><trkpt lat="22.40231878125" lon="114.27624179638671" /><trkpt lat="22.40244878125" lon="114.27644479638671" /><trkpt lat="22.40263578125" lon="114.27654879638672" /><trkpt lat="22.40280278125" lon="114.27677779638672" /><trkpt lat="22.40287078125" lon="114.27696079638672" /><trkpt lat="22.40276678125" lon="114.27719479638672" /><trkpt lat="22.40265678125" lon="114.27742379638671" /><trkpt lat="22.40259478125" lon="114.27768979638672" /><trkpt lat="22.40254778125" lon="114.27793979638672" /><trkpt lat="22.40262078125" lon="114.27804879638671" /><trkpt lat="22.40276678125" lon="114.27819479638671" /><trkpt lat="22.40292778125" lon="114.27830379638672" /><trkpt lat="22.40365978125" lon="114.27824979638672" /><trkpt lat="22.40385178125" lon="114.27813279638671" /><trkpt lat="22.40418178125" lon="114.27786379638673" /><trkpt lat="22.40420478125" lon="114.27785579638672" /><trkpt lat="22.40422678125" lon="114.27786079638672" /><trkpt lat="22.40439278125" lon="114.27798879638672" /><trkpt lat="22.40458778125" lon="114.27819179638672" /><trkpt lat="22.40483778125" lon="114.27858779638672" /><trkpt lat="22.40492578125" lon="114.27879979638672" /><trkpt lat="22.40495078125" lon="114.27893379638672" /><trkpt lat="22.40491478125" lon="114.27910579638672" /><trkpt lat="22.40486678125" lon="114.27917179638672" /><trkpt lat="22.40486078125" lon="114.27925679638672" /><trkpt lat="22.40489278125" lon="114.27929879638671" /><trkpt lat="22.40463378125" lon="114.27958779638672" /><trkpt lat="22.40454978125" lon="114.27969079638672" /><trkpt lat="22.40439278125" lon="114.28004679638671" /><trkpt lat="22.40433878125" lon="114.28026079638671" /><trkpt lat="22.40419578125" lon="114.28101479638671" /><trkpt lat="22.40417678125" lon="114.28112079638672" /><trkpt lat="22.40414578125" lon="114.28128979638672" /><trkpt lat="22.40402578125" lon="114.28156579638672" /><trkpt lat="22.40390778125" lon="114.28173479638671" /><trkpt lat="22.40380278125" lon="114.28185579638672" /><trkpt lat="22.40364278125" lon="114.28198279638671" /><trkpt lat="22.40350478125" lon="114.28207079638672" /><trkpt lat="22.40336678125" lon="114.28213079638672" /><trkpt lat="22.40323078125" lon="114.28216479638672" /><trkpt lat="22.40307478125" lon="114.28219079638671" /><trkpt lat="22.40295978125" lon="114.28219879638672" /><trkpt lat="22.40208578125" lon="114.28220279638671" /><trkpt lat="22.40170278125" lon="114.28219579638672" /><trkpt lat="22.40157878125" lon="114.28219879638672" /><trkpt lat="22.40145378125" lon="114.28220079638672" /><trkpt lat="22.40135678125" lon="114.28220279638671" /><trkpt lat="22.40099478125" lon="114.28222979638672" /><trkpt lat="22.40080878125" lon="114.28225979638673" /><trkpt lat="22.400738063087683" lon="114.28228151510518" /></trkseg></trk></gpx>