<?xml version='1.0' encoding='UTF-8' ?><gpx version="1.1" creator="HikingTrailHK" xsi:schemaLocation="http://www.topografix.com/GPX/1/1 http://www.topografix.com/GPX/1/1/gpx.xsd" xmlns="http://www.topografix.com/GPX/1/1" xmlns:xsi="http://www.w3.org/2001/XMLSchema-instance"><metadata><name>馬遊塘 @ 2026-04-26</name><desc></desc></metadata><trk><trkseg><trkpt lat="22.304053697319702" lon="114.24835557098758" /><trkpt lat="22.30400178125" lon="114.24821579638672" /><trkpt lat="22.30396578125" lon="114.24810579638672" /><trkpt lat="22.30389878125" lon="114.24802079638673" /><trkpt lat="22.30352278125" lon="114.24752479638671" /><trkpt lat="22.30349778125" lon="114.24744079638671" /><trkpt lat="22.30348178125" lon="114.24728379638672" /><trkpt lat="22.30332078125" lon="114.24685179638672" /><trkpt lat="22.30338178125" lon="114.24680279638672" /><trkpt lat="22.30342378125" lon="114.24680079638672" /><trkpt lat="22.30338778125" lon="114.24630979638673" /><trkpt lat="22.30337678125" lon="114.24616179638672" /><trkpt lat="22.30369778125" lon="114.24505179638672" /><trkpt lat="22.30375278125" lon="114.24507979638672" /><trkpt lat="22.30385278125" lon="114.24505579638672" /><trkpt lat="22.30390978125" lon="114.24498479638672" /><trkpt lat="22.30399378125" lon="114.24493579638671" /><trkpt lat="22.30405178125" lon="114.24498279638672" /><trkpt lat="22.30406978125" lon="114.24510979638671" /><trkpt lat="22.30406978125" lon="114.24527779638672" /><trkpt lat="22.30403178125" lon="114.24544579638672" /><trkpt lat="22.30402878125" lon="114.24550479638671" /><trkpt lat="22.30402478125" lon="114.24557579638672" /><trkpt lat="22.30403978125" lon="114.24569279638672" /><trkpt lat="22.30416578125" lon="114.24585179638672" /><trkpt lat="22.30419578125" lon="114.24592879638672" /><trkpt lat="22.30420178125" lon="114.24606579638672" /><trkpt lat="22.30421778125" lon="114.24615279638672" /><trkpt lat="22.30423978125" lon="114.24625379638672" /><trkpt lat="22.30431478125" lon="114.24635479638673" /><trkpt lat="22.30435878125" lon="114.24641879638672" /><trkpt lat="22.30441978125" lon="114.24655979638672" /><trkpt lat="22.30445978125" lon="114.24659079638671" /><trkpt lat="22.30468078125" lon="114.24665879638673" /><trkpt lat="22.30471778125" lon="114.24670979638672" /><trkpt lat="22.30476778125" lon="114.24687979638672" /><trkpt lat="22.30485678125" lon="114.24708479638672" /><trkpt lat="22.30493878125" lon="114.24715079638672" /><trkpt lat="22.30498078125" lon="114.24718879638672" /><trkpt lat="22.30500478125" lon="114.24721079638672" /><trkpt lat="22.30510978125" lon="114.24726579638671" /><trkpt lat="22.30532378125" lon="114.24732679638672" /><trkpt lat="22.30539778125" lon="114.24735179638672" /><trkpt lat="22.30549178125" lon="114.24738479638673" /><trkpt lat="22.30558878125" lon="114.24741779638671" /><trkpt lat="22.30567378125" lon="114.24745779638671" /><trkpt lat="22.30581578125" lon="114.24752279638672" /><trkpt lat="22.30592878125" lon="114.24761279638672" /><trkpt lat="22.30603178125" lon="114.24777679638672" /><trkpt lat="22.30605978125" lon="114.24782179638672" /><trkpt lat="22.30621078125" lon="114.24802179638672" /><trkpt lat="22.30630178125" lon="114.24813479638672" /><trkpt lat="22.30643478125" lon="114.24821379638672" /><trkpt lat="22.30649578125" lon="114.24826079638672" /><trkpt lat="22.30668778125" lon="114.24831479638672" /><trkpt lat="22.30688478125" lon="114.24832479638673" /><trkpt lat="22.30700078125" lon="114.24836379638671" /><trkpt lat="22.30712578125" lon="114.24839979638672" /><trkpt lat="22.30723778125" lon="114.24842479638671" /><trkpt lat="22.30738878125" lon="114.24840879638671" /><trkpt lat="22.30765578125" lon="114.24839779638671" /><trkpt lat="22.30772578125" lon="114.24840179638672" /><trkpt lat="22.30779978125" lon="114.24840879638671" /><trkpt lat="22.30788778125" lon="114.24845379638671" /><trkpt lat="22.30798078125" lon="114.24851279638672" /><trkpt lat="22.30803378125" lon="114.24862379638672" /><trkpt lat="22.30805978125" lon="114.24867179638672" /><trkpt lat="22.30829578125" lon="114.24879479638672" /><trkpt lat="22.30837678125" lon="114.24882279638672" /><trkpt lat="22.30853578125" lon="114.24884179638671" /><trkpt lat="22.30859778125" lon="114.24888279638672" /><trkpt lat="22.30865378125" lon="114.24892679638671" /><trkpt lat="22.30875449448751" lon="114.24914673701203" /><trkpt lat="22.30878871113083" lon="114.24915502476881" /><trkpt lat="22.308829606959137" lon="114.24914008291574" /><trkpt lat="22.30886278662105" lon="114.2491183795853" /><trkpt lat="22.30886097172943" lon="114.24907264802243" /><trkpt lat="22.308822926502444" lon="114.24907247705767" /><trkpt lat="22.30879355338388" lon="114.24909721592604" /><trkpt lat="22.308753371195145" lon="114.24914428393629" /><trkpt lat="22.30878978125" lon="114.24922379638672" /><trkpt lat="22.30878378125" lon="114.24934379638673" /><trkpt lat="22.30883878125" lon="114.24946779638672" /><trkpt lat="22.30899978125" lon="114.24950179638672" /><trkpt lat="22.30916515653019" lon="114.2495757177917" /><trkpt lat="22.30915378125" lon="114.24954779638672" /><trkpt lat="22.30917578125" lon="114.24918879638672" /><trkpt lat="22.30921678125" lon="114.24914279638672" /><trkpt lat="22.30929278125" lon="114.24908579638672" /><trkpt lat="22.30931678125" lon="114.24903579638672" /><trkpt lat="22.30939078125" lon="114.24901279638672" /><trkpt lat="22.30943578125" lon="114.24902979638672" /><trkpt lat="22.30947078125" lon="114.24909679638672" /><trkpt lat="22.30958978125" lon="114.24911079638672" /><trkpt lat="22.30969278125" lon="114.24905379638672" /><trkpt lat="22.31008478125" lon="114.24924979638672" /><trkpt lat="22.31072578125" lon="114.24944079638672" /><trkpt lat="22.31101578125" lon="114.24937579638672" /><trkpt lat="22.31123078125" lon="114.24938479638672" /><trkpt lat="22.31139578125" lon="114.24944679638672" /><trkpt lat="22.31148078125" lon="114.24944979638671" /><trkpt lat="22.31169678125" lon="114.24935279638672" /><trkpt lat="22.31187678125" lon="114.24932979638672" /><trkpt lat="22.31194978125" lon="114.24926679638672" /><trkpt lat="22.31185878125" lon="114.24903679638672" /><trkpt lat="22.31192178125" lon="114.24896879638672" /><trkpt lat="22.31199678125" lon="114.24897279638672" /><trkpt lat="22.31214178125" lon="114.24892879638672" /><trkpt lat="22.31223778125" lon="114.24889779638671" /><trkpt lat="22.31238278125" lon="114.24879579638672" /><trkpt lat="22.31244578125" lon="114.24872479638672" /><trkpt lat="22.31249778125" lon="114.24869379638672" /><trkpt lat="22.31254578125" lon="114.24868579638672" /><trkpt lat="22.31260178125" lon="114.24871079638672" /><trkpt lat="22.31269278125" lon="114.24872479638672" /><trkpt lat="22.31317078125" lon="114.24861879638672" /><trkpt lat="22.31347878125" lon="114.24869179638672" /><trkpt lat="22.31375878125" lon="114.24873279638672" /><trkpt lat="22.31384078125" lon="114.24873979638672" /><trkpt lat="22.31415178125" lon="114.24870179638671" /><trkpt lat="22.31433878125" lon="114.24872779638672" /><trkpt lat="22.31449178125" lon="114.24870579638672" /><trkpt lat="22.31467678125" lon="114.24850879638672" /><trkpt lat="22.31476778125" lon="114.24843279638672" /><trkpt lat="22.31488778125" lon="114.24824379638672" /><trkpt lat="22.31519978125" lon="114.24806679638672" /><trkpt lat="22.31540078125" lon="114.24791479638672" /><trkpt lat="22.31573178125" lon="114.24790879638672" /><trkpt lat="22.31581678125" lon="114.24794279638672" /><trkpt lat="22.31586978125" lon="114.24798179638672" /><trkpt lat="22.31591878125" lon="114.24799879638672" /><trkpt lat="22.31611678125" lon="114.24779479638671" /><trkpt lat="22.31640978125" lon="114.24775679638672" /><trkpt lat="22.31654178125" lon="114.24748979638672" /><trkpt lat="22.31670978125" lon="114.24744379638672" /><trkpt lat="22.31686178125" lon="114.24729879638672" /><trkpt lat="22.31690178125" lon="114.24711579638672" /><trkpt lat="22.31702378125" lon="114.24707079638672" /><trkpt lat="22.31710578125" lon="114.24695579638671" /><trkpt lat="22.31710578125" lon="114.24675779638672" /><trkpt lat="22.31726078125" lon="114.24638779638671" /><trkpt lat="22.31741978125" lon="114.24625979638672" /><trkpt lat="22.31781478125" lon="114.24623079638671" /><trkpt lat="22.31799678125" lon="114.24609679638672" /><trkpt lat="22.31786778125" lon="114.24582179638672" /><trkpt lat="22.31790778125" lon="114.24579579638672" /><trkpt lat="22.31784078125" lon="114.24561879638672" /><trkpt lat="22.31789378125" lon="114.24552679638671" /><trkpt lat="22.31783478125" lon="114.24545279638672" /><trkpt lat="22.31803878125" lon="114.24525779638672" /><trkpt lat="22.31817778125" lon="114.24509279638671" /><trkpt lat="22.31824278125" lon="114.24503979638672" /><trkpt lat="22.31820578125" lon="114.24500879638671" /><trkpt lat="22.31817078125" lon="114.24500379638671" /><trkpt lat="22.31813678125" lon="114.24500479638672" /><trkpt lat="22.31810978125" lon="114.24501379638671" /><trkpt lat="22.31806878125" lon="114.24501879638672" /><trkpt lat="22.31805578125" lon="114.24500279638671" /><trkpt lat="22.31806378125" lon="114.24497079638672" /><trkpt lat="22.31809978125" lon="114.24495479638672" /><trkpt lat="22.31811778125" lon="114.24491879638671" /><trkpt lat="22.31814878125" lon="114.24489379638672" /><trkpt lat="22.31815278125" lon="114.24485479638672" /><trkpt lat="22.31814378125" lon="114.24478079638672" /><trkpt lat="22.31815292297712" lon="114.24470925945866" /><trkpt lat="22.318202558496537" lon="114.24457407331033" /><trkpt lat="22.31824811276539" lon="114.2445291263432" /><trkpt lat="22.318294935011522" lon="114.24450393424968" /><trkpt lat="22.31864478125" lon="114.24437179638672" /><trkpt lat="22.31873378125" lon="114.24457479638671" /><trkpt lat="22.31875978125" lon="114.24465479638671" /><trkpt lat="22.31877178125" lon="114.24471779638672" /><trkpt lat="22.31894078125" lon="114.24486379638672" /><trkpt lat="22.31896278125" lon="114.24487479638672" /><trkpt lat="22.31898578125" lon="114.24488079638672" /><trkpt lat="22.31900878125" lon="114.24487879638671" /><trkpt lat="22.31903578125" lon="114.24486479638672" /><trkpt lat="22.31912078125" lon="114.24479079638672" /><trkpt lat="22.31922678125" lon="114.24449179638673" /><trkpt lat="22.31930578125" lon="114.24437479638672" /><trkpt lat="22.31927878125" lon="114.24435379638672" /><trkpt lat="22.31930878125" lon="114.24431379638672" /><trkpt lat="22.31934078125" lon="114.24435779638672" /><trkpt lat="22.31946878125" lon="114.24434279638672" /><trkpt lat="22.31951178125" lon="114.24432479638672" /><trkpt lat="22.31952578125" lon="114.24425479638671" /><trkpt lat="22.31960078125" lon="114.24408579638671" /><trkpt lat="22.31972578125" lon="114.24379979638672" /><trkpt lat="22.31973678125" lon="114.24374679638672" /><trkpt lat="22.31972678125" lon="114.24370079638672" /><trkpt lat="22.31970278125" lon="114.24366279638672" /><trkpt lat="22.31966378125" lon="114.24364179638673" /><trkpt lat="22.31962478125" lon="114.24363479638671" /><trkpt lat="22.31944678125" lon="114.24363579638671" /><trkpt lat="22.31913878125" lon="114.24363979638672" /><trkpt lat="22.31893978125" lon="114.24364179638673" /><trkpt lat="22.31889378125" lon="114.24352979638672" /><trkpt lat="22.31885378125" lon="114.24327879638672" /><trkpt lat="22.31872178125" lon="114.24312979638673" /><trkpt lat="22.31858178125" lon="114.24325679638672" /><trkpt lat="22.318557737923697" lon="114.24322777872301" /><trkpt lat="22.3185885525518" lon="114.24320461122738" /><trkpt lat="22.318626304155547" lon="114.24321640783278" /><trkpt lat="22.31872178125" lon="114.24312979638673" /><trkpt lat="22.31877678125" lon="114.24308179638672" /><trkpt lat="22.31877778125" lon="114.24303079638672" /><trkpt lat="22.31877978125" lon="114.24300779638672" /><trkpt lat="22.31878878125" lon="114.24298679638672" /><trkpt lat="22.31880978125" lon="114.24297379638672" /><trkpt lat="22.31884178125" lon="114.24297179638671" /><trkpt lat="22.31884278125" lon="114.24291879638672" /><trkpt lat="22.31891278125" lon="114.24284979638672" /><trkpt lat="22.31893378125" lon="114.24283479638672" /><trkpt lat="22.31894978125" lon="114.24282679638672" /><trkpt lat="22.31896578125" lon="114.24282179638672" /><trkpt lat="22.31901878125" lon="114.24282179638672" /><trkpt lat="22.31905078125" lon="114.24279979638672" /><trkpt lat="22.31905978125" lon="114.24277279638672" /><trkpt lat="22.31906678125" lon="114.24273279638672" /><trkpt lat="22.31906778125" lon="114.24266579638672" /><trkpt lat="22.31906478125" lon="114.24263279638672" /><trkpt lat="22.31904678125" lon="114.24260679638672" /><trkpt lat="22.31901678125" lon="114.24258579638672" /><trkpt lat="22.31888078125" lon="114.24253179638671" /><trkpt lat="22.31883978125" lon="114.24252779638672" /><trkpt lat="22.31875278125" lon="114.24252279638672" /><trkpt lat="22.31866778125" lon="114.24250279638672" /><trkpt lat="22.31861178125" lon="114.24247679638673" /><trkpt lat="22.31858978125" lon="114.24244479638672" /><trkpt lat="22.31855778125" lon="114.24237379638672" /><trkpt lat="22.31852678125" lon="114.24233979638672" /><trkpt lat="22.31848978125" lon="114.24233379638672" /><trkpt lat="22.31844678125" lon="114.24230979638672" /><trkpt lat="22.31840878125" lon="114.24220879638672" /><trkpt lat="22.31837578125" lon="114.24216579638671" /><trkpt lat="22.31834278125" lon="114.24214179638672" /><trkpt lat="22.31832678125" lon="114.24213479638672" /><trkpt lat="22.31829878125" lon="114.24212679638671" /><trkpt lat="22.31829178125" lon="114.24212479638672" /><trkpt lat="22.31827278125" lon="114.24212279638672" /><trkpt lat="22.31826878125" lon="114.24212179638671" /><trkpt lat="22.31826478125" lon="114.24211979638672" /><trkpt lat="22.31826278125" lon="114.24211679638672" /><trkpt lat="22.31823778125" lon="114.24207379638672" /><trkpt lat="22.31822878125" lon="114.24206179638672" /><trkpt lat="22.31821978125" lon="114.24205079638672" /><trkpt lat="22.31818878125" lon="114.24202179638672" /><trkpt lat="22.31818178125" lon="114.24201679638672" /><trkpt lat="22.31817778125" lon="114.24201379638671" /><trkpt lat="22.31817278125" lon="114.24201179638672" /><trkpt lat="22.31816878125" lon="114.24201179638672" /><trkpt lat="22.31812978125" lon="114.24201379638671" /><trkpt lat="22.31812178125" lon="114.24201379638671" /><trkpt lat="22.31810978125" lon="114.24201279638672" /><trkpt lat="22.31809578125" lon="114.24201079638672" /><trkpt lat="22.31808378125" lon="114.24200779638672" /><trkpt lat="22.31807078125" lon="114.24200379638671" /><trkpt lat="22.31806278125" lon="114.24200079638672" /><trkpt lat="22.31805278125" lon="114.24199479638672" /><trkpt lat="22.31804378125" lon="114.24199079638672" /><trkpt lat="22.31801978125" lon="114.24197379638672" /><trkpt lat="22.31800878125" lon="114.24196779638672" /><trkpt lat="22.31799278125" lon="114.24195979638672" /><trkpt lat="22.31798278125" lon="114.24195679638672" /><trkpt lat="22.31796078125" lon="114.24195079638672" /><trkpt lat="22.31795178125" lon="114.24194879638672" /><trkpt lat="22.31794178125" lon="114.24194779638673" /><trkpt lat="22.31793378125" lon="114.24194779638673" /><trkpt lat="22.31786778125" lon="114.24195179638672" /><trkpt lat="22.31786078125" lon="114.24195079638672" /><trkpt lat="22.31785278125" lon="114.24194779638673" /><trkpt lat="22.31784478125" lon="114.24194479638672" /><trkpt lat="22.31783278125" lon="114.24193679638672" /><trkpt lat="22.31782778125" lon="114.24193279638672" /><trkpt lat="22.31782278125" lon="114.24192779638672" /><trkpt lat="22.31781378125" lon="114.24191879638671" /><trkpt lat="22.31780778125" lon="114.24191279638671" /><trkpt lat="22.31780178125" lon="114.24190879638672" /><trkpt lat="22.31778078125" lon="114.24189579638671" /><trkpt lat="22.31777478125" lon="114.24189379638672" /><trkpt lat="22.31777178125" lon="114.24189279638672" /><trkpt lat="22.31776578125" lon="114.24189279638672" /><trkpt lat="22.31771578125" lon="114.24189479638672" /><trkpt lat="22.31770578125" lon="114.24189579638671" /><trkpt lat="22.31768278125" lon="114.24189879638672" /><trkpt lat="22.31767278125" lon="114.24189879638672" /><trkpt lat="22.31766178125" lon="114.24189779638672" /><trkpt lat="22.31764078125" lon="114.24189479638672" /><trkpt lat="22.31762878125" lon="114.24189279638672" /><trkpt lat="22.31758878125" lon="114.24188179638672" /><trkpt lat="22.31757878125" lon="114.24187779638672" /><trkpt lat="22.31756978125" lon="114.24187279638672" /><trkpt lat="22.31754878125" lon="114.24185979638672" /><trkpt lat="22.31754078125" lon="114.24185379638672" /><trkpt lat="22.31753478125" lon="114.24184779638672" /><trkpt lat="22.31752478125" lon="114.24183779638672" /><trkpt lat="22.31750578125" lon="114.24181479638672" /><trkpt lat="22.31749978125" lon="114.24180679638673" /><trkpt lat="22.31749478125" lon="114.24179779638672" /><trkpt lat="22.31748778125" lon="114.24178279638672" /><trkpt lat="22.31748278125" lon="114.24177079638672" /><trkpt lat="22.31747978125" lon="114.24176179638673" /><trkpt lat="22.31747778125" lon="114.24174879638672" /><trkpt lat="22.31747578125" lon="114.24171479638672" /><trkpt lat="22.31747478125" lon="114.24168679638672" /><trkpt lat="22.31747478125" lon="114.24167179638673" /><trkpt lat="22.31748278125" lon="114.24158879638672" /><trkpt lat="22.31748278125" lon="114.24157179638672" /><trkpt lat="22.31748178125" lon="114.24155379638673" /><trkpt lat="22.31747978125" lon="114.24154279638672" /><trkpt lat="22.31747278125" lon="114.24152879638672" /><trkpt lat="22.31746678125" lon="114.24151979638673" /><trkpt lat="22.31745678125" lon="114.24150979638672" /><trkpt lat="22.31744778125" lon="114.24150179638671" /><trkpt lat="22.31743278125" lon="114.24149179638673" /><trkpt lat="22.31741678125" lon="114.24148279638672" /><trkpt lat="22.31740778125" lon="114.24147879638672" /><trkpt lat="22.31739878125" lon="114.24147679638672" /><trkpt lat="22.31737278125" lon="114.24147179638672" /><trkpt lat="22.317356781249998" lon="114.24146679638672" /><trkpt lat="22.31734278125" lon="114.24146179638672" /><trkpt lat="22.31733278125" lon="114.24145679638671" /><trkpt lat="22.31732378125" lon="114.24145179638671" /><trkpt lat="22.31731678125" lon="114.24144579638671" /><trkpt lat="22.31730478125" lon="114.24143479638671" /><trkpt lat="22.31729778125" lon="114.24142579638672" /><trkpt lat="22.31729078125" lon="114.24141579638672" /><trkpt lat="22.31728478125" lon="114.24140579638672" /><trkpt lat="22.31727178125" lon="114.24137979638672" /><trkpt lat="22.31726878125" lon="114.24137079638672" /><trkpt lat="22.31726578125" lon="114.24136079638672" /><trkpt lat="22.31726478125" lon="114.24135079638671" /><trkpt lat="22.31726378125" lon="114.24133979638673" /><trkpt lat="22.31726478125" lon="114.24133179638672" /><trkpt lat="22.31726578125" lon="114.24132279638673" /><trkpt lat="22.31726878125" lon="114.24131379638672" /><trkpt lat="22.31727578125" lon="114.24130179638672" /><trkpt lat="22.31727878125" lon="114.24129579638672" /><trkpt lat="22.31729078125" lon="114.24127779638673" /><trkpt lat="22.31729778125" lon="114.24126679638672" /><trkpt lat="22.31730678125" lon="114.24125079638672" /><trkpt lat="22.31731378125" lon="114.24123679638672" /><trkpt lat="22.31731778125" lon="114.24122579638671" /><trkpt lat="22.31731978125" lon="114.24121879638672" /><trkpt lat="22.31732178125" lon="114.24120679638672" /><trkpt lat="22.31732278125" lon="114.24119879638671" /><trkpt lat="22.31732278125" lon="114.24118379638672" /><trkpt lat="22.31732178125" lon="114.24117779638672" /><trkpt lat="22.31731878125" lon="114.24116279638672" /><trkpt lat="22.31731778125" lon="114.24115679638672" /><trkpt lat="22.31731578125" lon="114.24115179638672" /><trkpt lat="22.31731378125" lon="114.24114779638671" /><trkpt lat="22.31731078125" lon="114.24114379638672" /><trkpt lat="22.31730678125" lon="114.24114079638672" /><trkpt lat="22.31729978125" lon="114.24113679638671" /><trkpt lat="22.31721078125" lon="114.24108679638672" /><trkpt lat="22.31719778125" lon="114.24108179638672" /><trkpt lat="22.31718578125" lon="114.24107679638672" /><trkpt lat="22.31715578125" lon="114.24106879638671" /><trkpt lat="22.31714478125" lon="114.24106579638672" /><trkpt lat="22.31713578125" lon="114.24106179638672" /><trkpt lat="22.31710378125" lon="114.24104379638672" /><trkpt lat="22.31709078125" lon="114.24103579638673" /><trkpt lat="22.31708378125" lon="114.24103079638672" /><trkpt lat="22.31707778125" lon="114.24102479638672" /><trkpt lat="22.31706678125" lon="114.24101179638672" /><trkpt lat="22.31706178125" lon="114.24100479638672" /><trkpt lat="22.31705678125" lon="114.24099679638672" /><trkpt lat="22.31705278125" lon="114.24098779638672" /><trkpt lat="22.31705078125" lon="114.24097779638672" /><trkpt lat="22.31704978125" lon="114.24096879638672" /><trkpt lat="22.31704978125" lon="114.24094879638672" /><trkpt lat="22.31705078125" lon="114.24092779638671" /><trkpt lat="22.31705278125" lon="114.24091679638671" /><trkpt lat="22.31705778125" lon="114.24090179638672" /><trkpt lat="22.31707178125" lon="114.24085979638672" /><trkpt lat="22.31707378125" lon="114.24084879638671" /><trkpt lat="22.31707678125" lon="114.24082079638671" /><trkpt lat="22.31707678125" lon="114.24080879638672" /><trkpt lat="22.31707478125" lon="114.24076679638672" /><trkpt lat="22.31708278125" lon="114.24072579638671" /><trkpt lat="22.31705378125" lon="114.24065579638672" /><trkpt lat="22.31696578125" lon="114.24060979638672" /><trkpt lat="22.31689678125" lon="114.24056979638672" /><trkpt lat="22.31674678125" lon="114.24036279638672" /><trkpt lat="22.31661578125" lon="114.24013179638672" /><trkpt lat="22.316503307417364" lon="114.23984153872425" /><trkpt lat="22.3165220894453" lon="114.23976945536424" /><trkpt lat="22.316559184625163" lon="114.23983595233062" /><trkpt lat="22.316587521040447" lon="114.23994144776316" /><trkpt lat="22.3165915431794" lon="114.2399823755137" /><trkpt lat="22.316594537020762" lon="114.23999282745933" /><trkpt lat="22.316594631067517" lon="114.23999568245523" /><trkpt lat="22.3165955835709" lon="114.23999871134265" /><trkpt lat="22.316595839902888" lon="114.2400007215835" /><trkpt lat="22.316596203722654" lon="114.24000199175379" /><trkpt lat="22.316596406648884" lon="114.24000604576435" /><trkpt lat="22.31659617310278" lon="114.2400085760176" /><trkpt lat="22.31659776452753" lon="114.24001413189143" /><trkpt lat="22.31656284264916" lon="114.24003689417636" /><trkpt lat="22.31661578125" lon="114.24013179638672" /><trkpt lat="22.31674678125" lon="114.24036279638672" /><trkpt lat="22.31689678125" lon="114.24056979638672" /><trkpt lat="22.31696578125" lon="114.24060979638672" /><trkpt lat="22.31693578125" lon="114.24066079638672" /><trkpt lat="22.31691078125" lon="114.24067679638672" /><trkpt lat="22.31690378125" lon="114.24067479638671" /><trkpt lat="22.31686578125" lon="114.24078079638672" /><trkpt lat="22.31683478125" lon="114.24077979638672" /><trkpt lat="22.31678478125" lon="114.24076979638672" /><trkpt lat="22.31669078125" lon="114.24076979638672" /><trkpt lat="22.31665278125" lon="114.24074979638672" /><trkpt lat="22.31649878125" lon="114.24061179638672" /><trkpt lat="22.31650178125" lon="114.24047279638671" /><trkpt lat="22.31636178125" lon="114.24011679638672" /><trkpt lat="22.31633078125" lon="114.24006379638672" /><trkpt lat="22.31632678125" lon="114.24010079638671" /><trkpt lat="22.31629878125" lon="114.24014179638672" /><trkpt lat="22.31624478125" lon="114.24017279638672" /><trkpt lat="22.31605578125" lon="114.24034479638672" /><trkpt lat="22.31603278125" lon="114.24037079638671" /><trkpt lat="22.31598778125" lon="114.24031979638671" /><trkpt lat="22.31595421053683" lon="114.24028766872566" /></trkseg></trk></gpx>