<?xml version='1.0' encoding='UTF-8' ?><gpx version="1.1" creator="HikingTrailHK" xsi:schemaLocation="http://www.topografix.com/GPX/1/1 http://www.topografix.com/GPX/1/1/gpx.xsd https://hikingtrailhk.appspot.com/xml/gpxextensions/v1 https://hikingtrailhk.appspot.com/xml/gpxextensions/v1/gpxextensions.xsd" xmlns="http://www.topografix.com/GPX/1/1" xmlns:h="https://hikingtrailhk.appspot.com/xml/gpxextensions/v1" xmlns:xsi="http://www.w3.org/2001/XMLSchema-instance"><metadata><name>馬鞍山村至企嶺 @ 2016-2-11</name><desc></desc><extensions><h:categoryid>scenery_route</h:categoryid></extensions></metadata><trk><trkseg><trkpt lat="22.410517869890185" lon="114.23477459024662" /><trkpt lat="22.41028878125" lon="114.23499679638672" /><trkpt lat="22.41011678125" lon="114.23535379638672" /><trkpt lat="22.40983978125" lon="114.23565379638671" /><trkpt lat="22.40949278125" lon="114.23594379638672" /><trkpt lat="22.40919178125" lon="114.23617079638672" /><trkpt lat="22.40889978125" lon="114.23620279638672" /><trkpt lat="22.40872978125" lon="114.23627079638672" /><trkpt lat="22.40861878125" lon="114.23639379638672" /><trkpt lat="22.40836978125" lon="114.23666579638672" /><trkpt lat="22.408272781249998" lon="114.23675879638672" /><trkpt lat="22.40808578125" lon="114.23684979638672" /><trkpt lat="22.40802978125" lon="114.23689179638671" /><trkpt lat="22.40767478125" lon="114.23694379638673" /><trkpt lat="22.40750078125" lon="114.23702979638672" /><trkpt lat="22.40712178125" lon="114.23727779638672" /><trkpt lat="22.40700278125" lon="114.23737679638671" /><trkpt lat="22.40669778125" lon="114.23758779638672" /><trkpt lat="22.40656878125" lon="114.23767879638672" /><trkpt lat="22.40645878125" lon="114.23775279638672" /><trkpt lat="22.40616678125" lon="114.23794079638672" /><trkpt lat="22.40588578125" lon="114.23804779638672" /><trkpt lat="22.40569378125" lon="114.23817079638673" /><trkpt lat="22.40562078125" lon="114.23827879638672" /><trkpt lat="22.40540878125" lon="114.23906279638672" /><trkpt lat="22.40529878125" lon="114.23922379638672" /><trkpt lat="22.40511478125" lon="114.23940379638672" /><trkpt lat="22.40501378125" lon="114.23944779638671" /><trkpt lat="22.40453378125" lon="114.23948579638672" /><trkpt lat="22.40430978125" lon="114.23962679638672" /><trkpt lat="22.40409278125" lon="114.23967479638672" /><trkpt lat="22.40399978125" lon="114.23970879638672" /><trkpt lat="22.40388778125" lon="114.23982279638672" /><trkpt lat="22.40364078125" lon="114.24064079638671" /><trkpt lat="22.40363178125" lon="114.24198779638672" /><trkpt lat="22.40355478125" lon="114.24217579638672" /><trkpt lat="22.40347778125" lon="114.24237579638672" /><trkpt lat="22.40344878125" lon="114.24266479638672" /><trkpt lat="22.40339178125" lon="114.24283779638672" /><trkpt lat="22.40339478125" lon="114.24315579638672" /><trkpt lat="22.40333178125" lon="114.24334979638672" /><trkpt lat="22.40328078125" lon="114.24350479638672" /><trkpt lat="22.40315078125" lon="114.24368679638673" /><trkpt lat="22.40305178125" lon="114.24406879638671" /><trkpt lat="22.40305378125" lon="114.24418479638672" /><trkpt lat="22.40315078125" lon="114.24443079638672" /><trkpt lat="22.40315678125" lon="114.24449679638671" /><trkpt lat="22.40309978125" lon="114.24454779638671" /><trkpt lat="22.40301678125" lon="114.24452979638671" /><trkpt lat="22.40295978125" lon="114.24444779638672" /><trkpt lat="22.40293578125" lon="114.24421479638671" /><trkpt lat="22.40295478125" lon="114.24400779638673" /><trkpt lat="22.40292578125" lon="114.24371079638672" /><trkpt lat="22.40287078125" lon="114.24359279638672" /><trkpt lat="22.40275678125" lon="114.24356879638673" /><trkpt lat="22.40261778125" lon="114.24367579638673" /><trkpt lat="22.40250778125" lon="114.24383679638672" /><trkpt lat="22.40243978125" lon="114.24397379638671" /><trkpt lat="22.40242778125" lon="114.24414279638673" /><trkpt lat="22.40240078125" lon="114.24444979638672" /><trkpt lat="22.40215178125" lon="114.24479679638672" /><trkpt lat="22.40186478125" lon="114.24498979638672" /><trkpt lat="22.40160378125" lon="114.24510979638671" /><trkpt lat="22.40141178125" lon="114.24529079638671" /><trkpt lat="22.40132878125" lon="114.24540579638672" /><trkpt lat="22.40126978125" lon="114.24549579638672" /><trkpt lat="22.40107878125" lon="114.24573079638672" /><trkpt lat="22.40092078125" lon="114.24605779638672" /><trkpt lat="22.40088878125" lon="114.24612279638671" /><trkpt lat="22.40083578125" lon="114.24623279638672" /><trkpt lat="22.40042478125" lon="114.24646279638672" /><trkpt lat="22.40022978125" lon="114.24657179638672" /><trkpt lat="22.40023778125" lon="114.24683379638672" /><trkpt lat="22.40008378125" lon="114.24707879638672" /><trkpt lat="22.39949178125" lon="114.24736679638671" /><trkpt lat="22.39918878125" lon="114.24767479638672" /><trkpt lat="22.39901478125" lon="114.24770179638672" /><trkpt lat="22.39861078125" lon="114.24809479638672" /><trkpt lat="22.39799778125" lon="114.24837979638671" /><trkpt lat="22.39768078125" lon="114.24857379638672" /><trkpt lat="22.39748778125" lon="114.24862179638671" /><trkpt lat="22.39660478125" lon="114.24864879638672" /><trkpt lat="22.39595978125" lon="114.24896579638671" /><trkpt lat="22.39602378125" lon="114.24908779638672" /><trkpt lat="22.39619678125" lon="114.24930779638672" /><trkpt lat="22.39632478125" lon="114.24945879638672" /><trkpt lat="22.39650778125" lon="114.24962479638671" /><trkpt lat="22.39670578125" lon="114.24973579638672" /><trkpt lat="22.39683978125" lon="114.24983979638672" /><trkpt lat="22.39699778125" lon="114.25010779638671" /><trkpt lat="22.39707278125" lon="114.25012379638672" /><trkpt lat="22.39715178125" lon="114.25018779638671" /><trkpt lat="22.39730578125" lon="114.25024179638672" /><trkpt lat="22.39741478125" lon="114.25027379638672" /><trkpt lat="22.39747378125" lon="114.25040779638672" /><trkpt lat="22.39744878125" lon="114.25049079638671" /><trkpt lat="22.39750778125" lon="114.25060879638671" /><trkpt lat="22.39763278125" lon="114.25072479638672" /><trkpt lat="22.39771678125" lon="114.25082079638672" /><trkpt lat="22.39775178125" lon="114.25094979638672" /><trkpt lat="22.39791278125" lon="114.25109079638672" /><trkpt lat="22.39802078125" lon="114.25103379638672" /><trkpt lat="22.39814878125" lon="114.25102479638672" /><trkpt lat="22.39824578125" lon="114.25108579638672" /><trkpt lat="22.39833778125" lon="114.25124679638672" /><trkpt lat="22.39842978125" lon="114.25140479638672" /><trkpt lat="22.39847678125" lon="114.25152279638672" /><trkpt lat="22.39851078125" lon="114.25164679638672" /><trkpt lat="22.39862578125" lon="114.25168879638672" /><trkpt lat="22.39870178125" lon="114.25165579638671" /><trkpt lat="22.39874678125" lon="114.25173279638672" /><trkpt lat="22.39874678125" lon="114.25180779638671" /><trkpt lat="22.39877378125" lon="114.25186479638671" /><trkpt lat="22.39875878125" lon="114.25190979638671" /><trkpt lat="22.39879978125" lon="114.25199679638672" /><trkpt lat="22.39883578125" lon="114.25211079638672" /><trkpt lat="22.39883078125" lon="114.25220479638672" /><trkpt lat="22.39887278125" lon="114.25228279638672" /><trkpt lat="22.39887478125" lon="114.25243279638671" /><trkpt lat="22.39876578125" lon="114.25255879638672" /><trkpt lat="22.39880578125" lon="114.25272579638671" /><trkpt lat="22.39848378125" lon="114.25271379638671" /><trkpt lat="22.39759378125" lon="114.25296679638672" /><trkpt lat="22.39694178125" lon="114.25291779638673" /><trkpt lat="22.39684678125" lon="114.25285479638671" /><trkpt lat="22.39679878125" lon="114.25283279638671" /><trkpt lat="22.39641378125" lon="114.25262679638672" /><trkpt lat="22.396126008672766" lon="114.25274712459507" /><trkpt lat="22.396244057912185" lon="114.25318206482483" /><trkpt lat="22.396543296361898" lon="114.25318141719184" /><trkpt lat="22.396765361137696" lon="114.25298918086195" /><trkpt lat="22.396810009929737" lon="114.2528714858447" /><trkpt lat="22.396829736377356" lon="114.25285015062694" /><trkpt lat="22.396834797855703" lon="114.25283889857677" /><trkpt lat="22.396834797855703" lon="114.25281248903342" /><trkpt lat="22.396844717384013" lon="114.25280176019736" /><trkpt lat="22.396827415635418" lon="114.25284592047805" /><trkpt lat="22.39684678125" lon="114.25285479638671" /><trkpt lat="22.39694178125" lon="114.25291779638673" /><trkpt lat="22.39759378125" lon="114.25296679638672" /><trkpt lat="22.39848378125" lon="114.25271379638671" /><trkpt lat="22.39880578125" lon="114.25272579638671" /><trkpt lat="22.39893378125" lon="114.25277179638672" /><trkpt lat="22.39903678125" lon="114.25282879638672" /><trkpt lat="22.39909178125" lon="114.25283479638672" /><trkpt lat="22.39915678125" lon="114.25282779638673" /><trkpt lat="22.39922978125" lon="114.25280079638672" /><trkpt lat="22.39929478125" lon="114.25277879638672" /><trkpt lat="22.39935878125" lon="114.25273879638672" /><trkpt lat="22.39944378125" lon="114.25268679638671" /><trkpt lat="22.39949678125" lon="114.25266879638671" /><trkpt lat="22.39962278125" lon="114.25260479638672" /><trkpt lat="22.39982878125" lon="114.25261279638671" /><trkpt lat="22.39989178125" lon="114.25262979638671" /><trkpt lat="22.39999678125" lon="114.25268179638672" /><trkpt lat="22.40003878125" lon="114.25275179638672" /><trkpt lat="22.40009378125" lon="114.25279579638672" /><trkpt lat="22.40014278125" lon="114.25285879638672" /><trkpt lat="22.40025478125" lon="114.25287779638671" /><trkpt lat="22.40034778125" lon="114.25291179638671" /><trkpt lat="22.40033778125" lon="114.25295879638672" /><trkpt lat="22.40030078125" lon="114.25299579638671" /><trkpt lat="22.40026178125" lon="114.25304479638672" /><trkpt lat="22.40021278125" lon="114.25309279638672" /><trkpt lat="22.40015478125" lon="114.25312479638671" /><trkpt lat="22.40001078125" lon="114.25315679638672" /><trkpt lat="22.39993578125" lon="114.25315279638671" /><trkpt lat="22.39990078125" lon="114.25317579638671" /><trkpt lat="22.39996878125" lon="114.25323479638672" /><trkpt lat="22.40000078125" lon="114.25326079638671" /><trkpt lat="22.40004778125" lon="114.25332779638671" /><trkpt lat="22.40010478125" lon="114.25333379638671" /><trkpt lat="22.40017078125" lon="114.25336579638672" /><trkpt lat="22.40022878125" lon="114.25341479638672" /><trkpt lat="22.40033278125" lon="114.25352879638672" /><trkpt lat="22.40041878125" lon="114.25357779638672" /><trkpt lat="22.40045978125" lon="114.25363479638672" /><trkpt lat="22.40049478125" lon="114.25365079638672" /><trkpt lat="22.40054878125" lon="114.25375579638671" /><trkpt lat="22.40058678125" lon="114.25379779638672" /><trkpt lat="22.40075478125" lon="114.25387079638672" /><trkpt lat="22.40081978125" lon="114.25391079638672" /><trkpt lat="22.40087678125" lon="114.25399179638671" /><trkpt lat="22.40090178125" lon="114.25407679638671" /><trkpt lat="22.40098278125" lon="114.25418179638672" /><trkpt lat="22.40106778125" lon="114.25430779638671" /><trkpt lat="22.40115678125" lon="114.25443379638672" /><trkpt lat="22.40120378125" lon="114.25453079638672" /><trkpt lat="22.40126078125" lon="114.25451179638672" /><trkpt lat="22.40133978125" lon="114.25451179638672" /><trkpt lat="22.40142278125" lon="114.25447579638671" /><trkpt lat="22.40161778125" lon="114.25443679638671" /><trkpt lat="22.402013781249998" lon="114.25438379638672" /><trkpt lat="22.40218478125" lon="114.25446979638672" /><trkpt lat="22.40244078125" lon="114.25456179638672" /><trkpt lat="22.40289478125" lon="114.25442479638672" /><trkpt lat="22.40302078125" lon="114.25447779638672" /><trkpt lat="22.40346678125" lon="114.25419579638672" /><trkpt lat="22.40347278125" lon="114.25426479638672" /><trkpt lat="22.40367478125" lon="114.25420379638672" /><trkpt lat="22.40386778125" lon="114.25407379638672" /><trkpt lat="22.40397478125" lon="114.25366479638672" /><trkpt lat="22.40408078125" lon="114.25365679638672" /><trkpt lat="22.40422378125" lon="114.25370779638672" /><trkpt lat="22.40471378125" lon="114.25356179638672" /><trkpt lat="22.40503078125" lon="114.25335979638672" /><trkpt lat="22.40519778125" lon="114.25305079638672" /><trkpt lat="22.40522178125" lon="114.25287079638672" /><trkpt lat="22.40526878125" lon="114.25277079638671" /><trkpt lat="22.40535578125" lon="114.25271579638672" /><trkpt lat="22.40543478125" lon="114.25264379638672" /><trkpt lat="22.40560278125" lon="114.25269979638672" /><trkpt lat="22.40578778125" lon="114.25275979638671" /><trkpt lat="22.40597078125" lon="114.25278079638672" /><trkpt lat="22.40616278125" lon="114.25276079638672" /><trkpt lat="22.40635278125" lon="114.25280579638672" /><trkpt lat="22.40652278125" lon="114.25294579638671" /><trkpt lat="22.40666978125" lon="114.25300479638672" /><trkpt lat="22.40673178125" lon="114.25311979638671" /><trkpt lat="22.40672378125" lon="114.25332979638672" /><trkpt lat="22.40681678125" lon="114.25345279638672" /><trkpt lat="22.40689078125" lon="114.25354979638672" /><trkpt lat="22.40701378125" lon="114.25387779638672" /><trkpt lat="22.40700878125" lon="114.25412579638672" /><trkpt lat="22.40702478125" lon="114.25443679638671" /><trkpt lat="22.40701978125" lon="114.25463079638672" /><trkpt lat="22.40707278125" lon="114.25483479638672" /><trkpt lat="22.40703578125" lon="114.25508779638672" /><trkpt lat="22.40707878125" lon="114.25530279638672" /><trkpt lat="22.40701378125" lon="114.25544779638672" /><trkpt lat="22.40700878125" lon="114.25563579638671" /><trkpt lat="22.40702678125" lon="114.25589479638671" /><trkpt lat="22.40723978125" lon="114.25604879638672" /><trkpt lat="22.40723278125" lon="114.25613879638672" /><trkpt lat="22.40723978125" lon="114.25632379638672" /><trkpt lat="22.40708478125" lon="114.25645979638672" /><trkpt lat="22.40701378125" lon="114.25672779638671" /><trkpt lat="22.40700878125" lon="114.25697479638671" /><trkpt lat="22.40696578125" lon="114.25713079638672" /><trkpt lat="22.40694378125" lon="114.25726579638672" /><trkpt lat="22.40701378125" lon="114.25742679638672" /><trkpt lat="22.40698678125" lon="114.25753979638672" /><trkpt lat="22.40688478125" lon="114.25797479638672" /><trkpt lat="22.40689578125" lon="114.25814679638673" /><trkpt lat="22.40692278125" lon="114.25836179638672" /><trkpt lat="22.40683878125" lon="114.25851279638673" /><trkpt lat="22.40673178125" lon="114.25862279638672" /><trkpt lat="22.40661578125" lon="114.25879679638672" /><trkpt lat="22.40660578125" lon="114.25894879638672" /><trkpt lat="22.40657878125" lon="114.25916379638672" /><trkpt lat="22.40660578125" lon="114.25959879638671" /><trkpt lat="22.40672378125" lon="114.25977079638672" /><trkpt lat="22.40679678125" lon="114.25995479638672" /><trkpt lat="22.40667478125" lon="114.26005079638672" /><trkpt lat="22.40666578125" lon="114.26009279638672" /><trkpt lat="22.40673678125" lon="114.26012979638672" /><trkpt lat="22.40665578125" lon="114.26019879638672" /><trkpt lat="22.40677678125" lon="114.26019279638672" /><trkpt lat="22.40692478125" lon="114.26020879638672" /><trkpt lat="22.40689878125" lon="114.26031379638673" /><trkpt lat="22.40677178125" lon="114.26044579638672" /><trkpt lat="22.40660578125" lon="114.26058279638671" /><trkpt lat="22.40657278125" lon="114.26071179638672" /><trkpt lat="22.40655678125" lon="114.26087279638672" /><trkpt lat="22.40650578125" lon="114.26093379638672" /><trkpt lat="22.40634878125" lon="114.26102379638672" /><trkpt lat="22.40623478125" lon="114.26116879638671" /><trkpt lat="22.40620878125" lon="114.26131679638672" /><trkpt lat="22.40609578125" lon="114.26141979638672" /><trkpt lat="22.40595578125" lon="114.26153479638671" /><trkpt lat="22.40591178125" lon="114.26165279638671" /><trkpt lat="22.40595978125" lon="114.26177679638671" /><trkpt lat="22.40604678125" lon="114.26195879638672" /><trkpt lat="22.40611478125" lon="114.26215579638672" /><trkpt lat="22.40615778125" lon="114.26233979638671" /><trkpt lat="22.40611578125" lon="114.26248579638671" /><trkpt lat="22.40604078125" lon="114.26257179638672" /><trkpt lat="22.40593178125" lon="114.26250279638671" /><trkpt lat="22.40575078125" lon="114.26252379638672" /><trkpt lat="22.40561078125" lon="114.26259879638671" /><trkpt lat="22.40546578125" lon="114.26271779638672" /><trkpt lat="22.40530478125" lon="114.26278179638672" /><trkpt lat="22.40520778125" lon="114.26276079638671" /><trkpt lat="22.40500578125" lon="114.26271779638672" /><trkpt lat="22.40489178125" lon="114.26273379638671" /><trkpt lat="22.40479378125" lon="114.26276479638672" /><trkpt lat="22.40470178125" lon="114.26274979638671" /><trkpt lat="22.40456778125" lon="114.26276079638671" /><trkpt lat="22.40442278125" lon="114.26270079638672" /><trkpt lat="22.40429378125" lon="114.26266879638672" /><trkpt lat="22.40384178125" lon="114.26282979638673" /><trkpt lat="22.40376678125" lon="114.26295379638673" /><trkpt lat="22.40368078125" lon="114.26303479638672" /><trkpt lat="22.40360578125" lon="114.26313679638672" /><trkpt lat="22.40342778125" lon="114.26328679638672" /><trkpt lat="22.40325578125" lon="114.26338979638672" /><trkpt lat="22.40326678125" lon="114.26366379638672" /><trkpt lat="22.40335278125" lon="114.26377079638672" /><trkpt lat="22.40333078125" lon="114.26384079638672" /><trkpt lat="22.40336878125" lon="114.26392679638671" /><trkpt lat="22.40349778125" lon="114.26395379638672" /><trkpt lat="22.40360578125" lon="114.26399179638672" /><trkpt lat="22.40358378125" lon="114.26405579638671" /><trkpt lat="22.40364278125" lon="114.26412579638672" /><trkpt lat="22.40367478125" lon="114.26427679638672" /><trkpt lat="22.40369178125" lon="114.26445379638672" /><trkpt lat="22.40361578125" lon="114.26462579638672" /><trkpt lat="22.40349278125" lon="114.26463179638672" /><trkpt lat="22.40327778125" lon="114.26464779638673" /><trkpt lat="22.40310678125" lon="114.26465579638672" /><trkpt lat="22.40279878125" lon="114.26452879638671" /><trkpt lat="22.40265578125" lon="114.26430179638672" /><trkpt lat="22.40246578125" lon="114.26436779638672" /><trkpt lat="22.40231978125" lon="114.26446979638672" /><trkpt lat="22.40216978125" lon="114.26464179638671" /><trkpt lat="22.40213178125" lon="114.26491079638672" /><trkpt lat="22.40213778125" lon="114.26538979638671" /><trkpt lat="22.40205678125" lon="114.26558879638672" /><trkpt lat="22.40185778125" lon="114.26572779638671" /><trkpt lat="22.40169078125" lon="114.26600779638672" /><trkpt lat="22.40148678125" lon="114.26612079638672" /><trkpt lat="22.40121278125" lon="114.26657779638671" /><trkpt lat="22.40120178125" lon="114.26690079638672" /><trkpt lat="22.40128778125" lon="114.26711579638672" /><trkpt lat="22.40140678125" lon="114.26728279638672" /><trkpt lat="22.40152478125" lon="114.26744879638672" /><trkpt lat="22.40165878125" lon="114.26766879638672" /><trkpt lat="22.40168078125" lon="114.26793279638672" /><trkpt lat="22.40154578125" lon="114.26843279638672" /><trkpt lat="22.40137978125" lon="114.26861579638671" /><trkpt lat="22.40126078125" lon="114.26888479638671" /><trkpt lat="22.40118078125" lon="114.26907279638672" /><trkpt lat="22.40107778125" lon="114.26930379638672" /><trkpt lat="22.40095978125" lon="114.26956679638671" /><trkpt lat="22.40078278125" lon="114.26974979638672" /><trkpt lat="22.40062078125" lon="114.26995479638671" /><trkpt lat="22.40064778125" lon="114.27023979638672" /><trkpt lat="22.40061278125" lon="114.27036279638672" /><trkpt lat="22.40058378125" lon="114.27040179638672" /><trkpt lat="22.40048678125" lon="114.27047379638672" /><trkpt lat="22.40023578125" lon="114.27034479638672" /><trkpt lat="22.40010678125" lon="114.27028079638671" /><trkpt lat="22.39985878125" lon="114.27010879638672" /><trkpt lat="22.39972978125" lon="114.27001279638672" /><trkpt lat="22.39955178125" lon="114.26990579638672" /><trkpt lat="22.39928378125" lon="114.27013079638672" /><trkpt lat="22.39909578125" lon="114.27044979638671" /><trkpt lat="22.39907578125" lon="114.27048479638673" /><trkpt lat="22.39899278125" lon="114.27056579638672" /><trkpt lat="22.39886978125" lon="114.27061379638671" /><trkpt lat="22.39876778125" lon="114.27061779638672" /><trkpt lat="22.39872978125" lon="114.27061879638671" /><trkpt lat="22.39835878125" lon="114.27060079638672" /><trkpt lat="22.39814778125" lon="114.27060779638671" /><trkpt lat="22.39800578125" lon="114.27064979638672" /><trkpt lat="22.39792478125" lon="114.27072179638672" /><trkpt lat="22.39790778125" lon="114.27077679638671" /><trkpt lat="22.39790578125" lon="114.27085079638672" /><trkpt lat="22.39792978125" lon="114.27092979638672" /><trkpt lat="22.39800078125" lon="114.27108779638672" /><trkpt lat="22.39801978125" lon="114.27117679638671" /><trkpt lat="22.39799978125" lon="114.27131079638671" /><trkpt lat="22.39801278125" lon="114.27138279638672" /><trkpt lat="22.39804778125" lon="114.27148079638673" /><trkpt lat="22.39813978125" lon="114.27167179638671" /><trkpt lat="22.39814778125" lon="114.27172979638672" /><trkpt lat="22.39807978125" lon="114.27194079638672" /><trkpt lat="22.39806878125" lon="114.27209579638672" /><trkpt lat="22.39806278125" lon="114.27219279638672" /><trkpt lat="22.398045388285464" lon="114.27226500202615" /><trkpt lat="22.39807478125" lon="114.27224779638672" /><trkpt lat="22.39810978125" lon="114.27223279638672" /><trkpt lat="22.39814678125" lon="114.27222779638672" /><trkpt lat="22.39818478125" lon="114.27223479638671" /><trkpt lat="22.39840278125" lon="114.27233679638672" /><trkpt lat="22.39858478125" lon="114.27257579638672" /><trkpt lat="22.39860178125" lon="114.27261979638672" /><trkpt lat="22.39866878125" lon="114.27279979638672" /><trkpt lat="22.39880278125" lon="114.27288279638672" /><trkpt lat="22.39884578125" lon="114.27290979638671" /><trkpt lat="22.39908478125" lon="114.27299279638672" /><trkpt lat="22.39928278125" lon="114.27309179638672" /><trkpt lat="22.39931978125" lon="114.27311979638672" /><trkpt lat="22.39946478125" lon="114.27323279638672" /><trkpt lat="22.39963678125" lon="114.27335179638672" /><trkpt lat="22.39981978125" lon="114.27346179638671" /><trkpt lat="22.39997578125" lon="114.27353979638671" /><trkpt lat="22.40015778125" lon="114.27362779638672" /><trkpt lat="22.40059478125" lon="114.27357579638672" /><trkpt lat="22.40090778125" lon="114.27362279638672" /><trkpt lat="22.40112078125" lon="114.27372679638673" /><trkpt lat="22.40138178125" lon="114.27367979638672" /><trkpt lat="22.40161578125" lon="114.27362279638672" /><trkpt lat="22.40195978125" lon="114.27365379638672" /><trkpt lat="22.40228778125" lon="114.27379979638673" /><trkpt lat="22.40259978125" lon="114.27394079638673" /><trkpt lat="22.40282378125" lon="114.27416979638672" /><trkpt lat="22.40281878125" lon="114.27445079638672" /><trkpt lat="22.40267778125" lon="114.27492979638671" /><trkpt lat="22.40246978125" lon="114.27518479638672" /><trkpt lat="22.40226678125" lon="114.27543979638672" /><trkpt lat="22.40207378125" lon="114.27567979638673" /><trkpt lat="22.40207478125" lon="114.27580579638672" /><trkpt lat="22.40257378125" lon="114.27643379638671" /><trkpt lat="22.40275878125" lon="114.27660679638672" /><trkpt lat="22.40282078125" lon="114.27673179638671" /><trkpt lat="22.40285978125" lon="114.27691379638672" /><trkpt lat="22.40284178125" lon="114.27697379638671" /><trkpt lat="22.40282078125" lon="114.27704779638673" /><trkpt lat="22.40276678125" lon="114.27719479638672" /><trkpt lat="22.40254278125" lon="114.27777979638672" /><trkpt lat="22.40253178125" lon="114.27787679638672" /><trkpt lat="22.40254778125" lon="114.27793979638672" /><trkpt lat="22.40262078125" lon="114.27804879638671" /><trkpt lat="22.40276678125" lon="114.27819479638671" /><trkpt lat="22.40292778125" lon="114.27830379638672" /><trkpt lat="22.40308378125" lon="114.27840779638672" /><trkpt lat="22.40332378125" lon="114.27855379638672" /><trkpt lat="22.40357878125" lon="114.27869479638672" /><trkpt lat="22.40360478125" lon="114.27881379638671" /><trkpt lat="22.40360178125" lon="114.27895279638672" /><trkpt lat="22.40359978125" lon="114.27904279638672" /><trkpt lat="22.40356278125" lon="114.27916779638672" /><trkpt lat="22.40353178125" lon="114.27941279638672" /><trkpt lat="22.40347478125" lon="114.27963179638672" /><trkpt lat="22.40351078125" lon="114.27975179638672" /><trkpt lat="22.40371378125" lon="114.27980879638672" /><trkpt lat="22.40397978125" lon="114.27977179638673" /><trkpt lat="22.40426578125" lon="114.27966779638672" /><trkpt lat="22.40438678125" lon="114.27961179638672" /><trkpt lat="22.40448978125" lon="114.27956379638673" /><trkpt lat="22.40452478125" lon="114.27952679638672" /><trkpt lat="22.40463578125" lon="114.27940779638672" /><trkpt lat="22.40475278125" lon="114.27925779638672" /><trkpt lat="22.40477378125" lon="114.27925779638672" /><trkpt lat="22.40487478125" lon="114.27927279638672" /></trkseg></trk></gpx>