<?xml version='1.0' encoding='UTF-8' ?><gpx version="1.1" creator="HikingTrailHK" xsi:schemaLocation="http://www.topografix.com/GPX/1/1 http://www.topografix.com/GPX/1/1/gpx.xsd" xmlns="http://www.topografix.com/GPX/1/1" xmlns:xsi="http://www.w3.org/2001/XMLSchema-instance"><metadata><name>鬼手赤洲 @ 2025-8-31</name><desc></desc></metadata><trk><trkseg><trkpt lat="22.50936630153023" lon="114.3362407598292" /><trkpt lat="22.50899978125" lon="114.33632879638672" /><trkpt lat="22.50888978125" lon="114.33631479638672" /><trkpt lat="22.50881278125" lon="114.33629679638672" /><trkpt lat="22.50858278125" lon="114.33635779638672" /><trkpt lat="22.50832478125" lon="114.33645679638671" /><trkpt lat="22.50815478125" lon="114.33634879638672" /><trkpt lat="22.50795578125" lon="114.33629279638672" /><trkpt lat="22.50777178125" lon="114.33616279638672" /><trkpt lat="22.507702005176302" lon="114.33608937151828" /><trkpt lat="22.507685033005117" lon="114.33592316021037" /><trkpt lat="22.50769210331002" lon="114.33591414324906" /><trkpt lat="22.50778277244494" lon="114.33591767869905" /><trkpt lat="22.507867024442717" lon="114.33596029681769" /><trkpt lat="22.508025063878563" lon="114.33616345600444" /><trkpt lat="22.508331699994514" lon="114.33634013841271" /><trkpt lat="22.50840555363213" lon="114.33634769328194" /><trkpt lat="22.508896597964707" lon="114.33626348852806" /><trkpt lat="22.50907970767406" lon="114.33619981113924" /><trkpt lat="22.509399239166868" lon="114.3361870512428" /><trkpt lat="22.50944850736292" lon="114.33620063258036" /><trkpt lat="22.50946071269945" lon="114.33620063258036" /><trkpt lat="22.509461348704207" lon="114.33620097289014" /></trkseg><trkseg><trkpt lat="22.50387578125" lon="114.36178979638672" /><trkpt lat="22.50380478125" lon="114.36179279638672" /><trkpt lat="22.50373878125" lon="114.36182279638672" /><trkpt lat="22.50370278125" lon="114.36180479638672" /><trkpt lat="22.50359178125" lon="114.36185379638673" /><trkpt lat="22.50352178125" lon="114.36185779638672" /><trkpt lat="22.50343778125" lon="114.36189579638672" /><trkpt lat="22.50334478125" lon="114.36197279638672" /><trkpt lat="22.503280781249998" lon="114.36203879638671" /><trkpt lat="22.50323478125" lon="114.36205479638672" /><trkpt lat="22.50320078125" lon="114.36196679638672" /><trkpt lat="22.50317378125" lon="114.36196879638672" /><trkpt lat="22.50316178125" lon="114.36202779638671" /><trkpt lat="22.50314678125" lon="114.36205479638672" /><trkpt lat="22.50302078125" lon="114.36203779638672" /><trkpt lat="22.50285178125" lon="114.36199679638672" /><trkpt lat="22.50275178125" lon="114.36198179638671" /><trkpt lat="22.50269978125" lon="114.36195879638672" /><trkpt lat="22.50260678125" lon="114.36196379638672" /><trkpt lat="22.50256078125" lon="114.36199079638672" /><trkpt lat="22.50255278125" lon="114.36201879638672" /><trkpt lat="22.50257078125" lon="114.36206679638671" /><trkpt lat="22.50254578125" lon="114.36207079638672" /><trkpt lat="22.50248678125" lon="114.36206079638671" /><trkpt lat="22.50250478125" lon="114.36211179638671" /><trkpt lat="22.50281778125" lon="114.36229079638672" /><trkpt lat="22.50290678125" lon="114.36240579638672" /><trkpt lat="22.50302078125" lon="114.36246279638672" /><trkpt lat="22.50307578125" lon="114.36252879638671" /><trkpt lat="22.50313578125" lon="114.36254679638672" /><trkpt lat="22.50316478125" lon="114.36258179638672" /><trkpt lat="22.50321778125" lon="114.36258279638672" /><trkpt lat="22.50343178125" lon="114.36271179638672" /><trkpt lat="22.503345800738188" lon="114.36273817582634" /><trkpt lat="22.503281894254386" lon="114.36267004087648" /><trkpt lat="22.503282086125665" lon="114.36266821026396" /><trkpt lat="22.503281318482095" lon="114.3626665255199" /><trkpt lat="22.50328093458107" lon="114.36266485066648" /><trkpt lat="22.503280166929116" lon="114.36266339322623" /><trkpt lat="22.503280166929116" lon="114.362662257213" /><trkpt lat="22.503279291311017" lon="114.36266057575381" /><trkpt lat="22.503279399285518" lon="114.362657579781" /><trkpt lat="22.503279015384507" lon="114.36265674886084" /><trkpt lat="22.503279015384507" lon="114.36265533692097" /><trkpt lat="22.503278526560408" lon="114.36265529472342" /><trkpt lat="22.50327790281608" lon="114.36265446380327" /><trkpt lat="22.50327767196022" lon="114.36265446380327" /><trkpt lat="22.503291621926877" lon="114.36262730758858" /><trkpt lat="22.50321778125" lon="114.36258279638672" /><trkpt lat="22.50316478125" lon="114.36258179638672" /><trkpt lat="22.50313578125" lon="114.36254679638672" /><trkpt lat="22.50307578125" lon="114.36252879638671" /><trkpt lat="22.50302078125" lon="114.36246279638672" /><trkpt lat="22.50290678125" lon="114.36240579638672" /><trkpt lat="22.50281778125" lon="114.36229079638672" /><trkpt lat="22.50250478125" lon="114.36211179638671" /><trkpt lat="22.50240278125" lon="114.36206679638671" /><trkpt lat="22.50233178125" lon="114.36200879638672" /><trkpt lat="22.50227978125" lon="114.36198279638671" /><trkpt lat="22.50194278125" lon="114.36180779638671" /><trkpt lat="22.501869589365796" lon="114.36168551789865" /><trkpt lat="22.50190808846881" lon="114.36169974687067" /><trkpt lat="22.50198312683699" lon="114.36178542767954" /><trkpt lat="22.502000209937155" lon="114.36183761831171" /><trkpt lat="22.50227978125" lon="114.36198279638671" /><trkpt lat="22.50233178125" lon="114.36200879638672" /><trkpt lat="22.50240278125" lon="114.36206679638671" /><trkpt lat="22.50242678125" lon="114.36208179638672" /><trkpt lat="22.50250478125" lon="114.36211179638671" /><trkpt lat="22.50248678125" lon="114.36206079638671" /><trkpt lat="22.50254578125" lon="114.36207079638672" /><trkpt lat="22.50257078125" lon="114.36206679638671" /><trkpt lat="22.50255278125" lon="114.36201879638672" /><trkpt lat="22.50256078125" lon="114.36199079638672" /><trkpt lat="22.50260678125" lon="114.36196379638672" /><trkpt lat="22.50269978125" lon="114.36195879638672" /><trkpt lat="22.50275178125" lon="114.36198179638671" /><trkpt lat="22.50285178125" lon="114.36199679638672" /><trkpt lat="22.50302078125" lon="114.36203779638672" /><trkpt lat="22.50314678125" lon="114.36205479638672" /><trkpt lat="22.50316178125" lon="114.36202779638671" /><trkpt lat="22.50317378125" lon="114.36196879638672" /><trkpt lat="22.50320078125" lon="114.36196679638672" /><trkpt lat="22.50323478125" lon="114.36205479638672" /><trkpt lat="22.503280781249998" lon="114.36203879638671" /><trkpt lat="22.50334478125" lon="114.36197279638672" /><trkpt lat="22.50341406222018" lon="114.3619154342387" /><trkpt lat="22.503443687817963" lon="114.36194573107889" /><trkpt lat="22.50346524323504" lon="114.36199100303105" /><trkpt lat="22.503471568204944" lon="114.36203554553242" /><trkpt lat="22.503468063851813" lon="114.36208125658823" /><trkpt lat="22.503454233105032" lon="114.36212276886562" /><trkpt lat="22.503407613787402" lon="114.36218267245636" /><trkpt lat="22.50337991875834" lon="114.36214780897717" /><trkpt lat="22.503393516380143" lon="114.3620958123106" /><trkpt lat="22.503461055153082" lon="114.36205742924238" /><trkpt lat="22.50346168412537" lon="114.3620558244404" /><trkpt lat="22.50345881303018" lon="114.3620119186748" /><trkpt lat="22.50340871366866" lon="114.36191986261097" /><trkpt lat="22.50343778125" lon="114.36189579638672" /><trkpt lat="22.50352178125" lon="114.36185779638672" /><trkpt lat="22.50359178125" lon="114.36185379638673" /><trkpt lat="22.50370278125" lon="114.36180479638672" /><trkpt lat="22.50373878125" lon="114.36182279638672" /><trkpt lat="22.50380478125" lon="114.36179279638672" /><trkpt lat="22.50387578125" lon="114.36178979638672" /></trkseg></trk></gpx>