<?xml version='1.0' encoding='UTF-8' ?><gpx version="1.1" creator="HikingTrailHK" xsi:schemaLocation="http://www.topografix.com/GPX/1/1 http://www.topografix.com/GPX/1/1/gpx.xsd" xmlns="http://www.topografix.com/GPX/1/1" xmlns:xsi="http://www.w3.org/2001/XMLSchema-instance"><metadata><name>鴉鷹金孖鐵 @ 2022-01-07 21:13:02</name><desc></desc></metadata><trk><trkseg><trkpt lat="22.340979143592186" lon="114.15903397206199" /><trkpt lat="22.34095178125" lon="114.15907179638671" /><trkpt lat="22.34089478125" lon="114.15909479638673" /><trkpt lat="22.34088278125" lon="114.15914179638672" /><trkpt lat="22.34091778125" lon="114.15922979638673" /><trkpt lat="22.34101978125" lon="114.15920279638672" /><trkpt lat="22.34104778125" lon="114.15919279638672" /><trkpt lat="22.34111278125" lon="114.15918279638672" /><trkpt lat="22.34119578125" lon="114.15923379638672" /><trkpt lat="22.34124278125" lon="114.15931279638671" /><trkpt lat="22.34114478125" lon="114.15935579638672" /><trkpt lat="22.34113778125" lon="114.15944179638672" /><trkpt lat="22.34092778125" lon="114.15941279638672" /><trkpt lat="22.34089078125" lon="114.15942779638672" /><trkpt lat="22.34080778125" lon="114.15952279638672" /><trkpt lat="22.34085878125" lon="114.15962479638672" /><trkpt lat="22.34087378125" lon="114.15971079638672" /><trkpt lat="22.34085378125" lon="114.15975079638672" /><trkpt lat="22.34087078125" lon="114.15987479638672" /><trkpt lat="22.34083378125" lon="114.16000079638673" /><trkpt lat="22.34083878125" lon="114.16006279638673" /><trkpt lat="22.34091578125" lon="114.16006279638673" /><trkpt lat="22.34111578125" lon="114.16013979638672" /><trkpt lat="22.34114078125" lon="114.16018879638672" /><trkpt lat="22.34110078125" lon="114.16026879638672" /><trkpt lat="22.34101878125" lon="114.16040479638671" /><trkpt lat="22.34101378125" lon="114.16041379638672" /><trkpt lat="22.34118078125" lon="114.16052079638672" /><trkpt lat="22.34126978125" lon="114.16041879638672" /><trkpt lat="22.34128178125" lon="114.16037479638672" /><trkpt lat="22.34130678125" lon="114.16034179638672" /><trkpt lat="22.34142378125" lon="114.16022779638672" /><trkpt lat="22.34148578125" lon="114.16019279638672" /><trkpt lat="22.34199878125" lon="114.16005479638672" /><trkpt lat="22.34222978125" lon="114.15996479638672" /><trkpt lat="22.34235378125" lon="114.15987979638672" /><trkpt lat="22.34244578125" lon="114.15979579638672" /><trkpt lat="22.34253378125" lon="114.15970979638672" /><trkpt lat="22.34272578125" lon="114.15960079638671" /><trkpt lat="22.34301578125" lon="114.15953679638672" /><trkpt lat="22.34316578125" lon="114.15955779638672" /><trkpt lat="22.34332678125" lon="114.15947179638673" /><trkpt lat="22.34344078125" lon="114.15947179638673" /><trkpt lat="22.34373478125" lon="114.15947179638673" /><trkpt lat="22.344038637545932" lon="114.15963180855242" /><trkpt lat="22.34427978125" lon="114.15975879638673" /><trkpt lat="22.34448278125" lon="114.15984479638672" /><trkpt lat="22.34480778125" lon="114.15942879638672" /><trkpt lat="22.34492478125" lon="114.15909279638672" /><trkpt lat="22.34527378125" lon="114.15912279638673" /><trkpt lat="22.34558178125" lon="114.15929479638672" /><trkpt lat="22.34580678125" lon="114.15951679638673" /><trkpt lat="22.34584178125" lon="114.15972579638672" /><trkpt lat="22.34605978125" lon="114.15966679638672" /><trkpt lat="22.34620378125" lon="114.15973879638672" /><trkpt lat="22.34650978125" lon="114.15979379638672" /><trkpt lat="22.34703078125" lon="114.15979879638672" /><trkpt lat="22.34742278125" lon="114.16002979638672" /><trkpt lat="22.34763778125" lon="114.16043279638671" /><trkpt lat="22.34772678125" lon="114.16019079638671" /><trkpt lat="22.34794278125" lon="114.16007679638672" /><trkpt lat="22.34792878125" lon="114.15990279638672" /><trkpt lat="22.34780078125" lon="114.15967379638671" /><trkpt lat="22.34779778125" lon="114.15939479638672" /><trkpt lat="22.34750478125" lon="114.15910579638673" /><trkpt lat="22.34740078125" lon="114.15890379638672" /><trkpt lat="22.34724878125" lon="114.15884079638671" /><trkpt lat="22.34711078125" lon="114.15874979638672" /><trkpt lat="22.34701778125" lon="114.15861979638672" /><trkpt lat="22.34698378125" lon="114.15843979638672" /><trkpt lat="22.34699078125" lon="114.15827679638672" /><trkpt lat="22.34675278125" lon="114.15802379638671" /><trkpt lat="22.34678378125" lon="114.15793379638671" /><trkpt lat="22.34687178125" lon="114.15788679638672" /><trkpt lat="22.34693778125" lon="114.15755879638672" /><trkpt lat="22.34716478125" lon="114.15742879638672" /><trkpt lat="22.34720478125" lon="114.15728579638672" /><trkpt lat="22.34734378125" lon="114.15716979638673" /><trkpt lat="22.34723378125" lon="114.15701479638672" /><trkpt lat="22.34725578125" lon="114.15676779638672" /><trkpt lat="22.34720478125" lon="114.15662279638671" /><trkpt lat="22.34737578125" lon="114.15649279638671" /><trkpt lat="22.34736278125" lon="114.15647379638672" /><trkpt lat="22.34733278125" lon="114.15636979638671" /><trkpt lat="22.34731978125" lon="114.15624179638672" /><trkpt lat="22.34701278125" lon="114.15559879638671" /><trkpt lat="22.34696278125" lon="114.15537279638671" /><trkpt lat="22.34677478125" lon="114.15502979638671" /><trkpt lat="22.34680178125" lon="114.15457879638672" /><trkpt lat="22.34669678125" lon="114.15423079638671" /><trkpt lat="22.34669978125" lon="114.15382379638672" /><trkpt lat="22.34668578125" lon="114.15366179638671" /><trkpt lat="22.34669178125" lon="114.15349079638672" /><trkpt lat="22.34636978125" lon="114.15348879638672" /><trkpt lat="22.34633678125" lon="114.15346479638671" /><trkpt lat="22.34632378125" lon="114.15344379638672" /><trkpt lat="22.34632578125" lon="114.15340779638672" /><trkpt lat="22.34635978125" lon="114.15336979638671" /><trkpt lat="22.34666578125" lon="114.15320279638672" /><trkpt lat="22.34678278125" lon="114.15315079638673" /><trkpt lat="22.34688378125" lon="114.15310679638672" /><trkpt lat="22.34692978125" lon="114.15307479638672" /><trkpt lat="22.34694178125" lon="114.15304079638672" /><trkpt lat="22.34693778125" lon="114.15300879638671" /><trkpt lat="22.34691378125" lon="114.15298179638671" /><trkpt lat="22.34686878125" lon="114.15297079638673" /><trkpt lat="22.34682178125" lon="114.15296779638672" /><trkpt lat="22.34674778125" lon="114.15298179638671" /><trkpt lat="22.34668978125" lon="114.15298679638671" /><trkpt lat="22.34662378125" lon="114.15298579638672" /><trkpt lat="22.34656878125" lon="114.15297179638672" /><trkpt lat="22.34645378125" lon="114.15291679638672" /><trkpt lat="22.34633678125" lon="114.15279579638671" /><trkpt lat="22.34628478125" lon="114.15271979638672" /><trkpt lat="22.34614178125" lon="114.15268879638671" /><trkpt lat="22.34583378125" lon="114.15258879638672" /><trkpt lat="22.34573678125" lon="114.15244679638671" /><trkpt lat="22.34551078125" lon="114.15244379638672" /><trkpt lat="22.34543078125" lon="114.15250079638672" /><trkpt lat="22.34525499389774" lon="114.15245540910553" /><trkpt lat="22.34518792697162" lon="114.15242870527089" /><trkpt lat="22.34518490096866" lon="114.15248926921379" /><trkpt lat="22.345247465340194" lon="114.15252052817169" /><trkpt lat="22.345256902455986" lon="114.15245590188864" /><trkpt lat="22.34543078125" lon="114.15250079638672" /><trkpt lat="22.34551078125" lon="114.15244379638672" /><trkpt lat="22.34573678125" lon="114.15244679638671" /><trkpt lat="22.34583378125" lon="114.15258879638672" /><trkpt lat="22.34614178125" lon="114.15268879638671" /><trkpt lat="22.34628478125" lon="114.15271979638672" /><trkpt lat="22.34633678125" lon="114.15279579638671" /><trkpt lat="22.34645378125" lon="114.15291679638672" /><trkpt lat="22.34656878125" lon="114.15297179638672" /><trkpt lat="22.34662378125" lon="114.15298579638672" /><trkpt lat="22.34668978125" lon="114.15298679638671" /><trkpt lat="22.34674778125" lon="114.15298179638671" /><trkpt lat="22.34682178125" lon="114.15296779638672" /><trkpt lat="22.34686878125" lon="114.15297079638673" /><trkpt lat="22.34691378125" lon="114.15298179638671" /><trkpt lat="22.34693778125" lon="114.15300879638671" /><trkpt lat="22.34694178125" lon="114.15304079638672" /><trkpt lat="22.34692978125" lon="114.15307479638672" /><trkpt lat="22.34688378125" lon="114.15310679638672" /><trkpt lat="22.34678278125" lon="114.15315079638673" /><trkpt lat="22.34666578125" lon="114.15320279638672" /><trkpt lat="22.34635978125" lon="114.15336979638671" /><trkpt lat="22.34632578125" lon="114.15340779638672" /><trkpt lat="22.34632378125" lon="114.15344379638672" /><trkpt lat="22.34633678125" lon="114.15346479638671" /><trkpt lat="22.34636978125" lon="114.15348879638672" /><trkpt lat="22.34669178125" lon="114.15349079638672" /><trkpt lat="22.34687178125" lon="114.15350279638672" /><trkpt lat="22.34721378125" lon="114.15354779638672" /><trkpt lat="22.34734778125" lon="114.15355579638671" /><trkpt lat="22.34742378125" lon="114.15357379638672" /><trkpt lat="22.34792178125" lon="114.15357879638673" /><trkpt lat="22.34801378125" lon="114.15359179638672" /><trkpt lat="22.34808578125" lon="114.15360979638672" /><trkpt lat="22.34852678125" lon="114.15370879638672" /><trkpt lat="22.34861978125" lon="114.15372179638672" /><trkpt lat="22.34879078125" lon="114.15371779638672" /><trkpt lat="22.34887978125" lon="114.15370179638671" /><trkpt lat="22.34908478125" lon="114.15371079638672" /><trkpt lat="22.34911478125" lon="114.15370379638672" /><trkpt lat="22.34918278125" lon="114.15367879638671" /><trkpt lat="22.34924478125" lon="114.15364879638672" /><trkpt lat="22.34928478125" lon="114.15370779638671" /><trkpt lat="22.34932678125" lon="114.15377879638672" /><trkpt lat="22.34934278125" lon="114.15376879638671" /><trkpt lat="22.34938778125" lon="114.15372779638672" /><trkpt lat="22.34939678125" lon="114.15371779638672" /><trkpt lat="22.34940678125" lon="114.15371079638672" /><trkpt lat="22.34944678125" lon="114.15367879638671" /><trkpt lat="22.34953478125" lon="114.15376279638672" /><trkpt lat="22.34955678125" lon="114.15376479638672" /><trkpt lat="22.34960878125" lon="114.15380379638673" /><trkpt lat="22.34962678125" lon="114.15377579638673" /><trkpt lat="22.34964078125" lon="114.15376379638671" /><trkpt lat="22.34965978125" lon="114.15375379638672" /><trkpt lat="22.34968178125" lon="114.15374679638671" /><trkpt lat="22.34970178125" lon="114.15374979638672" /><trkpt lat="22.34972278125" lon="114.15375979638672" /><trkpt lat="22.34983478125" lon="114.15382679638672" /><trkpt lat="22.34987478125" lon="114.15384879638673" /><trkpt lat="22.34990578125" lon="114.15386179638672" /><trkpt lat="22.34994378125" lon="114.15387479638672" /><trkpt lat="22.34998078125" lon="114.15388179638671" /><trkpt lat="22.35001678125" lon="114.15388579638672" /><trkpt lat="22.35004878125" lon="114.15388879638672" /><trkpt lat="22.35008078125" lon="114.15388779638671" /><trkpt lat="22.35037178125" lon="114.15384379638672" /><trkpt lat="22.35049378125" lon="114.15385579638672" /><trkpt lat="22.35053678125" lon="114.15387679638673" /><trkpt lat="22.35058978125" lon="114.15391579638671" /><trkpt lat="22.35073678125" lon="114.15398179638672" /><trkpt lat="22.35082978125" lon="114.15403579638672" /><trkpt lat="22.35093378125" lon="114.15410379638672" /><trkpt lat="22.35094278125" lon="114.15409779638672" /><trkpt lat="22.35094778125" lon="114.15409079638673" /><trkpt lat="22.35103878125" lon="114.15395679638672" /><trkpt lat="22.35117678125" lon="114.15377079638672" /><trkpt lat="22.35120578125" lon="114.15375479638672" /><trkpt lat="22.35126778125" lon="114.15375379638672" /><trkpt lat="22.35148178125" lon="114.15377179638672" /><trkpt lat="22.35151778125" lon="114.15377379638672" /><trkpt lat="22.35155178125" lon="114.15377179638672" /><trkpt lat="22.35157878125" lon="114.15376679638672" /><trkpt lat="22.35160578125" lon="114.15375779638671" /><trkpt lat="22.35162978125" lon="114.15374679638671" /><trkpt lat="22.35165578125" lon="114.15373179638672" /><trkpt lat="22.35168178125" lon="114.15371579638672" /><trkpt lat="22.35170678125" lon="114.15369679638673" /><trkpt lat="22.35172978125" lon="114.15368079638672" /><trkpt lat="22.35174978125" lon="114.15367079638672" /><trkpt lat="22.35177178125" lon="114.15366579638672" /><trkpt lat="22.35179378125" lon="114.15366579638672" /><trkpt lat="22.35181478125" lon="114.15366879638673" /><trkpt lat="22.35183778125" lon="114.15367779638672" /><trkpt lat="22.35185878125" lon="114.15368979638671" /><trkpt lat="22.35187478125" lon="114.15370379638672" /><trkpt lat="22.35190178125" lon="114.15373079638672" /><trkpt lat="22.35192178125" lon="114.15374679638671" /><trkpt lat="22.35194178125" lon="114.15376079638672" /><trkpt lat="22.35196178125" lon="114.15376979638671" /><trkpt lat="22.35198078125" lon="114.15377479638671" /><trkpt lat="22.35200278125" lon="114.15377679638672" /><trkpt lat="22.35202378125" lon="114.15377679638672" /><trkpt lat="22.35204478125" lon="114.15377479638671" /><trkpt lat="22.35206578125" lon="114.15376979638671" /><trkpt lat="22.35208578125" lon="114.15376279638672" /><trkpt lat="22.35210778125" lon="114.15375479638672" /><trkpt lat="22.35213678125" lon="114.15374079638671" /><trkpt lat="22.35216578125" lon="114.15372379638671" /><trkpt lat="22.35220678125" lon="114.15369479638672" /><trkpt lat="22.35224578125" lon="114.15366479638672" /><trkpt lat="22.35228078125" lon="114.15363479638673" /><trkpt lat="22.35230778125" lon="114.15360879638672" /><trkpt lat="22.35233178125" lon="114.15358479638672" /><trkpt lat="22.35238278125" lon="114.15352579638672" /><trkpt lat="22.35240378125" lon="114.15350479638671" /><trkpt lat="22.35242478125" lon="114.15348479638672" /><trkpt lat="22.35244978125" lon="114.15346579638671" /><trkpt lat="22.35246878125" lon="114.15345279638672" /><trkpt lat="22.35248978125" lon="114.15344179638672" /><trkpt lat="22.35250978125" lon="114.15343479638672" /><trkpt lat="22.35252878125" lon="114.15343079638671" /><trkpt lat="22.35283378125" lon="114.15339779638671" /><trkpt lat="22.35290378125" lon="114.15338679638671" /><trkpt lat="22.35295178125" lon="114.15337679638672" /><trkpt lat="22.35298578125" lon="114.15336879638672" /><trkpt lat="22.35301478125" lon="114.15335879638671" /><trkpt lat="22.35304778125" lon="114.15334579638672" /><trkpt lat="22.35308978125" lon="114.15332579638672" /><trkpt lat="22.35312278125" lon="114.15330779638671" /><trkpt lat="22.35316278125" lon="114.15328079638672" /><trkpt lat="22.35319978125" lon="114.15325379638672" /><trkpt lat="22.35324278125" lon="114.15321779638671" /><trkpt lat="22.35326578125" lon="114.15319679638672" /><trkpt lat="22.35328678125" lon="114.15317579638672" /><trkpt lat="22.35330978125" lon="114.15314879638672" /><trkpt lat="22.35333178125" lon="114.15312179638671" /><trkpt lat="22.35334578125" lon="114.15310279638672" /><trkpt lat="22.35336178125" lon="114.15307779638673" /><trkpt lat="22.35337378125" lon="114.15305779638672" /><trkpt lat="22.35338678125" lon="114.15303279638673" /><trkpt lat="22.35339978125" lon="114.15300479638672" /><trkpt lat="22.35341178125" lon="114.15297579638671" /><trkpt lat="22.35342978125" lon="114.15292479638671" /><trkpt lat="22.35343778125" lon="114.15289779638672" /><trkpt lat="22.35344578125" lon="114.15286579638672" /><trkpt lat="22.35345278125" lon="114.15283179638672" /><trkpt lat="22.35345878125" lon="114.15279779638672" /><trkpt lat="22.35346278125" lon="114.15277179638672" /><trkpt lat="22.35346478125" lon="114.15274579638672" /><trkpt lat="22.35346678125" lon="114.15272079638672" /><trkpt lat="22.35346778125" lon="114.15269579638672" /><trkpt lat="22.35346678125" lon="114.15260579638672" /><trkpt lat="22.35346878125" lon="114.15252679638672" /><trkpt lat="22.35347078125" lon="114.15250279638671" /><trkpt lat="22.35347478125" lon="114.15248279638672" /><trkpt lat="22.35349178125" lon="114.15245079638672" /><trkpt lat="22.35350478125" lon="114.15243579638671" /><trkpt lat="22.35368278125" lon="114.15225179638672" /><trkpt lat="22.35370278125" lon="114.15223379638672" /><trkpt lat="22.35372478125" lon="114.15221779638672" /><trkpt lat="22.35374378125" lon="114.15220779638672" /><trkpt lat="22.35376178125" lon="114.15219979638672" /><trkpt lat="22.35379078125" lon="114.15218979638672" /><trkpt lat="22.35403578125" lon="114.15211479638671" /><trkpt lat="22.35406178125" lon="114.15210779638672" /><trkpt lat="22.35409478125" lon="114.15210079638672" /><trkpt lat="22.35412378125" lon="114.15209679638672" /><trkpt lat="22.35429178125" lon="114.15208279638672" /><trkpt lat="22.35433578125" lon="114.15207679638672" /><trkpt lat="22.35436478125" lon="114.15206979638671" /><trkpt lat="22.35439178125" lon="114.15206079638672" /><trkpt lat="22.35442478125" lon="114.15204679638671" /><trkpt lat="22.35445278125" lon="114.15203179638672" /><trkpt lat="22.35447878125" lon="114.15201579638672" /><trkpt lat="22.35450578125" lon="114.15199379638672" /><trkpt lat="22.35453178125" lon="114.15196779638671" /><trkpt lat="22.35455278125" lon="114.15194279638672" /><trkpt lat="22.35457178125" lon="114.15191879638672" /><trkpt lat="22.35458978125" lon="114.15189079638672" /><trkpt lat="22.35460678125" lon="114.15185979638672" /><trkpt lat="22.35462078125" lon="114.15182579638672" /><trkpt lat="22.35463178125" lon="114.15179079638672" /><trkpt lat="22.35464078125" lon="114.15175379638671" /><trkpt lat="22.35464778125" lon="114.15171679638672" /><trkpt lat="22.35465078125" lon="114.15168279638672" /><trkpt lat="22.35465578125" lon="114.15159979638672" /><trkpt lat="22.35465978125" lon="114.15155979638672" /><trkpt lat="22.35466578125" lon="114.15152379638671" /><trkpt lat="22.35467378125" lon="114.15148879638672" /><trkpt lat="22.35468478125" lon="114.15145679638673" /><trkpt lat="22.35469878125" lon="114.15142679638672" /><trkpt lat="22.35471178125" lon="114.15140279638672" /><trkpt lat="22.35472978125" lon="114.15137979638672" /><trkpt lat="22.35474978125" lon="114.15136079638671" /><trkpt lat="22.35477078125" lon="114.15134579638672" /><trkpt lat="22.35479578125" lon="114.15133279638673" /><trkpt lat="22.35482378125" lon="114.15132179638672" /><trkpt lat="22.35484978125" lon="114.15131579638673" /><trkpt lat="22.35487878125" lon="114.15131279638672" /><trkpt lat="22.35490578125" lon="114.15131479638671" /><trkpt lat="22.35493078125" lon="114.15131779638672" /><trkpt lat="22.35495278125" lon="114.15132379638672" /><trkpt lat="22.35497578125" lon="114.15133279638673" /><trkpt lat="22.35499778125" lon="114.15134379638671" /><trkpt lat="22.35501778125" lon="114.15135779638672" /><trkpt lat="22.35503478125" lon="114.15137379638672" /><trkpt lat="22.35504978125" lon="114.15139079638672" /><trkpt lat="22.35506878125" lon="114.15141679638671" /><trkpt lat="22.35508578125" lon="114.15144479638671" /><trkpt lat="22.35510078125" lon="114.15147679638672" /><trkpt lat="22.35515378125" lon="114.15160779638671" /><trkpt lat="22.35517078125" lon="114.15164079638672" /><trkpt lat="22.35518678125" lon="114.15166879638672" /><trkpt lat="22.35520478125" lon="114.15169279638671" /><trkpt lat="22.35522778125" lon="114.15171879638672" /><trkpt lat="22.35525478125" lon="114.15174479638672" /><trkpt lat="22.35528178125" lon="114.15176579638671" /><trkpt lat="22.35531178125" lon="114.15178179638671" /><trkpt lat="22.35534578125" lon="114.15179279638672" /><trkpt lat="22.35537878125" lon="114.15179979638671" /><trkpt lat="22.35541478125" lon="114.15180079638672" /><trkpt lat="22.35544878125" lon="114.15179879638671" /><trkpt lat="22.35548978125" lon="114.15179079638672" /><trkpt lat="22.35553178125" lon="114.15177579638672" /><trkpt lat="22.35557578125" lon="114.15175179638672" /><trkpt lat="22.35689978125" lon="114.15097479638672" /><trkpt lat="22.35693278125" lon="114.15095779638672" /><trkpt lat="22.35696878125" lon="114.15094279638672" /><trkpt lat="22.35700378125" lon="114.15093079638672" /><trkpt lat="22.35704378125" lon="114.15091979638672" /><trkpt lat="22.35707678125" lon="114.15091379638672" /><trkpt lat="22.35710978125" lon="114.15091079638673" /><trkpt lat="22.35713978125" lon="114.15091079638673" /><trkpt lat="22.35716778125" lon="114.15091579638671" /><trkpt lat="22.35719878125" lon="114.15092379638672" /><trkpt lat="22.35722878125" lon="114.15093579638672" /><trkpt lat="22.35728178125" lon="114.15096379638672" /><trkpt lat="22.35731978125" lon="114.15098079638672" /><trkpt lat="22.35735478125" lon="114.15099279638672" /><trkpt lat="22.35738978125" lon="114.15100079638673" /><trkpt lat="22.35742878125" lon="114.15100379638672" /><trkpt lat="22.35746378125" lon="114.15100279638672" /><trkpt lat="22.35749778125" lon="114.15099779638672" /><trkpt lat="22.35752478125" lon="114.15099079638672" /><trkpt lat="22.35756778125" lon="114.15097679638671" /><trkpt lat="22.35759178125" lon="114.15096979638672" /><trkpt lat="22.35761678125" lon="114.15096579638671" /><trkpt lat="22.35763878125" lon="114.15096379638672" /><trkpt lat="22.35766178125" lon="114.15096479638672" /><trkpt lat="22.35768578125" lon="114.15096879638672" /><trkpt lat="22.35771478125" lon="114.15097479638672" /><trkpt lat="22.35776978125" lon="114.15098879638671" /><trkpt lat="22.35793978125" lon="114.15097379638672" /><trkpt lat="22.35814778125" lon="114.15089179638672" /><trkpt lat="22.35826178125" lon="114.15085479638672" /><trkpt lat="22.35839378125" lon="114.15085079638672" /><trkpt lat="22.35851178125" lon="114.15088579638672" /><trkpt lat="22.35864478125" lon="114.15091579638671" /><trkpt lat="22.35872178125" lon="114.15091279638672" /><trkpt lat="22.35877678125" lon="114.15087779638672" /><trkpt lat="22.35881778125" lon="114.15081379638671" /><trkpt lat="22.35893478125" lon="114.15068379638672" /><trkpt lat="22.35898778125" lon="114.15064879638672" /><trkpt lat="22.35903778125" lon="114.15063679638672" /><trkpt lat="22.35909978125" lon="114.15063579638672" /><trkpt lat="22.35920578125" lon="114.15065879638672" /><trkpt lat="22.35929178125" lon="114.15073379638672" /><trkpt lat="22.35938578125" lon="114.15075579638672" /><trkpt lat="22.35949878125" lon="114.15069379638672" /><trkpt lat="22.35959178125" lon="114.15059879638672" /><trkpt lat="22.35967578125" lon="114.15055879638672" /><trkpt lat="22.35971478125" lon="114.15055279638672" /><trkpt lat="22.35977978125" lon="114.15057679638672" /><trkpt lat="22.35981378125" lon="114.15059579638672" /><trkpt lat="22.35991878125" lon="114.15064379638672" /><trkpt lat="22.36002478125" lon="114.15062479638672" /><trkpt lat="22.36014178125" lon="114.15054679638672" /><trkpt lat="22.36025678125" lon="114.15051079638671" /><trkpt lat="22.36035978125" lon="114.15052879638672" /><trkpt lat="22.36046678125" lon="114.15049979638673" /><trkpt lat="22.36099178125" lon="114.15016979638672" /><trkpt lat="22.36110078125" lon="114.15012679638672" /><trkpt lat="22.36113378125" lon="114.15011579638671" /><trkpt lat="22.36115978125" lon="114.15010979638672" /><trkpt lat="22.36118578125" lon="114.15010579638673" /><trkpt lat="22.36121078125" lon="114.15010379638672" /><trkpt lat="22.36123778125" lon="114.15010479638671" /><trkpt lat="22.36125978125" lon="114.15010679638672" /><trkpt lat="22.36128678125" lon="114.15011379638672" /><trkpt lat="22.36131178125" lon="114.15012279638673" /><trkpt lat="22.36134078125" lon="114.15013479638672" /><trkpt lat="22.36138578125" lon="114.15015679638672" /><trkpt lat="22.36141178125" lon="114.15016879638672" /><trkpt lat="22.36143678125" lon="114.15017779638671" /><trkpt lat="22.36146278125" lon="114.15018479638672" /><trkpt lat="22.36149178125" lon="114.15018979638671" /><trkpt lat="22.36151878125" lon="114.15019179638672" /><trkpt lat="22.36154178125" lon="114.15019379638672" /><trkpt lat="22.36156578125" lon="114.15019179638672" /><trkpt lat="22.36159278125" lon="114.15018879638671" /><trkpt lat="22.36162578125" lon="114.15018279638672" /><trkpt lat="22.36165678125" lon="114.15017579638672" /><trkpt lat="22.36217978125" lon="114.15003279638672" /><trkpt lat="22.36221078125" lon="114.15002479638672" /><trkpt lat="22.36224278125" lon="114.15001979638672" /><trkpt lat="22.36226878125" lon="114.15001779638672" /><trkpt lat="22.36229578125" lon="114.15001779638672" /><trkpt lat="22.36235578125" lon="114.15002179638672" /><trkpt lat="22.36238078125" lon="114.15002179638672" /><trkpt lat="22.36240778125" lon="114.15001879638672" /><trkpt lat="22.36243478125" lon="114.15001479638671" /><trkpt lat="22.36247078125" lon="114.15000779638672" /><trkpt lat="22.36250678125" lon="114.14999879638673" /><trkpt lat="22.36254978125" lon="114.14998379638672" /><trkpt lat="22.36259378125" lon="114.14996479638671" /><trkpt lat="22.36262678125" lon="114.14994479638672" /><trkpt lat="22.36265778125" lon="114.14992179638672" /><trkpt lat="22.36269278125" lon="114.14989479638672" /><trkpt lat="22.36271278125" lon="114.14987679638672" /><trkpt lat="22.36273678125" lon="114.14985279638672" /><trkpt lat="22.36277778125" lon="114.14980479638672" /><trkpt lat="22.36279778125" lon="114.14978679638672" /><trkpt lat="22.36282178125" lon="114.14976879638672" /><trkpt lat="22.36284678125" lon="114.14975479638672" /><trkpt lat="22.36286978125" lon="114.14974579638672" /><trkpt lat="22.36289778125" lon="114.14973779638672" /><trkpt lat="22.36292578125" lon="114.14973279638671" /><trkpt lat="22.36295278125" lon="114.14973179638672" /><trkpt lat="22.36298078125" lon="114.14973579638672" /><trkpt lat="22.36300778125" lon="114.14974379638672" /><trkpt lat="22.36303678125" lon="114.14975679638673" /><trkpt lat="22.36306278125" lon="114.14977079638672" /><trkpt lat="22.36308478125" lon="114.14978679638672" /><trkpt lat="22.36310178125" lon="114.14980279638672" /><trkpt lat="22.36311678125" lon="114.14982079638672" /><trkpt lat="22.36313078125" lon="114.14983979638671" /><trkpt lat="22.36315178125" lon="114.14987679638672" /><trkpt lat="22.36316678125" lon="114.14989879638672" /><trkpt lat="22.36318378125" lon="114.14991979638671" /><trkpt lat="22.36320778125" lon="114.14994379638672" /><trkpt lat="22.36323278125" lon="114.14996279638672" /><trkpt lat="22.36325178125" lon="114.14997379638672" /><trkpt lat="22.36327078125" lon="114.14998179638673" /><trkpt lat="22.36329178125" lon="114.14998879638672" /><trkpt lat="22.36331178125" lon="114.14999079638672" /><trkpt lat="22.36333578125" lon="114.14999179638671" /><trkpt lat="22.36335978125" lon="114.14998979638672" /><trkpt lat="22.36338578125" lon="114.14998279638672" /><trkpt lat="22.36341578125" lon="114.14996779638672" /><trkpt lat="22.36344178125" lon="114.14995279638671" /><trkpt lat="22.36346578125" lon="114.14993279638672" /><trkpt lat="22.36348678125" lon="114.14991179638672" /><trkpt lat="22.36350078125" lon="114.14989279638672" /><trkpt lat="22.36351178125" lon="114.14986979638672" /><trkpt lat="22.36351978125" lon="114.14984679638673" /><trkpt lat="22.36352678125" lon="114.14981979638672" /><trkpt lat="22.36353778125" lon="114.14975779638672" /><trkpt lat="22.36354278125" lon="114.14973379638671" /><trkpt lat="22.36354978125" lon="114.14971179638673" /><trkpt lat="22.36356078125" lon="114.14968679638672" /><trkpt lat="22.36357378125" lon="114.14966079638671" /><trkpt lat="22.36358878125" lon="114.14964079638672" /><trkpt lat="22.36360478125" lon="114.14962379638672" /><trkpt lat="22.36362478125" lon="114.14960979638671" /><trkpt lat="22.36364878125" lon="114.14959579638672" /><trkpt lat="22.36366878125" lon="114.14958679638671" /><trkpt lat="22.36369178125" lon="114.14957979638672" /><trkpt lat="22.36371778125" lon="114.14957579638671" /><trkpt lat="22.36374478125" lon="114.14957479638672" /><trkpt lat="22.36376978125" lon="114.14957879638672" /><trkpt lat="22.36379178125" lon="114.14958479638672" /><trkpt lat="22.36381078125" lon="114.14959279638671" /><trkpt lat="22.36383178125" lon="114.14960479638673" /><trkpt lat="22.36389978125" lon="114.14965579638672" /><trkpt lat="22.36392778125" lon="114.14967179638671" /><trkpt lat="22.36395978125" lon="114.14968779638671" /><trkpt lat="22.36399578125" lon="114.14969979638671" /><trkpt lat="22.36402278125" lon="114.14970679638672" /><trkpt lat="22.36405278125" lon="114.14971079638671" /><trkpt lat="22.36408978125" lon="114.14971179638673" /><trkpt lat="22.36412278125" lon="114.14970979638672" /><trkpt lat="22.36415978125" lon="114.14970279638672" /><trkpt lat="22.36421578125" lon="114.14968979638672" /><trkpt lat="22.36424478125" lon="114.14968479638672" /><trkpt lat="22.36426678125" lon="114.14968379638673" /><trkpt lat="22.36428678125" lon="114.14968479638672" /><trkpt lat="22.36430378125" lon="114.14968779638671" /><trkpt lat="22.36432278125" lon="114.14969379638671" /><trkpt lat="22.36434378125" lon="114.14970379638672" /><trkpt lat="22.36469778125" lon="114.14988079638673" /><trkpt lat="22.36473378125" lon="114.14990079638672" /><trkpt lat="22.36476678125" lon="114.14992079638672" /><trkpt lat="22.36478778125" lon="114.14993579638671" /><trkpt lat="22.36480678125" lon="114.14995079638672" /><trkpt lat="22.36482378125" lon="114.14996579638672" /><trkpt lat="22.36483978125" lon="114.14998279638672" /><trkpt lat="22.36485978125" lon="114.15000479638672" /><trkpt lat="22.36488378125" lon="114.15003479638672" /><trkpt lat="22.36490478125" lon="114.15006579638671" /><trkpt lat="22.36492078125" lon="114.15009179638672" /><trkpt lat="22.36493878125" lon="114.15011679638671" /><trkpt lat="22.36495678125" lon="114.15013879638671" /><trkpt lat="22.36497578125" lon="114.15015579638671" /><trkpt lat="22.36546578125" lon="114.15046979638672" /><trkpt lat="22.36558378125" lon="114.15064679638672" /><trkpt lat="22.36561678125" lon="114.15070179638671" /><trkpt lat="22.365637743672988" lon="114.1507449276627" /><trkpt lat="22.36567178125" lon="114.15066679638672" /><trkpt lat="22.36566878125" lon="114.15055979638672" /><trkpt lat="22.36566378125" lon="114.15049879638671" /><trkpt lat="22.36557478125" lon="114.15035279638671" /><trkpt lat="22.36563478125" lon="114.15026879638671" /><trkpt lat="22.36571778125" lon="114.15027879638671" /><trkpt lat="22.36575078125" lon="114.15015979638672" /><trkpt lat="22.36566478125" lon="114.14994379638672" /><trkpt lat="22.36582178125" lon="114.14966279638672" /><trkpt lat="22.36605678125" lon="114.14965179638672" /><trkpt lat="22.36619878125" lon="114.14949879638672" /><trkpt lat="22.36626278125" lon="114.14920779638672" /><trkpt lat="22.36626378125" lon="114.14889979638671" /><trkpt lat="22.36610878125" lon="114.14876879638672" /><trkpt lat="22.36601078125" lon="114.14865079638672" /><trkpt lat="22.36562078125" lon="114.14854379638672" /><trkpt lat="22.36520778125" lon="114.14851379638672" /><trkpt lat="22.36514378125" lon="114.14810379638672" /><trkpt lat="22.36502478125" lon="114.14789279638671" /><trkpt lat="22.36493978125" lon="114.14782079638672" /><trkpt lat="22.36492278125" lon="114.14769979638672" /><trkpt lat="22.365071447860345" lon="114.14710105129524" /><trkpt lat="22.364898360771207" lon="114.14703367950858" /><trkpt lat="22.364960095395077" lon="114.14688050740784" /><trkpt lat="22.365144230784736" lon="114.1469245279402" /><trkpt lat="22.365103517612425" lon="114.14708905997605" /><trkpt lat="22.36509304543995" lon="114.14711172696013" /><trkpt lat="22.36509242808954" lon="114.14712308238063" /><trkpt lat="22.365084560697795" lon="114.1471237380407" /><trkpt lat="22.36508718308619" lon="114.14713195240654" /><trkpt lat="22.365081938082668" lon="114.1471350813103" /><trkpt lat="22.365076693090913" lon="114.1471401341633" /><trkpt lat="22.365068908006904" lon="114.14714075316436" /><trkpt lat="22.36501011756844" lon="114.14713021262114" /><trkpt lat="22.36492278125" lon="114.14769979638672" /><trkpt lat="22.36493978125" lon="114.14782079638672" /><trkpt lat="22.36502478125" lon="114.14789279638671" /><trkpt lat="22.36514378125" lon="114.14810379638672" /><trkpt lat="22.36520778125" lon="114.14851379638672" /><trkpt lat="22.36562078125" lon="114.14854379638672" /><trkpt lat="22.36601078125" lon="114.14865079638672" /><trkpt lat="22.36610878125" lon="114.14876879638672" /><trkpt lat="22.36626378125" lon="114.14889979638671" /><trkpt lat="22.36626278125" lon="114.14920779638672" /><trkpt lat="22.36619878125" lon="114.14949879638672" /><trkpt lat="22.36605678125" lon="114.14965179638672" /><trkpt lat="22.36582178125" lon="114.14966279638672" /><trkpt lat="22.36566478125" lon="114.14994379638672" /><trkpt lat="22.36575078125" lon="114.15015979638672" /><trkpt lat="22.36571778125" lon="114.15027879638671" /><trkpt lat="22.36563478125" lon="114.15026879638671" /><trkpt lat="22.36557478125" lon="114.15035279638671" /><trkpt lat="22.36566378125" lon="114.15049879638671" /><trkpt lat="22.36566878125" lon="114.15055979638672" /><trkpt lat="22.36567178125" lon="114.15066679638672" /><trkpt lat="22.36562778125" lon="114.15076779638672" /><trkpt lat="22.36564278125" lon="114.15083879638672" /><trkpt lat="22.36565378125" lon="114.15095179638672" /><trkpt lat="22.36566678125" lon="114.15108479638671" /><trkpt lat="22.36570178125" lon="114.15132679638671" /><trkpt lat="22.36573778125" lon="114.15137579638672" /><trkpt lat="22.36578078125" lon="114.15140079638672" /><trkpt lat="22.36588078125" lon="114.15142079638672" /><trkpt lat="22.36598178125" lon="114.15143579638672" /><trkpt lat="22.36607778125" lon="114.15144979638671" /><trkpt lat="22.36624878125" lon="114.15144779638672" /><trkpt lat="22.36640478125" lon="114.15141179638672" /><trkpt lat="22.36651878125" lon="114.15137479638672" /><trkpt lat="22.36671678125" lon="114.15121279638672" /><trkpt lat="22.36680378125" lon="114.15120779638671" /><trkpt lat="22.36704878125" lon="114.15121579638672" /><trkpt lat="22.36709278125" lon="114.15117379638671" /><trkpt lat="22.36714078125" lon="114.15123279638672" /><trkpt lat="22.36738978125" lon="114.15111879638673" /><trkpt lat="22.36748078125" lon="114.15107479638672" /><trkpt lat="22.36769378125" lon="114.15097479638672" /><trkpt lat="22.36785278125" lon="114.15099879638672" /><trkpt lat="22.36795378125" lon="114.15099579638672" /><trkpt lat="22.36806778125" lon="114.15098779638672" /><trkpt lat="22.36816078125" lon="114.15097679638671" /><trkpt lat="22.36827478125" lon="114.15093679638672" /><trkpt lat="22.36838478125" lon="114.15087679638673" /><trkpt lat="22.36849378125" lon="114.15081979638671" /><trkpt lat="22.36859378125" lon="114.15074279638672" /><trkpt lat="22.36868578125" lon="114.15069079638671" /><trkpt lat="22.36879778125" lon="114.15067779638672" /><trkpt lat="22.36884378125" lon="114.15065879638672" /><trkpt lat="22.36887478125" lon="114.15066179638671" /><trkpt lat="22.36893078125" lon="114.15065079638671" /><trkpt lat="22.36900178125" lon="114.15057679638672" /><trkpt lat="22.36903078125" lon="114.15044279638671" /><trkpt lat="22.36913678125" lon="114.15038579638671" /><trkpt lat="22.36922078125" lon="114.15031079638672" /><trkpt lat="22.36928978125" lon="114.15021179638671" /><trkpt lat="22.36938878125" lon="114.15017079638672" /><trkpt lat="22.36948578125" lon="114.15013779638672" /><trkpt lat="22.36958678125" lon="114.15008779638671" /><trkpt lat="22.36968578125" lon="114.15003879638672" /><trkpt lat="22.36982378125" lon="114.15006679638672" /><trkpt lat="22.36991878125" lon="114.15002879638672" /><trkpt lat="22.36997778125" lon="114.14993279638672" /><trkpt lat="22.37005478125" lon="114.14980079638671" /><trkpt lat="22.37013078125" lon="114.14970079638672" /><trkpt lat="22.37022478125" lon="114.14962179638673" /><trkpt lat="22.37028278125" lon="114.14959379638672" /><trkpt lat="22.37036278125" lon="114.14953079638671" /><trkpt lat="22.37049378125" lon="114.14940879638672" /><trkpt lat="22.37056178125" lon="114.14922079638671" /><trkpt lat="22.37055478125" lon="114.14911379638671" /><trkpt lat="22.37055978125" lon="114.14903579638671" /><trkpt lat="22.37057678125" lon="114.14895079638671" /><trkpt lat="22.37053278125" lon="114.14876879638672" /><trkpt lat="22.37056178125" lon="114.14866679638672" /><trkpt lat="22.37072078125" lon="114.14860279638673" /><trkpt lat="22.37082978125" lon="114.14855479638672" /><trkpt lat="22.37090978125" lon="114.14855279638672" /><trkpt lat="22.37104578125" lon="114.14847779638671" /><trkpt lat="22.37150078125" lon="114.14803879638671" /><trkpt lat="22.37168578125" lon="114.14771079638672" /><trkpt lat="22.37180178125" lon="114.14764279638672" /><trkpt lat="22.37191578125" lon="114.14758879638671" /><trkpt lat="22.37203078125" lon="114.14751879638672" /><trkpt lat="22.37212478125" lon="114.14749979638673" /><trkpt lat="22.37240178125" lon="114.14730479638672" /><trkpt lat="22.37257278125" lon="114.14706679638672" /><trkpt lat="22.37277378125" lon="114.14655779638672" /><trkpt lat="22.37295378125" lon="114.14644279638672" /><trkpt lat="22.37311378125" lon="114.14632179638672" /><trkpt lat="22.37321878125" lon="114.14612679638672" /><trkpt lat="22.37329278125" lon="114.14609179638671" /><trkpt lat="22.37337178125" lon="114.14607179638672" /><trkpt lat="22.37345078125" lon="114.14600679638671" /><trkpt lat="22.37359778125" lon="114.14601679638672" /><trkpt lat="22.37369878125" lon="114.14596879638673" /><trkpt lat="22.37379978125" lon="114.14581779638672" /><trkpt lat="22.37414078125" lon="114.14566779638672" /><trkpt lat="22.37449978125" lon="114.14570779638672" /><trkpt lat="22.37459678125" lon="114.14560379638672" /><trkpt lat="22.37482878125" lon="114.14555479638672" /><trkpt lat="22.37486278125" lon="114.14557679638672" /><trkpt lat="22.37492578125" lon="114.14557679638672" /><trkpt lat="22.37498778125" lon="114.14555779638673" /><trkpt lat="22.37506678125" lon="114.14555379638672" /><trkpt lat="22.37513078125" lon="114.14569079638672" /><trkpt lat="22.37525078125" lon="114.14579679638672" /><trkpt lat="22.37530778125" lon="114.14587179638671" /><trkpt lat="22.37536278125" lon="114.14587579638672" /><trkpt lat="22.37547078125" lon="114.14586879638672" /><trkpt lat="22.37561978125" lon="114.14588179638672" /><trkpt lat="22.37575778125" lon="114.14580079638672" /><trkpt lat="22.37579578125" lon="114.14570379638671" /><trkpt lat="22.37585578125" lon="114.14560479638672" /><trkpt lat="22.37595578125" lon="114.14557779638672" /><trkpt lat="22.37609578125" lon="114.14559779638672" /><trkpt lat="22.37620478125" lon="114.14551579638672" /><trkpt lat="22.37630078125" lon="114.14551179638671" /><trkpt lat="22.37634478125" lon="114.14566179638672" /><trkpt lat="22.37634978125" lon="114.14573479638672" /><trkpt lat="22.37631178125" lon="114.14581979638672" /><trkpt lat="22.37628478125" lon="114.14587579638672" /><trkpt lat="22.37627678125" lon="114.14593479638671" /><trkpt lat="22.37628078125" lon="114.14599979638672" /><trkpt lat="22.37630078125" lon="114.14601179638672" /><trkpt lat="22.37632978125" lon="114.14601679638672" /><trkpt lat="22.37638978125" lon="114.14603479638672" /><trkpt lat="22.37661178125" lon="114.14617379638672" /><trkpt lat="22.37683878125" lon="114.14639079638673" /><trkpt lat="22.37691278125" lon="114.14654179638671" /><trkpt lat="22.37700078125" lon="114.14663779638671" /><trkpt lat="22.37706878125" lon="114.14666279638672" /><trkpt lat="22.37735478125" lon="114.14704279638671" /><trkpt lat="22.37743778125" lon="114.14709979638671" /><trkpt lat="22.37746478125" lon="114.14713279638671" /><trkpt lat="22.37751278125" lon="114.14723979638671" /><trkpt lat="22.37757578125" lon="114.14732579638672" /><trkpt lat="22.37766478125" lon="114.14742779638672" /><trkpt lat="22.37774478125" lon="114.14746579638671" /><trkpt lat="22.37780778125" lon="114.14752379638672" /><trkpt lat="22.37785078125" lon="114.14757979638672" /><trkpt lat="22.37785378125" lon="114.14765379638672" /><trkpt lat="22.37784278125" lon="114.14774579638672" /><trkpt lat="22.37783178125" lon="114.14783779638672" /><trkpt lat="22.37782178125" lon="114.14791679638672" /><trkpt lat="22.37783878125" lon="114.14801079638671" /><trkpt lat="22.37786078125" lon="114.14808179638672" /><trkpt lat="22.37786678125" lon="114.14816879638671" /><trkpt lat="22.37789378125" lon="114.14822279638672" /><trkpt lat="22.37792778125" lon="114.14823779638672" /><trkpt lat="22.37792278125" lon="114.14831279638672" /><trkpt lat="22.37797478125" lon="114.14834579638672" /><trkpt lat="22.37800778125" lon="114.14837379638672" /><trkpt lat="22.37803578125" lon="114.14847579638672" /><trkpt lat="22.37807578125" lon="114.14854179638672" /><trkpt lat="22.37809478125" lon="114.14862379638672" /><trkpt lat="22.37814078125" lon="114.14870679638672" /><trkpt lat="22.37809678125" lon="114.14882379638672" /><trkpt lat="22.37819678125" lon="114.14879879638671" /><trkpt lat="22.37824078125" lon="114.14878379638672" /><trkpt lat="22.37825578125" lon="114.14877579638672" /><trkpt lat="22.37829378125" lon="114.14858979638672" /><trkpt lat="22.37828478125" lon="114.14847279638671" /><trkpt lat="22.37830078125" lon="114.14834479638672" /><trkpt lat="22.37832778125" lon="114.14822879638672" /><trkpt lat="22.37836878125" lon="114.14813479638671" /><trkpt lat="22.37843778125" lon="114.14805579638671" /><trkpt lat="22.37862978125" lon="114.14784479638672" /><trkpt lat="22.37872078125" lon="114.14777779638672" /><trkpt lat="22.37875878125" lon="114.14772779638672" /><trkpt lat="22.37877878125" lon="114.14768779638672" /><trkpt lat="22.37878978125" lon="114.14761279638672" /><trkpt lat="22.37878278125" lon="114.14748379638672" /><trkpt lat="22.37891278125" lon="114.14762079638672" /><trkpt lat="22.37990478125" lon="114.14867079638672" /><trkpt lat="22.37956578125" lon="114.14899479638672" /><trkpt lat="22.379359706804625" lon="114.14921593301051" /><trkpt lat="22.37948897008789" lon="114.14940931986047" /><trkpt lat="22.37959284331866" lon="114.14949316245634" /><trkpt lat="22.379665790998118" lon="114.14959187009373" /><trkpt lat="22.37967800365935" lon="114.14970242260739" /><trkpt lat="22.379613682210945" lon="114.14979146796605" /><trkpt lat="22.37956199353222" lon="114.14993948167341" /><trkpt lat="22.379561656668074" lon="114.14983148147701" /><trkpt lat="22.379639343880342" lon="114.14961839323928" /><trkpt lat="22.379589573376307" lon="114.14945585645052" /><trkpt lat="22.37948676459449" lon="114.14939848646515" /><trkpt lat="22.379403142423627" lon="114.14929189244282" /><trkpt lat="22.379364709114192" lon="114.14921056508976" /><trkpt lat="22.37926478125" lon="114.14931779638673" /><trkpt lat="22.379209688976154" lon="114.14938297620625" /><trkpt lat="22.37905178125" lon="114.14956979638671" /><trkpt lat="22.37902378125" lon="114.14959179638672" /><trkpt lat="22.37914778125" lon="114.14972479638672" /><trkpt lat="22.37903678125" lon="114.14977579638672" /><trkpt lat="22.37894978125" lon="114.14983379638672" /><trkpt lat="22.37869478125" lon="114.14989679638671" /><trkpt lat="22.37855578125" lon="114.15001679638672" /><trkpt lat="22.37843878125" lon="114.15016979638672" /><trkpt lat="22.37832978125" lon="114.15029179638672" /><trkpt lat="22.37825078125" lon="114.15034479638672" /><trkpt lat="22.37813578125" lon="114.15037979638672" /><trkpt lat="22.37796778125" lon="114.15046879638672" /><trkpt lat="22.37786978125" lon="114.15049179638672" /><trkpt lat="22.37776978125" lon="114.15044479638672" /><trkpt lat="22.37759878125" lon="114.15034479638672" /><trkpt lat="22.37748678125" lon="114.15029279638672" /><trkpt lat="22.37730078125" lon="114.15020279638672" /><trkpt lat="22.37724378125" lon="114.15018279638672" /><trkpt lat="22.37718878125" lon="114.15016979638672" /><trkpt lat="22.37704378125" lon="114.15016679638671" /><trkpt lat="22.37689678125" lon="114.15014579638672" /><trkpt lat="22.37678478125" lon="114.15012379638672" /><trkpt lat="22.37671578125" lon="114.15011979638672" /><trkpt lat="22.37655178125" lon="114.15007379638672" /><trkpt lat="22.37642978125" lon="114.15008479638672" /><trkpt lat="22.37632678125" lon="114.15005479638671" /><trkpt lat="22.37623178125" lon="114.14995979638672" /><trkpt lat="22.37604678125" lon="114.14994179638671" /><trkpt lat="22.37582378125" lon="114.15000379638671" /><trkpt lat="22.37539878125" lon="114.15012179638671" /><trkpt lat="22.37534078125" lon="114.15019779638672" /><trkpt lat="22.37527378125" lon="114.15034279638672" /><trkpt lat="22.37554978125" lon="114.15048279638673" /><trkpt lat="22.37555778125" lon="114.15050379638672" /><trkpt lat="22.37554178125" lon="114.15054979638671" /><trkpt lat="22.37550478125" lon="114.15053379638672" /><trkpt lat="22.37549478125" lon="114.15051279638672" /><trkpt lat="22.37508278125" lon="114.15070579638672" /><trkpt lat="22.37499878125" lon="114.15074979638672" /><trkpt lat="22.37501078125" lon="114.15089179638672" /><trkpt lat="22.37486278125" lon="114.15104379638672" /><trkpt lat="22.37470678125" lon="114.15109179638672" /><trkpt lat="22.37461378125" lon="114.15144679638672" /><trkpt lat="22.37429078125" lon="114.15141879638672" /><trkpt lat="22.37412378125" lon="114.15168779638672" /><trkpt lat="22.37396078125" lon="114.15186679638671" /><trkpt lat="22.37370978125" lon="114.15195879638672" /><trkpt lat="22.37377078125" lon="114.15226879638672" /><trkpt lat="22.37378878125" lon="114.15243179638672" /><trkpt lat="22.37384178125" lon="114.15260979638671" /><trkpt lat="22.37342178125" lon="114.15311179638672" /><trkpt lat="22.37315478125" lon="114.15341979638671" /><trkpt lat="22.37302978125" lon="114.15345579638672" /><trkpt lat="22.37293978125" lon="114.15350679638672" /><trkpt lat="22.37297778125" lon="114.15359279638672" /><trkpt lat="22.37308178125" lon="114.15367079638672" /><trkpt lat="22.37316778125" lon="114.15374579638672" /><trkpt lat="22.37310978125" lon="114.15392179638673" /><trkpt lat="22.37312778125" lon="114.15410479638672" /><trkpt lat="22.37331078125" lon="114.15429179638672" /><trkpt lat="22.37325178125" lon="114.15442379638672" /><trkpt lat="22.37327778125" lon="114.15469579638672" /><trkpt lat="22.37301278125" lon="114.15482279638672" /><trkpt lat="22.37284778125" lon="114.15495579638672" /><trkpt lat="22.37274278125" lon="114.15503979638672" /><trkpt lat="22.37260878125" lon="114.15519579638672" /><trkpt lat="22.37253178125" lon="114.15540379638672" /><trkpt lat="22.37255978125" lon="114.15565279638672" /><trkpt lat="22.37248678125" lon="114.15575179638672" /><trkpt lat="22.37239278125" lon="114.15579579638671" /><trkpt lat="22.37231778125" lon="114.15593779638672" /><trkpt lat="22.37206978125" lon="114.15607179638671" /><trkpt lat="22.37199378125" lon="114.15635479638672" /><trkpt lat="22.37186078125" lon="114.15664179638672" /><trkpt lat="22.37176378125" lon="114.15673779638672" /><trkpt lat="22.37148178125" lon="114.15673379638672" /><trkpt lat="22.37137678125" lon="114.15695779638672" /><trkpt lat="22.37140178125" lon="114.15706379638672" /><trkpt lat="22.37147578125" lon="114.15720279638671" /><trkpt lat="22.37149278125" lon="114.15760479638672" /><trkpt lat="22.37135078125" lon="114.15780279638672" /><trkpt lat="22.37123978125" lon="114.15795079638671" /><trkpt lat="22.37118578125" lon="114.15803979638672" /><trkpt lat="22.37134878125" lon="114.15823479638672" /><trkpt lat="22.37142278125" lon="114.15837979638673" /><trkpt lat="22.37138678125" lon="114.15871379638672" /><trkpt lat="22.37147078125" lon="114.15898279638672" /><trkpt lat="22.37130378125" lon="114.15905979638671" /><trkpt lat="22.37127778125" lon="114.15924379638672" /><trkpt lat="22.37115878125" lon="114.15940279638671" /><trkpt lat="22.37105478125" lon="114.15976779638672" /><trkpt lat="22.37107878125" lon="114.15987079638671" /><trkpt lat="22.37120478125" lon="114.15997679638672" /><trkpt lat="22.37125678125" lon="114.16009179638672" /><trkpt lat="22.37127878125" lon="114.16025379638671" /><trkpt lat="22.37116978125" lon="114.16050579638672" /><trkpt lat="22.37114178125" lon="114.16087879638673" /><trkpt lat="22.371354781249998" lon="114.16100079638672" /><trkpt lat="22.37141678125" lon="114.16127179638671" /><trkpt lat="22.37144278125" lon="114.16142179638672" /><trkpt lat="22.37153978125" lon="114.16165279638672" /><trkpt lat="22.37152278125" lon="114.16180379638672" /><trkpt lat="22.371513781250002" lon="114.16197179638672" /><trkpt lat="22.37136878125" lon="114.16201379638672" /><trkpt lat="22.37111578125" lon="114.16206479638672" /><trkpt lat="22.37106478125" lon="114.16216679638671" /><trkpt lat="22.37095678125" lon="114.16232479638671" /><trkpt lat="22.37076778125" lon="114.16236479638673" /><trkpt lat="22.37080278125" lon="114.16247279638672" /><trkpt lat="22.37068878125" lon="114.16274079638671" /><trkpt lat="22.37068878125" lon="114.16293879638671" /><trkpt lat="22.37062278125" lon="114.16326379638672" /><trkpt lat="22.37057678125" lon="114.16338479638672" /><trkpt lat="22.37051178125" lon="114.16347179638672" /><trkpt lat="22.37038378125" lon="114.16342979638672" /><trkpt lat="22.37019878125" lon="114.16346579638672" /><trkpt lat="22.37015278125" lon="114.16353479638671" /><trkpt lat="22.37012578125" lon="114.16382679638672" /><trkpt lat="22.37002378125" lon="114.16408679638671" /><trkpt lat="22.36989078125" lon="114.16420479638671" /><trkpt lat="22.36975378125" lon="114.16448479638672" /><trkpt lat="22.36971878125" lon="114.16469579638672" /><trkpt lat="22.36968378125" lon="114.16486679638672" /><trkpt lat="22.36969778125" lon="114.16493079638671" /><trkpt lat="22.36956178125" lon="114.16519779638672" /><trkpt lat="22.36959778125" lon="114.16531279638671" /><trkpt lat="22.36968478125" lon="114.16543079638672" /><trkpt lat="22.36976578125" lon="114.16549179638672" /><trkpt lat="22.36986578125" lon="114.16549579638672" /><trkpt lat="22.37009178125" lon="114.16537279638672" /><trkpt lat="22.37034378125" lon="114.16537179638672" /><trkpt lat="22.37070978125" lon="114.16535079638672" /><trkpt lat="22.37094978125" lon="114.16536979638671" /><trkpt lat="22.37125078125" lon="114.16540679638672" /><trkpt lat="22.37139378125" lon="114.16537779638672" /><trkpt lat="22.37143878125" lon="114.16531479638672" /><trkpt lat="22.37160678125" lon="114.16509479638673" /><trkpt lat="22.37180078125" lon="114.16489479638672" /><trkpt lat="22.37201178125" lon="114.16471479638672" /><trkpt lat="22.372227046326536" lon="114.16457277498132" /><trkpt lat="22.37211900543835" lon="114.16438464623417" /><trkpt lat="22.372246325327126" lon="114.16449214202777" /><trkpt lat="22.37222220365291" lon="114.16462686627386" /><trkpt lat="22.37221925118064" lon="114.16462579503462" /><trkpt lat="22.37222351775715" lon="114.16462113763833" /><trkpt lat="22.372204591069956" lon="114.16458758988124" /><trkpt lat="22.37201178125" lon="114.16471479638672" /><trkpt lat="22.37180078125" lon="114.16489479638672" /><trkpt lat="22.37160678125" lon="114.16509479638673" /><trkpt lat="22.37143878125" lon="114.16531479638672" /><trkpt lat="22.37139378125" lon="114.16537779638672" /><trkpt lat="22.37152278125" lon="114.16553579638672" /><trkpt lat="22.37163178125" lon="114.16571279638671" /><trkpt lat="22.37165378125" lon="114.16587379638672" /><trkpt lat="22.37161178125" lon="114.16593479638672" /><trkpt lat="22.37170878125" lon="114.16596179638672" /><trkpt lat="22.37187378125" lon="114.16611679638672" /><trkpt lat="22.37208378125" lon="114.16620079638672" /><trkpt lat="22.37230278125" lon="114.16637279638672" /><trkpt lat="22.37235978125" lon="114.16649379638672" /><trkpt lat="22.37245378125" lon="114.16659079638671" /><trkpt lat="22.37259178125" lon="114.16675479638671" /><trkpt lat="22.37269278125" lon="114.16671979638672" /><trkpt lat="22.37304178125" lon="114.16677079638671" /><trkpt lat="22.37364478125" lon="114.16685179638672" /><trkpt lat="22.37377378125" lon="114.16686179638671" /><trkpt lat="22.37416978125" lon="114.16671679638672" /><trkpt lat="22.37448678125" lon="114.16669079638672" /><trkpt lat="22.37477578125" lon="114.16676579638671" /><trkpt lat="22.37490978125" lon="114.16686879638672" /><trkpt lat="22.37499478125" lon="114.16705079638672" /><trkpt lat="22.37506678125" lon="114.16757679638673" /><trkpt lat="22.37489878125" lon="114.16783279638672" /><trkpt lat="22.37485878125" lon="114.16794979638672" /><trkpt lat="22.37485578125" lon="114.16806879638672" /><trkpt lat="22.37549078125" lon="114.16807779638673" /><trkpt lat="22.37561978125" lon="114.16816379638672" /><trkpt lat="22.37586978125" lon="114.16864279638672" /><trkpt lat="22.37596578125" lon="114.16900779638672" /><trkpt lat="22.37609078125" lon="114.16941079638671" /><trkpt lat="22.376161391657234" lon="114.16955393240568" /><trkpt lat="22.37611840555306" lon="114.16962302365968" /><trkpt lat="22.37613078125" lon="114.16965379638673" /><trkpt lat="22.37616878125" lon="114.16975679638672" /><trkpt lat="22.37632478125" lon="114.17016879638672" /><trkpt lat="22.37639978125" lon="114.17036279638671" /><trkpt lat="22.37625978125" lon="114.17041579638672" /><trkpt lat="22.37621678125" lon="114.17043179638672" /><trkpt lat="22.37617578125" lon="114.17044679638671" /><trkpt lat="22.37625150075253" lon="114.17065881030892" /></trkseg></trk></gpx>