<?xml version='1.0' encoding='UTF-8' ?><gpx version="1.1" creator="HikingTrailHK" xsi:schemaLocation="http://www.topografix.com/GPX/1/1 http://www.topografix.com/GPX/1/1/gpx.xsd" xmlns="http://www.topografix.com/GPX/1/1" xmlns:xsi="http://www.w3.org/2001/XMLSchema-instance"><metadata><name>鴨仔小夏威夷 @ 2016-9-13</name><desc></desc></metadata><trk><trkseg><trkpt lat="22.314948682641603" lon="114.2644610151697" /><trkpt lat="22.31520278125" lon="114.26415279638672" /><trkpt lat="22.31536678125" lon="114.26396979638672" /><trkpt lat="22.31543678125" lon="114.26386379638672" /><trkpt lat="22.31550678125" lon="114.26377779638672" /><trkpt lat="22.31558678125" lon="114.26367879638671" /><trkpt lat="22.31566078125" lon="114.26366479638672" /><trkpt lat="22.31570878125" lon="114.26365979638672" /><trkpt lat="22.31576878125" lon="114.26365879638672" /><trkpt lat="22.31586378125" lon="114.26366779638671" /><trkpt lat="22.31592478125" lon="114.26372579638672" /><trkpt lat="22.31599778125" lon="114.26378979638672" /><trkpt lat="22.31610578125" lon="114.26386879638672" /><trkpt lat="22.31616278125" lon="114.26391979638672" /><trkpt lat="22.316568781249998" lon="114.26429379638672" /><trkpt lat="22.31683678125" lon="114.26455379638672" /><trkpt lat="22.31729778125" lon="114.26503379638672" /><trkpt lat="22.31753178125" lon="114.26523179638671" /><trkpt lat="22.31769378125" lon="114.26531779638673" /><trkpt lat="22.31786578125" lon="114.26537379638673" /><trkpt lat="22.31871378125" lon="114.26549979638672" /><trkpt lat="22.31887278125" lon="114.26549779638673" /><trkpt lat="22.31894678125" lon="114.26548779638672" /><trkpt lat="22.31898078125" lon="114.26543979638672" /><trkpt lat="22.31902578125" lon="114.26540379638672" /><trkpt lat="22.31910178125" lon="114.26538179638672" /><trkpt lat="22.31917878125" lon="114.26539379638672" /><trkpt lat="22.31924578125" lon="114.26543979638672" /><trkpt lat="22.31928078125" lon="114.26549179638671" /><trkpt lat="22.31929878125" lon="114.26555379638671" /><trkpt lat="22.31929878125" lon="114.26561779638672" /><trkpt lat="22.32003378125" lon="114.26571779638672" /><trkpt lat="22.32032578125" lon="114.26575479638672" /><trkpt lat="22.32038378125" lon="114.26576179638671" /><trkpt lat="22.32026678125" lon="114.26566779638672" /><trkpt lat="22.32016678125" lon="114.26559079638672" /><trkpt lat="22.32007978125" lon="114.26553479638672" /><trkpt lat="22.31997078125" lon="114.26544979638672" /><trkpt lat="22.31990978125" lon="114.26538779638672" /><trkpt lat="22.31980578125" lon="114.26524779638672" /><trkpt lat="22.31971578125" lon="114.26507079638672" /><trkpt lat="22.31969378125" lon="114.26499979638672" /><trkpt lat="22.31968378125" lon="114.26489879638672" /><trkpt lat="22.31971678125" lon="114.26481679638673" /><trkpt lat="22.31975678125" lon="114.26473879638672" /><trkpt lat="22.31988278125" lon="114.26458179638672" /><trkpt lat="22.32002578125" lon="114.26447579638672" /><trkpt lat="22.32014778125" lon="114.26439279638672" /><trkpt lat="22.32021178125" lon="114.26435479638671" /><trkpt lat="22.32024978125" lon="114.26425879638671" /><trkpt lat="22.32026678125" lon="114.26407379638673" /><trkpt lat="22.32028778125" lon="114.26401579638672" /><trkpt lat="22.32032478125" lon="114.26402779638671" /><trkpt lat="22.32041778125" lon="114.26407479638672" /><trkpt lat="22.32046878125" lon="114.26411679638672" /><trkpt lat="22.32055878125" lon="114.26417379638671" /><trkpt lat="22.32060878125" lon="114.26421779638672" /><trkpt lat="22.32066178125" lon="114.26425179638672" /><trkpt lat="22.32072978125" lon="114.26436779638672" /><trkpt lat="22.32077878125" lon="114.26442479638672" /><trkpt lat="22.32082078125" lon="114.26436279638672" /><trkpt lat="22.32084978125" lon="114.26431379638672" /><trkpt lat="22.32088778125" lon="114.26426279638672" /><trkpt lat="22.32086478125" lon="114.26420179638671" /><trkpt lat="22.32086578125" lon="114.26408079638672" /><trkpt lat="22.32097378125" lon="114.26412179638672" /><trkpt lat="22.32104878125" lon="114.26413979638671" /><trkpt lat="22.32120978125" lon="114.26414579638671" /><trkpt lat="22.32138378125" lon="114.26413379638672" /><trkpt lat="22.32146078125" lon="114.26412679638672" /><trkpt lat="22.32158778125" lon="114.26413379638672" /><trkpt lat="22.32165278125" lon="114.26414579638671" /><trkpt lat="22.32171678125" lon="114.26415679638671" /><trkpt lat="22.32177778125" lon="114.26417079638672" /><trkpt lat="22.32184478125" lon="114.26417679638672" /><trkpt lat="22.32190978125" lon="114.26416879638671" /><trkpt lat="22.32205078125" lon="114.26417479638671" /><trkpt lat="22.32215878125" lon="114.26414079638671" /><trkpt lat="22.32230778125" lon="114.26408879638672" /><trkpt lat="22.32241078125" lon="114.26403479638672" /><trkpt lat="22.32247278125" lon="114.26399279638672" /><trkpt lat="22.32257578125" lon="114.26397479638672" /><trkpt lat="22.32264178125" lon="114.26393779638671" /><trkpt lat="22.32280678125" lon="114.26390179638672" /><trkpt lat="22.32285078125" lon="114.26389479638672" /><trkpt lat="22.32295078125" lon="114.26385679638672" /><trkpt lat="22.32307578125" lon="114.26379179638671" /><trkpt lat="22.32315578125" lon="114.26375179638671" /><trkpt lat="22.32334078125" lon="114.26366779638671" /><trkpt lat="22.32347778125" lon="114.26365779638672" /><trkpt lat="22.32350678125" lon="114.26364479638671" /><trkpt lat="22.32365778125" lon="114.26354379638671" /><trkpt lat="22.32369678125" lon="114.26353879638671" /><trkpt lat="22.32376178125" lon="114.26353679638672" /><trkpt lat="22.32383478125" lon="114.26351679638672" /><trkpt lat="22.32398378125" lon="114.26351979638672" /><trkpt lat="22.32423578125" lon="114.26347479638672" /><trkpt lat="22.32453678125" lon="114.26341279638672" /><trkpt lat="22.32474378125" lon="114.26340279638671" /><trkpt lat="22.32502678125" lon="114.26337579638673" /><trkpt lat="22.32521278125" lon="114.26334779638673" /><trkpt lat="22.32553578125" lon="114.26344179638672" /><trkpt lat="22.32562578125" lon="114.26347779638672" /><trkpt lat="22.32572878125" lon="114.26352079638671" /><trkpt lat="22.32612078125" lon="114.26353379638672" /><trkpt lat="22.32634178125" lon="114.26361579638672" /><trkpt lat="22.32641878125" lon="114.26363279638672" /><trkpt lat="22.32653678125" lon="114.26366079638672" /><trkpt lat="22.32673378125" lon="114.26359379638671" /><trkpt lat="22.32689778125" lon="114.26363279638672" /><trkpt lat="22.32708678125" lon="114.26360579638671" /><trkpt lat="22.32718678125" lon="114.26361179638671" /><trkpt lat="22.32731278125" lon="114.26358479638672" /><trkpt lat="22.32741078125" lon="114.26354779638672" /><trkpt lat="22.32758578125" lon="114.26348879638672" /><trkpt lat="22.32764978125" lon="114.26345679638672" /><trkpt lat="22.32767778125" lon="114.26343379638672" /><trkpt lat="22.32771178125" lon="114.26338379638672" /><trkpt lat="22.32776878125" lon="114.26334179638671" /><trkpt lat="22.32783678125" lon="114.26330979638672" /><trkpt lat="22.32800878125" lon="114.26318579638672" /><trkpt lat="22.32804478125" lon="114.26312279638672" /><trkpt lat="22.32819378125" lon="114.26306479638671" /><trkpt lat="22.32825978125" lon="114.26301779638672" /><trkpt lat="22.32831878125" lon="114.26299879638673" /><trkpt lat="22.32835978125" lon="114.26298479638672" /><trkpt lat="22.32838778125" lon="114.26296679638672" /><trkpt lat="22.32841378125" lon="114.26294279638672" /><trkpt lat="22.32847078125" lon="114.26292179638672" /><trkpt lat="22.32850878125" lon="114.26290079638672" /><trkpt lat="22.32855978125" lon="114.26288779638672" /><trkpt lat="22.32859878125" lon="114.26286479638672" /><trkpt lat="22.32865478125" lon="114.26284879638672" /><trkpt lat="22.32869278125" lon="114.26284179638672" /><trkpt lat="22.32877778125" lon="114.26280679638671" /><trkpt lat="22.32889778125" lon="114.26276679638671" /><trkpt lat="22.329040436155342" lon="114.26258451413639" /><trkpt lat="22.32907278125" lon="114.26257679638672" /><trkpt lat="22.32918478125" lon="114.26247279638672" /><trkpt lat="22.32932478125" lon="114.26240779638673" /><trkpt lat="22.32939678125" lon="114.26241079638672" /><trkpt lat="22.32950878125" lon="114.26236679638671" /><trkpt lat="22.32961978125" lon="114.26234679638672" /><trkpt lat="22.32950978125" lon="114.26223679638672" /><trkpt lat="22.32935978125" lon="114.26215879638671" /><trkpt lat="22.32911578125" lon="114.26212279638672" /><trkpt lat="22.32996478125" lon="114.26133479638672" /><trkpt lat="22.32992378125" lon="114.26119979638672" /><trkpt lat="22.32988278125" lon="114.26112579638672" /><trkpt lat="22.32987478125" lon="114.26103379638671" /><trkpt lat="22.32984678125" lon="114.26094179638672" /><trkpt lat="22.32982878125" lon="114.26076179638672" /><trkpt lat="22.32989978125" lon="114.26072179638672" /><trkpt lat="22.32992278125" lon="114.26047879638672" /><trkpt lat="22.32991778125" lon="114.26040579638672" /><trkpt lat="22.32998078125" lon="114.26039179638671" /><trkpt lat="22.33001978125" lon="114.26033779638672" /><trkpt lat="22.32999478125" lon="114.26026479638672" /><trkpt lat="22.33002878125" lon="114.26015879638672" /><trkpt lat="22.33009178125" lon="114.26009979638673" /><trkpt lat="22.33021378125" lon="114.26008079638672" /><trkpt lat="22.33024778125" lon="114.26003179638671" /><trkpt lat="22.33029578125" lon="114.25993979638672" /><trkpt lat="22.33032978125" lon="114.25980879638672" /><trkpt lat="22.33041778125" lon="114.25968279638671" /><trkpt lat="22.33048178125" lon="114.25959279638671" /><trkpt lat="22.33055078125" lon="114.25948679638672" /><trkpt lat="22.33058778125" lon="114.25939979638672" /><trkpt lat="22.33064778125" lon="114.25930779638672" /><trkpt lat="22.33071278125" lon="114.25914679638672" /><trkpt lat="22.33070778125" lon="114.25898779638672" /><trkpt lat="22.33060978125" lon="114.25890979638672" /><trkpt lat="22.33050078125" lon="114.25875179638672" /><trkpt lat="22.33035578125" lon="114.25854079638673" /><trkpt lat="22.33020378125" lon="114.25835279638672" /><trkpt lat="22.33005778125" lon="114.25824079638672" /><trkpt lat="22.32995378125" lon="114.25805779638672" /><trkpt lat="22.32983478125" lon="114.25794579638672" /><trkpt lat="22.32972078125" lon="114.25790279638672" /><trkpt lat="22.32961178125" lon="114.25784879638672" /><trkpt lat="22.32942078125" lon="114.25773979638672" /><trkpt lat="22.32926878125" lon="114.25759179638672" /><trkpt lat="22.32911978125" lon="114.25749979638672" /><trkpt lat="22.32895178125" lon="114.25738179638672" /><trkpt lat="22.32876578125" lon="114.25727879638671" /><trkpt lat="22.32869478125" lon="114.25714779638672" /><trkpt lat="22.32864278125" lon="114.25704979638672" /><trkpt lat="22.32864678125" lon="114.25695779638671" /><trkpt lat="22.32855578125" lon="114.25658179638671" /><trkpt lat="22.32856278125" lon="114.25649779638672" /><trkpt lat="22.32858278125" lon="114.25626279638672" /><trkpt lat="22.32875778125" lon="114.25590679638672" /><trkpt lat="22.32884078125" lon="114.25570279638671" /><trkpt lat="22.32904678125" lon="114.25537279638672" /><trkpt lat="22.32914878125" lon="114.25509579638671" /><trkpt lat="22.32936678125" lon="114.25480579638672" /><trkpt lat="22.32943678125" lon="114.25466579638672" /><trkpt lat="22.32948078125" lon="114.25454879638671" /><trkpt lat="22.32947578125" lon="114.25444879638673" /><trkpt lat="22.32950578125" lon="114.25426479638672" /><trkpt lat="22.32934978125" lon="114.25395079638672" /><trkpt lat="22.32915378125" lon="114.25371879638672" /><trkpt lat="22.32910278125" lon="114.25362379638672" /><trkpt lat="22.32909578125" lon="114.25356279638672" /><trkpt lat="22.32920478125" lon="114.25324979638673" /><trkpt lat="22.32950278125" lon="114.25286679638671" /><trkpt lat="22.32981278125" lon="114.25268379638672" /><trkpt lat="22.32999178125" lon="114.25246979638672" /><trkpt lat="22.33023478125" lon="114.25245179638672" /><trkpt lat="22.33037978125" lon="114.25238879638673" /><trkpt lat="22.33056878125" lon="114.25232379638672" /><trkpt lat="22.33066778125" lon="114.25223779638672" /><trkpt lat="22.33070678125" lon="114.25214579638671" /><trkpt lat="22.33072578125" lon="114.25197679638671" /><trkpt lat="22.33076378125" lon="114.25179979638672" /><trkpt lat="22.33074378125" lon="114.25152579638672" /><trkpt lat="22.33072778125" lon="114.25130879638672" /><trkpt lat="22.33108778125" lon="114.25049079638671" /><trkpt lat="22.33102878125" lon="114.24997079638672" /><trkpt lat="22.33125678125" lon="114.24976079638672" /><trkpt lat="22.33166978125" lon="114.24909579638671" /><trkpt lat="22.33182578125" lon="114.24899379638671" /><trkpt lat="22.33208278125" lon="114.24823679638672" /><trkpt lat="22.33207778125" lon="114.24802279638672" /><trkpt lat="22.33193978125" lon="114.24745379638672" /><trkpt lat="22.33184878125" lon="114.24717779638672" /><trkpt lat="22.33169678125" lon="114.24690079638673" /><trkpt lat="22.33165878125" lon="114.24668179638672" /><trkpt lat="22.33174778125" lon="114.24635379638671" /><trkpt lat="22.331656130751494" lon="114.2462742922838" /><trkpt lat="22.331575913765008" lon="114.24630478251271" /><trkpt lat="22.33150014527216" lon="114.24629137146763" /><trkpt lat="22.331492800867267" lon="114.24628734815411" /><trkpt lat="22.331491560344233" lon="114.24628482949043" /><trkpt lat="22.331489079298137" lon="114.2462860070496" /><trkpt lat="22.331486598252" lon="114.24628396166878" /><trkpt lat="22.331486598252" lon="114.24630478251271" /><trkpt lat="22.33152806916976" lon="114.24636651118293" /><trkpt lat="22.33136978125" lon="114.24649079638672" /><trkpt lat="22.33120776890689" lon="114.24669712462759" /><trkpt lat="22.33111940293753" lon="114.24665883410267" /><trkpt lat="22.33118216701456" lon="114.24662128317647" /><trkpt lat="22.331185193219042" lon="114.24662396538548" /><trkpt lat="22.331186391344005" lon="114.24662396538548" /><trkpt lat="22.331188872395487" lon="114.2466266475945" /><trkpt lat="22.331192593972602" lon="114.24662932980351" /><trkpt lat="22.33119383449828" lon="114.24663201201253" /><trkpt lat="22.331224849250667" lon="114.24664478156504" /><trkpt lat="22.33122778125" lon="114.24663579638671" /><trkpt lat="22.33136978125" lon="114.24649079638672" /><trkpt lat="22.33153760841791" lon="114.2463590211028" /><trkpt lat="22.331592273075568" lon="114.24621889771599" /><trkpt lat="22.33158178125" lon="114.24620979638672" /><trkpt lat="22.33173378125" lon="114.24595479638671" /><trkpt lat="22.33202378125" lon="114.24549579638672" /><trkpt lat="22.33222778125" lon="114.24447079638672" /><trkpt lat="22.33213078125" lon="114.24430479638671" /><trkpt lat="22.33177678125" lon="114.24419179638672" /><trkpt lat="22.33170178125" lon="114.24401479638672" /><trkpt lat="22.33184178125" lon="114.24323779638672" /><trkpt lat="22.33223878125" lon="114.24282479638671" /><trkpt lat="22.33237178125" lon="114.24244779638671" /><trkpt lat="22.33247378125" lon="114.24237879638672" /><trkpt lat="22.33264778125" lon="114.24208479638672" /><trkpt lat="22.33271878125" lon="114.24187179638672" /><trkpt lat="22.33274778125" lon="114.24171079638671" /><trkpt lat="22.33279178125" lon="114.24159579638672" /><trkpt lat="22.33279178125" lon="114.24149079638671" /><trkpt lat="22.33285578125" lon="114.24142079638672" /><trkpt lat="22.33295078125" lon="114.24133279638671" /><trkpt lat="22.33297378125" lon="114.24122179638672" /><trkpt lat="22.33300278125" lon="114.24107679638672" /><trkpt lat="22.33305978125" lon="114.24085979638672" /><trkpt lat="22.33309378125" lon="114.24066679638672" /><trkpt lat="22.33307178125" lon="114.24062979638671" /><trkpt lat="22.33308178125" lon="114.24049579638672" /><trkpt lat="22.33313878125" lon="114.24040479638671" /><trkpt lat="22.33322278125" lon="114.24032379638672" /><trkpt lat="22.33328778125" lon="114.24026479638673" /><trkpt lat="22.33335678125" lon="114.24014179638672" /><trkpt lat="22.33338678125" lon="114.24005079638673" /><trkpt lat="22.33341178125" lon="114.23991579638673" /><trkpt lat="22.33342378125" lon="114.23977979638671" /><trkpt lat="22.33341878125" lon="114.23968779638672" /><trkpt lat="22.33349078125" lon="114.23953779638671" /><trkpt lat="22.33351978125" lon="114.23938379638672" /><trkpt lat="22.33358778125" lon="114.23929179638672" /><trkpt lat="22.33360078125" lon="114.23916279638672" /><trkpt lat="22.33365278125" lon="114.23896679638672" /><trkpt lat="22.33375678125" lon="114.23878179638672" /><trkpt lat="22.33381578125" lon="114.23862379638672" /><trkpt lat="22.33386078125" lon="114.23851579638672" /><trkpt lat="22.33397778125" lon="114.23844679638673" /><trkpt lat="22.33410678125" lon="114.23836879638672" /><trkpt lat="22.33415978125" lon="114.23834579638672" /><trkpt lat="22.33423278125" lon="114.23830879638672" /><trkpt lat="22.33415478125" lon="114.23807379638671" /><trkpt lat="22.33415878125" lon="114.23798579638672" /><trkpt lat="22.33408278125" lon="114.23777579638671" /><trkpt lat="22.33408178125" lon="114.23772179638672" /><trkpt lat="22.33410578125" lon="114.23768879638672" /><trkpt lat="22.33412878125" lon="114.23767779638672" /><trkpt lat="22.33420778125" lon="114.23766279638672" /><trkpt lat="22.33423478125" lon="114.23772979638672" /><trkpt lat="22.33428678125" lon="114.23770079638672" /><trkpt lat="22.334288011266313" lon="114.23770007637741" /></trkseg></trk></gpx>