<?xml version='1.0' encoding='UTF-8' ?><gpx version="1.1" creator="HikingTrailHK" xsi:schemaLocation="http://www.topografix.com/GPX/1/1 http://www.topografix.com/GPX/1/1/gpx.xsd https://hikingtrailhk.appspot.com/xml/gpxextensions/v1 https://hikingtrailhk.appspot.com/xml/gpxextensions/v1/gpxextensions.xsd" xmlns="http://www.topografix.com/GPX/1/1" xmlns:h="https://hikingtrailhk.appspot.com/xml/gpxextensions/v1" xmlns:xsi="http://www.w3.org/2001/XMLSchema-instance"><metadata><name>鶴咀 @ 2016-6-4</name><desc></desc><extensions><h:categoryid>scenery_route</h:categoryid></extensions></metadata><trk><trkseg><trkpt lat="22.22122271269837" lon="114.24347178828327" /><trkpt lat="22.22116278125" lon="114.24347879638673" /><trkpt lat="22.22072178125" lon="114.24358079638672" /><trkpt lat="22.22060078125" lon="114.24356779638671" /><trkpt lat="22.22044178125" lon="114.24359879638672" /><trkpt lat="22.21987878125" lon="114.24378879638672" /><trkpt lat="22.21966178125" lon="114.24381879638672" /><trkpt lat="22.21957778125" lon="114.24383779638671" /><trkpt lat="22.21953378125" lon="114.24386079638671" /><trkpt lat="22.21944278125" lon="114.24391279638672" /><trkpt lat="22.21934278125" lon="114.24393679638672" /><trkpt lat="22.21924378125" lon="114.24398679638672" /><trkpt lat="22.21907078125" lon="114.24404479638672" /><trkpt lat="22.21900078125" lon="114.24407379638672" /><trkpt lat="22.21896678125" lon="114.24411779638672" /><trkpt lat="22.21889678125" lon="114.24420779638672" /><trkpt lat="22.21885678125" lon="114.24425279638672" /><trkpt lat="22.21878178125" lon="114.24433379638671" /><trkpt lat="22.21871478125" lon="114.24435279638672" /><trkpt lat="22.21866478125" lon="114.24437579638672" /><trkpt lat="22.21857878125" lon="114.24438279638672" /><trkpt lat="22.21850978125" lon="114.24438579638672" /><trkpt lat="22.21846278125" lon="114.24438579638672" /><trkpt lat="22.21829278125" lon="114.24432679638672" /><trkpt lat="22.21819178125" lon="114.24429179638672" /><trkpt lat="22.21805478125" lon="114.24425179638672" /><trkpt lat="22.21796378125" lon="114.24423179638671" /><trkpt lat="22.21779378125" lon="114.24423079638672" /><trkpt lat="22.21763078125" lon="114.24424779638672" /><trkpt lat="22.21758078125" lon="114.24425279638672" /><trkpt lat="22.21746578125" lon="114.24429079638672" /><trkpt lat="22.21722678125" lon="114.24438079638672" /><trkpt lat="22.21706378125" lon="114.24438679638672" /><trkpt lat="22.21694178125" lon="114.24443079638672" /><trkpt lat="22.21688678125" lon="114.24446279638671" /><trkpt lat="22.21678978125" lon="114.24451879638671" /><trkpt lat="22.21661678125" lon="114.24475279638672" /><trkpt lat="22.21659178125" lon="114.24478579638672" /><trkpt lat="22.21646878125" lon="114.24484479638672" /><trkpt lat="22.21629078125" lon="114.24491379638673" /><trkpt lat="22.21621778125" lon="114.24491279638671" /><trkpt lat="22.21612978125" lon="114.24491279638671" /><trkpt lat="22.21593578125" lon="114.24488179638672" /><trkpt lat="22.21584278125" lon="114.24484879638672" /><trkpt lat="22.21575078125" lon="114.24478479638672" /><trkpt lat="22.21555778125" lon="114.24462779638672" /><trkpt lat="22.21541078125" lon="114.24450979638672" /><trkpt lat="22.21532878125" lon="114.24447779638672" /><trkpt lat="22.21519278125" lon="114.24445279638672" /><trkpt lat="22.21507778125" lon="114.24445979638672" /><trkpt lat="22.21498278125" lon="114.24447779638672" /><trkpt lat="22.21487578125" lon="114.24451579638672" /><trkpt lat="22.21474478125" lon="114.24453079638671" /><trkpt lat="22.21461578125" lon="114.24457379638672" /><trkpt lat="22.21452678125" lon="114.24465079638672" /><trkpt lat="22.21433878125" lon="114.24479279638672" /><trkpt lat="22.21422578125" lon="114.24480779638672" /><trkpt lat="22.21414378125" lon="114.24487879638671" /><trkpt lat="22.21405478125" lon="114.24492379638671" /><trkpt lat="22.21378678125" lon="114.24495679638672" /><trkpt lat="22.21363378125" lon="114.24499279638673" /><trkpt lat="22.21349078125" lon="114.24502679638672" /><trkpt lat="22.21315978125" lon="114.24515879638672" /><trkpt lat="22.21301978125" lon="114.24523379638671" /><trkpt lat="22.21298178125" lon="114.24525479638672" /><trkpt lat="22.21287378125" lon="114.24521979638672" /><trkpt lat="22.21277678125" lon="114.24518579638672" /><trkpt lat="22.21269278125" lon="114.24517979638672" /><trkpt lat="22.21259578125" lon="114.24519379638672" /><trkpt lat="22.21245478125" lon="114.24523979638671" /><trkpt lat="22.21229878125" lon="114.24529179638672" /><trkpt lat="22.21205878125" lon="114.24532379638671" /><trkpt lat="22.21195378125" lon="114.24531579638672" /><trkpt lat="22.21186978125" lon="114.24530979638672" /><trkpt lat="22.21155778125" lon="114.24519779638672" /><trkpt lat="22.21133778125" lon="114.24518479638672" /><trkpt lat="22.21124578125" lon="114.24517879638672" /><trkpt lat="22.21107378125" lon="114.24509379638671" /><trkpt lat="22.21096278125" lon="114.24494279638672" /><trkpt lat="22.21085378125" lon="114.24488179638672" /><trkpt lat="22.20980478125" lon="114.24429779638672" /><trkpt lat="22.20968278125" lon="114.24426379638672" /><trkpt lat="22.20963078125" lon="114.24426579638671" /><trkpt lat="22.20946078125" lon="114.24432479638672" /><trkpt lat="22.20915078125" lon="114.24446279638671" /><trkpt lat="22.20897578125" lon="114.24456279638672" /><trkpt lat="22.20895178125" lon="114.24451379638671" /><trkpt lat="22.20893878125" lon="114.24437579638672" /><trkpt lat="22.20897078125" lon="114.24422379638672" /><trkpt lat="22.20899378125" lon="114.24406879638671" /><trkpt lat="22.20908178125" lon="114.24387179638671" /><trkpt lat="22.20915378125" lon="114.24379879638671" /><trkpt lat="22.20919178125" lon="114.24378179638671" /><trkpt lat="22.20925578125" lon="114.24371379638671" /><trkpt lat="22.20936778125" lon="114.24366979638671" /><trkpt lat="22.20945378125" lon="114.24365779638671" /><trkpt lat="22.20955378125" lon="114.24361579638672" /><trkpt lat="22.20960778125" lon="114.24357079638672" /><trkpt lat="22.20957078125" lon="114.24347379638672" /><trkpt lat="22.20960078125" lon="114.24334979638672" /><trkpt lat="22.20962478125" lon="114.24326779638672" /><trkpt lat="22.20963378125" lon="114.24319779638672" /><trkpt lat="22.20968078125" lon="114.24308679638672" /><trkpt lat="22.20968878125" lon="114.24296979638672" /><trkpt lat="22.20969778125" lon="114.24272679638672" /><trkpt lat="22.20972178125" lon="114.24254779638672" /><trkpt lat="22.20977778125" lon="114.24241679638672" /><trkpt lat="22.20985778125" lon="114.24235279638673" /><trkpt lat="22.20999578125" lon="114.24230079638671" /><trkpt lat="22.21009678125" lon="114.24218879638671" /><trkpt lat="22.21024978125" lon="114.24211679638672" /><trkpt lat="22.21027078125" lon="114.24191779638672" /><trkpt lat="22.21023178125" lon="114.24183079638672" /><trkpt lat="22.21035078125" lon="114.24174079638672" /><trkpt lat="22.21043778125" lon="114.24171179638672" /><trkpt lat="22.21052178125" lon="114.24175879638672" /><trkpt lat="22.21056078125" lon="114.24175679638672" /><trkpt lat="22.21060278125" lon="114.24177779638671" /><trkpt lat="22.210618781249998" lon="114.24187279638672" /><trkpt lat="22.21067878125" lon="114.24185779638672" /><trkpt lat="22.21073978125" lon="114.24189179638672" /><trkpt lat="22.21083278125" lon="114.24188779638672" /><trkpt lat="22.21087978125" lon="114.24186679638672" /><trkpt lat="22.21095978125" lon="114.24175679638672" /><trkpt lat="22.2109805136828" lon="114.24183199994712" /><trkpt lat="22.21093778125" lon="114.24180379638672" /><trkpt lat="22.21087978125" lon="114.24186679638672" /><trkpt lat="22.21083278125" lon="114.24188779638672" /><trkpt lat="22.21073978125" lon="114.24189179638672" /><trkpt lat="22.21067878125" lon="114.24185779638672" /><trkpt lat="22.210618781249998" lon="114.24187279638672" /><trkpt lat="22.21053778125" lon="114.24195779638671" /><trkpt lat="22.21047278125" lon="114.24200579638672" /><trkpt lat="22.21035078125" lon="114.24207179638672" /><trkpt lat="22.21024978125" lon="114.24211679638672" /><trkpt lat="22.21009678125" lon="114.24218879638671" /><trkpt lat="22.20999578125" lon="114.24230079638671" /><trkpt lat="22.20985778125" lon="114.24235279638673" /><trkpt lat="22.20977778125" lon="114.24241679638672" /><trkpt lat="22.20972178125" lon="114.24254779638672" /><trkpt lat="22.20969778125" lon="114.24272679638672" /><trkpt lat="22.20968878125" lon="114.24296979638672" /><trkpt lat="22.20968078125" lon="114.24308679638672" /><trkpt lat="22.20963378125" lon="114.24319779638672" /><trkpt lat="22.20962478125" lon="114.24326779638672" /><trkpt lat="22.20960078125" lon="114.24334979638672" /><trkpt lat="22.20957078125" lon="114.24347379638672" /><trkpt lat="22.20960778125" lon="114.24357079638672" /><trkpt lat="22.20955378125" lon="114.24361579638672" /><trkpt lat="22.20945378125" lon="114.24365779638671" /><trkpt lat="22.20936778125" lon="114.24366979638671" /><trkpt lat="22.20925578125" lon="114.24371379638671" /><trkpt lat="22.20919178125" lon="114.24378179638671" /><trkpt lat="22.20915378125" lon="114.24379879638671" /><trkpt lat="22.20908178125" lon="114.24387179638671" /><trkpt lat="22.20899378125" lon="114.24406879638671" /><trkpt lat="22.20897078125" lon="114.24422379638672" /><trkpt lat="22.20893878125" lon="114.24437579638672" /><trkpt lat="22.20895178125" lon="114.24451379638671" /><trkpt lat="22.20897578125" lon="114.24456279638672" /><trkpt lat="22.20887378125" lon="114.24461779638672" /><trkpt lat="22.20881078125" lon="114.24464479638672" /><trkpt lat="22.20874878125" lon="114.24468279638671" /><trkpt lat="22.20867278125" lon="114.24471379638672" /><trkpt lat="22.20856978125" lon="114.24478479638672" /><trkpt lat="22.20863878125" lon="114.24491779638672" /><trkpt lat="22.20868678125" lon="114.24503079638671" /><trkpt lat="22.20870678125" lon="114.24508279638673" /><trkpt lat="22.20872178125" lon="114.24520479638672" /><trkpt lat="22.20872678125" lon="114.24541579638672" /><trkpt lat="22.20874278125" lon="114.24560479638671" /><trkpt lat="22.20879178125" lon="114.24579779638673" /><trkpt lat="22.20881178125" lon="114.24587979638672" /><trkpt lat="22.20874178125" lon="114.24591979638672" /><trkpt lat="22.20869778125" lon="114.24594279638671" /><trkpt lat="22.20867478125" lon="114.24599979638671" /><trkpt lat="22.20869778125" lon="114.24624379638672" /><trkpt lat="22.20876878125" lon="114.24637079638671" /><trkpt lat="22.20879878125" lon="114.24631179638672" /><trkpt lat="22.20879978125" lon="114.24624379638672" /><trkpt lat="22.20882678125" lon="114.24617679638672" /><trkpt lat="22.20884378125" lon="114.24609079638672" /><trkpt lat="22.20883978125" lon="114.24603779638672" /><trkpt lat="22.20883378125" lon="114.24597079638671" /><trkpt lat="22.20881178125" lon="114.24587979638672" /><trkpt lat="22.20879178125" lon="114.24579779638673" /><trkpt lat="22.20874278125" lon="114.24560479638671" /><trkpt lat="22.20872678125" lon="114.24541579638672" /><trkpt lat="22.20872178125" lon="114.24520479638672" /><trkpt lat="22.20870678125" lon="114.24508279638673" /><trkpt lat="22.20868678125" lon="114.24503079638671" /><trkpt lat="22.20863878125" lon="114.24491779638672" /><trkpt lat="22.20856978125" lon="114.24478479638672" /><trkpt lat="22.20849578125" lon="114.24483179638672" /><trkpt lat="22.20842678125" lon="114.24489779638672" /><trkpt lat="22.20834778125" lon="114.24498779638672" /><trkpt lat="22.20825478125" lon="114.24514279638672" /><trkpt lat="22.20819678125" lon="114.24528379638672" /><trkpt lat="22.20819978125" lon="114.24560879638672" /><trkpt lat="22.20816878125" lon="114.24586279638672" /><trkpt lat="22.20812078125" lon="114.24596679638672" /><trkpt lat="22.20806478125" lon="114.24604979638671" /><trkpt lat="22.20793378125" lon="114.24622379638672" /><trkpt lat="22.20793478125" lon="114.24638779638671" /><trkpt lat="22.20798678125" lon="114.24659979638672" /><trkpt lat="22.20809078125" lon="114.24677079638671" /><trkpt lat="22.20862578125" lon="114.24745379638672" /><trkpt lat="22.20879478125" lon="114.24764379638673" /><trkpt lat="22.20891778125" lon="114.24770679638672" /><trkpt lat="22.20919678125" lon="114.24777679638672" /><trkpt lat="22.20936678125" lon="114.24782779638672" /><trkpt lat="22.20949178125" lon="114.24791179638672" /><trkpt lat="22.20958878125" lon="114.24812079638671" /><trkpt lat="22.20961778125" lon="114.24833779638672" /><trkpt lat="22.20958678125" lon="114.24847979638672" /><trkpt lat="22.20954178125" lon="114.24857079638672" /><trkpt lat="22.20941978125" lon="114.24874179638672" /><trkpt lat="22.20931878125" lon="114.24884479638672" /><trkpt lat="22.20916178125" lon="114.24902279638673" /><trkpt lat="22.20906378125" lon="114.24914179638672" /><trkpt lat="22.20889678125" lon="114.24938779638671" /><trkpt lat="22.20868778125" lon="114.24961279638671" /><trkpt lat="22.20861478125" lon="114.24968079638671" /><trkpt lat="22.20856078125" lon="114.24974279638671" /><trkpt lat="22.20846778125" lon="114.24986279638672" /><trkpt lat="22.20841378125" lon="114.24996779638671" /><trkpt lat="22.20835478125" lon="114.25021479638671" /><trkpt lat="22.20839678125" lon="114.25038179638672" /><trkpt lat="22.20851578125" lon="114.25061079638672" /><trkpt lat="22.20859878125" lon="114.25072379638672" /><trkpt lat="22.20863878125" lon="114.25080379638672" /><trkpt lat="22.20868778125" lon="114.25095279638671" /><trkpt lat="22.20871278125" lon="114.25112079638672" /><trkpt lat="22.20876978125" lon="114.25136579638672" /><trkpt lat="22.20875078125" lon="114.25158579638672" /><trkpt lat="22.20872278125" lon="114.25180379638672" /><trkpt lat="22.20873078125" lon="114.25194879638671" /><trkpt lat="22.20874978125" lon="114.25204179638672" /><trkpt lat="22.20881978125" lon="114.25216879638671" /><trkpt lat="22.20903578125" lon="114.25260079638672" /><trkpt lat="22.20905078125" lon="114.25279379638671" /><trkpt lat="22.20900978125" lon="114.25308479638672" /><trkpt lat="22.20900278125" lon="114.25333779638672" /><trkpt lat="22.20907378125" lon="114.25339579638671" /><trkpt lat="22.20907278125" lon="114.25345079638672" /><trkpt lat="22.20911478125" lon="114.25350379638672" /><trkpt lat="22.20919078125" lon="114.25375579638671" /><trkpt lat="22.20922278125" lon="114.25383479638671" /><trkpt lat="22.20927878125" lon="114.25399479638672" /><trkpt lat="22.20934278125" lon="114.25411979638672" /><trkpt lat="22.20943678125" lon="114.25425479638672" /><trkpt lat="22.21004178125" lon="114.25473079638672" /><trkpt lat="22.21000078125" lon="114.25500479638671" /><trkpt lat="22.20996878125" lon="114.25515179638671" /><trkpt lat="22.20995978125" lon="114.25525379638673" /><trkpt lat="22.20992878125" lon="114.25535379638671" /><trkpt lat="22.20989978125" lon="114.25540779638672" /><trkpt lat="22.20986878125" lon="114.25546379638672" /><trkpt lat="22.20978478125" lon="114.25548979638671" /><trkpt lat="22.20968878125" lon="114.25560079638672" /><trkpt lat="22.20955578125" lon="114.25573179638671" /><trkpt lat="22.20949378125" lon="114.25583279638671" /><trkpt lat="22.20948078125" lon="114.25598879638672" /><trkpt lat="22.20955178125" lon="114.25610479638672" /><trkpt lat="22.20967878125" lon="114.25621979638672" /><trkpt lat="22.20973578125" lon="114.25631579638672" /><trkpt lat="22.20978378125" lon="114.25645179638671" /><trkpt lat="22.20981578125" lon="114.25677879638671" /><trkpt lat="22.20980978125" lon="114.25696079638672" /><trkpt lat="22.20973278125" lon="114.25713579638672" /><trkpt lat="22.20958478125" lon="114.25723579638672" /><trkpt lat="22.20941178125" lon="114.25729579638671" /><trkpt lat="22.20919678125" lon="114.25732379638671" /><trkpt lat="22.20911978125" lon="114.25734879638672" /><trkpt lat="22.20894178125" lon="114.25746579638673" /><trkpt lat="22.20888678125" lon="114.25747379638672" /><trkpt lat="22.20876378125" lon="114.25749679638672" /><trkpt lat="22.20861878125" lon="114.25759079638672" /><trkpt lat="22.20846378125" lon="114.25753679638672" /><trkpt lat="22.20835278125" lon="114.25754479638672" /><trkpt lat="22.20819478125" lon="114.25763579638672" /><trkpt lat="22.20808878125" lon="114.25770279638672" /><trkpt lat="22.20791778125" lon="114.25774679638671" /><trkpt lat="22.207784781249998" lon="114.25790279638672" /><trkpt lat="22.20767678125" lon="114.25799479638673" /><trkpt lat="22.20763678125" lon="114.25806279638672" /><trkpt lat="22.20762478125" lon="114.25812079638672" /><trkpt lat="22.20766078125" lon="114.25822079638672" /><trkpt lat="22.20806878125" lon="114.25906079638672" /><trkpt lat="22.20817478125" lon="114.25920779638672" /><trkpt lat="22.20818478125" lon="114.25943579638673" /><trkpt lat="22.20819878125" lon="114.25954279638673" /><trkpt lat="22.20824378125" lon="114.25954079638672" /><trkpt lat="22.20829478125" lon="114.25951779638672" /><trkpt lat="22.20834878125" lon="114.25949679638671" /><trkpt lat="22.20837278125" lon="114.25954179638671" /><trkpt lat="22.20844078125" lon="114.25959479638672" /><trkpt lat="22.20846258780405" lon="114.2597490523421" /><trkpt lat="22.208486959104633" lon="114.25983522979175" /><trkpt lat="22.2084408212382" lon="114.25989807875203" /><trkpt lat="22.208417319166074" lon="114.25981607462603" /><trkpt lat="22.20844402101052" lon="114.25978312634703" /><trkpt lat="22.208444152079466" lon="114.25978370620538" /><trkpt lat="22.208454068453975" lon="114.25978109118262" /><trkpt lat="22.208453463200655" lon="114.25977841343843" /><trkpt lat="22.20848278125" lon="114.25973379638671" /><trkpt lat="22.20844078125" lon="114.25959479638672" /><trkpt lat="22.20839978125" lon="114.25956679638672" /><trkpt lat="22.20837278125" lon="114.25954179638671" /><trkpt lat="22.20834878125" lon="114.25949679638671" /><trkpt lat="22.20829478125" lon="114.25951779638672" /><trkpt lat="22.20824378125" lon="114.25954079638672" /><trkpt lat="22.20819878125" lon="114.25954279638673" /><trkpt lat="22.20816978125" lon="114.25970279638672" /><trkpt lat="22.20814278125" lon="114.25988579638671" /><trkpt lat="22.20812278125" lon="114.26002879638672" /><trkpt lat="22.20779142368025" lon="114.26033548068409" /><trkpt lat="22.207771500166672" lon="114.26038049615374" /><trkpt lat="22.207770871387012" lon="114.26042768292547" /><trkpt lat="22.207881461187725" lon="114.26060169550061" /><trkpt lat="22.20791641157936" lon="114.26063989627193" /><trkpt lat="22.207936449040346" lon="114.26067518620283" /><trkpt lat="22.20797951475062" lon="114.26071796640576" /><trkpt lat="22.208014099248174" lon="114.26074252592173" /><trkpt lat="22.20806834582592" lon="114.26075058353689" /><trkpt lat="22.20813843564416" lon="114.26069434969656" /><trkpt lat="22.208214347189724" lon="114.26049484962988" /><trkpt lat="22.208238245106443" lon="114.26036855207485" /><trkpt lat="22.20823758971649" lon="114.26025640204989" /><trkpt lat="22.20822899517995" lon="114.26020648464015" /><trkpt lat="22.208236988899955" lon="114.26016589066565" /><trkpt lat="22.20842378125" lon="114.26002579638671" /><trkpt lat="22.20862078125" lon="114.25982379638671" /><trkpt lat="22.20891078125" lon="114.25962379638672" /><trkpt lat="22.20886578125" lon="114.25954079638672" /><trkpt lat="22.20889078125" lon="114.25931479638672" /><trkpt lat="22.20889478125" lon="114.25929079638672" /><trkpt lat="22.20892778125" lon="114.25918679638671" /><trkpt lat="22.208993913783566" lon="114.25920197697839" /><trkpt lat="22.20899478125" lon="114.25915079638672" /><trkpt lat="22.20898278125" lon="114.25906679638672" /><trkpt lat="22.20897578125" lon="114.25904879638672" /><trkpt lat="22.20893478125" lon="114.25900279638672" /><trkpt lat="22.20891078125" lon="114.25906079638672" /><trkpt lat="22.20887578125" lon="114.25905979638672" /><trkpt lat="22.20886578125" lon="114.25901779638671" /><trkpt lat="22.20884778125" lon="114.25896979638672" /><trkpt lat="22.20882478125" lon="114.25893079638672" /><trkpt lat="22.20862378125" lon="114.25873579638672" /><trkpt lat="22.20849478125" lon="114.25858179638672" /><trkpt lat="22.20843778125" lon="114.25851479638672" /><trkpt lat="22.20840278125" lon="114.25840579638673" /><trkpt lat="22.20840278125" lon="114.25835379638671" /><trkpt lat="22.20841678125" lon="114.25830779638672" /><trkpt lat="22.20834478125" lon="114.25823579638671" /><trkpt lat="22.20827978125" lon="114.25815379638672" /><trkpt lat="22.20827078125" lon="114.25807079638672" /><trkpt lat="22.20829978125" lon="114.25792479638672" /><trkpt lat="22.20844978125" lon="114.25772479638673" /><trkpt lat="22.20861878125" lon="114.25759079638672" /><trkpt lat="22.20876378125" lon="114.25749679638672" /><trkpt lat="22.20888678125" lon="114.25747379638672" /><trkpt lat="22.20886078125" lon="114.25753879638673" /><trkpt lat="22.20883878125" lon="114.25774079638671" /><trkpt lat="22.20891878125" lon="114.25800079638672" /><trkpt lat="22.20900678125" lon="114.25795979638671" /><trkpt lat="22.20926278125" lon="114.25786479638671" /><trkpt lat="22.20936478125" lon="114.25783079638671" /><trkpt lat="22.20946978125" lon="114.25782979638672" /><trkpt lat="22.20957778125" lon="114.25785379638671" /><trkpt lat="22.20961778125" lon="114.25788479638672" /><trkpt lat="22.20963078125" lon="114.25793879638672" /><trkpt lat="22.20960578125" lon="114.25802279638671" /><trkpt lat="22.20958078125" lon="114.25803579638672" /><trkpt lat="22.20955378125" lon="114.25803979638673" /><trkpt lat="22.209510655534203" lon="114.25798399315926" /><trkpt lat="22.20954659358786" lon="114.25795811671622" /><trkpt lat="22.2095316568765" lon="114.25801093850792" /><trkpt lat="22.20955378125" lon="114.25803979638673" /><trkpt lat="22.20960578125" lon="114.25802279638671" /><trkpt lat="22.20963078125" lon="114.25793879638672" /><trkpt lat="22.20961778125" lon="114.25788479638672" /><trkpt lat="22.20957778125" lon="114.25785379638671" /><trkpt lat="22.20946978125" lon="114.25782979638672" /><trkpt lat="22.20936478125" lon="114.25783079638671" /><trkpt lat="22.20926278125" lon="114.25786479638671" /><trkpt lat="22.20900678125" lon="114.25795979638671" /><trkpt lat="22.20891878125" lon="114.25800079638672" /><trkpt lat="22.20883878125" lon="114.25774079638671" /><trkpt lat="22.20886078125" lon="114.25753879638673" /><trkpt lat="22.20888678125" lon="114.25747379638672" /><trkpt lat="22.20894178125" lon="114.25746579638673" /><trkpt lat="22.20911978125" lon="114.25734879638672" /><trkpt lat="22.20919678125" lon="114.25732379638671" /><trkpt lat="22.20941178125" lon="114.25729579638671" /><trkpt lat="22.20958478125" lon="114.25723579638672" /><trkpt lat="22.20973278125" lon="114.25713579638672" /><trkpt lat="22.20980978125" lon="114.25696079638672" /><trkpt lat="22.20981578125" lon="114.25677879638671" /><trkpt lat="22.20978378125" lon="114.25645179638671" /><trkpt lat="22.20973578125" lon="114.25631579638672" /><trkpt lat="22.20967878125" lon="114.25621979638672" /><trkpt lat="22.20955178125" lon="114.25610479638672" /><trkpt lat="22.20948078125" lon="114.25598879638672" /><trkpt lat="22.20949378125" lon="114.25583279638671" /><trkpt lat="22.20955578125" lon="114.25573179638671" /><trkpt lat="22.20968878125" lon="114.25560079638672" /><trkpt lat="22.20978478125" lon="114.25548979638671" /><trkpt lat="22.20986878125" lon="114.25546379638672" /><trkpt lat="22.20989978125" lon="114.25540779638672" /><trkpt lat="22.20992878125" lon="114.25535379638671" /><trkpt lat="22.20995978125" lon="114.25525379638673" /><trkpt lat="22.20996878125" lon="114.25515179638671" /><trkpt lat="22.21000078125" lon="114.25500479638671" /><trkpt lat="22.21004178125" lon="114.25473079638672" /><trkpt lat="22.20943678125" lon="114.25425479638672" /><trkpt lat="22.20934278125" lon="114.25411979638672" /><trkpt lat="22.20927878125" lon="114.25399479638672" /><trkpt lat="22.20922278125" lon="114.25383479638671" /><trkpt lat="22.20919078125" lon="114.25375579638671" /><trkpt lat="22.20911478125" lon="114.25350379638672" /><trkpt lat="22.20907278125" lon="114.25345079638672" /><trkpt lat="22.20907378125" lon="114.25339579638671" /><trkpt lat="22.20916678125" lon="114.25342179638672" /><trkpt lat="22.20961578125" lon="114.25277779638672" /><trkpt lat="22.20956978125" lon="114.25271879638672" /><trkpt lat="22.20956178125" lon="114.25266779638672" /><trkpt lat="22.20961711791347" lon="114.25263120278875" /><trkpt lat="22.209672226987365" lon="114.25264504252596" /><trkpt lat="22.209663996283496" lon="114.25270242513153" /><trkpt lat="22.209616809921357" lon="114.25269016082228" /><trkpt lat="22.20959312679589" lon="114.25264706788595" /><trkpt lat="22.20956178125" lon="114.25266779638672" /><trkpt lat="22.20956978125" lon="114.25271879638672" /><trkpt lat="22.20961578125" lon="114.25277779638672" /><trkpt lat="22.20916678125" lon="114.25342179638672" /><trkpt lat="22.20907378125" lon="114.25339579638671" /><trkpt lat="22.20900278125" lon="114.25333779638672" /><trkpt lat="22.20900978125" lon="114.25308479638672" /><trkpt lat="22.20905078125" lon="114.25279379638671" /><trkpt lat="22.20903578125" lon="114.25260079638672" /><trkpt lat="22.20881978125" lon="114.25216879638671" /><trkpt lat="22.20874978125" lon="114.25204179638672" /><trkpt lat="22.20873078125" lon="114.25194879638671" /><trkpt lat="22.20872278125" lon="114.25180379638672" /><trkpt lat="22.20875078125" lon="114.25158579638672" /><trkpt lat="22.20876978125" lon="114.25136579638672" /><trkpt lat="22.20871278125" lon="114.25112079638672" /><trkpt lat="22.20868778125" lon="114.25095279638671" /><trkpt lat="22.20863878125" lon="114.25080379638672" /><trkpt lat="22.20859878125" lon="114.25072379638672" /><trkpt lat="22.20851578125" lon="114.25061079638672" /><trkpt lat="22.20839678125" lon="114.25038179638672" /><trkpt lat="22.20835478125" lon="114.25021479638671" /><trkpt lat="22.20841378125" lon="114.24996779638671" /><trkpt lat="22.20846778125" lon="114.24986279638672" /><trkpt lat="22.20856078125" lon="114.24974279638671" /><trkpt lat="22.20861478125" lon="114.24968079638671" /><trkpt lat="22.20868778125" lon="114.24961279638671" /><trkpt lat="22.20889678125" lon="114.24938779638671" /><trkpt lat="22.20906378125" lon="114.24914179638672" /><trkpt lat="22.20916178125" lon="114.24902279638673" /><trkpt lat="22.20931878125" lon="114.24884479638672" /><trkpt lat="22.20941978125" lon="114.24874179638672" /><trkpt lat="22.20954178125" lon="114.24857079638672" /><trkpt lat="22.20958678125" lon="114.24847979638672" /><trkpt lat="22.20961778125" lon="114.24833779638672" /><trkpt lat="22.20958878125" lon="114.24812079638671" /><trkpt lat="22.20949178125" lon="114.24791179638672" /><trkpt lat="22.20936678125" lon="114.24782779638672" /><trkpt lat="22.20919678125" lon="114.24777679638672" /><trkpt lat="22.20891778125" lon="114.24770679638672" /><trkpt lat="22.20879478125" lon="114.24764379638673" /><trkpt lat="22.20862578125" lon="114.24745379638672" /><trkpt lat="22.20809078125" lon="114.24677079638671" /><trkpt lat="22.20798678125" lon="114.24659979638672" /><trkpt lat="22.20793478125" lon="114.24638779638671" /><trkpt lat="22.20793378125" lon="114.24622379638672" /><trkpt lat="22.20806478125" lon="114.24604979638671" /><trkpt lat="22.20812078125" lon="114.24596679638672" /><trkpt lat="22.20816878125" lon="114.24586279638672" /><trkpt lat="22.20819978125" lon="114.24560879638672" /><trkpt lat="22.20819678125" lon="114.24528379638672" /><trkpt lat="22.20825478125" lon="114.24514279638672" /><trkpt lat="22.20834778125" lon="114.24498779638672" /><trkpt lat="22.20842678125" lon="114.24489779638672" /><trkpt lat="22.20849578125" lon="114.24483179638672" /><trkpt lat="22.20856978125" lon="114.24478479638672" /><trkpt lat="22.20867278125" lon="114.24471379638672" /><trkpt lat="22.20874878125" lon="114.24468279638671" /><trkpt lat="22.20881078125" lon="114.24464479638672" /><trkpt lat="22.20887378125" lon="114.24461779638672" /><trkpt lat="22.20897578125" lon="114.24456279638672" /><trkpt lat="22.20915078125" lon="114.24446279638671" /><trkpt lat="22.20946078125" lon="114.24432479638672" /><trkpt lat="22.20963078125" lon="114.24426579638671" /><trkpt lat="22.20968278125" lon="114.24426379638672" /><trkpt lat="22.20980478125" lon="114.24429779638672" /><trkpt lat="22.21085378125" lon="114.24488179638672" /><trkpt lat="22.21096278125" lon="114.24494279638672" /><trkpt lat="22.21107378125" lon="114.24509379638671" /><trkpt lat="22.21124578125" lon="114.24517879638672" /><trkpt lat="22.21133778125" lon="114.24518479638672" /><trkpt lat="22.21155778125" lon="114.24519779638672" /><trkpt lat="22.21186978125" lon="114.24530979638672" /><trkpt lat="22.21195378125" lon="114.24531579638672" /><trkpt lat="22.21205878125" lon="114.24532379638671" /><trkpt lat="22.21229878125" lon="114.24529179638672" /><trkpt lat="22.21245478125" lon="114.24523979638671" /><trkpt lat="22.21259578125" lon="114.24519379638672" /><trkpt lat="22.21269278125" lon="114.24517979638672" /><trkpt lat="22.21277678125" lon="114.24518579638672" /><trkpt lat="22.21287378125" lon="114.24521979638672" /><trkpt lat="22.21298178125" lon="114.24525479638672" /><trkpt lat="22.21301978125" lon="114.24523379638671" /><trkpt lat="22.21315978125" lon="114.24515879638672" /><trkpt lat="22.21349078125" lon="114.24502679638672" /><trkpt lat="22.21363378125" lon="114.24499279638673" /><trkpt lat="22.21378678125" lon="114.24495679638672" /><trkpt lat="22.21405478125" lon="114.24492379638671" /><trkpt lat="22.21414378125" lon="114.24487879638671" /><trkpt lat="22.21422578125" lon="114.24480779638672" /><trkpt lat="22.21433878125" lon="114.24479279638672" /><trkpt lat="22.21452678125" lon="114.24465079638672" /><trkpt lat="22.21461578125" lon="114.24457379638672" /><trkpt lat="22.21474478125" lon="114.24453079638671" /><trkpt lat="22.21487578125" lon="114.24451579638672" /><trkpt lat="22.21498278125" lon="114.24447779638672" /><trkpt lat="22.21507778125" lon="114.24445979638672" /><trkpt lat="22.21519278125" lon="114.24445279638672" /><trkpt lat="22.21532878125" lon="114.24447779638672" /><trkpt lat="22.21541078125" lon="114.24450979638672" /><trkpt lat="22.21555778125" lon="114.24462779638672" /><trkpt lat="22.21575078125" lon="114.24478479638672" /><trkpt lat="22.21584278125" lon="114.24484879638672" /><trkpt lat="22.21593578125" lon="114.24488179638672" /><trkpt lat="22.21612978125" lon="114.24491279638671" /><trkpt lat="22.21621778125" lon="114.24491279638671" /><trkpt lat="22.21629078125" lon="114.24491379638673" /><trkpt lat="22.21646878125" lon="114.24484479638672" /><trkpt lat="22.21659178125" lon="114.24478579638672" /><trkpt lat="22.21661678125" lon="114.24475279638672" /><trkpt lat="22.21678978125" lon="114.24451879638671" /><trkpt lat="22.21688678125" lon="114.24446279638671" /><trkpt lat="22.21694178125" lon="114.24443079638672" /><trkpt lat="22.21706378125" lon="114.24438679638672" /><trkpt lat="22.21722678125" lon="114.24438079638672" /><trkpt lat="22.21746578125" lon="114.24429079638672" /><trkpt lat="22.21758078125" lon="114.24425279638672" /><trkpt lat="22.21763078125" lon="114.24424779638672" /><trkpt lat="22.21779378125" lon="114.24423079638672" /><trkpt lat="22.21796378125" lon="114.24423179638671" /><trkpt lat="22.21805478125" lon="114.24425179638672" /><trkpt lat="22.21819178125" lon="114.24429179638672" /><trkpt lat="22.21829278125" lon="114.24432679638672" /><trkpt lat="22.21846278125" lon="114.24438579638672" /><trkpt lat="22.21850978125" lon="114.24438579638672" /><trkpt lat="22.21857878125" lon="114.24438279638672" /><trkpt lat="22.21866478125" lon="114.24437579638672" /><trkpt lat="22.21871478125" lon="114.24435279638672" /><trkpt lat="22.21878178125" lon="114.24433379638671" /><trkpt lat="22.21885678125" lon="114.24425279638672" /><trkpt lat="22.21889678125" lon="114.24420779638672" /><trkpt lat="22.21896678125" lon="114.24411779638672" /><trkpt lat="22.21900078125" lon="114.24407379638672" /><trkpt lat="22.21907078125" lon="114.24404479638672" /><trkpt lat="22.21924378125" lon="114.24398679638672" /><trkpt lat="22.21934278125" lon="114.24393679638672" /><trkpt lat="22.21944278125" lon="114.24391279638672" /><trkpt lat="22.21953378125" lon="114.24386079638671" /><trkpt lat="22.21957778125" lon="114.24383779638671" /><trkpt lat="22.21966178125" lon="114.24381879638672" /><trkpt lat="22.21987878125" lon="114.24378879638672" /><trkpt lat="22.21992678125" lon="114.24377279638672" /><trkpt lat="22.22016578125" lon="114.24369179638671" /><trkpt lat="22.22044178125" lon="114.24359879638672" /><trkpt lat="22.22060078125" lon="114.24356779638671" /><trkpt lat="22.22072178125" lon="114.24358079638672" /><trkpt lat="22.22116278125" lon="114.24347879638673" /><trkpt lat="22.22141078125" lon="114.24344979638671" /><trkpt lat="22.221385553463556" lon="114.24348641736991" /></trkseg></trk></gpx>