<?xml version='1.0' encoding='UTF-8' ?><gpx version="1.1" creator="HikingTrailHK" xsi:schemaLocation="http://www.topografix.com/GPX/1/1 http://www.topografix.com/GPX/1/1/gpx.xsd" xmlns="http://www.topografix.com/GPX/1/1" xmlns:xsi="http://www.w3.org/2001/XMLSchema-instance"><metadata><name>鷓鴣山</name><desc></desc></metadata><trk><trkseg><trkpt lat="22.321376786122094" lon="114.26584670804984" /><trkpt lat="22.32142178125" lon="114.26584779638672" /><trkpt lat="22.32141678125" lon="114.26577479638672" /><trkpt lat="22.32122878125" lon="114.26563679638672" /><trkpt lat="22.32091778125" lon="114.26548679638672" /><trkpt lat="22.32056678125" lon="114.26526779638672" /><trkpt lat="22.32036778125" lon="114.26517779638672" /><trkpt lat="22.32008478125" lon="114.26467579638671" /><trkpt lat="22.32014778125" lon="114.26439279638672" /><trkpt lat="22.32021178125" lon="114.26435479638671" /><trkpt lat="22.32024978125" lon="114.26425879638671" /><trkpt lat="22.32026678125" lon="114.26407379638673" /><trkpt lat="22.32028778125" lon="114.26401579638672" /><trkpt lat="22.32032478125" lon="114.26402779638671" /><trkpt lat="22.32041778125" lon="114.26407479638672" /><trkpt lat="22.32046878125" lon="114.26411679638672" /><trkpt lat="22.32055878125" lon="114.26417379638671" /><trkpt lat="22.32060878125" lon="114.26421779638672" /><trkpt lat="22.32066178125" lon="114.26425179638672" /><trkpt lat="22.32072978125" lon="114.26436779638672" /><trkpt lat="22.32077878125" lon="114.26442479638672" /><trkpt lat="22.32082078125" lon="114.26436279638672" /><trkpt lat="22.32084978125" lon="114.26431379638672" /><trkpt lat="22.32088778125" lon="114.26426279638672" /><trkpt lat="22.32086478125" lon="114.26420179638671" /><trkpt lat="22.32086578125" lon="114.26408079638672" /><trkpt lat="22.32097378125" lon="114.26412179638672" /><trkpt lat="22.32104878125" lon="114.26413979638671" /><trkpt lat="22.32120978125" lon="114.26414579638671" /><trkpt lat="22.32138378125" lon="114.26413379638672" /><trkpt lat="22.32146078125" lon="114.26412679638672" /><trkpt lat="22.32158778125" lon="114.26413379638672" /><trkpt lat="22.32165278125" lon="114.26414579638671" /><trkpt lat="22.32171678125" lon="114.26415679638671" /><trkpt lat="22.32177778125" lon="114.26417079638672" /><trkpt lat="22.32184478125" lon="114.26417679638672" /><trkpt lat="22.32190978125" lon="114.26416879638671" /><trkpt lat="22.32205078125" lon="114.26417479638671" /><trkpt lat="22.32215878125" lon="114.26414079638671" /><trkpt lat="22.32230778125" lon="114.26408879638672" /><trkpt lat="22.32241078125" lon="114.26403479638672" /><trkpt lat="22.32247278125" lon="114.26399279638672" /><trkpt lat="22.32257578125" lon="114.26397479638672" /><trkpt lat="22.32264178125" lon="114.26393779638671" /><trkpt lat="22.32280678125" lon="114.26390179638672" /><trkpt lat="22.32285078125" lon="114.26389479638672" /><trkpt lat="22.32295078125" lon="114.26385679638672" /><trkpt lat="22.32307578125" lon="114.26379179638671" /><trkpt lat="22.32315578125" lon="114.26375179638671" /><trkpt lat="22.32334078125" lon="114.26366779638671" /><trkpt lat="22.32347778125" lon="114.26365779638672" /><trkpt lat="22.32350678125" lon="114.26364479638671" /><trkpt lat="22.32365778125" lon="114.26354379638671" /><trkpt lat="22.32369678125" lon="114.26353879638671" /><trkpt lat="22.32376178125" lon="114.26353679638672" /><trkpt lat="22.32383478125" lon="114.26351679638672" /><trkpt lat="22.32398378125" lon="114.26351979638672" /><trkpt lat="22.32423578125" lon="114.26347479638672" /><trkpt lat="22.32453678125" lon="114.26341279638672" /><trkpt lat="22.32474378125" lon="114.26340279638671" /><trkpt lat="22.32502678125" lon="114.26337579638673" /><trkpt lat="22.32521278125" lon="114.26334779638673" /><trkpt lat="22.32553578125" lon="114.26344179638672" /><trkpt lat="22.32562578125" lon="114.26347779638672" /><trkpt lat="22.32572878125" lon="114.26352079638671" /><trkpt lat="22.32612078125" lon="114.26353379638672" /><trkpt lat="22.32634178125" lon="114.26361579638672" /><trkpt lat="22.32641878125" lon="114.26363279638672" /><trkpt lat="22.32653678125" lon="114.26366079638672" /><trkpt lat="22.32673378125" lon="114.26359379638671" /><trkpt lat="22.32689778125" lon="114.26363279638672" /><trkpt lat="22.32708678125" lon="114.26360579638671" /><trkpt lat="22.32718678125" lon="114.26361179638671" /><trkpt lat="22.32731278125" lon="114.26358479638672" /><trkpt lat="22.32741078125" lon="114.26354779638672" /><trkpt lat="22.32758578125" lon="114.26348879638672" /><trkpt lat="22.32764978125" lon="114.26345679638672" /><trkpt lat="22.32767778125" lon="114.26343379638672" /><trkpt lat="22.32771178125" lon="114.26338379638672" /><trkpt lat="22.32776878125" lon="114.26334179638671" /><trkpt lat="22.32783678125" lon="114.26330979638672" /><trkpt lat="22.32800878125" lon="114.26318579638672" /><trkpt lat="22.32804478125" lon="114.26312279638672" /><trkpt lat="22.32819378125" lon="114.26306479638671" /><trkpt lat="22.32825978125" lon="114.26301779638672" /><trkpt lat="22.32831878125" lon="114.26299879638673" /><trkpt lat="22.32835978125" lon="114.26298479638672" /><trkpt lat="22.32838778125" lon="114.26296679638672" /><trkpt lat="22.32841378125" lon="114.26294279638672" /><trkpt lat="22.32847078125" lon="114.26292179638672" /><trkpt lat="22.32850878125" lon="114.26290079638672" /><trkpt lat="22.32855978125" lon="114.26288779638672" /><trkpt lat="22.32859878125" lon="114.26286479638672" /><trkpt lat="22.32865478125" lon="114.26284879638672" /><trkpt lat="22.32869278125" lon="114.26284179638672" /><trkpt lat="22.32877778125" lon="114.26280679638671" /><trkpt lat="22.32889778125" lon="114.26276679638671" /><trkpt lat="22.329040436139774" lon="114.26258451405987" /><trkpt lat="22.32907278125" lon="114.26257679638672" /><trkpt lat="22.32918478125" lon="114.26247279638672" /><trkpt lat="22.32932478125" lon="114.26240779638673" /><trkpt lat="22.32939678125" lon="114.26241079638672" /><trkpt lat="22.32950878125" lon="114.26236679638671" /><trkpt lat="22.32961978125" lon="114.26234679638672" /><trkpt lat="22.32965378125" lon="114.26237079638672" /><trkpt lat="22.32969578125" lon="114.26239779638672" /><trkpt lat="22.32981378125" lon="114.26235379638672" /><trkpt lat="22.32987278125" lon="114.26233979638671" /><trkpt lat="22.32996678125" lon="114.26229879638672" /><trkpt lat="22.33005378125" lon="114.26231479638672" /><trkpt lat="22.33014978125" lon="114.26233479638672" /><trkpt lat="22.33034378125" lon="114.26236179638671" /><trkpt lat="22.33043778125" lon="114.26216679638672" /><trkpt lat="22.33043478125" lon="114.26213179638673" /><trkpt lat="22.33040978125" lon="114.26203879638672" /><trkpt lat="22.33038478125" lon="114.26190679638673" /><trkpt lat="22.33035778125" lon="114.26180479638671" /><trkpt lat="22.33031378125" lon="114.26159779638672" /><trkpt lat="22.33027878125" lon="114.26154079638673" /><trkpt lat="22.33021778125" lon="114.26147079638672" /><trkpt lat="22.33010478125" lon="114.26139579638672" /><trkpt lat="22.33001478125" lon="114.26136879638672" /><trkpt lat="22.32996478125" lon="114.26133479638672" /><trkpt lat="22.32992378125" lon="114.26119979638672" /><trkpt lat="22.32988278125" lon="114.26112579638672" /><trkpt lat="22.32987478125" lon="114.26103379638671" /><trkpt lat="22.32984678125" lon="114.26094179638672" /><trkpt lat="22.32982878125" lon="114.26076179638672" /><trkpt lat="22.32989978125" lon="114.26072179638672" /><trkpt lat="22.32992278125" lon="114.26047879638672" /><trkpt lat="22.32991778125" lon="114.26040579638672" /><trkpt lat="22.32998078125" lon="114.26039179638671" /><trkpt lat="22.33001978125" lon="114.26033779638672" /><trkpt lat="22.32999478125" lon="114.26026479638672" /><trkpt lat="22.33002878125" lon="114.26015879638672" /><trkpt lat="22.33009178125" lon="114.26009979638673" /><trkpt lat="22.33021378125" lon="114.26008079638672" /><trkpt lat="22.33024778125" lon="114.26003179638671" /><trkpt lat="22.33029578125" lon="114.25993979638672" /><trkpt lat="22.33032978125" lon="114.25980879638672" /><trkpt lat="22.33041778125" lon="114.25968279638671" /><trkpt lat="22.33048178125" lon="114.25959279638671" /><trkpt lat="22.33055078125" lon="114.25948679638672" /><trkpt lat="22.33058778125" lon="114.25939979638672" /><trkpt lat="22.33064778125" lon="114.25930779638672" /><trkpt lat="22.33071278125" lon="114.25914679638672" /><trkpt lat="22.33070778125" lon="114.25898779638672" /><trkpt lat="22.33060978125" lon="114.25890979638672" /><trkpt lat="22.33050078125" lon="114.25875179638672" /><trkpt lat="22.33035578125" lon="114.25854079638673" /><trkpt lat="22.33020378125" lon="114.25835279638672" /><trkpt lat="22.33005778125" lon="114.25824079638672" /><trkpt lat="22.32995378125" lon="114.25805779638672" /><trkpt lat="22.32983478125" lon="114.25794579638672" /><trkpt lat="22.32972078125" lon="114.25790279638672" /><trkpt lat="22.32961178125" lon="114.25784879638672" /><trkpt lat="22.32942078125" lon="114.25773979638672" /><trkpt lat="22.32926878125" lon="114.25759179638672" /><trkpt lat="22.32911978125" lon="114.25749979638672" /><trkpt lat="22.32895178125" lon="114.25738179638672" /><trkpt lat="22.32876578125" lon="114.25727879638671" /><trkpt lat="22.32869478125" lon="114.25714779638672" /><trkpt lat="22.32864278125" lon="114.25704979638672" /><trkpt lat="22.32871278125" lon="114.25684979638672" /><trkpt lat="22.32872678125" lon="114.25671779638672" /><trkpt lat="22.32878678125" lon="114.25667579638672" /><trkpt lat="22.32890378125" lon="114.25663579638672" /><trkpt lat="22.32897778125" lon="114.25663879638672" /><trkpt lat="22.32902378125" lon="114.25664179638672" /><trkpt lat="22.32910678125" lon="114.25667679638671" /><trkpt lat="22.32918078125" lon="114.25669479638672" /><trkpt lat="22.32934378125" lon="114.25668179638672" /><trkpt lat="22.32951278125" lon="114.25669379638671" /><trkpt lat="22.32967178125" lon="114.25669079638672" /><trkpt lat="22.32980878125" lon="114.25668779638671" /><trkpt lat="22.32990778125" lon="114.25677579638672" /><trkpt lat="22.33010878125" lon="114.25688079638672" /><trkpt lat="22.33019578125" lon="114.25690779638671" /><trkpt lat="22.33028478125" lon="114.25693079638671" /><trkpt lat="22.33040678125" lon="114.25693879638672" /><trkpt lat="22.33056178125" lon="114.25690679638672" /><trkpt lat="22.33062978125" lon="114.25686979638672" /><trkpt lat="22.33076578125" lon="114.25683879638672" /><trkpt lat="22.33087478125" lon="114.25685679638671" /><trkpt lat="22.33102378125" lon="114.25681779638671" /><trkpt lat="22.33108678125" lon="114.25678579638672" /><trkpt lat="22.33121478125" lon="114.25667579638672" /><trkpt lat="22.33129378125" lon="114.25661379638672" /><trkpt lat="22.33140678125" lon="114.25655979638672" /><trkpt lat="22.33157778125" lon="114.25656979638671" /><trkpt lat="22.33169978125" lon="114.25662679638671" /><trkpt lat="22.33180778125" lon="114.25664779638672" /><trkpt lat="22.33194278125" lon="114.25662179638672" /><trkpt lat="22.332193781249998" lon="114.25656379638671" /><trkpt lat="22.33227578125" lon="114.25653179638672" /><trkpt lat="22.33245378125" lon="114.25643079638672" /><trkpt lat="22.33255878125" lon="114.25637079638672" /><trkpt lat="22.33272678125" lon="114.25621679638672" /><trkpt lat="22.33282978125" lon="114.25624279638672" /><trkpt lat="22.33299978125" lon="114.25629779638672" /><trkpt lat="22.33306678125" lon="114.25631779638672" /><trkpt lat="22.33312978125" lon="114.25634079638672" /><trkpt lat="22.33322378125" lon="114.25626179638672" /><trkpt lat="22.33324078125" lon="114.25612679638672" /><trkpt lat="22.33337578125" lon="114.25597879638671" /><trkpt lat="22.33347378125" lon="114.25580179638672" /><trkpt lat="22.33354478125" lon="114.25574479638672" /><trkpt lat="22.33388678125" lon="114.25551779638671" /><trkpt lat="22.33418178125" lon="114.25532579638671" /><trkpt lat="22.33460478125" lon="114.25511279638671" /><trkpt lat="22.33513478125" lon="114.25508579638672" /><trkpt lat="22.33520478125" lon="114.25507379638672" /><trkpt lat="22.33527578125" lon="114.25507879638671" /><trkpt lat="22.33549978125" lon="114.25502779638671" /><trkpt lat="22.33576878125" lon="114.25484379638672" /><trkpt lat="22.33593578125" lon="114.25478479638672" /><trkpt lat="22.33607778125" lon="114.25462679638672" /><trkpt lat="22.33636578125" lon="114.25435079638672" /><trkpt lat="22.33652678125" lon="114.25426679638672" /><trkpt lat="22.33662478125" lon="114.25427679638672" /><trkpt lat="22.33667278125" lon="114.25411479638672" /><trkpt lat="22.33677678125" lon="114.25387479638673" /><trkpt lat="22.33683978125" lon="114.25376579638672" /><trkpt lat="22.33705478125" lon="114.25353279638672" /><trkpt lat="22.33713278125" lon="114.25341679638672" /><trkpt lat="22.33727278125" lon="114.25326179638672" /><trkpt lat="22.33738678125" lon="114.25318279638672" /><trkpt lat="22.33767078125" lon="114.25301979638672" /><trkpt lat="22.33783078125" lon="114.25292079638672" /><trkpt lat="22.33799578125" lon="114.25273279638672" /><trkpt lat="22.33804578125" lon="114.25270579638672" /><trkpt lat="22.33813878125" lon="114.25268379638672" /><trkpt lat="22.33828078125" lon="114.25269179638671" /><trkpt lat="22.33839278125" lon="114.25251379638672" /><trkpt lat="22.33850278125" lon="114.25236779638672" /><trkpt lat="22.33857478125" lon="114.25232779638672" /><trkpt lat="22.33862678125" lon="114.25230379638671" /><trkpt lat="22.33864178125" lon="114.25229579638672" /><trkpt lat="22.33871878125" lon="114.25220279638671" /><trkpt lat="22.33877978125" lon="114.25221479638672" /><trkpt lat="22.33891978125" lon="114.25204379638672" /><trkpt lat="22.33898778125" lon="114.25197079638671" /><trkpt lat="22.33903778125" lon="114.25190379638671" /><trkpt lat="22.33917778125" lon="114.25183479638672" /><trkpt lat="22.33920978125" lon="114.25163479638672" /><trkpt lat="22.33919278125" lon="114.25152279638672" /><trkpt lat="22.33919478125" lon="114.25142479638671" /><trkpt lat="22.33915378125" lon="114.25126979638672" /><trkpt lat="22.33913378125" lon="114.25114979638671" /><trkpt lat="22.33906578125" lon="114.25105479638673" /><trkpt lat="22.33901778125" lon="114.25098879638672" /><trkpt lat="22.33893678125" lon="114.25093879638672" /><trkpt lat="22.33886178125" lon="114.25090679638672" /><trkpt lat="22.33871478125" lon="114.25073579638672" /><trkpt lat="22.33868578125" lon="114.25064579638672" /><trkpt lat="22.33855778125" lon="114.25054479638672" /><trkpt lat="22.33845178125" lon="114.25042279638672" /><trkpt lat="22.33838578125" lon="114.25036979638672" /><trkpt lat="22.33831178125" lon="114.25035279638672" /><trkpt lat="22.33824278125" lon="114.25029779638672" /><trkpt lat="22.33812478125" lon="114.25033179638672" /><trkpt lat="22.33797878125" lon="114.25023279638671" /><trkpt lat="22.33791378125" lon="114.25014679638672" /><trkpt lat="22.33786878125" lon="114.25009379638672" /><trkpt lat="22.33777978125" lon="114.24996779638671" /><trkpt lat="22.33766878125" lon="114.24986579638671" /><trkpt lat="22.33749778125" lon="114.24980279638672" /><trkpt lat="22.33739478125" lon="114.24963079638673" /><trkpt lat="22.33727378125" lon="114.24957679638672" /><trkpt lat="22.33716278125" lon="114.24947079638672" /><trkpt lat="22.33708478125" lon="114.24944779638672" /><trkpt lat="22.33692978125" lon="114.24921479638672" /><trkpt lat="22.33686278125" lon="114.24917079638672" /><trkpt lat="22.33681978125" lon="114.24917179638672" /><trkpt lat="22.33654878125" lon="114.24918879638672" /><trkpt lat="22.33649578125" lon="114.24874979638672" /><trkpt lat="22.33654278125" lon="114.24865879638672" /><trkpt lat="22.33658878125" lon="114.24861379638672" /><trkpt lat="22.33664478125" lon="114.24857479638672" /><trkpt lat="22.33670678125" lon="114.24851479638671" /><trkpt lat="22.33742478125" lon="114.24841179638672" /><trkpt lat="22.33753878125" lon="114.24838879638672" /><trkpt lat="22.33789978125" lon="114.24831479638672" /><trkpt lat="22.33840078125" lon="114.24820379638672" /><trkpt lat="22.33866278125" lon="114.24813879638671" /><trkpt lat="22.33885478125" lon="114.24806279638672" /><trkpt lat="22.33950178125" lon="114.24767179638673" /><trkpt lat="22.33983778125" lon="114.24746379638673" /><trkpt lat="22.33993978125" lon="114.24739879638672" /><trkpt lat="22.33990478125" lon="114.24735979638672" /><trkpt lat="22.33986378125" lon="114.24729679638672" /><trkpt lat="22.33985078125" lon="114.24720979638671" /><trkpt lat="22.33985478125" lon="114.24719079638672" /><trkpt lat="22.33986278125" lon="114.24717179638672" /><trkpt lat="22.33988878125" lon="114.24714379638672" /><trkpt lat="22.33990778125" lon="114.24711879638672" /><trkpt lat="22.33992078125" lon="114.24708979638672" /><trkpt lat="22.33992678125" lon="114.24705779638671" /><trkpt lat="22.33992478125" lon="114.24702579638672" /><trkpt lat="22.33991478125" lon="114.24699479638672" /><trkpt lat="22.33988678125" lon="114.24690779638672" /><trkpt lat="22.339389557719628" lon="114.24630340423448" /></trkseg></trk></gpx>