<?xml version='1.0' encoding='UTF-8' ?><gpx version="1.1" creator="HikingTrailHK" xsi:schemaLocation="http://www.topografix.com/GPX/1/1 http://www.topografix.com/GPX/1/1/gpx.xsd" xmlns="http://www.topografix.com/GPX/1/1" xmlns:xsi="http://www.w3.org/2001/XMLSchema-instance"><metadata><name>鹽田梓 @ 2023-11-4</name><desc></desc></metadata><trk><trkseg><trkpt lat="22.377293266630762" lon="114.30055078858011" /><trkpt lat="22.37746278125" lon="114.30096879638671" /><trkpt lat="22.37728478125" lon="114.30119479638672" /><trkpt lat="22.37703078125" lon="114.30143479638672" /><trkpt lat="22.37701978125" lon="114.30156679638672" /><trkpt lat="22.37712978125" lon="114.30178379638672" /><trkpt lat="22.37719478125" lon="114.30187979638671" /><trkpt lat="22.37706778125" lon="114.30192979638672" /><trkpt lat="22.37697678125" lon="114.30208179638672" /><trkpt lat="22.37676678125" lon="114.30215579638671" /><trkpt lat="22.37667578125" lon="114.30230579638672" /><trkpt lat="22.37664978125" lon="114.30244279638671" /><trkpt lat="22.37659662260714" lon="114.3024363194491" /><trkpt lat="22.37661538824264" lon="114.30237523614414" /><trkpt lat="22.37666591095723" lon="114.30235401534782" /><trkpt lat="22.37676491556839" lon="114.30215273098128" /><trkpt lat="22.37662678125" lon="114.30192579638671" /><trkpt lat="22.37651878125" lon="114.30184279638672" /><trkpt lat="22.37634078125" lon="114.30181879638671" /><trkpt lat="22.37606378125" lon="114.30153879638672" /><trkpt lat="22.37587578125" lon="114.30125479638671" /><trkpt lat="22.37581078125" lon="114.30091679638672" /><trkpt lat="22.37586078125" lon="114.30071279638672" /><trkpt lat="22.37593678125" lon="114.30047579638672" /><trkpt lat="22.375885398470714" lon="114.30050665925086" /><trkpt lat="22.375857474991253" lon="114.30072628539001" /><trkpt lat="22.37581078125" lon="114.30091679638672" /><trkpt lat="22.37587578125" lon="114.30125479638671" /><trkpt lat="22.37606378125" lon="114.30153879638672" /><trkpt lat="22.37634078125" lon="114.30181879638671" /><trkpt lat="22.376278491772133" lon="114.30185057662048" /><trkpt lat="22.37599778125" lon="114.30199379638672" /><trkpt lat="22.37572078125" lon="114.30230079638672" /><trkpt lat="22.37568578125" lon="114.30238179638671" /><trkpt lat="22.37563678125" lon="114.30267079638672" /><trkpt lat="22.37557678125" lon="114.30285379638671" /><trkpt lat="22.37555178125" lon="114.30307879638671" /><trkpt lat="22.37557678125" lon="114.30323979638672" /><trkpt lat="22.37566078125" lon="114.30345979638672" /><trkpt lat="22.37545778125" lon="114.30347579638672" /><trkpt lat="22.37528878125" lon="114.30350279638672" /><trkpt lat="22.37502678125" lon="114.30350279638672" /><trkpt lat="22.37478878125" lon="114.30350179638671" /><trkpt lat="22.37449078125" lon="114.30359379638672" /><trkpt lat="22.37410878125" lon="114.30380879638672" /><trkpt lat="22.37410878125" lon="114.30391079638672" /><trkpt lat="22.37402878125" lon="114.30396379638672" /><trkpt lat="22.37397078125" lon="114.30405879638671" /><trkpt lat="22.37387978125" lon="114.30413379638672" /><trkpt lat="22.37368578125" lon="114.30421979638672" /><trkpt lat="22.373313186242108" lon="114.30455893584121" /><trkpt lat="22.37336790143665" lon="114.30438123271017" /><trkpt lat="22.373422602239515" lon="114.30444016165256" /><trkpt lat="22.37342478125" lon="114.30443779638672" /><trkpt lat="22.37368578125" lon="114.30421979638672" /><trkpt lat="22.37387978125" lon="114.30413379638672" /><trkpt lat="22.37397078125" lon="114.30405879638671" /><trkpt lat="22.37402878125" lon="114.30396379638672" /><trkpt lat="22.37410878125" lon="114.30391079638672" /><trkpt lat="22.37410878125" lon="114.30380879638672" /><trkpt lat="22.37449078125" lon="114.30359379638672" /><trkpt lat="22.37457978125" lon="114.30371779638672" /><trkpt lat="22.37473378125" lon="114.30389979638672" /><trkpt lat="22.37498178125" lon="114.30416779638672" /><trkpt lat="22.37501478125" lon="114.30428279638672" /><trkpt lat="22.37509378125" lon="114.30433579638672" /><trkpt lat="22.37506728387976" lon="114.30423026624584" /><trkpt lat="22.3750615644541" lon="114.30422645274996" /><trkpt lat="22.375062607014684" lon="114.30422421892388" /><trkpt lat="22.375061102197435" lon="114.30421735810216" /><trkpt lat="22.3750568012872" lon="114.30421302612046" /><trkpt lat="22.37505642506727" lon="114.30421131084762" /><trkpt lat="22.375052500376825" lon="114.30420869413877" /><trkpt lat="22.375050648031447" lon="114.30420024887889" /><trkpt lat="22.375045484969363" lon="114.30419962324845" /><trkpt lat="22.37504631869386" lon="114.30419578597827" /><trkpt lat="22.375045566277365" lon="114.30419235556741" /><trkpt lat="22.375040055422147" lon="114.3041901455831" /><trkpt lat="22.375040889146675" lon="114.30418630831286" /><trkpt lat="22.375031641548745" lon="114.30415057902034" /><trkpt lat="22.37512078125" lon="114.30411979638671" /><trkpt lat="22.37528378125" lon="114.30414679638672" /><trkpt lat="22.37538878125" lon="114.30425879638672" /><trkpt lat="22.37535878125" lon="114.30435579638672" /><trkpt lat="22.37535378125" lon="114.30451079638672" /><trkpt lat="22.37543278125" lon="114.30454879638671" /><trkpt lat="22.37555178125" lon="114.30462379638672" /><trkpt lat="22.37564678125" lon="114.30469379638672" /><trkpt lat="22.37583478125" lon="114.30508379638673" /><trkpt lat="22.37592078125" lon="114.30492279638672" /><trkpt lat="22.37608778125" lon="114.30491479638673" /><trkpt lat="22.37629378125" lon="114.30490379638672" /><trkpt lat="22.37656778125" lon="114.30477079638672" /><trkpt lat="22.37674778125" lon="114.30454379638672" /><trkpt lat="22.37700578125" lon="114.30432879638671" /><trkpt lat="22.37712478125" lon="114.30426479638672" /><trkpt lat="22.37724878125" lon="114.30429079638672" /><trkpt lat="22.37738278125" lon="114.30447879638672" /><trkpt lat="22.37763078125" lon="114.30473079638672" /><trkpt lat="22.37787878125" lon="114.30489779638671" /><trkpt lat="22.37813678125" lon="114.30503179638671" /><trkpt lat="22.37831978125" lon="114.30509079638672" /><trkpt lat="22.37868178125" lon="114.30510679638672" /><trkpt lat="22.37911878125" lon="114.30506379638672" /><trkpt lat="22.37936178125" lon="114.30503679638672" /><trkpt lat="22.37949078125" lon="114.30507979638672" /><trkpt lat="22.37955478125" lon="114.30500479638673" /><trkpt lat="22.37936678125" lon="114.30484879638672" /><trkpt lat="22.37904878125" lon="114.30456979638672" /><trkpt lat="22.37887578125" lon="114.30433379638671" /><trkpt lat="22.37880578125" lon="114.30432879638671" /><trkpt lat="22.37860278125" lon="114.30425379638672" /><trkpt lat="22.37846378125" lon="114.30414079638672" /><trkpt lat="22.37843378125" lon="114.30390479638672" /><trkpt lat="22.37841878125" lon="114.30363679638671" /><trkpt lat="22.37844878125" lon="114.30345479638672" /><trkpt lat="22.37840978125" lon="114.30325579638672" /><trkpt lat="22.37831478125" lon="114.30315379638672" /><trkpt lat="22.37829078125" lon="114.30293379638672" /><trkpt lat="22.37826578125" lon="114.30284779638671" /><trkpt lat="22.378162393093362" lon="114.30268574621977" /><trkpt lat="22.37810882517806" lon="114.30257720121352" /><trkpt lat="22.377604976011497" lon="114.30231586635136" /><trkpt lat="22.377516392522935" lon="114.30230442779566" /><trkpt lat="22.37753578125" lon="114.30235879638671" /><trkpt lat="22.37750478125" lon="114.30239479638672" /><trkpt lat="22.37749378125" lon="114.30249779638672" /><trkpt lat="22.37742278125" lon="114.30254279638672" /><trkpt lat="22.37740778125" lon="114.30284479638672" /><trkpt lat="22.37732478125" lon="114.30303179638672" /><trkpt lat="22.37722178125" lon="114.30317479638671" /><trkpt lat="22.37722078125" lon="114.30338279638671" /><trkpt lat="22.37717078125" lon="114.30345879638672" /><trkpt lat="22.37707778125" lon="114.30351879638673" /><trkpt lat="22.37703778125" lon="114.30354379638672" /><trkpt lat="22.37680578125" lon="114.30369479638672" /><trkpt lat="22.37668778125" lon="114.30393579638672" /><trkpt lat="22.37658078125" lon="114.30454779638671" /><trkpt lat="22.376583771410267" lon="114.30463050070512" /><trkpt lat="22.376621196377315" lon="114.30450604776928" /><trkpt lat="22.376674681890336" lon="114.30444484927779" /><trkpt lat="22.37663150801397" lon="114.30425765985837" /><trkpt lat="22.37668778125" lon="114.30393579638672" /><trkpt lat="22.37680578125" lon="114.30369479638672" /><trkpt lat="22.37703778125" lon="114.30354379638672" /><trkpt lat="22.37707778125" lon="114.30351879638673" /><trkpt lat="22.37717078125" lon="114.30345879638672" /><trkpt lat="22.37722078125" lon="114.30338279638671" /><trkpt lat="22.37722178125" lon="114.30317479638671" /><trkpt lat="22.37732478125" lon="114.30303179638672" /><trkpt lat="22.37740778125" lon="114.30284479638672" /><trkpt lat="22.37742278125" lon="114.30254279638672" /><trkpt lat="22.37749378125" lon="114.30249779638672" /><trkpt lat="22.37750478125" lon="114.30239479638672" /><trkpt lat="22.37753578125" lon="114.30235879638671" /><trkpt lat="22.37743878125" lon="114.30208679638672" /><trkpt lat="22.37729578125" lon="114.30198479638672" /><trkpt lat="22.37719478125" lon="114.30187979638671" /><trkpt lat="22.37739478125" lon="114.30173079638672" /><trkpt lat="22.377547253725112" lon="114.30179269137034" /><trkpt lat="22.37756976774223" lon="114.30186969672343" /><trkpt lat="22.377498156385528" lon="114.30183481475638" /><trkpt lat="22.377431180414106" lon="114.30177355648203" /><trkpt lat="22.377430035332196" lon="114.30176950880059" /><trkpt lat="22.377425764575023" lon="114.30176783089803" /><trkpt lat="22.37742118749513" lon="114.30176454262784" /><trkpt lat="22.37742003008006" lon="114.30176049812263" /><trkpt lat="22.377415770361367" lon="114.30175882751462" /><trkpt lat="22.377412635451662" lon="114.30175673729633" /><trkpt lat="22.37739478125" lon="114.30173079638672" /><trkpt lat="22.37719478125" lon="114.30187979638671" /><trkpt lat="22.37712978125" lon="114.30178379638672" /><trkpt lat="22.37701978125" lon="114.30156679638672" /><trkpt lat="22.37703078125" lon="114.30143479638672" /><trkpt lat="22.37728478125" lon="114.30119479638672" /><trkpt lat="22.37737056487356" lon="114.30108588004057" /></trkseg></trk></gpx>