<?xml version='1.0' encoding='UTF-8' ?><gpx version="1.1" creator="HikingTrailHK" xsi:schemaLocation="http://www.topografix.com/GPX/1/1 http://www.topografix.com/GPX/1/1/gpx.xsd" xmlns="http://www.topografix.com/GPX/1/1" xmlns:xsi="http://www.w3.org/2001/XMLSchema-instance"><metadata><name>鹿巢山 @ 2017-10-14 10:45:00</name><desc>富安花園至西貢市中心</desc></metadata><trk><trkseg><trkpt lat="22.405493220504198" lon="114.22390925863981" /><trkpt lat="22.40536878125" lon="114.22370579638672" /><trkpt lat="22.40533578125" lon="114.22361479638671" /><trkpt lat="22.40533278125" lon="114.22376279638672" /><trkpt lat="22.40532578125" lon="114.22387379638671" /><trkpt lat="22.40501578125" lon="114.22415879638672" /><trkpt lat="22.40462578125" lon="114.22444079638672" /><trkpt lat="22.40455178125" lon="114.22466879638672" /><trkpt lat="22.40310578125" lon="114.22576379638672" /><trkpt lat="22.40278478125" lon="114.22583679638672" /><trkpt lat="22.40262278125" lon="114.22573179638673" /><trkpt lat="22.40248678125" lon="114.22563879638672" /><trkpt lat="22.40201778125" lon="114.22609579638672" /><trkpt lat="22.40158978125" lon="114.22646579638672" /><trkpt lat="22.40138078125" lon="114.22659679638672" /><trkpt lat="22.40127478125" lon="114.22666279638672" /><trkpt lat="22.40098178125" lon="114.22680579638671" /><trkpt lat="22.40082878125" lon="114.22689979638672" /><trkpt lat="22.40073578125" lon="114.22701879638672" /><trkpt lat="22.40049378125" lon="114.22743179638672" /><trkpt lat="22.40028678125" lon="114.22766979638672" /><trkpt lat="22.40015978125" lon="114.22777779638672" /><trkpt lat="22.39989478125" lon="114.22790079638672" /><trkpt lat="22.39949278125" lon="114.22804779638672" /><trkpt lat="22.39908578125" lon="114.22824579638672" /><trkpt lat="22.39874178125" lon="114.22850679638672" /><trkpt lat="22.39830778125" lon="114.22892479638672" /><trkpt lat="22.39805378125" lon="114.22919679638672" /><trkpt lat="22.39785178125" lon="114.22937579638672" /><trkpt lat="22.39757578125" lon="114.22951279638671" /><trkpt lat="22.39714278125" lon="114.22963479638672" /><trkpt lat="22.39683278125" lon="114.22972579638672" /><trkpt lat="22.39658778125" lon="114.22985279638672" /><trkpt lat="22.39633378125" lon="114.23008279638672" /><trkpt lat="22.39601678125" lon="114.23040979638672" /><trkpt lat="22.39568978125" lon="114.23065379638672" /><trkpt lat="22.39537078125" lon="114.23081979638673" /><trkpt lat="22.39500478125" lon="114.23102579638672" /><trkpt lat="22.39473278125" lon="114.23130179638672" /><trkpt lat="22.39445278125" lon="114.23158279638672" /><trkpt lat="22.39415078125" lon="114.23171579638672" /><trkpt lat="22.39377678125" lon="114.23186779638672" /><trkpt lat="22.39350878125" lon="114.23210679638672" /><trkpt lat="22.39334678125" lon="114.23240079638671" /><trkpt lat="22.39327078125" lon="114.23274579638672" /><trkpt lat="22.39323178125" lon="114.23292479638671" /><trkpt lat="22.39314178125" lon="114.23308179638671" /><trkpt lat="22.39306678125" lon="114.23320279638672" /><trkpt lat="22.39304478125" lon="114.23333779638672" /><trkpt lat="22.39306378125" lon="114.23336079638672" /><trkpt lat="22.39311478125" lon="114.23341879638672" /><trkpt lat="22.39351278125" lon="114.23387779638672" /><trkpt lat="22.393563583394496" lon="114.23390368851696" /><trkpt lat="22.39351278125" lon="114.23400879638672" /><trkpt lat="22.39357678125" lon="114.23408279638672" /><trkpt lat="22.39321078125" lon="114.23450579638671" /><trkpt lat="22.39334778125" lon="114.23480779638672" /><trkpt lat="22.39344878125" lon="114.23505279638673" /><trkpt lat="22.39335878125" lon="114.23526979638672" /><trkpt lat="22.39332378125" lon="114.23535479638672" /><trkpt lat="22.39335878125" lon="114.23572479638672" /><trkpt lat="22.39349778125" lon="114.23579079638672" /><trkpt lat="22.39362778125" lon="114.23658779638671" /><trkpt lat="22.39361778125" lon="114.23684279638672" /><trkpt lat="22.39382778125" lon="114.23751879638672" /><trkpt lat="22.39408378125" lon="114.23777479638672" /><trkpt lat="22.39412178125" lon="114.23787279638672" /><trkpt lat="22.39408278125" lon="114.23791379638672" /><trkpt lat="22.39422378125" lon="114.23804879638672" /><trkpt lat="22.39426078125" lon="114.23823179638671" /><trkpt lat="22.39438978125" lon="114.23829379638671" /><trkpt lat="22.39450078125" lon="114.23844779638672" /><trkpt lat="22.39457578125" lon="114.23863879638672" /><trkpt lat="22.39455778125" lon="114.23880379638672" /><trkpt lat="22.39467778125" lon="114.23913879638671" /><trkpt lat="22.39470378125" lon="114.23926279638673" /><trkpt lat="22.39461178125" lon="114.23974379638672" /><trkpt lat="22.39465478125" lon="114.24024879638672" /><trkpt lat="22.39443478125" lon="114.24072479638671" /><trkpt lat="22.39440378125" lon="114.24098179638672" /><trkpt lat="22.39446378125" lon="114.24105479638672" /><trkpt lat="22.39466378125" lon="114.24104179638672" /><trkpt lat="22.39507678125" lon="114.24056179638671" /><trkpt lat="22.39519778125" lon="114.24053579638672" /><trkpt lat="22.39538778125" lon="114.24026679638672" /><trkpt lat="22.39543078125" lon="114.24000779638672" /><trkpt lat="22.39581478125" lon="114.23982679638672" /><trkpt lat="22.39609678125" lon="114.23964079638672" /><trkpt lat="22.39626078125" lon="114.23952379638672" /><trkpt lat="22.39651378125" lon="114.23937879638672" /><trkpt lat="22.39664878125" lon="114.23914679638672" /><trkpt lat="22.39660978125" lon="114.23905079638672" /><trkpt lat="22.39671078125" lon="114.23877579638672" /><trkpt lat="22.39705778125" lon="114.23854379638672" /><trkpt lat="22.39730978125" lon="114.23935779638671" /><trkpt lat="22.39732678125" lon="114.23966379638672" /><trkpt lat="22.39739978125" lon="114.23984079638672" /><trkpt lat="22.39749878125" lon="114.24003379638671" /><trkpt lat="22.39765678125" lon="114.24012879638671" /><trkpt lat="22.39785878125" lon="114.24034779638671" /><trkpt lat="22.39803278125" lon="114.24070179638672" /><trkpt lat="22.39823678125" lon="114.24091779638673" /><trkpt lat="22.39833078125" lon="114.24109179638671" /><trkpt lat="22.39841078125" lon="114.24125779638672" /><trkpt lat="22.39853078125" lon="114.24149379638672" /><trkpt lat="22.39851078125" lon="114.24175079638673" /><trkpt lat="22.39853078125" lon="114.24205179638672" /><trkpt lat="22.39870278125" lon="114.24236279638671" /><trkpt lat="22.39854878125" lon="114.24242679638672" /><trkpt lat="22.39840278125" lon="114.24259679638672" /><trkpt lat="22.39830378125" lon="114.24309879638672" /><trkpt lat="22.39807578125" lon="114.24379279638671" /><trkpt lat="22.39803978125" lon="114.24388179638672" /><trkpt lat="22.39782878125" lon="114.24403179638672" /><trkpt lat="22.39778078125" lon="114.24417179638672" /><trkpt lat="22.39773578125" lon="114.24439979638672" /><trkpt lat="22.39779378125" lon="114.24453479638672" /><trkpt lat="22.39776278125" lon="114.24465379638671" /><trkpt lat="22.39747878125" lon="114.24488779638672" /><trkpt lat="22.39717978125" lon="114.24510779638672" /><trkpt lat="22.39719278125" lon="114.24535279638671" /><trkpt lat="22.39680778125" lon="114.24611879638672" /><trkpt lat="22.39663478125" lon="114.24624179638671" /><trkpt lat="22.39642778125" lon="114.24628379638672" /><trkpt lat="22.39627978125" lon="114.24658979638671" /><trkpt lat="22.39630978125" lon="114.24677479638672" /><trkpt lat="22.39630278125" lon="114.24699579638671" /><trkpt lat="22.39620778125" lon="114.24721979638672" /><trkpt lat="22.39616578125" lon="114.24746779638672" /><trkpt lat="22.39597678125" lon="114.24787979638671" /><trkpt lat="22.39588878125" lon="114.24815879638672" /><trkpt lat="22.39591378125" lon="114.24833279638672" /><trkpt lat="22.39597478125" lon="114.24877079638672" /><trkpt lat="22.39595978125" lon="114.24896579638671" /><trkpt lat="22.39580278125" lon="114.24908279638672" /><trkpt lat="22.39569378125" lon="114.24926579638672" /><trkpt lat="22.39565878125" lon="114.24936679638672" /><trkpt lat="22.39557478125" lon="114.24949079638672" /><trkpt lat="22.39541078125" lon="114.24970479638672" /><trkpt lat="22.39525178125" lon="114.24997379638671" /><trkpt lat="22.39522278125" lon="114.25029479638673" /><trkpt lat="22.39507778125" lon="114.25045279638672" /><trkpt lat="22.39510378125" lon="114.25070479638671" /><trkpt lat="22.39508178125" lon="114.25087279638672" /><trkpt lat="22.39503078125" lon="114.25096879638672" /><trkpt lat="22.39487478125" lon="114.25105679638672" /><trkpt lat="22.39466378125" lon="114.25118379638671" /><trkpt lat="22.39460278125" lon="114.25137879638672" /><trkpt lat="22.39447878125" lon="114.25160979638672" /><trkpt lat="22.39433478125" lon="114.25183479638672" /><trkpt lat="22.39400478125" lon="114.25197679638671" /><trkpt lat="22.39385378125" lon="114.25204379638672" /><trkpt lat="22.39386278125" lon="114.25231179638672" /><trkpt lat="22.39406978125" lon="114.25265979638672" /><trkpt lat="22.39413378125" lon="114.25273979638672" /><trkpt lat="22.39389378125" lon="114.25274279638671" /><trkpt lat="22.39352478125" lon="114.25264479638672" /><trkpt lat="22.39338078125" lon="114.25264079638671" /><trkpt lat="22.39322878125" lon="114.25264279638672" /><trkpt lat="22.39306578125" lon="114.25259179638672" /><trkpt lat="22.39296378125" lon="114.25258779638672" /><trkpt lat="22.39279178125" lon="114.25265979638672" /><trkpt lat="22.39263178125" lon="114.25267379638672" /><trkpt lat="22.39255778125" lon="114.25268879638672" /><trkpt lat="22.39226678125" lon="114.25251079638672" /><trkpt lat="22.39190378125" lon="114.25262779638672" /><trkpt lat="22.39174178125" lon="114.25264779638673" /><trkpt lat="22.39154878125" lon="114.25261979638672" /><trkpt lat="22.39132178125" lon="114.25263979638672" /><trkpt lat="22.39129278125" lon="114.25276879638672" /><trkpt lat="22.39098078125" lon="114.25276679638672" /><trkpt lat="22.39075878125" lon="114.25268779638672" /><trkpt lat="22.39067378125" lon="114.25266079638672" /><trkpt lat="22.39062478125" lon="114.25256479638672" /><trkpt lat="22.39044078125" lon="114.25248979638671" /><trkpt lat="22.39021778125" lon="114.25251579638672" /><trkpt lat="22.39004478125" lon="114.25262079638672" /><trkpt lat="22.38991078125" lon="114.25273579638672" /><trkpt lat="22.38977678125" lon="114.25275879638671" /><trkpt lat="22.39005278125" lon="114.25178579638671" /><trkpt lat="22.38999078125" lon="114.25161179638671" /><trkpt lat="22.38975378125" lon="114.25132679638672" /><trkpt lat="22.38963178125" lon="114.25131579638672" /><trkpt lat="22.38955778125" lon="114.25133479638671" /><trkpt lat="22.38949378125" lon="114.25140579638672" /><trkpt lat="22.38939578125" lon="114.25156979638672" /><trkpt lat="22.38933178125" lon="114.25164079638672" /><trkpt lat="22.38915978125" lon="114.25172379638671" /><trkpt lat="22.38898078125" lon="114.25177879638672" /><trkpt lat="22.38889178125" lon="114.25182479638671" /><trkpt lat="22.38880178125" lon="114.25185279638671" /><trkpt lat="22.38872978125" lon="114.25191479638671" /><trkpt lat="22.38864478125" lon="114.25196879638672" /><trkpt lat="22.38855478125" lon="114.25201679638671" /><trkpt lat="22.38849078125" lon="114.25218379638672" /><trkpt lat="22.38847078125" lon="114.25229679638672" /><trkpt lat="22.38845678125" lon="114.25247079638672" /><trkpt lat="22.38838178125" lon="114.25263479638672" /><trkpt lat="22.38836378125" lon="114.25273879638672" /><trkpt lat="22.38837878125" lon="114.25284779638672" /><trkpt lat="22.38835678125" lon="114.25294379638672" /><trkpt lat="22.38834178125" lon="114.25305279638673" /><trkpt lat="22.38820778125" lon="114.25318079638672" /><trkpt lat="22.38812778125" lon="114.25326079638671" /><trkpt lat="22.38800878125" lon="114.25335279638672" /><trkpt lat="22.38794978125" lon="114.25344879638672" /><trkpt lat="22.38785578125" lon="114.25353479638672" /><trkpt lat="22.38781578125" lon="114.25364179638672" /><trkpt lat="22.38775078125" lon="114.25378079638672" /><trkpt lat="22.38769178125" lon="114.25384079638673" /><trkpt lat="22.38762278125" lon="114.25389379638672" /><trkpt lat="22.38754378125" lon="114.25398979638672" /><trkpt lat="22.38749778125" lon="114.25419379638672" /><trkpt lat="22.38739078125" lon="114.25434379638672" /><trkpt lat="22.38730178125" lon="114.25439679638671" /><trkpt lat="22.38704678125" lon="114.25466679638672" /><trkpt lat="22.38692278125" lon="114.25462379638672" /><trkpt lat="22.38681878125" lon="114.25470379638672" /><trkpt lat="22.38669978125" lon="114.25485479638672" /><trkpt lat="22.38667478125" lon="114.25494579638672" /><trkpt lat="22.386585781249998" lon="114.25495079638672" /><trkpt lat="22.38642678125" lon="114.25510079638671" /><trkpt lat="22.38647178125" lon="114.25522979638671" /><trkpt lat="22.38645678125" lon="114.25533679638671" /><trkpt lat="22.38647478125" lon="114.25552279638671" /><trkpt lat="22.38653578125" lon="114.25566479638672" /><trkpt lat="22.38666478125" lon="114.25590379638672" /><trkpt lat="22.38684378125" lon="114.25593279638672" /><trkpt lat="22.38690278125" lon="114.25606679638672" /><trkpt lat="22.38685878125" lon="114.25622879638672" /><trkpt lat="22.38672378125" lon="114.25646479638672" /><trkpt lat="22.38664478125" lon="114.25673179638672" /><trkpt lat="22.38656478125" lon="114.25695579638672" /><trkpt lat="22.38633278125" lon="114.25706479638671" /><trkpt lat="22.38622378125" lon="114.25719379638672" /><trkpt lat="22.38603478125" lon="114.25728479638671" /><trkpt lat="22.38593378125" lon="114.25736779638672" /><trkpt lat="22.38588478125" lon="114.25745279638672" /><trkpt lat="22.38581878125" lon="114.25754079638672" /><trkpt lat="22.38577178125" lon="114.25776279638671" /><trkpt lat="22.38570878125" lon="114.25784579638672" /><trkpt lat="22.38553078125" lon="114.25798879638671" /><trkpt lat="22.38545078125" lon="114.25818779638672" /><trkpt lat="22.38546778125" lon="114.25832979638672" /><trkpt lat="22.38545978125" lon="114.25840779638672" /><trkpt lat="22.38536878125" lon="114.25858479638671" /><trkpt lat="22.38534478125" lon="114.25867779638672" /><trkpt lat="22.38534778125" lon="114.25872679638672" /><trkpt lat="22.38535578125" lon="114.25878279638673" /><trkpt lat="22.38532978125" lon="114.25888279638671" /><trkpt lat="22.38531178125" lon="114.25898579638672" /><trkpt lat="22.38533178125" lon="114.25910279638671" /><trkpt lat="22.38538878125" lon="114.25920079638672" /><trkpt lat="22.38547578125" lon="114.25938679638672" /><trkpt lat="22.38551478125" lon="114.25960879638671" /><trkpt lat="22.38539578125" lon="114.25979579638671" /><trkpt lat="22.38531078125" lon="114.25989779638672" /><trkpt lat="22.38523778125" lon="114.26000679638672" /><trkpt lat="22.38526178125" lon="114.26003379638672" /><trkpt lat="22.38543278125" lon="114.26028579638673" /><trkpt lat="22.38541578125" lon="114.26033679638672" /><trkpt lat="22.38548878125" lon="114.26056379638672" /><trkpt lat="22.38556978125" lon="114.26058479638672" /><trkpt lat="22.38564978125" lon="114.26075779638671" /><trkpt lat="22.38555578125" lon="114.26089179638672" /><trkpt lat="22.38559178125" lon="114.26110379638672" /><trkpt lat="22.38552378125" lon="114.26126179638672" /><trkpt lat="22.38531578125" lon="114.26154479638672" /><trkpt lat="22.38521678125" lon="114.26166179638672" /><trkpt lat="22.38508278125" lon="114.26179279638671" /><trkpt lat="22.38492878125" lon="114.26191579638672" /><trkpt lat="22.38476178125" lon="114.26205179638671" /><trkpt lat="22.38450878125" lon="114.26235079638671" /><trkpt lat="22.38431378125" lon="114.26252779638672" /><trkpt lat="22.38411878125" lon="114.26270579638671" /><trkpt lat="22.38383578125" lon="114.26296279638672" /><trkpt lat="22.38343978125" lon="114.26348579638672" /><trkpt lat="22.38325478125" lon="114.26367579638672" /><trkpt lat="22.38318678125" lon="114.26374579638671" /><trkpt lat="22.38278978125" lon="114.26399279638672" /><trkpt lat="22.38267478125" lon="114.26418479638671" /><trkpt lat="22.38262078125" lon="114.26431779638672" /><trkpt lat="22.38264478125" lon="114.26440579638673" /><trkpt lat="22.38270778125" lon="114.26447179638672" /><trkpt lat="22.38250378125" lon="114.26450079638671" /><trkpt lat="22.38242178125" lon="114.26447879638671" /><trkpt lat="22.38249078125" lon="114.26456079638672" /><trkpt lat="22.38252078125" lon="114.26462179638672" /><trkpt lat="22.38253878125" lon="114.26467979638672" /><trkpt lat="22.38252578125" lon="114.26527079638672" /><trkpt lat="22.38248778125" lon="114.26542479638672" /><trkpt lat="22.38223878125" lon="114.26587779638672" /><trkpt lat="22.38218378125" lon="114.26599979638672" /><trkpt lat="22.38216178125" lon="114.26605379638671" /><trkpt lat="22.38203678125" lon="114.26634379638672" /><trkpt lat="22.38195778125" lon="114.26650079638672" /><trkpt lat="22.38182378125" lon="114.26672379638671" /><trkpt lat="22.38163978125" lon="114.26704079638672" /><trkpt lat="22.38158478125" lon="114.26704179638672" /><trkpt lat="22.38149978125" lon="114.26703679638672" /><trkpt lat="22.38141678125" lon="114.26701179638673" /><trkpt lat="22.38135078125" lon="114.26697479638672" /><trkpt lat="22.38126378125" lon="114.26690979638671" /><trkpt lat="22.38107078125" lon="114.26704079638672" /><trkpt lat="22.38103978125" lon="114.26706379638672" /><trkpt lat="22.38105078125" lon="114.26716979638672" /><trkpt lat="22.38100578125" lon="114.26721379638671" /><trkpt lat="22.38096978125" lon="114.26735279638672" /><trkpt lat="22.38099978125" lon="114.26746279638672" /><trkpt lat="22.38099578125" lon="114.26755079638671" /><trkpt lat="22.38095378125" lon="114.26754779638672" /><trkpt lat="22.38100478125" lon="114.26774879638671" /><trkpt lat="22.38101878125" lon="114.26807579638673" /><trkpt lat="22.38100778125" lon="114.26834479638671" /><trkpt lat="22.38109078125" lon="114.26847379638671" /><trkpt lat="22.38115878125" lon="114.26864979638673" /><trkpt lat="22.38118178125" lon="114.26880779638672" /><trkpt lat="22.38121278125" lon="114.26959479638671" /><trkpt lat="22.38120678125" lon="114.26960979638672" /><trkpt lat="22.38115178125" lon="114.26964079638672" /><trkpt lat="22.38116778125" lon="114.26970679638671" /><trkpt lat="22.38118578125" lon="114.26981179638672" /><trkpt lat="22.38119778125" lon="114.26991979638672" /><trkpt lat="22.38120678125" lon="114.26999279638672" /><trkpt lat="22.38122878125" lon="114.27008379638671" /><trkpt lat="22.38126278125" lon="114.27019179638671" /><trkpt lat="22.38128878125" lon="114.27026379638671" /><trkpt lat="22.38131778125" lon="114.27033679638672" /><trkpt lat="22.38135578125" lon="114.27042379638672" /><trkpt lat="22.38139978125" lon="114.27050979638672" /><trkpt lat="22.38143678125" lon="114.27055979638672" /><trkpt lat="22.38149978125" lon="114.27063179638672" /><trkpt lat="22.38159578125" lon="114.27072979638672" /><trkpt lat="22.38163078125" lon="114.27075679638672" /><trkpt lat="22.38170778125" lon="114.27080779638672" /><trkpt lat="22.38179378125" lon="114.27085379638672" /><trkpt lat="22.38199478125" lon="114.27093679638672" /><trkpt lat="22.38214478125" lon="114.27099879638672" /><trkpt lat="22.38229278125" lon="114.27103479638672" /><trkpt lat="22.38240778125" lon="114.27104179638673" /><trkpt lat="22.38250078125" lon="114.27103779638672" /><trkpt lat="22.38267878125" lon="114.27101479638672" /><trkpt lat="22.38270678125" lon="114.27100879638672" /><trkpt lat="22.38293978125" lon="114.27096679638672" /><trkpt lat="22.38315778125" lon="114.27091779638671" /><trkpt lat="22.38320578125" lon="114.27090979638672" /><trkpt lat="22.38327178125" lon="114.27090279638672" /><trkpt lat="22.38340678125" lon="114.27090679638673" /><trkpt lat="22.38347078125" lon="114.27091479638672" /><trkpt lat="22.38357478125" lon="114.27095479638672" /><trkpt lat="22.38365878125" lon="114.27098479638671" /><trkpt lat="22.38363278125" lon="114.27107179638672" /><trkpt lat="22.38358078125" lon="114.27131679638671" /><trkpt lat="22.38356678125" lon="114.27138879638672" /><trkpt lat="22.38355378125" lon="114.27142679638672" /><trkpt lat="22.38353978125" lon="114.27146879638671" /><trkpt lat="22.38351878125" lon="114.27150979638672" /><trkpt lat="22.38350178125" lon="114.27154179638671" /><trkpt lat="22.38348578125" lon="114.27156679638672" /><trkpt lat="22.38339178125" lon="114.27168479638672" /><trkpt lat="22.38333178125" lon="114.27175979638672" /><trkpt lat="22.38323778125" lon="114.27187779638672" /><trkpt lat="22.38288178125" lon="114.27233079638673" /><trkpt lat="22.38293078125" lon="114.27238479638672" /><trkpt lat="22.38303278125" lon="114.27247879638672" /><trkpt lat="22.38304478125" lon="114.27250079638672" /><trkpt lat="22.38303678125" lon="114.27252579638672" /><trkpt lat="22.38261878125" lon="114.27307179638672" /><trkpt lat="22.38259278125" lon="114.27316679638672" /><trkpt lat="22.38263478125" lon="114.27359979638672" /><trkpt lat="22.38258178125" lon="114.27368879638672" /><trkpt lat="22.38259378125" lon="114.27381279638672" /><trkpt lat="22.38261478125" lon="114.27388179638672" /><trkpt lat="22.38264078125" lon="114.27394279638672" /><trkpt lat="22.38266678125" lon="114.27399179638672" /><trkpt lat="22.38272878125" lon="114.27406579638672" /><trkpt lat="22.38281378125" lon="114.27414879638673" /><trkpt lat="22.38279578125" lon="114.27424079638672" /><trkpt lat="22.38278178125" lon="114.27431479638672" /><trkpt lat="22.38276078125" lon="114.27439179638672" /><trkpt lat="22.38275378125" lon="114.27442879638672" /><trkpt lat="22.38274978125" lon="114.27447279638672" /><trkpt lat="22.38287359171317" lon="114.27458678916494" /></trkseg></trk></gpx>