<?xml version='1.0' encoding='UTF-8' ?><gpx version="1.1" creator="HikingTrailHK" xsi:schemaLocation="http://www.topografix.com/GPX/1/1 http://www.topografix.com/GPX/1/1/gpx.xsd https://hikingtrailhk.appspot.com/xml/gpxextensions/v1 https://hikingtrailhk.appspot.com/xml/gpxextensions/v1/gpxextensions.xsd" xmlns="http://www.topografix.com/GPX/1/1" xmlns:h="https://hikingtrailhk.appspot.com/xml/gpxextensions/v1" xmlns:xsi="http://www.w3.org/2001/XMLSchema-instance"><metadata><name>鹿湖郊遊徑 @ 2016-7-20</name><desc></desc><extensions><h:categoryid>country_trail</h:categoryid></extensions></metadata><trk><trkseg><trkpt lat="22.394864369653302" lon="114.36018440191843" /><trkpt lat="22.39489878125" lon="114.36012379638672" /><trkpt lat="22.39505178125" lon="114.35994079638672" /><trkpt lat="22.39513978125" lon="114.35991879638672" /><trkpt lat="22.39534678125" lon="114.35993079638672" /><trkpt lat="22.39550578125" lon="114.35982579638672" /><trkpt lat="22.39556978125" lon="114.35971679638672" /><trkpt lat="22.39607978125" lon="114.36002479638672" /><trkpt lat="22.39615178125" lon="114.35999979638672" /><trkpt lat="22.39627078125" lon="114.35995779638672" /><trkpt lat="22.39636478125" lon="114.35994679638672" /><trkpt lat="22.39647078125" lon="114.35993379638671" /><trkpt lat="22.39657778125" lon="114.35990879638672" /><trkpt lat="22.39665478125" lon="114.35981079638672" /><trkpt lat="22.39679278125" lon="114.35979779638672" /><trkpt lat="22.39692978125" lon="114.35965479638672" /><trkpt lat="22.39702978125" lon="114.35965679638672" /><trkpt lat="22.39709878125" lon="114.35968179638672" /><trkpt lat="22.39721078125" lon="114.35968179638672" /><trkpt lat="22.39733378125" lon="114.35965879638673" /><trkpt lat="22.39740278125" lon="114.35962379638671" /><trkpt lat="22.39747478125" lon="114.35959079638671" /><trkpt lat="22.39762178125" lon="114.35961079638672" /><trkpt lat="22.39772878125" lon="114.35957379638671" /><trkpt lat="22.39782678125" lon="114.35957679638672" /><trkpt lat="22.39788578125" lon="114.35948879638671" /><trkpt lat="22.39791878125" lon="114.35936179638672" /><trkpt lat="22.39796678125" lon="114.35923879638672" /><trkpt lat="22.39801578125" lon="114.35908579638672" /><trkpt lat="22.39814578125" lon="114.35903779638672" /><trkpt lat="22.39834378125" lon="114.35901679638673" /><trkpt lat="22.39842078125" lon="114.35892879638672" /><trkpt lat="22.39850578125" lon="114.35888579638672" /><trkpt lat="22.39868178125" lon="114.35877779638672" /><trkpt lat="22.39887978125" lon="114.35866479638672" /><trkpt lat="22.39891778125" lon="114.35862479638672" /><trkpt lat="22.39909178125" lon="114.35849979638672" /><trkpt lat="22.39916278125" lon="114.35836379638671" /><trkpt lat="22.39928178125" lon="114.35828379638671" /><trkpt lat="22.39934678125" lon="114.35816679638671" /><trkpt lat="22.39940778125" lon="114.35812579638672" /><trkpt lat="22.39955878125" lon="114.35816279638672" /><trkpt lat="22.39964578125" lon="114.35822279638671" /><trkpt lat="22.39972778125" lon="114.35823779638672" /><trkpt lat="22.39984078125" lon="114.35823979638671" /><trkpt lat="22.39995778125" lon="114.35817079638672" /><trkpt lat="22.40010478125" lon="114.35820679638672" /><trkpt lat="22.40030678125" lon="114.35806779638672" /><trkpt lat="22.40055378125" lon="114.35803779638672" /><trkpt lat="22.40067278125" lon="114.35798979638672" /><trkpt lat="22.40075478125" lon="114.35804479638672" /><trkpt lat="22.40076278125" lon="114.35813779638671" /><trkpt lat="22.40071278125" lon="114.35818879638671" /><trkpt lat="22.40079078125" lon="114.35852679638671" /><trkpt lat="22.40092178125" lon="114.35869679638672" /><trkpt lat="22.40097678125" lon="114.35869679638672" /><trkpt lat="22.40115878125" lon="114.35877379638671" /><trkpt lat="22.40125678125" lon="114.35893779638671" /><trkpt lat="22.40138578125" lon="114.35896379638672" /><trkpt lat="22.40145178125" lon="114.35891079638672" /><trkpt lat="22.40143578125" lon="114.35878379638672" /><trkpt lat="22.40156378125" lon="114.35876179638672" /><trkpt lat="22.40159178125" lon="114.35895279638672" /><trkpt lat="22.40161778125" lon="114.35896479638672" /><trkpt lat="22.40170678125" lon="114.35887079638673" /><trkpt lat="22.40172978125" lon="114.35876879638671" /><trkpt lat="22.40174878125" lon="114.35870679638671" /><trkpt lat="22.40177378125" lon="114.35886979638671" /><trkpt lat="22.40176178125" lon="114.35897679638671" /><trkpt lat="22.40173778125" lon="114.35909279638672" /><trkpt lat="22.40169578125" lon="114.35920279638673" /><trkpt lat="22.40168178125" lon="114.35928779638672" /><trkpt lat="22.40175478125" lon="114.35922379638671" /><trkpt lat="22.40182478125" lon="114.35914779638672" /><trkpt lat="22.40188778125" lon="114.35901379638672" /><trkpt lat="22.40202078125" lon="114.35895079638672" /><trkpt lat="22.40209078125" lon="114.35895879638672" /><trkpt lat="22.40220978125" lon="114.35882879638672" /><trkpt lat="22.40223678125" lon="114.35877679638672" /><trkpt lat="22.40228778125" lon="114.35874379638672" /><trkpt lat="22.40235578125" lon="114.35865579638671" /><trkpt lat="22.40234378125" lon="114.35861079638671" /><trkpt lat="22.40241678125" lon="114.35856579638671" /><trkpt lat="22.40249478125" lon="114.35839479638672" /><trkpt lat="22.40245178125" lon="114.35829879638672" /><trkpt lat="22.40238278125" lon="114.35821379638672" /><trkpt lat="22.40237878125" lon="114.35809679638672" /><trkpt lat="22.40246978125" lon="114.35802679638672" /><trkpt lat="22.40255678125" lon="114.35799879638672" /><trkpt lat="22.40264378125" lon="114.35799579638672" /><trkpt lat="22.40270778125" lon="114.35789679638673" /><trkpt lat="22.40280378125" lon="114.35780679638673" /><trkpt lat="22.40289978125" lon="114.35773579638672" /><trkpt lat="22.40306478125" lon="114.35760979638673" /><trkpt lat="22.40313578125" lon="114.35758179638673" /><trkpt lat="22.40317478125" lon="114.35750979638672" /><trkpt lat="22.40327878125" lon="114.35744479638672" /><trkpt lat="22.40346678125" lon="114.35728779638671" /><trkpt lat="22.40355278125" lon="114.35713579638671" /><trkpt lat="22.40361078125" lon="114.35704179638672" /><trkpt lat="22.40370678125" lon="114.35700879638672" /><trkpt lat="22.40375578125" lon="114.35694079638672" /><trkpt lat="22.40383478125" lon="114.35685279638672" /><trkpt lat="22.40396278125" lon="114.35672279638672" /><trkpt lat="22.40405778125" lon="114.35664179638673" /><trkpt lat="22.40413678125" lon="114.35662779638672" /><trkpt lat="22.40422478125" lon="114.35661779638671" /><trkpt lat="22.40433178125" lon="114.35659279638672" /><trkpt lat="22.40442378125" lon="114.35656279638673" /><trkpt lat="22.40451278125" lon="114.35654879638672" /><trkpt lat="22.40471278125" lon="114.35644379638671" /><trkpt lat="22.40483178125" lon="114.35638579638672" /><trkpt lat="22.40492078125" lon="114.35638579638672" /><trkpt lat="22.40501178125" lon="114.35640079638672" /><trkpt lat="22.40516478125" lon="114.35636379638672" /><trkpt lat="22.40523778125" lon="114.35633079638671" /><trkpt lat="22.40532678125" lon="114.35625279638671" /><trkpt lat="22.40540778125" lon="114.35609179638672" /><trkpt lat="22.40545678125" lon="114.35599279638672" /><trkpt lat="22.40557378125" lon="114.35587479638671" /><trkpt lat="22.40560478125" lon="114.35576179638672" /><trkpt lat="22.40575478125" lon="114.35563579638672" /><trkpt lat="22.40579178125" lon="114.35562479638672" /><trkpt lat="22.40583378125" lon="114.35553579638672" /><trkpt lat="22.40589378125" lon="114.35552579638671" /><trkpt lat="22.40596878125" lon="114.35542679638672" /><trkpt lat="22.40599878125" lon="114.35532379638671" /><trkpt lat="22.40596278125" lon="114.35520579638671" /><trkpt lat="22.40589278125" lon="114.35515079638672" /><trkpt lat="22.40590678125" lon="114.35510179638672" /><trkpt lat="22.40588178125" lon="114.35499579638672" /><trkpt lat="22.40588778125" lon="114.35493779638672" /><trkpt lat="22.40583878125" lon="114.35479179638672" /><trkpt lat="22.40585478125" lon="114.35470379638672" /><trkpt lat="22.40583578125" lon="114.35462079638671" /><trkpt lat="22.40596578125" lon="114.35440879638672" /><trkpt lat="22.40596378125" lon="114.35433579638672" /><trkpt lat="22.40602278125" lon="114.35422279638672" /><trkpt lat="22.40603678125" lon="114.35406879638671" /><trkpt lat="22.40600378125" lon="114.35389779638672" /><trkpt lat="22.40596778125" lon="114.35375279638671" /><trkpt lat="22.40597678125" lon="114.35358179638672" /><trkpt lat="22.40595278125" lon="114.35338979638672" /><trkpt lat="22.40589678125" lon="114.35326879638671" /><trkpt lat="22.40592178125" lon="114.35316179638671" /><trkpt lat="22.40591378125" lon="114.35296079638672" /><trkpt lat="22.40584178125" lon="114.35282679638672" /><trkpt lat="22.40572378125" lon="114.35279579638672" /><trkpt lat="22.40560478125" lon="114.35277379638671" /><trkpt lat="22.40553078125" lon="114.35271479638672" /><trkpt lat="22.40538178125" lon="114.35274779638672" /><trkpt lat="22.40532778125" lon="114.35268879638672" /><trkpt lat="22.40532778125" lon="114.35260779638672" /><trkpt lat="22.40526778125" lon="114.35257079638671" /><trkpt lat="22.40510478125" lon="114.35257579638672" /><trkpt lat="22.40499978125" lon="114.35259179638672" /><trkpt lat="22.40492578125" lon="114.35252779638672" /><trkpt lat="22.40485678125" lon="114.35244679638672" /><trkpt lat="22.40475278125" lon="114.35245179638672" /><trkpt lat="22.40476378125" lon="114.35240179638672" /><trkpt lat="22.40475278125" lon="114.35233279638672" /><trkpt lat="22.40486678125" lon="114.35223079638672" /><trkpt lat="22.40493678125" lon="114.35191279638671" /><trkpt lat="22.404863182515452" lon="114.35181672356472" /><trkpt lat="22.40485978125" lon="114.35179479638671" /><trkpt lat="22.40490878125" lon="114.35169079638672" /><trkpt lat="22.40492578125" lon="114.35140879638672" /><trkpt lat="22.40491078125" lon="114.35125279638672" /><trkpt lat="22.40500078125" lon="114.35114779638671" /><trkpt lat="22.40502578125" lon="114.35090879638672" /><trkpt lat="22.40495178125" lon="114.35077079638671" /><trkpt lat="22.40501078125" lon="114.35067179638672" /><trkpt lat="22.40502478125" lon="114.35055679638671" /><trkpt lat="22.40494678125" lon="114.35048879638671" /><trkpt lat="22.40497678125" lon="114.35036579638673" /><trkpt lat="22.40505178125" lon="114.35020079638672" /><trkpt lat="22.40512578125" lon="114.35017179638672" /><trkpt lat="22.405400781250002" lon="114.35012379638673" /><trkpt lat="22.40591778125" lon="114.35042979638672" /><trkpt lat="22.40613578125" lon="114.35079679638672" /><trkpt lat="22.40631278125" lon="114.35079479638672" /><trkpt lat="22.40645478125" lon="114.35071279638672" /><trkpt lat="22.40651978125" lon="114.35070579638672" /><trkpt lat="22.40659678125" lon="114.35062079638672" /><trkpt lat="22.40670178125" lon="114.35061579638672" /><trkpt lat="22.40679778125" lon="114.35066579638672" /><trkpt lat="22.40690078125" lon="114.35065179638671" /><trkpt lat="22.40697878125" lon="114.35068679638673" /><trkpt lat="22.40709678125" lon="114.35064279638672" /><trkpt lat="22.40712178125" lon="114.35058779638672" /><trkpt lat="22.40711978125" lon="114.35047179638671" /><trkpt lat="22.40708178125" lon="114.35041079638673" /><trkpt lat="22.40711078125" lon="114.35031179638672" /><trkpt lat="22.40720278125" lon="114.35022079638672" /><trkpt lat="22.40726878125" lon="114.35006679638671" /><trkpt lat="22.40731878125" lon="114.35001679638673" /><trkpt lat="22.40736678125" lon="114.34990879638671" /><trkpt lat="22.40740278125" lon="114.34984779638671" /><trkpt lat="22.40744978125" lon="114.34966579638672" /><trkpt lat="22.40748578125" lon="114.34955979638671" /><trkpt lat="22.40750878125" lon="114.34948379638672" /><trkpt lat="22.40752078125" lon="114.34935779638671" /><trkpt lat="22.40753778125" lon="114.34923279638672" /><trkpt lat="22.40753678125" lon="114.34912479638672" /><trkpt lat="22.40757778125" lon="114.34902679638672" /><trkpt lat="22.40764878125" lon="114.34890379638672" /><trkpt lat="22.40769278125" lon="114.34877779638671" /><trkpt lat="22.40771278125" lon="114.34866879638672" /><trkpt lat="22.40774378125" lon="114.34858479638672" /><trkpt lat="22.40776078125" lon="114.34848779638672" /><trkpt lat="22.40778678125" lon="114.34835879638672" /><trkpt lat="22.40778478125" lon="114.34828479638672" /><trkpt lat="22.40777578125" lon="114.34820679638672" /><trkpt lat="22.40780478125" lon="114.34805879638672" /><trkpt lat="22.40782178125" lon="114.34792779638671" /><trkpt lat="22.40786378125" lon="114.34782679638671" /><trkpt lat="22.40787178125" lon="114.34776279638672" /><trkpt lat="22.40796278125" lon="114.34765479638672" /><trkpt lat="22.40797078125" lon="114.34758179638672" /><trkpt lat="22.40794678125" lon="114.34742579638672" /><trkpt lat="22.40800178125" lon="114.34733279638672" /><trkpt lat="22.40799078125" lon="114.34722279638672" /><trkpt lat="22.40798778125" lon="114.34716779638671" /><trkpt lat="22.40801878125" lon="114.34708879638671" /><trkpt lat="22.40802178125" lon="114.34697779638672" /><trkpt lat="22.40802778125" lon="114.34692279638672" /><trkpt lat="22.40801378125" lon="114.34679079638671" /><trkpt lat="22.40800778125" lon="114.34668979638671" /><trkpt lat="22.40799778125" lon="114.34658679638672" /><trkpt lat="22.40802478125" lon="114.34648579638672" /><trkpt lat="22.40805278125" lon="114.34638079638673" /><trkpt lat="22.40806978125" lon="114.34627879638671" /><trkpt lat="22.40808578125" lon="114.34618479638672" /><trkpt lat="22.40813778125" lon="114.34609679638672" /><trkpt lat="22.40820678125" lon="114.34601279638672" /><trkpt lat="22.40823578125" lon="114.34591079638672" /><trkpt lat="22.40829078125" lon="114.34581879638672" /><trkpt lat="22.40843578125" lon="114.34559479638672" /><trkpt lat="22.40847278125" lon="114.34543179638672" /><trkpt lat="22.40853878125" lon="114.34518879638672" /><trkpt lat="22.40853778125" lon="114.34499379638672" /><trkpt lat="22.40855778125" lon="114.34487079638672" /><trkpt lat="22.40859478125" lon="114.34468179638672" /><trkpt lat="22.40862678125" lon="114.34444679638672" /><trkpt lat="22.40866178125" lon="114.34427179638672" /><trkpt lat="22.40865278125" lon="114.34412979638672" /><trkpt lat="22.40865778125" lon="114.34404079638672" /><trkpt lat="22.40870878125" lon="114.34388679638671" /><trkpt lat="22.40871078125" lon="114.34370979638672" /><trkpt lat="22.40867778125" lon="114.34361179638672" /><trkpt lat="22.40863678125" lon="114.34342979638672" /><trkpt lat="22.40862678125" lon="114.34335479638672" /><trkpt lat="22.40862278125" lon="114.34325279638672" /><trkpt lat="22.40847978125" lon="114.34310879638672" /><trkpt lat="22.40841878125" lon="114.34303279638672" /><trkpt lat="22.40839178125" lon="114.34282679638672" /><trkpt lat="22.40835878125" lon="114.34274479638673" /><trkpt lat="22.40830378125" lon="114.34264879638671" /><trkpt lat="22.40829178125" lon="114.34243579638672" /><trkpt lat="22.40827678125" lon="114.34234079638672" /><trkpt lat="22.40828278125" lon="114.34216779638672" /><trkpt lat="22.40833578125" lon="114.34200979638672" /><trkpt lat="22.40834678125" lon="114.34191379638672" /><trkpt lat="22.40837878125" lon="114.34178279638672" /><trkpt lat="22.40833278125" lon="114.34162079638672" /><trkpt lat="22.40829378125" lon="114.34137879638672" /><trkpt lat="22.40823878125" lon="114.34134579638672" /><trkpt lat="22.40815378125" lon="114.34117679638672" /><trkpt lat="22.40818778125" lon="114.34108979638673" /><trkpt lat="22.40819678125" lon="114.34097779638672" /><trkpt lat="22.40821778125" lon="114.34086379638671" /><trkpt lat="22.40818678125" lon="114.34075779638673" /><trkpt lat="22.40817078125" lon="114.34064779638672" /><trkpt lat="22.40815578125" lon="114.34055079638672" /><trkpt lat="22.40818078125" lon="114.34046679638672" /><trkpt lat="22.40822878125" lon="114.34038279638672" /><trkpt lat="22.40827678125" lon="114.34029779638672" /><trkpt lat="22.40830478125" lon="114.34019579638672" /><trkpt lat="22.40827778125" lon="114.34009479638672" /><trkpt lat="22.40824378125" lon="114.34001779638672" /><trkpt lat="22.40821578125" lon="114.33988179638672" /><trkpt lat="22.40820978125" lon="114.33979879638672" /><trkpt lat="22.40816978125" lon="114.33969479638672" /><trkpt lat="22.40813978125" lon="114.33959879638672" /><trkpt lat="22.40810178125" lon="114.33950979638672" /><trkpt lat="22.40808978125" lon="114.33938179638672" /><trkpt lat="22.40807778125" lon="114.33924479638672" /><trkpt lat="22.40806578125" lon="114.33911279638671" /><trkpt lat="22.40804678125" lon="114.33900579638672" /><trkpt lat="22.40803678125" lon="114.33890479638671" /><trkpt lat="22.40802178125" lon="114.33878479638672" /><trkpt lat="22.40803178125" lon="114.33867279638672" /><trkpt lat="22.40805678125" lon="114.33855279638672" /><trkpt lat="22.40809278125" lon="114.33844379638671" /><trkpt lat="22.40813178125" lon="114.33833879638672" /><trkpt lat="22.40815578125" lon="114.33820379638672" /><trkpt lat="22.40817378125" lon="114.33809979638671" /><trkpt lat="22.40815578125" lon="114.33796179638672" /><trkpt lat="22.40814278125" lon="114.33777679638672" /><trkpt lat="22.40813478125" lon="114.33761579638671" /><trkpt lat="22.40816078125" lon="114.33753779638671" /><trkpt lat="22.40827178125" lon="114.33741679638672" /><trkpt lat="22.40827778125" lon="114.33727579638672" /><trkpt lat="22.40832478125" lon="114.33720879638672" /><trkpt lat="22.40837778125" lon="114.33715379638672" /><trkpt lat="22.40844878125" lon="114.33707879638672" /><trkpt lat="22.40852978125" lon="114.33699479638672" /><trkpt lat="22.40847078125" lon="114.33689179638672" /><trkpt lat="22.40842978125" lon="114.33679979638671" /><trkpt lat="22.40837878125" lon="114.33659279638673" /><trkpt lat="22.40839078125" lon="114.33641679638671" /><trkpt lat="22.40839178125" lon="114.33626679638672" /><trkpt lat="22.40836678125" lon="114.33599679638672" /><trkpt lat="22.40840178125" lon="114.33581079638672" /><trkpt lat="22.40854278125" lon="114.33563279638672" /><trkpt lat="22.40858878125" lon="114.33548779638672" /><trkpt lat="22.40864078125" lon="114.33534679638672" /><trkpt lat="22.40871378125" lon="114.33530779638672" /><trkpt lat="22.40879978125" lon="114.33526379638671" /><trkpt lat="22.40887078125" lon="114.33515379638672" /><trkpt lat="22.40893678125" lon="114.33509679638672" /><trkpt lat="22.40899978125" lon="114.33497779638672" /><trkpt lat="22.40902778125" lon="114.33489279638673" /><trkpt lat="22.40906778125" lon="114.33485379638672" /><trkpt lat="22.40904478125" lon="114.33472279638671" /><trkpt lat="22.40906678125" lon="114.33445179638672" /><trkpt lat="22.40906178125" lon="114.33434079638671" /><trkpt lat="22.40910878125" lon="114.33418279638671" /><trkpt lat="22.40910578125" lon="114.33396379638671" /><trkpt lat="22.40913778125" lon="114.33379879638672" /><trkpt lat="22.40917578125" lon="114.33363979638672" /><trkpt lat="22.40922478125" lon="114.33344079638672" /><trkpt lat="22.40929378125" lon="114.33329179638672" /><trkpt lat="22.40948778125" lon="114.33310779638671" /><trkpt lat="22.40955578125" lon="114.33300479638672" /><trkpt lat="22.40967378125" lon="114.33290179638672" /><trkpt lat="22.40979978125" lon="114.33286479638672" /><trkpt lat="22.40989278125" lon="114.33280379638671" /><trkpt lat="22.40999578125" lon="114.33272579638673" /><trkpt lat="22.41000078125" lon="114.33264679638671" /><trkpt lat="22.41000478125" lon="114.33255779638672" /><trkpt lat="22.40993378125" lon="114.33244679638672" /><trkpt lat="22.40992278125" lon="114.33232379638672" /><trkpt lat="22.40988078125" lon="114.33222179638672" /><trkpt lat="22.40984478125" lon="114.33215479638672" /><trkpt lat="22.40976178125" lon="114.33212979638672" /><trkpt lat="22.40967978125" lon="114.33209879638672" /><trkpt lat="22.40962178125" lon="114.33213479638673" /><trkpt lat="22.40955478125" lon="114.33210079638671" /><trkpt lat="22.40950778125" lon="114.33198279638673" /><trkpt lat="22.40945578125" lon="114.33180479638672" /><trkpt lat="22.40948678125" lon="114.33170479638672" /><trkpt lat="22.40952178125" lon="114.33167479638672" /><trkpt lat="22.40964378125" lon="114.33162379638672" /><trkpt lat="22.40977578125" lon="114.33156679638672" /><trkpt lat="22.40976178125" lon="114.33151179638672" /><trkpt lat="22.40975178125" lon="114.33134479638672" /><trkpt lat="22.40973178125" lon="114.33123179638672" /><trkpt lat="22.40968478125" lon="114.33114579638672" /><trkpt lat="22.40961178125" lon="114.33100679638672" /><trkpt lat="22.40960778125" lon="114.33080279638672" /><trkpt lat="22.40967778125" lon="114.33063579638672" /><trkpt lat="22.40961178125" lon="114.33054879638672" /><trkpt lat="22.40959178125" lon="114.33040179638672" /><trkpt lat="22.40943378125" lon="114.33036179638673" /><trkpt lat="22.40926478125" lon="114.33011579638672" /><trkpt lat="22.40916678125" lon="114.32997479638672" /><trkpt lat="22.40905478125" lon="114.32983779638671" /><trkpt lat="22.40901578125" lon="114.32971279638672" /><trkpt lat="22.40897878125" lon="114.32954979638671" /><trkpt lat="22.40901578125" lon="114.32925579638672" /><trkpt lat="22.40886778125" lon="114.32912379638672" /><trkpt lat="22.40879578125" lon="114.32899579638672" /><trkpt lat="22.40865378125" lon="114.32884579638672" /><trkpt lat="22.40849878125" lon="114.32876479638672" /><trkpt lat="22.40838678125" lon="114.32870779638672" /><trkpt lat="22.40814278125" lon="114.32856779638672" /><trkpt lat="22.40805578125" lon="114.32844979638672" /><trkpt lat="22.40798078125" lon="114.32818579638672" /><trkpt lat="22.40784578125" lon="114.32805279638671" /><trkpt lat="22.40761878125" lon="114.32776879638672" /><trkpt lat="22.40754378125" lon="114.32739579638672" /><trkpt lat="22.40751678125" lon="114.32736879638672" /><trkpt lat="22.40729878125" lon="114.32720679638672" /><trkpt lat="22.40714778125" lon="114.32704379638672" /><trkpt lat="22.40706478125" lon="114.32689879638671" /><trkpt lat="22.40696578125" lon="114.32667179638672" /><trkpt lat="22.40673278125" lon="114.32649779638672" /><trkpt lat="22.40667678125" lon="114.32636579638672" /><trkpt lat="22.40659978125" lon="114.32617379638671" /><trkpt lat="22.40652578125" lon="114.32602079638671" /><trkpt lat="22.40639078125" lon="114.32592079638673" /><trkpt lat="22.40626078125" lon="114.32580279638672" /><trkpt lat="22.40621978125" lon="114.32576579638672" /><trkpt lat="22.40591078125" lon="114.32568179638672" /><trkpt lat="22.40573178125" lon="114.32553379638672" /><trkpt lat="22.40564478125" lon="114.32546179638672" /><trkpt lat="22.40557078125" lon="114.32540179638671" /><trkpt lat="22.40538778125" lon="114.32525179638672" /><trkpt lat="22.405253981081856" lon="114.32514174873496" /></trkseg></trk></gpx>