<?xml version='1.0' encoding='UTF-8' ?><gpx version="1.1" creator="HikingTrailHK" xsi:schemaLocation="http://www.topografix.com/GPX/1/1 http://www.topografix.com/GPX/1/1/gpx.xsd" xmlns="http://www.topografix.com/GPX/1/1" xmlns:xsi="http://www.w3.org/2001/XMLSchema-instance"><metadata><name>鹿赤走廊@ 2022-08-13</name><desc></desc></metadata><trk><trkseg><trkpt lat="22.420676233444073" lon="114.33188678752548" /><trkpt lat="22.42113378125" lon="114.33217679638672" /><trkpt lat="22.42121378125" lon="114.33222679638672" /><trkpt lat="22.42140378125" lon="114.33230179638672" /><trkpt lat="22.42160378125" lon="114.33235179638672" /><trkpt lat="22.42162978125" lon="114.33244979638673" /><trkpt lat="22.42164078125" lon="114.33251479638672" /><trkpt lat="22.42168278125" lon="114.33276779638672" /><trkpt lat="22.42174078125" lon="114.33288879638671" /><trkpt lat="22.42187778125" lon="114.33308279638672" /><trkpt lat="22.42204178125" lon="114.33325479638673" /><trkpt lat="22.42218778125" lon="114.33342279638671" /><trkpt lat="22.42227078125" lon="114.33351579638672" /><trkpt lat="22.42233378125" lon="114.33357279638672" /><trkpt lat="22.42238278125" lon="114.33362379638672" /><trkpt lat="22.42252578125" lon="114.33378479638672" /><trkpt lat="22.42265878125" lon="114.33399179638671" /><trkpt lat="22.42269078125" lon="114.33405779638672" /><trkpt lat="22.42280178125" lon="114.33415979638671" /><trkpt lat="22.42288778125" lon="114.33424379638672" /><trkpt lat="22.42304678125" lon="114.33443479638672" /><trkpt lat="22.42325978125" lon="114.33459479638672" /><trkpt lat="22.42335178125" lon="114.33474479638672" /><trkpt lat="22.42343378125" lon="114.33488079638671" /><trkpt lat="22.42354478125" lon="114.33495479638673" /><trkpt lat="22.42365278125" lon="114.33503679638672" /><trkpt lat="22.42371078125" lon="114.33513379638671" /><trkpt lat="22.42376678125" lon="114.33523979638672" /><trkpt lat="22.42380978125" lon="114.33532179638672" /><trkpt lat="22.42386878125" lon="114.33543279638671" /><trkpt lat="22.42392978125" lon="114.33554579638673" /><trkpt lat="22.42396978125" lon="114.33562579638672" /><trkpt lat="22.42402678125" lon="114.33572079638672" /><trkpt lat="22.42408978125" lon="114.33583979638672" /><trkpt lat="22.42413578125" lon="114.33594079638672" /><trkpt lat="22.42417378125" lon="114.33607479638673" /><trkpt lat="22.42418478125" lon="114.33611379638671" /><trkpt lat="22.42423078125" lon="114.33624879638671" /><trkpt lat="22.42428278125" lon="114.33646179638671" /><trkpt lat="22.42443378125" lon="114.33650079638672" /><trkpt lat="22.42454978125" lon="114.33653179638672" /><trkpt lat="22.424647781250002" lon="114.33660379638673" /><trkpt lat="22.42473178125" lon="114.33668679638672" /><trkpt lat="22.42478878125" lon="114.33680379638672" /><trkpt lat="22.42484278125" lon="114.33694279638672" /><trkpt lat="22.42489078125" lon="114.33701579638672" /><trkpt lat="22.42495378125" lon="114.33710179638672" /><trkpt lat="22.42503878125" lon="114.33724479638671" /><trkpt lat="22.42503278125" lon="114.33731079638672" /><trkpt lat="22.42499278125" lon="114.33739279638672" /><trkpt lat="22.42496278125" lon="114.33745079638672" /><trkpt lat="22.42503178125" lon="114.33753879638672" /><trkpt lat="22.42509278125" lon="114.33762179638671" /><trkpt lat="22.42511178125" lon="114.33772679638672" /><trkpt lat="22.42508778125" lon="114.33782279638672" /><trkpt lat="22.42503278125" lon="114.33792479638672" /><trkpt lat="22.42501678125" lon="114.33805779638672" /><trkpt lat="22.42499378125" lon="114.33816179638671" /><trkpt lat="22.42490478125" lon="114.33832479638671" /><trkpt lat="22.42486178125" lon="114.33851279638672" /><trkpt lat="22.42483478125" lon="114.33878079638671" /><trkpt lat="22.42492878125" lon="114.33897779638671" /><trkpt lat="22.42489578125" lon="114.33905379638672" /><trkpt lat="22.42463378125" lon="114.33921079638672" /><trkpt lat="22.42467478125" lon="114.33935179638672" /><trkpt lat="22.42467178125" lon="114.33989979638672" /><trkpt lat="22.42462978125" lon="114.34011779638672" /><trkpt lat="22.42467978125" lon="114.34035079638672" /><trkpt lat="22.42474778125" lon="114.34056079638673" /><trkpt lat="22.42469978125" lon="114.34069479638671" /><trkpt lat="22.42471878125" lon="114.34078679638672" /><trkpt lat="22.42478778125" lon="114.34088679638671" /><trkpt lat="22.42481878125" lon="114.34102779638673" /><trkpt lat="22.42479278125" lon="114.34123979638672" /><trkpt lat="22.42489578125" lon="114.34159979638672" /><trkpt lat="22.42489978125" lon="114.34179279638671" /><trkpt lat="22.42489378125" lon="114.34204079638671" /><trkpt lat="22.42496878125" lon="114.34250279638673" /><trkpt lat="22.42499078125" lon="114.34266779638672" /><trkpt lat="22.42497778125" lon="114.34269379638671" /><trkpt lat="22.42472378125" lon="114.34268879638672" /><trkpt lat="22.42460178125" lon="114.34284779638672" /><trkpt lat="22.42420978125" lon="114.34311579638671" /><trkpt lat="22.42409778125" lon="114.34325879638672" /><trkpt lat="22.42399778125" lon="114.34331179638671" /><trkpt lat="22.42384278125" lon="114.34334679638673" /><trkpt lat="22.42381078125" lon="114.34350279638672" /><trkpt lat="22.42371378125" lon="114.34377279638672" /><trkpt lat="22.42367178125" lon="114.34380879638672" /><trkpt lat="22.42355278125" lon="114.34390879638671" /><trkpt lat="22.42349078125" lon="114.34411079638672" /><trkpt lat="22.42342178125" lon="114.34423479638671" /><trkpt lat="22.42344878125" lon="114.34438479638672" /><trkpt lat="22.42346378125" lon="114.34456079638672" /><trkpt lat="22.42336378125" lon="114.34474079638672" /><trkpt lat="22.42324178125" lon="114.34481479638671" /><trkpt lat="22.42315478125" lon="114.34489579638672" /><trkpt lat="22.42320478125" lon="114.34533179638672" /><trkpt lat="22.42319578125" lon="114.34536679638671" /><trkpt lat="22.42317178125" lon="114.34546279638671" /><trkpt lat="22.42313278125" lon="114.34571779638672" /><trkpt lat="22.42309478125" lon="114.34601279638672" /><trkpt lat="22.42305478125" lon="114.34613879638673" /><trkpt lat="22.42298478125" lon="114.34635879638672" /><trkpt lat="22.42288278125" lon="114.34652379638672" /><trkpt lat="22.42273478125" lon="114.34665079638671" /><trkpt lat="22.42255378125" lon="114.34680579638672" /><trkpt lat="22.42253078125" lon="114.34682479638671" /><trkpt lat="22.42235078125" lon="114.34689279638673" /><trkpt lat="22.42217178125" lon="114.34698079638672" /><trkpt lat="22.42224478125" lon="114.34704579638672" /><trkpt lat="22.42232578125" lon="114.34711479638672" /><trkpt lat="22.42217778125" lon="114.34735879638671" /><trkpt lat="22.42214878125" lon="114.34745979638672" /><trkpt lat="22.42209878125" lon="114.34762779638672" /><trkpt lat="22.42202778125" lon="114.34772179638672" /><trkpt lat="22.42197478125" lon="114.34781879638672" /><trkpt lat="22.42189378125" lon="114.34786879638672" /><trkpt lat="22.42180278125" lon="114.34816679638672" /><trkpt lat="22.42164978125" lon="114.34839879638672" /><trkpt lat="22.42155378125" lon="114.34857379638672" /><trkpt lat="22.42156678125" lon="114.34872379638672" /><trkpt lat="22.42160978125" lon="114.34890179638671" /><trkpt lat="22.42156778125" lon="114.34904379638672" /><trkpt lat="22.42153778125" lon="114.34932779638672" /><trkpt lat="22.42150478125" lon="114.34948679638671" /><trkpt lat="22.421419781250002" lon="114.34989079638672" /><trkpt lat="22.42148378125" lon="114.35021479638672" /><trkpt lat="22.42154578125" lon="114.35052479638672" /><trkpt lat="22.42159378125" lon="114.35065979638672" /><trkpt lat="22.42143278125" lon="114.35097079638672" /><trkpt lat="22.42134578125" lon="114.35106079638672" /><trkpt lat="22.42133878125" lon="114.35119879638673" /><trkpt lat="22.42111278125" lon="114.35142679638672" /><trkpt lat="22.42106478125" lon="114.35169079638672" /><trkpt lat="22.42092278125" lon="114.35190379638672" /><trkpt lat="22.42067378125" lon="114.35231879638673" /><trkpt lat="22.42010678125" lon="114.35242579638673" /><trkpt lat="22.41957678125" lon="114.35335879638671" /><trkpt lat="22.41926478125" lon="114.35339579638672" /><trkpt lat="22.41927578125" lon="114.35371679638672" /><trkpt lat="22.41911578125" lon="114.35388479638672" /><trkpt lat="22.41888678125" lon="114.35400079638671" /><trkpt lat="22.41877878125" lon="114.35422179638672" /><trkpt lat="22.41857578125" lon="114.35429779638672" /><trkpt lat="22.41826778125" lon="114.35450179638671" /><trkpt lat="22.41794078125" lon="114.35451779638672" /><trkpt lat="22.41771978125" lon="114.35438279638672" /><trkpt lat="22.41722578125" lon="114.35416879638672" /><trkpt lat="22.41719378125" lon="114.35406379638673" /><trkpt lat="22.41714978125" lon="114.35406879638671" /><trkpt lat="22.41706878125" lon="114.35407779638672" /><trkpt lat="22.41686978125" lon="114.35409979638672" /><trkpt lat="22.41665578125" lon="114.35435379638672" /><trkpt lat="22.41643578125" lon="114.35445579638672" /><trkpt lat="22.41628378125" lon="114.35452679638672" /><trkpt lat="22.41552478125" lon="114.35463779638673" /><trkpt lat="22.41397978125" lon="114.35569979638672" /><trkpt lat="22.41390178125" lon="114.35569579638671" /><trkpt lat="22.41387078125" lon="114.35535579638672" /><trkpt lat="22.41351978125" lon="114.35491879638671" /><trkpt lat="22.41338078125" lon="114.35500879638671" /><trkpt lat="22.41308278125" lon="114.35520279638672" /><trkpt lat="22.41312178125" lon="114.35494679638671" /><trkpt lat="22.413029942824778" lon="114.35509485742023" /><trkpt lat="22.4130304507359" lon="114.35526571656834" /><trkpt lat="22.41299878125" lon="114.35530379638672" /><trkpt lat="22.41262378125" lon="114.35542979638672" /><trkpt lat="22.41249278125" lon="114.35570679638671" /><trkpt lat="22.41201078125" lon="114.35607079638672" /><trkpt lat="22.41161078125" lon="114.35627279638672" /><trkpt lat="22.41155578125" lon="114.35639479638672" /><trkpt lat="22.41112778125" lon="114.35641279638672" /><trkpt lat="22.41067678125" lon="114.35655579638671" /><trkpt lat="22.41022878125" lon="114.35650479638672" /><trkpt lat="22.40893578125" lon="114.35682179638673" /><trkpt lat="22.40888478125" lon="114.35715279638671" /><trkpt lat="22.40885578125" lon="114.35744279638672" /><trkpt lat="22.40863878125" lon="114.35744479638672" /><trkpt lat="22.40835978125" lon="114.35802879638672" /><trkpt lat="22.40827078125" lon="114.35814379638671" /><trkpt lat="22.40810678125" lon="114.35831679638672" /><trkpt lat="22.40799578125" lon="114.35839879638672" /><trkpt lat="22.40791778125" lon="114.35828479638671" /><trkpt lat="22.40785678125" lon="114.35802079638673" /><trkpt lat="22.40769578125" lon="114.35785379638672" /><trkpt lat="22.40767778125" lon="114.35760179638672" /><trkpt lat="22.40752378125" lon="114.35716979638671" /><trkpt lat="22.40750978125" lon="114.35677179638672" /><trkpt lat="22.40750778125" lon="114.35672179638672" /><trkpt lat="22.40755078125" lon="114.35648279638671" /><trkpt lat="22.40751878125" lon="114.35636579638673" /><trkpt lat="22.40747878125" lon="114.35616479638672" /><trkpt lat="22.40741878125" lon="114.35593579638672" /><trkpt lat="22.40722178125" lon="114.35572179638672" /><trkpt lat="22.40646578125" lon="114.35547079638673" /><trkpt lat="22.40621478125" lon="114.35550079638672" /><trkpt lat="22.40610978125" lon="114.35548779638673" /><trkpt lat="22.40589378125" lon="114.35552579638671" /><trkpt lat="22.40583378125" lon="114.35553579638672" /><trkpt lat="22.40579178125" lon="114.35562479638672" /><trkpt lat="22.40575478125" lon="114.35563579638672" /><trkpt lat="22.40560478125" lon="114.35576179638672" /><trkpt lat="22.40557378125" lon="114.35587479638671" /><trkpt lat="22.40545678125" lon="114.35599279638672" /><trkpt lat="22.40540778125" lon="114.35609179638672" /><trkpt lat="22.40532678125" lon="114.35625279638671" /><trkpt lat="22.40523778125" lon="114.35633079638671" /><trkpt lat="22.40516478125" lon="114.35636379638672" /><trkpt lat="22.40501178125" lon="114.35640079638672" /><trkpt lat="22.40492078125" lon="114.35638579638672" /><trkpt lat="22.40483178125" lon="114.35638579638672" /><trkpt lat="22.40471278125" lon="114.35644379638671" /><trkpt lat="22.40451278125" lon="114.35654879638672" /><trkpt lat="22.40442378125" lon="114.35656279638673" /><trkpt lat="22.40433178125" lon="114.35659279638672" /><trkpt lat="22.40422478125" lon="114.35661779638671" /><trkpt lat="22.40413678125" lon="114.35662779638672" /><trkpt lat="22.40405778125" lon="114.35664179638673" /><trkpt lat="22.40396278125" lon="114.35672279638672" /><trkpt lat="22.40383478125" lon="114.35685279638672" /><trkpt lat="22.40375578125" lon="114.35694079638672" /><trkpt lat="22.40370678125" lon="114.35700879638672" /><trkpt lat="22.40361078125" lon="114.35704179638672" /><trkpt lat="22.40355278125" lon="114.35713579638671" /><trkpt lat="22.40346678125" lon="114.35728779638671" /><trkpt lat="22.40327878125" lon="114.35744479638672" /><trkpt lat="22.40317478125" lon="114.35750979638672" /><trkpt lat="22.40313578125" lon="114.35758179638673" /><trkpt lat="22.40306478125" lon="114.35760979638673" /><trkpt lat="22.40289978125" lon="114.35773579638672" /><trkpt lat="22.40280378125" lon="114.35780679638673" /><trkpt lat="22.40270778125" lon="114.35789679638673" /><trkpt lat="22.40260078125" lon="114.35795379638672" /><trkpt lat="22.40255178125" lon="114.35798479638672" /><trkpt lat="22.40246978125" lon="114.35802679638672" /><trkpt lat="22.40237878125" lon="114.35809679638672" /><trkpt lat="22.40238278125" lon="114.35821379638672" /><trkpt lat="22.40245178125" lon="114.35829879638672" /><trkpt lat="22.40249478125" lon="114.35839479638672" /><trkpt lat="22.40241678125" lon="114.35856579638671" /><trkpt lat="22.40234378125" lon="114.35861079638671" /><trkpt lat="22.40235578125" lon="114.35865579638671" /><trkpt lat="22.40228778125" lon="114.35874379638672" /><trkpt lat="22.40223678125" lon="114.35877679638672" /><trkpt lat="22.40220978125" lon="114.35882879638672" /><trkpt lat="22.40209078125" lon="114.35895879638672" /><trkpt lat="22.40202078125" lon="114.35895079638672" /><trkpt lat="22.40198978125" lon="114.35896979638672" /><trkpt lat="22.40188778125" lon="114.35901379638672" /><trkpt lat="22.40182478125" lon="114.35914779638672" /><trkpt lat="22.40175478125" lon="114.35922379638671" /><trkpt lat="22.40168178125" lon="114.35928779638672" /><trkpt lat="22.40169578125" lon="114.35920279638673" /><trkpt lat="22.40173778125" lon="114.35909279638672" /><trkpt lat="22.40176178125" lon="114.35897679638671" /><trkpt lat="22.40177378125" lon="114.35886979638671" /><trkpt lat="22.40174878125" lon="114.35870679638671" /><trkpt lat="22.40172978125" lon="114.35876879638671" /><trkpt lat="22.40170678125" lon="114.35887079638673" /><trkpt lat="22.40161778125" lon="114.35896479638672" /><trkpt lat="22.40159178125" lon="114.35895279638672" /><trkpt lat="22.40156378125" lon="114.35876179638672" /><trkpt lat="22.40143578125" lon="114.35878379638672" /><trkpt lat="22.40145178125" lon="114.35891079638672" /><trkpt lat="22.40138578125" lon="114.35896379638672" /><trkpt lat="22.40125678125" lon="114.35893779638671" /><trkpt lat="22.40115878125" lon="114.35877379638671" /><trkpt lat="22.40097678125" lon="114.35869679638672" /><trkpt lat="22.40092178125" lon="114.35869679638672" /><trkpt lat="22.40079078125" lon="114.35852679638671" /><trkpt lat="22.40071278125" lon="114.35818879638671" /><trkpt lat="22.40076278125" lon="114.35813779638671" /><trkpt lat="22.40075478125" lon="114.35804479638672" /><trkpt lat="22.40067278125" lon="114.35798979638672" /><trkpt lat="22.40055378125" lon="114.35803779638672" /><trkpt lat="22.40030678125" lon="114.35806779638672" /><trkpt lat="22.40010478125" lon="114.35820679638672" /><trkpt lat="22.40002678125" lon="114.35818779638672" /><trkpt lat="22.39995778125" lon="114.35817079638672" /><trkpt lat="22.39984078125" lon="114.35823979638671" /><trkpt lat="22.39972778125" lon="114.35823779638672" /><trkpt lat="22.39964578125" lon="114.35822279638671" /><trkpt lat="22.39955878125" lon="114.35816279638672" /><trkpt lat="22.39940778125" lon="114.35812579638672" /><trkpt lat="22.39934678125" lon="114.35816679638671" /><trkpt lat="22.39928178125" lon="114.35828379638671" /><trkpt lat="22.39916278125" lon="114.35836379638671" /><trkpt lat="22.39909178125" lon="114.35849979638672" /><trkpt lat="22.39891778125" lon="114.35862479638672" /><trkpt lat="22.39887978125" lon="114.35866479638672" /><trkpt lat="22.39868178125" lon="114.35877779638672" /><trkpt lat="22.39850578125" lon="114.35888579638672" /><trkpt lat="22.39842078125" lon="114.35892879638672" /><trkpt lat="22.39834378125" lon="114.35901679638673" /><trkpt lat="22.39814578125" lon="114.35903779638672" /><trkpt lat="22.39801578125" lon="114.35908579638672" /><trkpt lat="22.39796678125" lon="114.35923879638672" /><trkpt lat="22.39791878125" lon="114.35936179638672" /><trkpt lat="22.39788578125" lon="114.35948879638671" /><trkpt lat="22.39786078125" lon="114.35969379638672" /><trkpt lat="22.39773678125" lon="114.35967279638672" /><trkpt lat="22.39761278125" lon="114.35969379638672" /><trkpt lat="22.39749378125" lon="114.35965279638671" /><trkpt lat="22.39740278125" lon="114.35962379638671" /><trkpt lat="22.39733378125" lon="114.35965879638673" /><trkpt lat="22.39721078125" lon="114.35968179638672" /><trkpt lat="22.39709878125" lon="114.35968179638672" /><trkpt lat="22.39702978125" lon="114.35965679638672" /><trkpt lat="22.39692978125" lon="114.35965479638672" /><trkpt lat="22.39679278125" lon="114.35979779638672" /><trkpt lat="22.39665478125" lon="114.35981079638672" /><trkpt lat="22.39657778125" lon="114.35990879638672" /><trkpt lat="22.39647078125" lon="114.35993379638671" /><trkpt lat="22.39636478125" lon="114.35994679638672" /><trkpt lat="22.39627078125" lon="114.35995779638672" /><trkpt lat="22.39615178125" lon="114.35999979638672" /><trkpt lat="22.39607978125" lon="114.36002479638672" /><trkpt lat="22.39571578125" lon="114.35979179638672" /><trkpt lat="22.39569478125" lon="114.35977579638671" /><trkpt lat="22.39567778125" lon="114.35975979638673" /><trkpt lat="22.39566178125" lon="114.35974379638672" /><trkpt lat="22.39564578125" lon="114.35972479638671" /><trkpt lat="22.39563178125" lon="114.35970679638672" /><trkpt lat="22.39561978125" lon="114.35968379638672" /><trkpt lat="22.39561678125" lon="114.35967979638671" /><trkpt lat="22.39561278125" lon="114.35967679638672" /><trkpt lat="22.39560878125" lon="114.35967379638672" /><trkpt lat="22.39560378125" lon="114.35967179638672" /><trkpt lat="22.39559978125" lon="114.35966979638673" /><trkpt lat="22.39554478125" lon="114.35965279638671" /><trkpt lat="22.39553778125" lon="114.35967579638672" /><trkpt lat="22.39552878125" lon="114.35969779638671" /><trkpt lat="22.39551878125" lon="114.35971979638671" /><trkpt lat="22.39550678125" lon="114.35973879638672" /><trkpt lat="22.39549478125" lon="114.35975779638672" /><trkpt lat="22.395481781249998" lon="114.35977579638671" /><trkpt lat="22.39546378125" lon="114.35979579638672" /><trkpt lat="22.39544578125" lon="114.35981379638672" /><trkpt lat="22.39542378125" lon="114.35983279638671" /><trkpt lat="22.39539978125" lon="114.35984979638671" /><trkpt lat="22.39537678125" lon="114.35986479638672" /><trkpt lat="22.39535278125" lon="114.35987679638671" /><trkpt lat="22.39532978125" lon="114.35988679638672" /><trkpt lat="22.39530478125" lon="114.35989479638671" /><trkpt lat="22.39528178125" lon="114.35990079638673" /><trkpt lat="22.39525678125" lon="114.35990579638671" /><trkpt lat="22.39522978125" lon="114.35990879638672" /><trkpt lat="22.39520278125" lon="114.35991079638671" /><trkpt lat="22.39517878125" lon="114.35990979638672" /><trkpt lat="22.39514178125" lon="114.35990679638672" /><trkpt lat="22.39512578125" lon="114.35990679638672" /><trkpt lat="22.39510578125" lon="114.35990779638672" /><trkpt lat="22.39507978125" lon="114.35991079638671" /><trkpt lat="22.39505378125" lon="114.35991479638672" /><trkpt lat="22.39503178125" lon="114.35992079638672" /><trkpt lat="22.39501078125" lon="114.35992879638673" /><trkpt lat="22.39499478125" lon="114.35993779638672" /><trkpt lat="22.39498078125" lon="114.35994779638672" /><trkpt lat="22.39496478125" lon="114.35996179638671" /><trkpt lat="22.39494578125" lon="114.35998079638672" /><trkpt lat="22.39492578125" lon="114.36000179638671" /><trkpt lat="22.39490878125" lon="114.36002179638672" /><trkpt lat="22.39487278125" lon="114.36008179638672" /><trkpt lat="22.394795558609598" lon="114.36017106795285" /></trkseg></trk></gpx>