<?xml version='1.0' encoding='UTF-8' ?><gpx version="1.1" creator="HikingTrailHK" xsi:schemaLocation="http://www.topografix.com/GPX/1/1 http://www.topografix.com/GPX/1/1/gpx.xsd" xmlns="http://www.topografix.com/GPX/1/1" xmlns:xsi="http://www.w3.org/2001/XMLSchema-instance"><metadata><name>麥三 @ 2016-7-9</name><desc></desc></metadata><trk><trkseg><trkpt lat="22.420072570547163" lon="114.33149758906721" /><trkpt lat="22.42066678125" lon="114.33188079638671" /><trkpt lat="22.42072378125" lon="114.33179379638672" /><trkpt lat="22.42066478125" lon="114.33171879638672" /><trkpt lat="22.42062478125" lon="114.33162779638671" /><trkpt lat="22.42053578125" lon="114.33151579638673" /><trkpt lat="22.42053278125" lon="114.33139179638673" /><trkpt lat="22.42059978125" lon="114.33129779638672" /><trkpt lat="22.42077578125" lon="114.33122279638673" /><trkpt lat="22.42090978125" lon="114.33111279638672" /><trkpt lat="22.42097978125" lon="114.33108879638672" /><trkpt lat="22.42103178125" lon="114.33104879638672" /><trkpt lat="22.42113078125" lon="114.33097379638671" /><trkpt lat="22.42114578125" lon="114.33090679638671" /><trkpt lat="22.42127178125" lon="114.33085279638672" /><trkpt lat="22.42129578125" lon="114.33071379638672" /><trkpt lat="22.42139478125" lon="114.33056879638671" /><trkpt lat="22.42171278125" lon="114.33057379638672" /><trkpt lat="22.42171278125" lon="114.33038479638672" /><trkpt lat="22.42190978125" lon="114.33005879638672" /><trkpt lat="22.42214878125" lon="114.32992679638672" /><trkpt lat="22.42232278125" lon="114.32969179638673" /><trkpt lat="22.42254778125" lon="114.32957379638673" /><trkpt lat="22.42266278125" lon="114.32918979638671" /><trkpt lat="22.42293978125" lon="114.32830179638673" /><trkpt lat="22.42287778125" lon="114.32773879638673" /><trkpt lat="22.42248078125" lon="114.32722379638672" /><trkpt lat="22.42215578125" lon="114.32681379638672" /><trkpt lat="22.42209478125" lon="114.32650679638672" /><trkpt lat="22.42214778125" lon="114.32626679638672" /><trkpt lat="22.42233678125" lon="114.32613079638672" /><trkpt lat="22.42239178125" lon="114.32582079638672" /><trkpt lat="22.42235678125" lon="114.32551979638671" /><trkpt lat="22.42216278125" lon="114.32530179638673" /><trkpt lat="22.42220378125" lon="114.32430479638671" /><trkpt lat="22.42216778125" lon="114.32397179638672" /><trkpt lat="22.42233378125" lon="114.32370579638672" /><trkpt lat="22.42225478125" lon="114.32353879638671" /><trkpt lat="22.42226478125" lon="114.32346979638672" /><trkpt lat="22.42224978125" lon="114.32338179638671" /><trkpt lat="22.42227878125" lon="114.32329079638671" /><trkpt lat="22.42223978125" lon="114.32299979638672" /><trkpt lat="22.42225278125" lon="114.32287879638672" /><trkpt lat="22.42222878125" lon="114.32279279638672" /><trkpt lat="22.42218478125" lon="114.32273679638672" /><trkpt lat="22.42213878125" lon="114.32268979638673" /><trkpt lat="22.42211578125" lon="114.32262079638672" /><trkpt lat="22.42207278125" lon="114.32260079638672" /><trkpt lat="22.42207178125" lon="114.32251779638672" /><trkpt lat="22.42211478125" lon="114.32243779638672" /><trkpt lat="22.42218478125" lon="114.32231179638671" /><trkpt lat="22.42225578125" lon="114.32182379638672" /><trkpt lat="22.42235378125" lon="114.32134679638672" /><trkpt lat="22.42268278125" lon="114.32089379638671" /><trkpt lat="22.42268278125" lon="114.32045679638672" /><trkpt lat="22.42290378125" lon="114.32014679638672" /><trkpt lat="22.42303878125" lon="114.31977179638672" /><trkpt lat="22.42332078125" lon="114.31960579638672" /><trkpt lat="22.42348978125" lon="114.31936579638672" /><trkpt lat="22.42383078125" lon="114.31931279638673" /><trkpt lat="22.42389678125" lon="114.31916079638673" /><trkpt lat="22.42386978125" lon="114.31877279638672" /><trkpt lat="22.42408578125" lon="114.31852179638672" /><trkpt lat="22.42426678125" lon="114.31812579638672" /><trkpt lat="22.42461678125" lon="114.31772079638672" /><trkpt lat="22.42475178125" lon="114.31731379638671" /><trkpt lat="22.42504278125" lon="114.31710779638672" /><trkpt lat="22.42530678125" lon="114.31652179638672" /><trkpt lat="22.42564778125" lon="114.31636279638671" /><trkpt lat="22.42577378125" lon="114.31606579638672" /><trkpt lat="22.42593878125" lon="114.31541479638672" /><trkpt lat="22.42593078125" lon="114.31504379638672" /><trkpt lat="22.42612378125" lon="114.31474079638672" /><trkpt lat="22.42629278125" lon="114.31387079638672" /><trkpt lat="22.42640878125" lon="114.31306179638672" /><trkpt lat="22.42658578125" lon="114.31275979638671" /><trkpt lat="22.42660678125" lon="114.31224579638672" /><trkpt lat="22.42650178125" lon="114.31181779638672" /><trkpt lat="22.42708278125" lon="114.31112979638672" /><trkpt lat="22.42761578125" lon="114.31073879638672" /><trkpt lat="22.42827278125" lon="114.31001479638672" /><trkpt lat="22.42865778125" lon="114.30971879638672" /><trkpt lat="22.42867978125" lon="114.30932979638672" /><trkpt lat="22.42857878125" lon="114.30877579638671" /><trkpt lat="22.42841578125" lon="114.30815379638672" /><trkpt lat="22.42851978125" lon="114.30777879638671" /><trkpt lat="22.42856878125" lon="114.30746879638671" /><trkpt lat="22.42845878125" lon="114.30723679638672" /><trkpt lat="22.42834778125" lon="114.30710279638672" /><trkpt lat="22.42812378125" lon="114.30698979638672" /><trkpt lat="22.42803078125" lon="114.30697779638672" /><trkpt lat="22.42781878125" lon="114.30707779638672" /><trkpt lat="22.42758478125" lon="114.30714679638672" /><trkpt lat="22.42736778125" lon="114.30733079638672" /><trkpt lat="22.42717078125" lon="114.30763179638672" /><trkpt lat="22.42686178125" lon="114.30797479638672" /><trkpt lat="22.42669678125" lon="114.30799879638671" /><trkpt lat="22.42657878125" lon="114.30803979638672" /><trkpt lat="22.42637578125" lon="114.30816379638672" /><trkpt lat="22.42627878125" lon="114.30822379638671" /><trkpt lat="22.42611978125" lon="114.30822079638672" /><trkpt lat="22.42596278125" lon="114.30812779638671" /><trkpt lat="22.42583878125" lon="114.30801179638672" /><trkpt lat="22.42558178125" lon="114.30761779638672" /><trkpt lat="22.42539378125" lon="114.30748679638671" /><trkpt lat="22.42504578125" lon="114.30747579638673" /><trkpt lat="22.42482378125" lon="114.30756679638672" /><trkpt lat="22.42409878125" lon="114.30744979638672" /><trkpt lat="22.42385378125" lon="114.30720979638672" /><trkpt lat="22.42386178125" lon="114.30713879638672" /><trkpt lat="22.42380078125" lon="114.30710379638671" /><trkpt lat="22.42372578125" lon="114.30703779638672" /><trkpt lat="22.42366178125" lon="114.30691179638671" /><trkpt lat="22.42362178125" lon="114.30690679638671" /><trkpt lat="22.42354078125" lon="114.30696079638672" /><trkpt lat="22.42344878125" lon="114.30687279638671" /><trkpt lat="22.42340778125" lon="114.30687179638672" /><trkpt lat="22.42335678125" lon="114.30692079638672" /><trkpt lat="22.42330178125" lon="114.30691779638671" /><trkpt lat="22.42321978125" lon="114.30679879638672" /><trkpt lat="22.42313478125" lon="114.30675179638672" /><trkpt lat="22.42304778125" lon="114.30679379638671" /><trkpt lat="22.42296178125" lon="114.30678579638672" /><trkpt lat="22.42279078125" lon="114.30691879638673" /><trkpt lat="22.42267878125" lon="114.30689279638672" /><trkpt lat="22.42261878125" lon="114.30683879638671" /><trkpt lat="22.42257878125" lon="114.30663279638672" /><trkpt lat="22.42238378125" lon="114.30646879638672" /><trkpt lat="22.42218778125" lon="114.30634779638672" /><trkpt lat="22.42152478125" lon="114.30609179638672" /><trkpt lat="22.42138678125" lon="114.30607079638672" /><trkpt lat="22.42121178125" lon="114.30637479638672" /><trkpt lat="22.42087378125" lon="114.30653679638672" /><trkpt lat="22.42069978125" lon="114.30678679638672" /><trkpt lat="22.42040678125" lon="114.30701679638672" /><trkpt lat="22.42025978125" lon="114.30700779638671" /><trkpt lat="22.42005178125" lon="114.30702379638672" /><trkpt lat="22.41991478125" lon="114.30703779638672" /><trkpt lat="22.41979578125" lon="114.30700979638672" /><trkpt lat="22.41972278125" lon="114.30695979638672" /><trkpt lat="22.41963778125" lon="114.30694879638672" /><trkpt lat="22.41955078125" lon="114.30690379638672" /><trkpt lat="22.41938778125" lon="114.30654679638671" /><trkpt lat="22.41928578125" lon="114.30644179638672" /><trkpt lat="22.41905978125" lon="114.30644479638671" /><trkpt lat="22.41896478125" lon="114.30627279638672" /><trkpt lat="22.41882578125" lon="114.30643379638671" /><trkpt lat="22.41877978125" lon="114.30633979638672" /><trkpt lat="22.41884478125" lon="114.30606679638672" /><trkpt lat="22.41872578125" lon="114.30589179638672" /><trkpt lat="22.41869778125" lon="114.30577979638672" /><trkpt lat="22.41864878125" lon="114.30569379638672" /><trkpt lat="22.41854978125" lon="114.30567479638673" /><trkpt lat="22.41847778125" lon="114.30566679638672" /><trkpt lat="22.41834378125" lon="114.30566679638672" /><trkpt lat="22.41824978125" lon="114.30560779638672" /><trkpt lat="22.41813678125" lon="114.30559979638672" /><trkpt lat="22.41771978125" lon="114.30580979638673" /><trkpt lat="22.41745278125" lon="114.30602079638672" /><trkpt lat="22.41731878125" lon="114.30610979638672" /><trkpt lat="22.41712578125" lon="114.30625679638672" /><trkpt lat="22.41701578125" lon="114.30632379638672" /><trkpt lat="22.41690778125" lon="114.30636479638672" /><trkpt lat="22.41687078125" lon="114.30632079638671" /><trkpt lat="22.41671878125" lon="114.30616979638671" /><trkpt lat="22.41666878125" lon="114.30603279638672" /><trkpt lat="22.41658078125" lon="114.30593179638672" /><trkpt lat="22.41655778125" lon="114.30569179638672" /><trkpt lat="22.41644678125" lon="114.30564479638672" /><trkpt lat="22.41634078125" lon="114.30559779638672" /><trkpt lat="22.41612678125" lon="114.30535879638671" /><trkpt lat="22.41604378125" lon="114.30509279638672" /><trkpt lat="22.41589778125" lon="114.30491079638672" /><trkpt lat="22.41583078125" lon="114.30481179638672" /><trkpt lat="22.41567978125" lon="114.30457779638672" /><trkpt lat="22.41551278125" lon="114.30438479638671" /><trkpt lat="22.41544478125" lon="114.30413479638672" /><trkpt lat="22.41522078125" lon="114.30383279638671" /><trkpt lat="22.41506478125" lon="114.30364579638672" /><trkpt lat="22.41499678125" lon="114.30344779638672" /><trkpt lat="22.41494478125" lon="114.30324479638672" /><trkpt lat="22.41492478125" lon="114.30301579638672" /><trkpt lat="22.41486778125" lon="114.30275279638671" /><trkpt lat="22.41500678125" lon="114.30241779638672" /><trkpt lat="22.41502478125" lon="114.30221979638672" /><trkpt lat="22.41505978125" lon="114.30199479638672" /><trkpt lat="22.41512178125" lon="114.30183879638672" /><trkpt lat="22.41510178125" lon="114.30164079638672" /><trkpt lat="22.41520578125" lon="114.30143279638672" /><trkpt lat="22.41527878125" lon="114.30122979638672" /><trkpt lat="22.41528378125" lon="114.30107379638672" /><trkpt lat="22.41535678125" lon="114.30094279638672" /><trkpt lat="22.41539278125" lon="114.30078679638672" /><trkpt lat="22.41547078125" lon="114.30059979638672" /><trkpt lat="22.41552878125" lon="114.30046979638672" /><trkpt lat="22.41561678125" lon="114.30034479638672" /><trkpt lat="22.41569978125" lon="114.30015179638671" /><trkpt lat="22.41577878125" lon="114.29992279638672" /><trkpt lat="22.41573178125" lon="114.29964679638672" /><trkpt lat="22.41566878125" lon="114.29944879638671" /><trkpt lat="22.41563278125" lon="114.29917779638672" /><trkpt lat="22.41557978125" lon="114.29899879638671" /><trkpt lat="22.41549278125" lon="114.29876879638672" /><trkpt lat="22.41534678125" lon="114.29874579638673" /><trkpt lat="22.41520578125" lon="114.29871479638672" /><trkpt lat="22.41517978125" lon="114.29849579638672" /><trkpt lat="22.41522678125" lon="114.29829279638672" /><trkpt lat="22.41527878125" lon="114.29806879638672" /><trkpt lat="22.41534078125" lon="114.29796479638672" /><trkpt lat="22.41542378125" lon="114.29781879638672" /><trkpt lat="22.41537178125" lon="114.29767379638672" /><trkpt lat="22.41535178125" lon="114.29752779638672" /><trkpt lat="22.41541878125" lon="114.29743379638671" /><trkpt lat="22.41549178125" lon="114.29731879638672" /><trkpt lat="22.41541878125" lon="114.29703279638672" /><trkpt lat="22.415554781250002" lon="114.29690779638672" /><trkpt lat="22.41564778125" lon="114.29670479638672" /><trkpt lat="22.41566378125" lon="114.29651779638672" /><trkpt lat="22.41569478125" lon="114.29634079638672" /><trkpt lat="22.41568478125" lon="114.29616879638672" /><trkpt lat="22.415751781250002" lon="114.29601779638672" /><trkpt lat="22.41573178125" lon="114.29582479638673" /><trkpt lat="22.41565378125" lon="114.29568979638672" /><trkpt lat="22.41569978125" lon="114.29559079638672" /><trkpt lat="22.41568478125" lon="114.29547579638673" /><trkpt lat="22.41574178125" lon="114.29533579638672" /><trkpt lat="22.41571078125" lon="114.29518479638672" /><trkpt lat="22.41569478125" lon="114.29500179638671" /><trkpt lat="22.41567978125" lon="114.29488779638672" /><trkpt lat="22.41560078125" lon="114.29476279638672" /><trkpt lat="22.415554781250002" lon="114.29467379638672" /><trkpt lat="22.41555978125" lon="114.29455979638672" /><trkpt lat="22.41548178125" lon="114.29441879638672" /><trkpt lat="22.41546578125" lon="114.29429379638673" /><trkpt lat="22.41539778125" lon="114.29416379638671" /><trkpt lat="22.41534578125" lon="114.29408079638672" /><trkpt lat="22.41548178125" lon="114.29392479638672" /><trkpt lat="22.41547678125" lon="114.29373679638672" /><trkpt lat="22.41563778125" lon="114.29375779638671" /><trkpt lat="22.41559078125" lon="114.29362279638671" /><trkpt lat="22.41576778125" lon="114.29373679638672" /><trkpt lat="22.41593478125" lon="114.29386179638672" /><trkpt lat="22.41603378125" lon="114.29392979638672" /><trkpt lat="22.41616878125" lon="114.29387779638672" /><trkpt lat="22.41610078125" lon="114.29373179638672" /><trkpt lat="22.41612678125" lon="114.29352879638672" /><trkpt lat="22.41609578125" lon="114.29333579638671" /><trkpt lat="22.41604878125" lon="114.29309679638672" /><trkpt lat="22.41606978125" lon="114.29265879638672" /><trkpt lat="22.41605978125" lon="114.29253379638672" /><trkpt lat="22.41610078125" lon="114.29237779638672" /><trkpt lat="22.41625178125" lon="114.29230979638672" /><trkpt lat="22.41628378125" lon="114.29220079638672" /><trkpt lat="22.41628378125" lon="114.29206579638672" /><trkpt lat="22.41627778125" lon="114.29198179638672" /><trkpt lat="22.41631978125" lon="114.29182079638672" /><trkpt lat="22.41644978125" lon="114.29160779638671" /><trkpt lat="22.41646078125" lon="114.29142979638672" /><trkpt lat="22.41654878125" lon="114.29134179638672" /><trkpt lat="22.41664778125" lon="114.29122179638672" /><trkpt lat="22.41668478125" lon="114.29101379638672" /><trkpt lat="22.41663178125" lon="114.29096979638672" /><trkpt lat="22.41658578125" lon="114.29093079638672" /><trkpt lat="22.41637178125" lon="114.29084179638672" /><trkpt lat="22.41624178125" lon="114.29071179638672" /><trkpt lat="22.41614278125" lon="114.29053479638672" /><trkpt lat="22.41610678125" lon="114.29040979638673" /><trkpt lat="22.41592978125" lon="114.29021679638672" /><trkpt lat="22.41572578125" lon="114.29005079638672" /><trkpt lat="22.41561178125" lon="114.28985279638673" /><trkpt lat="22.41555978125" lon="114.28965979638672" /><trkpt lat="22.41542978125" lon="114.28956079638672" /><trkpt lat="22.41537178125" lon="114.28924879638672" /><trkpt lat="22.41533578125" lon="114.28904579638672" /><trkpt lat="22.41535678125" lon="114.28892579638672" /><trkpt lat="22.41529878125" lon="114.28867079638673" /><trkpt lat="22.41527878125" lon="114.28848879638672" /><trkpt lat="22.41523678125" lon="114.28838979638672" /><trkpt lat="22.41507578125" lon="114.28826979638671" /><trkpt lat="22.41487278125" lon="114.28812379638671" /><trkpt lat="22.41478878125" lon="114.28795179638672" /><trkpt lat="22.41465378125" lon="114.28786379638672" /><trkpt lat="22.41450278125" lon="114.28770779638671" /><trkpt lat="22.41428378125" lon="114.28764479638672" /><trkpt lat="22.41411178125" lon="114.28758279638672" /><trkpt lat="22.41391378125" lon="114.28757179638671" /><trkpt lat="22.41378978125" lon="114.28758279638672" /><trkpt lat="22.41360178125" lon="114.28750979638671" /><trkpt lat="22.41346078125" lon="114.28745179638672" /><trkpt lat="22.41323178125" lon="114.28757179638671" /><trkpt lat="22.41300278125" lon="114.28756179638673" /><trkpt lat="22.41286778125" lon="114.28756679638671" /><trkpt lat="22.41269078125" lon="114.28737979638672" /><trkpt lat="22.41240978125" lon="114.28724379638672" /><trkpt lat="22.41228978125" lon="114.28711879638672" /><trkpt lat="22.41216978125" lon="114.28700979638671" /><trkpt lat="22.41203478125" lon="114.28676479638672" /><trkpt lat="22.41191978125" lon="114.28657779638672" /><trkpt lat="22.41169578125" lon="114.28657179638672" /><trkpt lat="22.41155078125" lon="114.28668679638672" /><trkpt lat="22.41142578125" lon="114.28691079638672" /><trkpt lat="22.41135278125" lon="114.28710879638672" /><trkpt lat="22.41117578125" lon="114.28732679638672" /><trkpt lat="22.41092578125" lon="114.28734779638671" /><trkpt lat="22.41078478125" lon="114.28734379638672" /><trkpt lat="22.41063378125" lon="114.28726479638672" /><trkpt lat="22.41043078125" lon="114.28721779638671" /><trkpt lat="22.41029578125" lon="114.28709279638672" /><trkpt lat="22.41016578125" lon="114.28695279638671" /><trkpt lat="22.41024378125" lon="114.28675979638672" /><trkpt lat="22.41034278125" lon="114.28650479638672" /><trkpt lat="22.41049878125" lon="114.28632779638671" /><trkpt lat="22.41065978125" lon="114.28615579638672" /><trkpt lat="22.41071678125" lon="114.28597879638671" /><trkpt lat="22.41079578125" lon="114.28574979638672" /><trkpt lat="22.41078978125" lon="114.28540079638672" /><trkpt lat="22.41081578125" lon="114.28515079638672" /><trkpt lat="22.41082178125" lon="114.28486979638672" /><trkpt lat="22.41071678125" lon="114.28454679638672" /><trkpt lat="22.41065478125" lon="114.28420879638672" /><trkpt lat="22.41055578125" lon="114.28406779638672" /><trkpt lat="22.41043578125" lon="114.28386479638672" /><trkpt lat="22.41035778125" lon="114.28373979638671" /><trkpt lat="22.41026378125" lon="114.28351579638672" /><trkpt lat="22.41022778125" lon="114.28337479638672" /><trkpt lat="22.41014478125" lon="114.28307879638672" /><trkpt lat="22.40997278125" lon="114.28286979638672" /><trkpt lat="22.40984278125" lon="114.28276079638673" /><trkpt lat="22.40966578125" lon="114.28270879638671" /><trkpt lat="22.40947778125" lon="114.28268279638672" /><trkpt lat="22.40931178125" lon="114.28265679638672" /><trkpt lat="22.40914478125" lon="114.28254179638672" /><trkpt lat="22.40898378125" lon="114.28257379638671" /><trkpt lat="22.40897278125" lon="114.28239679638672" /><trkpt lat="22.40883278125" lon="114.28237079638672" /><trkpt lat="22.40866078125" lon="114.28223479638672" /><trkpt lat="22.40849378125" lon="114.28216179638672" /><trkpt lat="22.40835378125" lon="114.28206879638672" /><trkpt lat="22.40811878125" lon="114.28192779638673" /><trkpt lat="22.40790578125" lon="114.28176079638672" /><trkpt lat="22.40769678125" lon="114.28169879638672" /><trkpt lat="22.40758278125" lon="114.28156879638672" /><trkpt lat="22.40740078125" lon="114.28145379638671" /><trkpt lat="22.40722878125" lon="114.28143879638672" /><trkpt lat="22.40704078125" lon="114.28145379638671" /><trkpt lat="22.40687478125" lon="114.28138079638671" /><trkpt lat="22.40672878125" lon="114.28129779638672" /><trkpt lat="22.40655678125" lon="114.28122479638672" /><trkpt lat="22.40639078125" lon="114.28116279638672" /><trkpt lat="22.40625478125" lon="114.28102679638671" /><trkpt lat="22.40600478125" lon="114.28090679638672" /><trkpt lat="22.40578078125" lon="114.28089679638671" /><trkpt lat="22.40548978125" lon="114.28085479638672" /><trkpt lat="22.40530778125" lon="114.28075079638671" /><trkpt lat="22.40508878125" lon="114.28066779638672" /><trkpt lat="22.40493278125" lon="114.28069379638671" /><trkpt lat="22.40481278125" lon="114.28067779638671" /><trkpt lat="22.40473478125" lon="114.28053779638672" /><trkpt lat="22.40473978125" lon="114.28027679638672" /><trkpt lat="22.40481778125" lon="114.28006379638671" /><trkpt lat="22.40482378125" lon="114.27979779638672" /><trkpt lat="22.40501378125" lon="114.27957079638672" /><trkpt lat="22.40518178125" lon="114.27937879638672" /><trkpt lat="22.405006781250002" lon="114.27917779638672" /><trkpt lat="22.40517878125" lon="114.27897579638672" /><trkpt lat="22.40541078125" lon="114.27862579638672" /><trkpt lat="22.40546678125" lon="114.27839879638672" /><trkpt lat="22.40548978125" lon="114.27815079638673" /><trkpt lat="22.40548578125" lon="114.27797279638672" /><trkpt lat="22.40542578125" lon="114.27717579638671" /><trkpt lat="22.40542678125" lon="114.27693979638671" /><trkpt lat="22.40546778125" lon="114.27668579638672" /><trkpt lat="22.40552778125" lon="114.27650479638672" /><trkpt lat="22.405541335538597" lon="114.27647525503001" /></trkseg></trk></gpx>