<?xml version='1.0' encoding='UTF-8' ?><gpx version="1.1" creator="HikingTrailHK" xsi:schemaLocation="http://www.topografix.com/GPX/1/1 http://www.topografix.com/GPX/1/1/gpx.xsd https://hikingtrailhk.appspot.com/xml/gpxextensions/v1 https://hikingtrailhk.appspot.com/xml/gpxextensions/v1/gpxextensions.xsd" xmlns="http://www.topografix.com/GPX/1/1" xmlns:h="https://hikingtrailhk.appspot.com/xml/gpxextensions/v1" xmlns:xsi="http://www.w3.org/2001/XMLSchema-instance"><metadata><name>黃牛石城 @ 2017-1-21 20:04:15</name><desc></desc><extensions><h:categoryid>scenery_route</h:categoryid></extensions></metadata><trk><trkseg><trkpt lat="22.35584651574447" lon="114.25135864542295" /><trkpt lat="22.35579978125" lon="114.25137079638672" /><trkpt lat="22.35569978125" lon="114.25136479638672" /><trkpt lat="22.35559978125" lon="114.25132479638673" /><trkpt lat="22.35549978125" lon="114.25128979638671" /><trkpt lat="22.35543978125" lon="114.25128979638671" /><trkpt lat="22.35538978125" lon="114.25132979638671" /><trkpt lat="22.35536978125" lon="114.25137979638671" /><trkpt lat="22.35510278125" lon="114.25113479638672" /><trkpt lat="22.35499778125" lon="114.25100979638673" /><trkpt lat="22.35492578125" lon="114.25092279638672" /><trkpt lat="22.35511678125" lon="114.25067779638673" /><trkpt lat="22.35543378125" lon="114.25037679638672" /><trkpt lat="22.35554478125" lon="114.25017179638672" /><trkpt lat="22.35562578125" lon="114.24988679638672" /><trkpt lat="22.35574178125" lon="114.24934679638672" /><trkpt lat="22.35575378125" lon="114.24905279638672" /><trkpt lat="22.35573178125" lon="114.24872479638672" /><trkpt lat="22.35557478125" lon="114.24809579638672" /><trkpt lat="22.35554878125" lon="114.24800379638671" /><trkpt lat="22.35538978125" lon="114.24745579638672" /><trkpt lat="22.35530078125" lon="114.24718579638672" /><trkpt lat="22.35518978125" lon="114.24699179638672" /><trkpt lat="22.35511778125" lon="114.24691579638672" /><trkpt lat="22.35495978125" lon="114.24674279638671" /><trkpt lat="22.35483878125" lon="114.24656679638672" /><trkpt lat="22.35473278125" lon="114.24628879638672" /><trkpt lat="22.35470778125" lon="114.24604379638672" /><trkpt lat="22.35470778125" lon="114.24578479638672" /><trkpt lat="22.35471978125" lon="114.24573179638672" /><trkpt lat="22.35480878125" lon="114.24554879638671" /><trkpt lat="22.35496778125" lon="114.24548879638672" /><trkpt lat="22.35520678125" lon="114.24547879638672" /><trkpt lat="22.35535178125" lon="114.24539179638671" /><trkpt lat="22.35543978125" lon="114.24525379638672" /><trkpt lat="22.35548378125" lon="114.24509879638671" /><trkpt lat="22.35549878125" lon="114.24490679638672" /><trkpt lat="22.35574278125" lon="114.24492879638672" /><trkpt lat="22.35583478125" lon="114.24496079638672" /><trkpt lat="22.35596478125" lon="114.24502279638672" /><trkpt lat="22.35613678125" lon="114.24539779638671" /><trkpt lat="22.35626578125" lon="114.24555979638671" /><trkpt lat="22.35645278125" lon="114.24565179638672" /><trkpt lat="22.35662878125" lon="114.24552979638672" /><trkpt lat="22.35690678125" lon="114.24507279638672" /><trkpt lat="22.35706578125" lon="114.24468579638672" /><trkpt lat="22.35745778125" lon="114.24406679638672" /><trkpt lat="22.35828878125" lon="114.24360979638672" /><trkpt lat="22.35860478125" lon="114.24337679638671" /><trkpt lat="22.35879978125" lon="114.24331479638671" /><trkpt lat="22.35932178125" lon="114.24264579638673" /><trkpt lat="22.35941378125" lon="114.24263179638672" /><trkpt lat="22.35966678125" lon="114.24232479638673" /><trkpt lat="22.35969878125" lon="114.24212279638672" /><trkpt lat="22.35980978125" lon="114.24196079638672" /><trkpt lat="22.36024778125" lon="114.24177579638672" /><trkpt lat="22.36056378125" lon="114.24154379638672" /><trkpt lat="22.36075578125" lon="114.24149479638672" /><trkpt lat="22.36089978125" lon="114.24163779638671" /><trkpt lat="22.36135478125" lon="114.24178979638671" /><trkpt lat="22.36183878125" lon="114.24212479638672" /><trkpt lat="22.36212978125" lon="114.24208979638672" /><trkpt lat="22.36231478125" lon="114.24213479638672" /><trkpt lat="22.36257278125" lon="114.24261279638672" /><trkpt lat="22.36265878125" lon="114.24276279638671" /><trkpt lat="22.36272078125" lon="114.24268079638672" /><trkpt lat="22.36328078125" lon="114.24289279638671" /><trkpt lat="22.36356478125" lon="114.24283679638671" /><trkpt lat="22.36395278125" lon="114.24294179638672" /><trkpt lat="22.36479678125" lon="114.24298979638672" /><trkpt lat="22.36542478125" lon="114.24277279638672" /><trkpt lat="22.36660478125" lon="114.24296879638672" /><trkpt lat="22.36687978125" lon="114.24284979638672" /><trkpt lat="22.36694678125" lon="114.24278279638672" /><trkpt lat="22.36699678125" lon="114.24257779638671" /><trkpt lat="22.36713978125" lon="114.24244679638672" /><trkpt lat="22.36752078125" lon="114.24238279638672" /><trkpt lat="22.36764978125" lon="114.24251779638672" /><trkpt lat="22.36783878125" lon="114.24254379638671" /><trkpt lat="22.36793278125" lon="114.24252679638671" /><trkpt lat="22.36799178125" lon="114.24243879638672" /><trkpt lat="22.36825678125" lon="114.24216279638672" /><trkpt lat="22.36848478125" lon="114.24200179638672" /><trkpt lat="22.36864378125" lon="114.24177679638672" /><trkpt lat="22.36892078125" lon="114.24147679638672" /><trkpt lat="22.36912978125" lon="114.24105779638671" /><trkpt lat="22.36933778125" lon="114.24086479638672" /><trkpt lat="22.36937778125" lon="114.24070379638673" /><trkpt lat="22.36967478125" lon="114.24042479638672" /><trkpt lat="22.36970478125" lon="114.24014579638671" /><trkpt lat="22.37016178125" lon="114.23980279638671" /><trkpt lat="22.37025078125" lon="114.23952379638672" /><trkpt lat="22.37066578125" lon="114.23940079638672" /><trkpt lat="22.37094178125" lon="114.23940579638672" /><trkpt lat="22.37114878125" lon="114.23929679638672" /><trkpt lat="22.37161178125" lon="114.23923179638672" /><trkpt lat="22.37181878125" lon="114.23912179638671" /><trkpt lat="22.37194878125" lon="114.23896579638672" /><trkpt lat="22.37196178125" lon="114.23874979638671" /><trkpt lat="22.37224178125" lon="114.23833579638672" /><trkpt lat="22.37240678125" lon="114.23826179638672" /><trkpt lat="22.37277078125" lon="114.23791779638672" /><trkpt lat="22.37344478125" lon="114.23771779638672" /><trkpt lat="22.37372978125" lon="114.23771779638672" /><trkpt lat="22.37385878125" lon="114.23743179638672" /><trkpt lat="22.37395078125" lon="114.23718279638672" /><trkpt lat="22.37408078125" lon="114.23683579638671" /><trkpt lat="22.37422178125" lon="114.23680079638672" /><trkpt lat="22.37437778125" lon="114.23657779638671" /><trkpt lat="22.37429778125" lon="114.23624879638672" /><trkpt lat="22.37440178125" lon="114.23589079638671" /><trkpt lat="22.37431278125" lon="114.23577479638672" /><trkpt lat="22.37427578125" lon="114.23559279638671" /><trkpt lat="22.37435178125" lon="114.23533879638671" /><trkpt lat="22.37428778125" lon="114.23511079638672" /><trkpt lat="22.37431278125" lon="114.23492179638671" /><trkpt lat="22.37447078125" lon="114.23465579638672" /><trkpt lat="22.37462178125" lon="114.23440179638672" /><trkpt lat="22.37453178125" lon="114.23435979638671" /><trkpt lat="22.37427378125" lon="114.23417679638672" /><trkpt lat="22.373991781249998" lon="114.23398779638671" /><trkpt lat="22.37378378125" lon="114.23377379638671" /><trkpt lat="22.37364378125" lon="114.23371879638673" /><trkpt lat="22.37344578125" lon="114.23351179638672" /><trkpt lat="22.37324078125" lon="114.23335279638673" /><trkpt lat="22.37291778125" lon="114.23273279638671" /><trkpt lat="22.37294478125" lon="114.23205979638672" /><trkpt lat="22.37297187226298" lon="114.23194708787008" /><trkpt lat="22.372949549492887" lon="114.23184599229529" /><trkpt lat="22.37283234656489" lon="114.23171189674207" /><trkpt lat="22.372786957518926" lon="114.23169380083522" /><trkpt lat="22.37278584906943" lon="114.23169380083522" /><trkpt lat="22.3728657812804" lon="114.23169380090386" /><trkpt lat="22.37286578125" lon="114.23141879638672" /><trkpt lat="22.37266678125" lon="114.23139679638672" /><trkpt lat="22.37249878125" lon="114.23131079638672" /><trkpt lat="22.37281578125" lon="114.23110679638671" /><trkpt lat="22.37268678125" lon="114.23095679638672" /><trkpt lat="22.37248878125" lon="114.23108579638672" /><trkpt lat="22.37233978125" lon="114.23106379638672" /><trkpt lat="22.37224978125" lon="114.23077479638673" /><trkpt lat="22.37175378125" lon="114.23055979638671" /><trkpt lat="22.37135778125" lon="114.23040979638672" /><trkpt lat="22.37082478125" lon="114.23044279638673" /><trkpt lat="22.37080778125" lon="114.23022679638672" /><trkpt lat="22.37083278125" lon="114.23002179638672" /><trkpt lat="22.37093678125" lon="114.22980379638672" /><trkpt lat="22.37091978125" lon="114.22967879638672" /><trkpt lat="22.37088978125" lon="114.22956979638671" /><trkpt lat="22.37081078125" lon="114.22932979638672" /><trkpt lat="22.37085478125" lon="114.22918979638672" /><trkpt lat="22.37076478125" lon="114.22905679638671" /><trkpt lat="22.37075278125" lon="114.22888579638672" /><trkpt lat="22.37077078125" lon="114.22873979638672" /><trkpt lat="22.37074778125" lon="114.22861979638672" /><trkpt lat="22.37066978125" lon="114.22852179638672" /><trkpt lat="22.37065778125" lon="114.22840579638672" /><trkpt lat="22.37071078125" lon="114.22828579638671" /><trkpt lat="22.37077978125" lon="114.22817279638672" /><trkpt lat="22.37077978125" lon="114.22803379638673" /><trkpt lat="22.37072078125" lon="114.22795479638671" /><trkpt lat="22.37063878125" lon="114.22787179638672" /><trkpt lat="22.37058978125" lon="114.22777379638671" /><trkpt lat="22.37058678125" lon="114.22765479638672" /><trkpt lat="22.37062578125" lon="114.22753279638673" /><trkpt lat="22.37066678125" lon="114.22739279638672" /><trkpt lat="22.37067778125" lon="114.22725079638671" /><trkpt lat="22.37069478125" lon="114.22707779638672" /><trkpt lat="22.37072978125" lon="114.22667979638672" /><trkpt lat="22.37080878125" lon="114.22648679638672" /><trkpt lat="22.37085878125" lon="114.22629379638671" /><trkpt lat="22.37089178125" lon="114.22618179638673" /><trkpt lat="22.37090778125" lon="114.22608279638672" /><trkpt lat="22.37094378125" lon="114.22600979638672" /><trkpt lat="22.37102478125" lon="114.22584679638672" /><trkpt lat="22.37138878125" lon="114.22562279638672" /><trkpt lat="22.37278178125" lon="114.22533879638672" /><trkpt lat="22.37294978125" lon="114.22538679638672" /><trkpt lat="22.37325678125" lon="114.22566079638672" /><trkpt lat="22.37342578125" lon="114.22551379638672" /><trkpt lat="22.37371378125" lon="114.22539279638671" /><trkpt lat="22.37368878125" lon="114.22529779638671" /><trkpt lat="22.37383578125" lon="114.22517679638672" /><trkpt lat="22.37387378125" lon="114.22501779638672" /><trkpt lat="22.37401578125" lon="114.22483379638672" /><trkpt lat="22.37417378125" lon="114.22424379638672" /><trkpt lat="22.37440878125" lon="114.22407379638672" /><trkpt lat="22.37455478125" lon="114.22411379638672" /><trkpt lat="22.37470778125" lon="114.22405379638671" /><trkpt lat="22.37525478125" lon="114.22364279638671" /><trkpt lat="22.37553678125" lon="114.22300179638673" /><trkpt lat="22.37580678125" lon="114.22274779638671" /><trkpt lat="22.37597278125" lon="114.22244379638671" /><trkpt lat="22.37611878125" lon="114.22236979638672" /><trkpt lat="22.37625978125" lon="114.22207779638671" /><trkpt lat="22.37628278125" lon="114.22202379638672" /><trkpt lat="22.37657978125" lon="114.22207579638672" /><trkpt lat="22.37676278125" lon="114.22202879638672" /><trkpt lat="22.37701678125" lon="114.22207879638673" /><trkpt lat="22.37726678125" lon="114.22209579638672" /><trkpt lat="22.37754478125" lon="114.22227979638672" /><trkpt lat="22.37764278125" lon="114.22229079638672" /><trkpt lat="22.37787578125" lon="114.22247479638672" /><trkpt lat="22.37810678125" lon="114.22254179638672" /><trkpt lat="22.37840678125" lon="114.22241779638672" /><trkpt lat="22.37895378125" lon="114.22229079638672" /><trkpt lat="22.37950678125" lon="114.22197379638672" /><trkpt lat="22.37962278125" lon="114.22192879638672" /><trkpt lat="22.37986178125" lon="114.22152579638671" /><trkpt lat="22.38008878125" lon="114.22134479638672" /><trkpt lat="22.38023978125" lon="114.22109279638671" /><trkpt lat="22.38068078125" lon="114.22053779638672" /><trkpt lat="22.38088078125" lon="114.22064179638672" /><trkpt lat="22.38092678125" lon="114.22059379638672" /><trkpt lat="22.38102078125" lon="114.22068479638672" /><trkpt lat="22.38136078125" lon="114.22102779638672" /><trkpt lat="22.38159078125" lon="114.22125279638672" /><trkpt lat="22.38170978125" lon="114.22127279638671" /><trkpt lat="22.38196878125" lon="114.22112579638672" /><trkpt lat="22.38203478125" lon="114.22111679638672" /><trkpt lat="22.38200678125" lon="114.22087779638672" /><trkpt lat="22.38198478125" lon="114.22082379638672" /><trkpt lat="22.38189278125" lon="114.22065579638672" /><trkpt lat="22.38184078125" lon="114.22056379638671" /><trkpt lat="22.38182878125" lon="114.22043579638672" /><trkpt lat="22.38184378125" lon="114.22031179638672" /><trkpt lat="22.38182878125" lon="114.22019879638673" /><trkpt lat="22.38177478125" lon="114.21996079638672" /><trkpt lat="22.38176978125" lon="114.21983879638672" /><trkpt lat="22.38178178125" lon="114.21972079638672" /><trkpt lat="22.38179478125" lon="114.21961179638672" /><trkpt lat="22.38178578125" lon="114.21950179638672" /><trkpt lat="22.38174878125" lon="114.21939179638672" /><trkpt lat="22.38178778125" lon="114.21919179638672" /><trkpt lat="22.38183878125" lon="114.21912079638672" /><trkpt lat="22.38191778125" lon="114.21896079638672" /><trkpt lat="22.38197278125" lon="114.21880579638672" /><trkpt lat="22.38196878125" lon="114.21870379638672" /><trkpt lat="22.38200178125" lon="114.21859379638671" /><trkpt lat="22.38202378125" lon="114.21849379638672" /><trkpt lat="22.38201878125" lon="114.21839179638671" /><trkpt lat="22.38197678125" lon="114.21824379638672" /><trkpt lat="22.38207878125" lon="114.21801279638672" /><trkpt lat="22.38227078125" lon="114.21796079638672" /><trkpt lat="22.38234878125" lon="114.21788979638671" /><trkpt lat="22.38237578125" lon="114.21788379638672" /><trkpt lat="22.38239978125" lon="114.21787779638672" /><trkpt lat="22.38242578125" lon="114.21784879638672" /><trkpt lat="22.38244878125" lon="114.21780679638672" /><trkpt lat="22.38244978125" lon="114.21769479638672" /><trkpt lat="22.382448041708194" lon="114.21764898832897" /></trkseg></trk></gpx>