<?xml version='1.0' encoding='UTF-8' ?><gpx version="1.1" creator="HikingTrailHK" xsi:schemaLocation="http://www.topografix.com/GPX/1/1 http://www.topografix.com/GPX/1/1/gpx.xsd https://hikingtrailhk.appspot.com/xml/gpxextensions/v1 https://hikingtrailhk.appspot.com/xml/gpxextensions/v1/gpxextensions.xsd" xmlns="http://www.topografix.com/GPX/1/1" xmlns:h="https://hikingtrailhk.appspot.com/xml/gpxextensions/v1" xmlns:xsi="http://www.w3.org/2001/XMLSchema-instance"><metadata><name>黑角徑 @ 2017-1-14</name><desc></desc><extensions><h:categoryid>scenery_route</h:categoryid></extensions></metadata><trk><trkseg><trkpt lat="22.26547178125" lon="114.25101279638672" /><trkpt lat="22.26541478125" lon="114.25107979638672" /><trkpt lat="22.26525678125" lon="114.25126579638672" /><trkpt lat="22.26515078125" lon="114.25139479638672" /><trkpt lat="22.26503478125" lon="114.25151879638672" /><trkpt lat="22.26477878125" lon="114.25177279638672" /><trkpt lat="22.26475178125" lon="114.25179979638672" /><trkpt lat="22.26475178125" lon="114.25182179638672" /><trkpt lat="22.26476178125" lon="114.25199079638672" /><trkpt lat="22.26499978125" lon="114.25223379638672" /><trkpt lat="22.26495478125" lon="114.25226279638672" /><trkpt lat="22.26495478125" lon="114.25226979638671" /><trkpt lat="22.26495478125" lon="114.25228579638672" /><trkpt lat="22.26495178125" lon="114.25230679638672" /><trkpt lat="22.26494478125" lon="114.25232579638671" /><trkpt lat="22.26493278125" lon="114.25234079638672" /><trkpt lat="22.26491478125" lon="114.25235679638672" /><trkpt lat="22.26490378125" lon="114.25236379638672" /><trkpt lat="22.26489078125" lon="114.25236879638672" /><trkpt lat="22.26487778125" lon="114.25236979638672" /><trkpt lat="22.26484678125" lon="114.25237079638671" /><trkpt lat="22.26485878125" lon="114.25242479638672" /><trkpt lat="22.26486578125" lon="114.25242879638672" /><trkpt lat="22.26491878125" lon="114.25248779638672" /><trkpt lat="22.26497778125" lon="114.25253979638671" /><trkpt lat="22.26499478125" lon="114.25257579638672" /><trkpt lat="22.26505678125" lon="114.25270779638672" /><trkpt lat="22.26511878125" lon="114.25279979638673" /><trkpt lat="22.26516778125" lon="114.25285479638671" /><trkpt lat="22.26514378125" lon="114.25287479638672" /><trkpt lat="22.26513878125" lon="114.25287679638672" /><trkpt lat="22.26513478125" lon="114.25287779638671" /><trkpt lat="22.26512978125" lon="114.25287779638671" /><trkpt lat="22.26512378125" lon="114.25287579638672" /><trkpt lat="22.26489678125" lon="114.25278779638671" /><trkpt lat="22.26489078125" lon="114.25278779638671" /><trkpt lat="22.26488678125" lon="114.25278979638672" /><trkpt lat="22.26488278125" lon="114.25279379638671" /><trkpt lat="22.26488078125" lon="114.25279979638673" /><trkpt lat="22.26486878125" lon="114.25288379638671" /><trkpt lat="22.26481878125" lon="114.25293179638672" /><trkpt lat="22.26479078125" lon="114.25293079638672" /><trkpt lat="22.26477078125044" lon="114.25293079418503" /><trkpt lat="22.26474078125" lon="114.25292679638672" /><trkpt lat="22.26460878125" lon="114.25296979638672" /><trkpt lat="22.26441978125" lon="114.25304679638671" /><trkpt lat="22.26429778125" lon="114.25313879638672" /><trkpt lat="22.26426678125" lon="114.25318279638672" /><trkpt lat="22.26421778125" lon="114.25339079638673" /><trkpt lat="22.26421678125" lon="114.25346579638672" /><trkpt lat="22.26414378125" lon="114.25363579638672" /><trkpt lat="22.26405178125" lon="114.25399079638672" /><trkpt lat="22.26390778125" lon="114.25418579638672" /><trkpt lat="22.26385278125" lon="114.25424779638672" /><trkpt lat="22.26375678125" lon="114.25437379638672" /><trkpt lat="22.26359678125" lon="114.25451279638672" /><trkpt lat="22.263508795661526" lon="114.25470147743246" /><trkpt lat="22.26350678125" lon="114.25470579638672" /><trkpt lat="22.26329378125" lon="114.25505579638671" /><trkpt lat="22.26300778125" lon="114.25530979638671" /><trkpt lat="22.26289978125" lon="114.25542079638672" /><trkpt lat="22.26278778125" lon="114.25554779638672" /><trkpt lat="22.26267278125" lon="114.25565279638671" /><trkpt lat="22.26245678125" lon="114.25578879638672" /><trkpt lat="22.262373781249998" lon="114.25590179638672" /><trkpt lat="22.26233878125" lon="114.25602679638672" /><trkpt lat="22.26218678125" lon="114.25622879638672" /><trkpt lat="22.26204078125" lon="114.25638379638671" /><trkpt lat="22.26191778125" lon="114.25654379638672" /><trkpt lat="22.26176178125" lon="114.25671379638672" /><trkpt lat="22.26177778125" lon="114.25682979638673" /><trkpt lat="22.26182778125" lon="114.25689779638672" /><trkpt lat="22.26183578125" lon="114.25694779638673" /><trkpt lat="22.26182278125" lon="114.25699879638672" /><trkpt lat="22.26182378125" lon="114.25705479638673" /><trkpt lat="22.26182278125" lon="114.25708479638672" /><trkpt lat="22.26179378125" lon="114.25715979638672" /><trkpt lat="22.26175478125" lon="114.25721479638672" /><trkpt lat="22.26168278125" lon="114.25728379638672" /><trkpt lat="22.26159578125" lon="114.25735979638672" /><trkpt lat="22.26154378125" lon="114.25735979638672" /><trkpt lat="22.26147878125" lon="114.25740479638672" /><trkpt lat="22.26135178125" lon="114.25742679638672" /><trkpt lat="22.26136126622184" lon="114.25738200836746" /><trkpt lat="22.261395642108653" lon="114.25736018955318" /><trkpt lat="22.26143679034905" lon="114.25737225949375" /><trkpt lat="22.261449202983478" lon="114.25740992018454" /><trkpt lat="22.26147878125" lon="114.25740479638672" /><trkpt lat="22.26154378125" lon="114.25735979638672" /><trkpt lat="22.26159578125" lon="114.25735979638672" /><trkpt lat="22.26168278125" lon="114.25728379638672" /><trkpt lat="22.26175478125" lon="114.25721479638672" /><trkpt lat="22.26179378125" lon="114.25715979638672" /><trkpt lat="22.26182278125" lon="114.25708479638672" /><trkpt lat="22.26182378125" lon="114.25705479638673" /><trkpt lat="22.26182278125" lon="114.25699879638672" /><trkpt lat="22.26183578125" lon="114.25694779638673" /><trkpt lat="22.26182778125" lon="114.25689779638672" /><trkpt lat="22.26177778125" lon="114.25682979638673" /><trkpt lat="22.26176178125" lon="114.25671379638672" /><trkpt lat="22.26165978125" lon="114.25670879638672" /><trkpt lat="22.26172678125" lon="114.25643279638672" /><trkpt lat="22.26184878125" lon="114.25607679638672" /><trkpt lat="22.26185578125" lon="114.25588179638672" /><trkpt lat="22.26184978125" lon="114.25558879638672" /><trkpt lat="22.26187678125" lon="114.25535779638672" /><trkpt lat="22.26186378125" lon="114.25522379638672" /><trkpt lat="22.26186378125" lon="114.25505779638672" /><trkpt lat="22.26180478125" lon="114.25483079638671" /><trkpt lat="22.26188778125" lon="114.25466079638672" /><trkpt lat="22.26168978125" lon="114.25456579638671" /><trkpt lat="22.26146578125" lon="114.25448379638672" /><trkpt lat="22.261354121791523" lon="114.25442768833766" /><trkpt lat="22.261170800795433" lon="114.2543447565843" /><trkpt lat="22.26109678125" lon="114.25431479638672" /><trkpt lat="22.26105778125" lon="114.25410879638672" /><trkpt lat="22.26119778125" lon="114.25398679638671" /><trkpt lat="22.26113678125" lon="114.25400579638672" /><trkpt lat="22.260907540426373" lon="114.25407969081702" /><trkpt lat="22.26089378125" lon="114.25408479638672" /><trkpt lat="22.26059378125" lon="114.25411279638672" /><trkpt lat="22.26035978125" lon="114.25410879638672" /><trkpt lat="22.26022778125" lon="114.25407879638672" /><trkpt lat="22.25997578125" lon="114.25393879638672" /><trkpt lat="22.25966178125" lon="114.25380879638672" /><trkpt lat="22.25948678125" lon="114.25374579638672" /><trkpt lat="22.25933478125" lon="114.25359579638672" /><trkpt lat="22.25924678125" lon="114.25343679638672" /><trkpt lat="22.25900178125" lon="114.25305879638672" /><trkpt lat="22.25881078125" lon="114.25269479638672" /><trkpt lat="22.25843678125" lon="114.25216179638672" /><trkpt lat="22.25826178125" lon="114.25202879638672" /><trkpt lat="22.25812278125" lon="114.25199879638672" /><trkpt lat="22.25779878125" lon="114.25209479638671" /><trkpt lat="22.25758178125" lon="114.25217179638672" /><trkpt lat="22.25726778125" lon="114.25225279638671" /><trkpt lat="22.25707978125" lon="114.25231279638672" /><trkpt lat="22.25695578125" lon="114.25229779638671" /><trkpt lat="22.25684278125" lon="114.25224179638671" /><trkpt lat="22.256793211508565" lon="114.25216208978297" /><trkpt lat="22.25678378125" lon="114.25212779638672" /><trkpt lat="22.25678278125" lon="114.25205479638672" /><trkpt lat="22.25680778125" lon="114.25194379638671" /><trkpt lat="22.25693978125" lon="114.25154979638671" /><trkpt lat="22.25694778125" lon="114.25146579638673" /><trkpt lat="22.25690978125" lon="114.25141279638672" /><trkpt lat="22.25685278125" lon="114.25136979638671" /><trkpt lat="22.25684078125" lon="114.25149079638672" /><trkpt lat="22.25679578125" lon="114.25164379638672" /><trkpt lat="22.25675878125" lon="114.25163379638671" /><trkpt lat="22.25674978125" lon="114.25163079638672" /><trkpt lat="22.25674078125" lon="114.25162479638672" /><trkpt lat="22.25673478125" lon="114.25161379638672" /><trkpt lat="22.25673078125" lon="114.25160379638672" /><trkpt lat="22.25671281643662" lon="114.25154709656209" /><trkpt lat="22.25669878125" lon="114.25150279638672" /><trkpt lat="22.25669478125" lon="114.25149379638673" /><trkpt lat="22.25668978125" lon="114.25148279638672" /><trkpt lat="22.25668378125" lon="114.25147379638672" /><trkpt lat="22.25667678125" lon="114.25146279638672" /><trkpt lat="22.25666978125" lon="114.25145579638672" /><trkpt lat="22.25666278125" lon="114.25145079638672" /><trkpt lat="22.25665478125" lon="114.25144679638672" /><trkpt lat="22.25664678125" lon="114.25144479638672" /><trkpt lat="22.25662778125" lon="114.25144179638671" /><trkpt lat="22.25661978125" lon="114.25143879638672" /><trkpt lat="22.25661078125" lon="114.25143479638672" /><trkpt lat="22.25660178125" lon="114.25142879638672" /><trkpt lat="22.25659478125" lon="114.25142179638672" /><trkpt lat="22.25653378125" lon="114.25133979638672" /><trkpt lat="22.25652678125" lon="114.25133279638672" /><trkpt lat="22.25651678125" lon="114.25132479638673" /><trkpt lat="22.25649978125" lon="114.25131379638673" /><trkpt lat="22.25648078125" lon="114.25130379638672" /><trkpt lat="22.25645478125" lon="114.25129379638672" /><trkpt lat="22.25643778125" lon="114.25128879638672" /><trkpt lat="22.25642178125" lon="114.25128579638672" /><trkpt lat="22.25641178125" lon="114.25128579638672" /><trkpt lat="22.25639978125" lon="114.25128579638672" /><trkpt lat="22.25637378125" lon="114.25128979638671" /><trkpt lat="22.25636578125" lon="114.25128979638671" /><trkpt lat="22.25635678125" lon="114.25128879638672" /><trkpt lat="22.25634878125" lon="114.25128579638672" /><trkpt lat="22.25632278125" lon="114.25127079638672" /><trkpt lat="22.25630878125" lon="114.25126479638672" /><trkpt lat="22.25629778125" lon="114.25126179638671" /><trkpt lat="22.25628478125" lon="114.25125979638672" /><trkpt lat="22.25627278125" lon="114.25125979638672" /><trkpt lat="22.25626078125" lon="114.25126079638672" /><trkpt lat="22.25624078125" lon="114.25126579638672" /><trkpt lat="22.25622378125" lon="114.25127179638672" /><trkpt lat="22.25619578125" lon="114.25128479638671" /><trkpt lat="22.25618278125" lon="114.25128879638672" /><trkpt lat="22.25607778125" lon="114.25130179638671" /><trkpt lat="22.25592978125" lon="114.25132979638671" /><trkpt lat="22.25582478125" lon="114.25130479638672" /><trkpt lat="22.25572578125" lon="114.25126679638672" /><trkpt lat="22.25563478125" lon="114.25120379638672" /><trkpt lat="22.25552378125" lon="114.25115079638672" /><trkpt lat="22.25544578125" lon="114.25109879638671" /><trkpt lat="22.25537578125" lon="114.25101279638672" /><trkpt lat="22.25520878125" lon="114.25091079638672" /><trkpt lat="22.25483578125" lon="114.25084879638672" /><trkpt lat="22.25463178125" lon="114.25085079638671" /><trkpt lat="22.25454278125" lon="114.25082279638671" /><trkpt lat="22.25447678125" lon="114.25080079638671" /><trkpt lat="22.25446178125" lon="114.25073579638672" /><trkpt lat="22.25440778125" lon="114.25066479638672" /><trkpt lat="22.25437178125" lon="114.25055279638671" /><trkpt lat="22.25434278125" lon="114.25041879638673" /><trkpt lat="22.25446678125" lon="114.25022479638672" /><trkpt lat="22.25451578125" lon="114.25009679638671" /><trkpt lat="22.25455478125" lon="114.25005179638671" /><trkpt lat="22.25463178125" lon="114.24998579638672" /><trkpt lat="22.25469978125" lon="114.24993279638672" /><trkpt lat="22.25480078125" lon="114.24991679638671" /><trkpt lat="22.25487678125" lon="114.24983079638672" /><trkpt lat="22.25490278125" lon="114.24963079638673" /><trkpt lat="22.25487678125" lon="114.24934179638672" /><trkpt lat="22.25489878125" lon="114.24914679638673" /><trkpt lat="22.25492278125" lon="114.24902079638672" /><trkpt lat="22.25488478125" lon="114.24880479638672" /><trkpt lat="22.25494678125" lon="114.24862079638672" /><trkpt lat="22.25519478125" lon="114.24816379638672" /><trkpt lat="22.25519578125" lon="114.24800379638671" /><trkpt lat="22.25522378125" lon="114.24790479638672" /><trkpt lat="22.25524078125" lon="114.24788579638673" /><trkpt lat="22.25532178125" lon="114.24770879638672" /><trkpt lat="22.25532878125" lon="114.24752679638672" /><trkpt lat="22.25534378125" lon="114.24741379638672" /><trkpt lat="22.25541378125" lon="114.24726379638672" /><trkpt lat="22.25544678125" lon="114.24706379638671" /><trkpt lat="22.25548278125" lon="114.24700279638672" /><trkpt lat="22.25547278125" lon="114.24696979638672" /><trkpt lat="22.25545178125" lon="114.24681179638672" /><trkpt lat="22.25541978125" lon="114.24670979638672" /><trkpt lat="22.255387122248862" lon="114.2464590712501" /><trkpt lat="22.255520463783583" lon="114.24662933045907" /><trkpt lat="22.25555684698982" lon="114.24692568492388" /><trkpt lat="22.25543491838939" lon="114.24713569269322" /><trkpt lat="22.25541378125" lon="114.24726379638672" /><trkpt lat="22.25534378125" lon="114.24741379638672" /><trkpt lat="22.25532878125" lon="114.24752679638672" /><trkpt lat="22.25532178125" lon="114.24770879638672" /><trkpt lat="22.25524078125" lon="114.24788579638673" /><trkpt lat="22.25522378125" lon="114.24790479638672" /><trkpt lat="22.25519578125" lon="114.24800379638671" /><trkpt lat="22.25519478125" lon="114.24816379638672" /><trkpt lat="22.25494678125" lon="114.24862079638672" /><trkpt lat="22.25488478125" lon="114.24880479638672" /><trkpt lat="22.25492278125" lon="114.24902079638672" /><trkpt lat="22.25489878125" lon="114.24914679638673" /><trkpt lat="22.25487678125" lon="114.24934179638672" /><trkpt lat="22.25490278125" lon="114.24963079638673" /><trkpt lat="22.25487678125" lon="114.24983079638672" /><trkpt lat="22.25480078125" lon="114.24991679638671" /><trkpt lat="22.25469978125" lon="114.24993279638672" /><trkpt lat="22.25463178125" lon="114.24998579638672" /><trkpt lat="22.25455478125" lon="114.25005179638671" /><trkpt lat="22.25451578125" lon="114.25009679638671" /><trkpt lat="22.25446678125" lon="114.25022479638672" /><trkpt lat="22.25434278125" lon="114.25041879638673" /><trkpt lat="22.25437178125" lon="114.25055279638671" /><trkpt lat="22.25440778125" lon="114.25066479638672" /><trkpt lat="22.25446178125" lon="114.25073579638672" /><trkpt lat="22.25447678125" lon="114.25080079638671" /><trkpt lat="22.25446378125" lon="114.25095379638672" /><trkpt lat="22.25442878125" lon="114.25106979638672" /><trkpt lat="22.25438878125" lon="114.25116979638672" /><trkpt lat="22.25431778125" lon="114.25125979638672" /><trkpt lat="22.25432478125" lon="114.25118379638671" /><trkpt lat="22.25430878125" lon="114.25102379638672" /><trkpt lat="22.25429778125" lon="114.25085779638673" /><trkpt lat="22.25428078125" lon="114.25082379638671" /><trkpt lat="22.25421978125" lon="114.25081179638671" /><trkpt lat="22.25417978125" lon="114.25080779638672" /><trkpt lat="22.25401178125" lon="114.25065879638672" /><trkpt lat="22.25380278125" lon="114.25034479638671" /><trkpt lat="22.25377478125" lon="114.25016479638671" /><trkpt lat="22.25369278125" lon="114.25011079638672" /><trkpt lat="22.25336378125" lon="114.24987079638672" /><trkpt lat="22.25333578125" lon="114.24963279638672" /><trkpt lat="22.25314278125" lon="114.24909479638671" /><trkpt lat="22.25305178125" lon="114.24891279638672" /><trkpt lat="22.25299478125" lon="114.24874479638672" /><trkpt lat="22.25296878125" lon="114.24861379638672" /><trkpt lat="22.25277778125" lon="114.24867579638672" /><trkpt lat="22.25245878125" lon="114.24867579638672" /><trkpt lat="22.25232478125" lon="114.24871779638671" /><trkpt lat="22.25220578125" lon="114.24874579638671" /><trkpt lat="22.25208078125" lon="114.24879579638672" /><trkpt lat="22.25186978125" lon="114.24879479638672" /><trkpt lat="22.25177078125" lon="114.24877379638671" /><trkpt lat="22.25166478125" lon="114.24878179638672" /><trkpt lat="22.25154678125" lon="114.24882479638671" /><trkpt lat="22.25140978125" lon="114.24885079638672" /><trkpt lat="22.25085278125" lon="114.24862879638673" /><trkpt lat="22.25079378125" lon="114.24864279638672" /><trkpt lat="22.25053278125" lon="114.24871679638672" /><trkpt lat="22.25043378125" lon="114.24882179638672" /><trkpt lat="22.25020278125" lon="114.24904579638672" /><trkpt lat="22.24950478125" lon="114.24935679638672" /><trkpt lat="22.24940078125" lon="114.24932079638671" /><trkpt lat="22.24926078125" lon="114.24929679638672" /><trkpt lat="22.24918178125" lon="114.24935879638672" /><trkpt lat="22.24914278125" lon="114.24944479638671" /><trkpt lat="22.24906478125" lon="114.24948479638672" /><trkpt lat="22.24898278125" lon="114.24959579638671" /><trkpt lat="22.24883778125" lon="114.24953779638672" /><trkpt lat="22.24871878125" lon="114.24957379638671" /><trkpt lat="22.24863178125" lon="114.24961579638672" /><trkpt lat="22.24844278125" lon="114.24962779638672" /><trkpt lat="22.24828578125" lon="114.24950779638672" /><trkpt lat="22.24814978125" lon="114.24947179638671" /><trkpt lat="22.248031058543273" lon="114.24942210121868" /><trkpt lat="22.24791878125" lon="114.24937679638671" /><trkpt lat="22.24790878125" lon="114.24937179638673" /><trkpt lat="22.24790078125" lon="114.24936579638671" /><trkpt lat="22.24788778125" lon="114.24935379638671" /><trkpt lat="22.24787878125" lon="114.24934679638672" /><trkpt lat="22.24786978125" lon="114.24934079638672" /><trkpt lat="22.24785978125" lon="114.24933679638671" /><trkpt lat="22.24782978125" lon="114.24932479638672" /><trkpt lat="22.24776878125" lon="114.24930479638672" /><trkpt lat="22.24751278125" lon="114.24920579638672" /><trkpt lat="22.24750178125" lon="114.24920279638673" /><trkpt lat="22.24748778125" lon="114.24920179638671" /><trkpt lat="22.24733778125" lon="114.24921079638672" /><trkpt lat="22.24726278125" lon="114.24919279638672" /><trkpt lat="22.24715578125" lon="114.24914979638672" /><trkpt lat="22.24703478125" lon="114.24911179638671" /><trkpt lat="22.24696378125" lon="114.24909979638672" /><trkpt lat="22.24684178125" lon="114.24909579638671" /><trkpt lat="22.24671078125" lon="114.24912079638672" /><trkpt lat="22.24662378125" lon="114.24919079638671" /><trkpt lat="22.24653578125" lon="114.24915079638672" /><trkpt lat="22.24643078125" lon="114.24902479638672" /><trkpt lat="22.24630478125" lon="114.24864979638672" /><trkpt lat="22.24623378125" lon="114.24876779638672" /><trkpt lat="22.24620478125" lon="114.24881179638672" /><trkpt lat="22.24617178125" lon="114.24880979638672" /><trkpt lat="22.24617768875507" lon="114.24877154559607" /><trkpt lat="22.246195980265114" lon="114.24875088960653" /><trkpt lat="22.24620975606406" lon="114.24872572177901" /><trkpt lat="22.246229242222526" lon="114.24870646276065" /><trkpt lat="22.24624181548542" lon="114.24868265301262" /><trkpt lat="22.24627030922079" lon="114.24866146022606" /><trkpt lat="22.24630478125" lon="114.24864979638672" /><trkpt lat="22.2463386960653" lon="114.2486090991825" /><trkpt lat="22.24636478125" lon="114.24857779638671" /><trkpt lat="22.24636678125" lon="114.24848379638672" /><trkpt lat="22.24641678125" lon="114.24834479638672" /><trkpt lat="22.24656178125" lon="114.24826679638672" /><trkpt lat="22.24680178125" lon="114.24811779638672" /><trkpt lat="22.24688378125" lon="114.24800579638672" /><trkpt lat="22.24700878125" lon="114.24790479638672" /><trkpt lat="22.246945781249998" lon="114.24777279638671" /><trkpt lat="22.24711078125" lon="114.24761079638672" /><trkpt lat="22.24704978125" lon="114.24734179638672" /><trkpt lat="22.24691478125" lon="114.24702379638671" /><trkpt lat="22.24654378125" lon="114.24626879638672" /><trkpt lat="22.24641378125" lon="114.24618879638672" /><trkpt lat="22.24629678125" lon="114.24599079638672" /><trkpt lat="22.24619678125" lon="114.24571679638672" /><trkpt lat="22.24611378125" lon="114.24555779638672" /><trkpt lat="22.24570278125" lon="114.24548379638672" /><trkpt lat="22.24531778125" lon="114.24551879638672" /><trkpt lat="22.24511478125" lon="114.24549579638672" /><trkpt lat="22.24487978125" lon="114.24561179638673" /><trkpt lat="22.24477678125" lon="114.24562979638672" /></trkseg></trk></gpx>