<?xml version='1.0' encoding='UTF-8' ?><gpx version="1.1" creator="HikingTrailHK" xsi:schemaLocation="http://www.topografix.com/GPX/1/1 http://www.topografix.com/GPX/1/1/gpx.xsd https://hikingtrailhk.appspot.com/xml/gpxextensions/v1 https://hikingtrailhk.appspot.com/xml/gpxextensions/v1/gpxextensions.xsd" xmlns="http://www.topografix.com/GPX/1/1" xmlns:h="https://hikingtrailhk.appspot.com/xml/gpxextensions/v1" xmlns:xsi="http://www.w3.org/2001/XMLSchema-instance"><metadata><name>龍脊 @ 2016-6-9</name><desc></desc><extensions><h:categoryid>scenery_route</h:categoryid></extensions></metadata><trk><trkseg><trkpt lat="22.22712408391122" lon="114.23980886305566" /><trkpt lat="22.22719278125" lon="114.23991379638672" /><trkpt lat="22.22748278125" lon="114.23990679638672" /><trkpt lat="22.22764078125" lon="114.23978179638672" /><trkpt lat="22.22774078125" lon="114.23982979638672" /><trkpt lat="22.22789578125" lon="114.23994979638672" /><trkpt lat="22.22799878125" lon="114.23994879638671" /><trkpt lat="22.22812378125" lon="114.23999179638672" /><trkpt lat="22.22824078125" lon="114.24008479638672" /><trkpt lat="22.22834978125" lon="114.24022379638672" /><trkpt lat="22.22841978125" lon="114.24033679638671" /><trkpt lat="22.22851778125" lon="114.24043179638672" /><trkpt lat="22.22859278125" lon="114.24053679638672" /><trkpt lat="22.22866478125" lon="114.24066679638672" /><trkpt lat="22.22872478125" lon="114.24070979638672" /><trkpt lat="22.22882478125" lon="114.24082579638672" /><trkpt lat="22.22892678125" lon="114.24095979638672" /><trkpt lat="22.22908478125" lon="114.24098179638672" /><trkpt lat="22.22925578125" lon="114.24104579638671" /><trkpt lat="22.22933178125" lon="114.24113679638671" /><trkpt lat="22.22943978125" lon="114.24141279638673" /><trkpt lat="22.22960878125" lon="114.24148179638672" /><trkpt lat="22.22976278125" lon="114.24155979638672" /><trkpt lat="22.22977178125" lon="114.24165279638672" /><trkpt lat="22.22973278125" lon="114.24174379638671" /><trkpt lat="22.22964578125" lon="114.24193379638672" /><trkpt lat="22.22947778125" lon="114.24215579638673" /><trkpt lat="22.22952078125" lon="114.24231479638672" /><trkpt lat="22.22947578125" lon="114.24247179638672" /><trkpt lat="22.22956178125" lon="114.24259779638672" /><trkpt lat="22.22968478125" lon="114.24260879638672" /><trkpt lat="22.22988478125" lon="114.24262879638673" /><trkpt lat="22.22992178125" lon="114.24267279638671" /><trkpt lat="22.22991278125" lon="114.24276079638672" /><trkpt lat="22.22982778125" lon="114.24288979638672" /><trkpt lat="22.22957878125" lon="114.24301079638671" /><trkpt lat="22.22947278125" lon="114.24323479638672" /><trkpt lat="22.22942578125" lon="114.24337479638672" /><trkpt lat="22.22948678125" lon="114.24340279638672" /><trkpt lat="22.22957278125" lon="114.24342679638671" /><trkpt lat="22.22987978125" lon="114.24359579638671" /><trkpt lat="22.23001478125" lon="114.24367079638672" /><trkpt lat="22.23005778125" lon="114.24371979638671" /><trkpt lat="22.23013978125" lon="114.24375779638672" /><trkpt lat="22.23027678125" lon="114.24378679638671" /><trkpt lat="22.23042778125" lon="114.24388479638672" /><trkpt lat="22.23053278125" lon="114.24392479638672" /><trkpt lat="22.23074178125" lon="114.24385779638672" /><trkpt lat="22.23099278125" lon="114.24388679638672" /><trkpt lat="22.23110678125" lon="114.24385479638671" /><trkpt lat="22.23132478125" lon="114.24378279638672" /><trkpt lat="22.23145378125" lon="114.24380179638672" /><trkpt lat="22.23153078125" lon="114.24374879638673" /><trkpt lat="22.23159378125" lon="114.24364679638671" /><trkpt lat="22.23176178125" lon="114.24357679638672" /><trkpt lat="22.23195578125" lon="114.24360379638672" /><trkpt lat="22.23211378125" lon="114.24357279638672" /><trkpt lat="22.23233478125" lon="114.24357279638672" /><trkpt lat="22.23251778125" lon="114.24357079638672" /><trkpt lat="22.23261478125" lon="114.24355179638673" /><trkpt lat="22.23274678125" lon="114.24346579638672" /><trkpt lat="22.23285278125" lon="114.24346979638672" /><trkpt lat="22.23302278125" lon="114.24357179638672" /><trkpt lat="22.23312378125" lon="114.24371979638671" /><trkpt lat="22.23324178125" lon="114.24378579638672" /><trkpt lat="22.23331278125" lon="114.24380279638672" /><trkpt lat="22.23347478125" lon="114.24371979638671" /><trkpt lat="22.23356878125" lon="114.24370779638672" /><trkpt lat="22.23365278125" lon="114.24373179638673" /><trkpt lat="22.23385278125" lon="114.24373779638672" /><trkpt lat="22.23416178125" lon="114.24369379638672" /><trkpt lat="22.23436878125" lon="114.24366279638672" /><trkpt lat="22.23450778125" lon="114.24372679638672" /><trkpt lat="22.23459578125" lon="114.24374379638672" /><trkpt lat="22.23484278125" lon="114.24371079638672" /><trkpt lat="22.23494578125" lon="114.24367379638672" /><trkpt lat="22.23499178125" lon="114.24358879638672" /><trkpt lat="22.23517478125" lon="114.24354279638672" /><trkpt lat="22.23532178125" lon="114.24353279638672" /><trkpt lat="22.23555578125" lon="114.24357879638671" /><trkpt lat="22.23567678125" lon="114.24367079638672" /><trkpt lat="22.23577078125" lon="114.24377279638672" /><trkpt lat="22.23590278125" lon="114.24353679638672" /><trkpt lat="22.23599578125" lon="114.24349279638672" /><trkpt lat="22.23607178125" lon="114.24341779638672" /><trkpt lat="22.23616078125" lon="114.24336479638671" /><trkpt lat="22.23629578125" lon="114.24336979638672" /><trkpt lat="22.23643478125" lon="114.24333579638672" /><trkpt lat="22.23661878125" lon="114.24315179638671" /><trkpt lat="22.23681578125" lon="114.24303279638671" /><trkpt lat="22.23706678125" lon="114.24278979638672" /><trkpt lat="22.23727578125" lon="114.24264679638672" /><trkpt lat="22.23790778125" lon="114.24265879638672" /><trkpt lat="22.23805578125" lon="114.24253979638672" /><trkpt lat="22.23814178125" lon="114.24246179638672" /><trkpt lat="22.23839478125" lon="114.24240179638672" /><trkpt lat="22.23861878125" lon="114.24228179638672" /><trkpt lat="22.23871478125" lon="114.24228379638672" /><trkpt lat="22.23885778125" lon="114.24232079638672" /><trkpt lat="22.23925578125" lon="114.24211779638672" /><trkpt lat="22.23964278125" lon="114.24177279638671" /><trkpt lat="22.23991078125" lon="114.24154379638672" /><trkpt lat="22.24003478125" lon="114.24140579638672" /><trkpt lat="22.24014378125" lon="114.24133579638672" /><trkpt lat="22.24045378125" lon="114.24123979638672" /><trkpt lat="22.24078778125" lon="114.24117479638672" /><trkpt lat="22.24107478125" lon="114.24126679638672" /><trkpt lat="22.24117478125" lon="114.24128779638671" /><trkpt lat="22.24126978125" lon="114.24130879638672" /><trkpt lat="22.24138978125" lon="114.24135479638672" /><trkpt lat="22.24146278125" lon="114.24138279638672" /><trkpt lat="22.24154378125" lon="114.24138379638671" /><trkpt lat="22.24155578125" lon="114.24134679638672" /><trkpt lat="22.24151678125" lon="114.24124479638672" /><trkpt lat="22.24152178125" lon="114.24108679638672" /><trkpt lat="22.24156478125" lon="114.24089979638671" /><trkpt lat="22.24158578125" lon="114.24074479638672" /><trkpt lat="22.24165578125" lon="114.24054779638672" /><trkpt lat="22.24170178125" lon="114.24035979638671" /><trkpt lat="22.24175278125" lon="114.24019279638672" /><trkpt lat="22.24180978125" lon="114.24007979638672" /><trkpt lat="22.24187678125" lon="114.23992879638672" /><trkpt lat="22.24191078125" lon="114.23985879638671" /><trkpt lat="22.24192878125" lon="114.23981279638672" /><trkpt lat="22.24193978125" lon="114.23976079638672" /><trkpt lat="22.24195278125" lon="114.23968479638671" /><trkpt lat="22.24192978125" lon="114.23946579638672" /><trkpt lat="22.24206278125" lon="114.23939779638673" /><trkpt lat="22.24212278125" lon="114.23943079638671" /><trkpt lat="22.24217478125" lon="114.23957279638672" /><trkpt lat="22.24222978125" lon="114.23962679638672" /><trkpt lat="22.24234278125" lon="114.23959679638672" /><trkpt lat="22.24249778125" lon="114.23945679638672" /><trkpt lat="22.24268278125" lon="114.23937579638672" /><trkpt lat="22.24281978125" lon="114.23941679638672" /><trkpt lat="22.24294078125" lon="114.23925779638672" /><trkpt lat="22.24317578125" lon="114.23923479638673" /><trkpt lat="22.24325378125" lon="114.23919979638671" /><trkpt lat="22.24337578125" lon="114.23913879638671" /><trkpt lat="22.24346578125" lon="114.23907979638672" /><trkpt lat="22.24373578125" lon="114.23894079638671" /><trkpt lat="22.24398878125" lon="114.23893479638672" /><trkpt lat="22.24412078125" lon="114.23878279638672" /><trkpt lat="22.24430178125" lon="114.23875779638672" /><trkpt lat="22.24442378125" lon="114.23870479638671" /><trkpt lat="22.24455378125" lon="114.23840579638671" /><trkpt lat="22.24460778125" lon="114.23835179638672" /><trkpt lat="22.24481878125" lon="114.23838479638673" /><trkpt lat="22.24493978125" lon="114.23815879638671" /><trkpt lat="22.24521878125" lon="114.23814779638671" /><trkpt lat="22.24532278125" lon="114.23807879638672" /><trkpt lat="22.24540878125" lon="114.23791779638672" /><trkpt lat="22.24544278125" lon="114.23773579638672" /><trkpt lat="22.24561078125" lon="114.23730379638671" /><trkpt lat="22.24577478125" lon="114.23709179638672" /><trkpt lat="22.24572078125" lon="114.23696379638672" /><trkpt lat="22.24559378125" lon="114.23690679638672" /><trkpt lat="22.24544178125" lon="114.23693779638671" /><trkpt lat="22.24539178125" lon="114.23689479638672" /><trkpt lat="22.24536178125" lon="114.23678279638672" /><trkpt lat="22.24535678125" lon="114.23665379638672" /><trkpt lat="22.24542478125" lon="114.23653779638671" /><trkpt lat="22.24555378125" lon="114.23642279638672" /><trkpt lat="22.24585478125" lon="114.23644279638673" /><trkpt lat="22.24612478125" lon="114.23629679638672" /><trkpt lat="22.24640178125" lon="114.23634979638672" /><trkpt lat="22.24664378125" lon="114.23636379638671" /><trkpt lat="22.24675778125" lon="114.23638279638672" /><trkpt lat="22.24687878125" lon="114.23634079638671" /><trkpt lat="22.24711678125" lon="114.23613379638672" /><trkpt lat="22.24714378125" lon="114.23584479638671" /><trkpt lat="22.24732478125" lon="114.23554779638673" /><trkpt lat="22.24744078125" lon="114.23540979638672" /><trkpt lat="22.24758478125" lon="114.23536679638671" /><trkpt lat="22.24783978125" lon="114.23544179638672" /><trkpt lat="22.24787278125" lon="114.23524479638672" /><trkpt lat="22.24797578125" lon="114.23507579638672" /><trkpt lat="22.24813978125" lon="114.23500579638672" /><trkpt lat="22.24820878125" lon="114.23486379638672" /><trkpt lat="22.24838778125" lon="114.23479479638672" /><trkpt lat="22.24870778125" lon="114.23473279638672" /><trkpt lat="22.24882178125" lon="114.23439779638672" /><trkpt lat="22.24903278125" lon="114.23412879638671" /><trkpt lat="22.24909578125" lon="114.23393179638671" /><trkpt lat="22.24920278125" lon="114.23385379638673" /><trkpt lat="22.24929678125" lon="114.23372679638672" /><trkpt lat="22.24939878125" lon="114.23329079638673" /><trkpt lat="22.24938078125" lon="114.23311779638672" /><trkpt lat="22.24946478125" lon="114.23295479638672" /><trkpt lat="22.24949678125" lon="114.23262279638672" /><trkpt lat="22.24949478125" lon="114.23215179638672" /><trkpt lat="22.24939678125" lon="114.23198679638672" /><trkpt lat="22.24944778125" lon="114.23175579638672" /><trkpt lat="22.249582781249998" lon="114.23165779638671" /><trkpt lat="22.24978978125" lon="114.23164379638672" /><trkpt lat="22.24984878125" lon="114.23163279638672" /><trkpt lat="22.24994478125" lon="114.23160779638673" /><trkpt lat="22.25004678125" lon="114.23159879638672" /><trkpt lat="22.25018478125" lon="114.23166079638672" /><trkpt lat="22.25030978125" lon="114.23161479638672" /><trkpt lat="22.25063078125" lon="114.23148679638672" /><trkpt lat="22.25112078125" lon="114.23130579638672" /><trkpt lat="22.25127078125" lon="114.23135279638672" /><trkpt lat="22.25140378125" lon="114.23153579638672" /><trkpt lat="22.25147578125" lon="114.23159579638671" /><trkpt lat="22.25156878125" lon="114.23158179638672" /><trkpt lat="22.25174578125" lon="114.23148879638671" /><trkpt lat="22.25201678125" lon="114.23153079638672" /><trkpt lat="22.25228478125" lon="114.23145379638672" /><trkpt lat="22.25268778125" lon="114.23141579638671" /><trkpt lat="22.25324178125" lon="114.23142579638672" /><trkpt lat="22.25351678125" lon="114.23156479638672" /><trkpt lat="22.25372578125" lon="114.23161779638671" /><trkpt lat="22.25395278125" lon="114.23178179638671" /><trkpt lat="22.25418078125" lon="114.23157779638672" /><trkpt lat="22.25441778125" lon="114.23157879638671" /><trkpt lat="22.25462078125" lon="114.23176279638672" /><trkpt lat="22.25462978125" lon="114.23189079638672" /><trkpt lat="22.25473778125" lon="114.23197979638672" /><trkpt lat="22.25483278125" lon="114.23201679638672" /><trkpt lat="22.25498678125" lon="114.23201179638671" /><trkpt lat="22.25497078125" lon="114.23226779638672" /><trkpt lat="22.25495878125" lon="114.23249079638671" /><trkpt lat="22.25498878125" lon="114.23283179638672" /><trkpt lat="22.25499378125" lon="114.23308079638672" /><trkpt lat="22.25483678125" lon="114.23341179638672" /><trkpt lat="22.25465778125" lon="114.23367179638672" /><trkpt lat="22.25469178125" lon="114.23396479638672" /><trkpt lat="22.25477778125" lon="114.23403679638672" /><trkpt lat="22.25506278125" lon="114.23413479638671" /><trkpt lat="22.25516878125" lon="114.23429479638672" /><trkpt lat="22.25526278125" lon="114.23447279638673" /><trkpt lat="22.25550778125" lon="114.23454179638672" /><trkpt lat="22.25583278125" lon="114.23458579638672" /><trkpt lat="22.25605578125" lon="114.23468979638672" /><trkpt lat="22.25619278125" lon="114.23493779638672" /><trkpt lat="22.25619978125" lon="114.23502679638672" /><trkpt lat="22.25617478125" lon="114.23514179638671" /><trkpt lat="22.25617178125" lon="114.23523679638672" /><trkpt lat="22.25623178125" lon="114.23531679638671" /><trkpt lat="22.25657278125" lon="114.23547979638671" /><trkpt lat="22.25673078125" lon="114.23565079638672" /><trkpt lat="22.25680978125" lon="114.23579079638672" /><trkpt lat="22.25674578125" lon="114.23589979638672" /><trkpt lat="22.25666578125" lon="114.23594679638671" /><trkpt lat="22.25658278125" lon="114.23597579638673" /><trkpt lat="22.25650078125" lon="114.23609879638671" /><trkpt lat="22.25646278125" lon="114.23623179638672" /><trkpt lat="22.25648578125" lon="114.23634079638671" /><trkpt lat="22.25657878125" lon="114.23643479638672" /><trkpt lat="22.25668778125" lon="114.23648179638671" /><trkpt lat="22.25704978125" lon="114.23648379638672" /><trkpt lat="22.25716478125" lon="114.23652879638672" /><trkpt lat="22.25725578125" lon="114.23665379638672" /><trkpt lat="22.25724378125" lon="114.23674179638672" /><trkpt lat="22.25720578125" lon="114.23679979638672" /><trkpt lat="22.25714178125" lon="114.23682879638672" /><trkpt lat="22.25704278125" lon="114.23685179638672" /><trkpt lat="22.25697578125" lon="114.23690079638672" /><trkpt lat="22.25696778125" lon="114.23696979638672" /><trkpt lat="22.25697278125" lon="114.23704979638671" /><trkpt lat="22.25701778125" lon="114.23711579638672" /><trkpt lat="22.25714078125" lon="114.23723579638671" /><trkpt lat="22.25721778125" lon="114.23744879638672" /><trkpt lat="22.25714778125" lon="114.23761379638673" /><trkpt lat="22.25702578125" lon="114.23774879638673" /><trkpt lat="22.25677178125" lon="114.23793779638672" /><trkpt lat="22.25667478125" lon="114.23815579638672" /><trkpt lat="22.25653278125" lon="114.23830379638672" /><trkpt lat="22.25623578125" lon="114.23870879638672" /><trkpt lat="22.25618478125" lon="114.23914279638672" /><trkpt lat="22.25625378125" lon="114.23946079638672" /><trkpt lat="22.25623178125" lon="114.23963179638672" /><trkpt lat="22.25603078125" lon="114.24009879638672" /><trkpt lat="22.25597278125" lon="114.24020879638672" /><trkpt lat="22.25594378125" lon="114.24026479638673" /><trkpt lat="22.25598278125" lon="114.24038679638672" /><trkpt lat="22.25595078125" lon="114.24044279638672" /><trkpt lat="22.25591578125" lon="114.24054579638671" /><trkpt lat="22.25579678125" lon="114.24095379638672" /><trkpt lat="22.25555578125" lon="114.24087179638671" /><trkpt lat="22.25546378125" lon="114.24103279638672" /><trkpt lat="22.25542878125" lon="114.24106379638671" /><trkpt lat="22.25538378125" lon="114.24109179638671" /><trkpt lat="22.25533178125" lon="114.24113379638672" /><trkpt lat="22.25515078125" lon="114.24126579638671" /><trkpt lat="22.25500578125" lon="114.24146879638671" /><trkpt lat="22.25495378125" lon="114.24162979638672" /><trkpt lat="22.25498078125" lon="114.24171379638672" /><trkpt lat="22.25494778125" lon="114.24193679638672" /><trkpt lat="22.25485278125" lon="114.24200179638672" /><trkpt lat="22.25469478125" lon="114.24196179638672" /><trkpt lat="22.25456578125" lon="114.24197579638673" /><trkpt lat="22.25425978125" lon="114.24210979638671" /><trkpt lat="22.25408178125" lon="114.24214379638671" /><trkpt lat="22.25387578125" lon="114.24233079638672" /><trkpt lat="22.25368978125" lon="114.24241479638673" /><trkpt lat="22.25329878125" lon="114.24280779638671" /><trkpt lat="22.25325778125" lon="114.24292779638672" /><trkpt lat="22.25322478125" lon="114.24307079638672" /><trkpt lat="22.25314278125" lon="114.24317379638671" /><trkpt lat="22.25301678125" lon="114.24343779638671" /><trkpt lat="22.25284278125" lon="114.24359279638672" /><trkpt lat="22.25275878125" lon="114.24377879638672" /><trkpt lat="22.25259878125" lon="114.24386779638672" /><trkpt lat="22.25247078125" lon="114.24396579638672" /><trkpt lat="22.25240678125" lon="114.24407079638672" /><trkpt lat="22.25235378125" lon="114.24419779638671" /><trkpt lat="22.25226778125" lon="114.24460579638672" /><trkpt lat="22.25227778125" lon="114.24472879638672" /><trkpt lat="22.25218478125" lon="114.24488479638671" /><trkpt lat="22.25214178125" lon="114.24499479638672" /><trkpt lat="22.25193078125" lon="114.24527479638672" /><trkpt lat="22.25185478125" lon="114.24552079638671" /><trkpt lat="22.25172378125" lon="114.24564079638672" /><trkpt lat="22.25167978125" lon="114.24581379638671" /><trkpt lat="22.25163478125" lon="114.24603979638673" /><trkpt lat="22.25153978125" lon="114.24623079638671" /><trkpt lat="22.25121478125" lon="114.24624179638671" /><trkpt lat="22.25073278125" lon="114.24604479638671" /><trkpt lat="22.25034378125" lon="114.24599979638671" /><trkpt lat="22.25015378125" lon="114.24603679638672" /><trkpt lat="22.25002778125" lon="114.24602079638672" /><trkpt lat="22.24980278125" lon="114.24559579638672" /><trkpt lat="22.24969378125" lon="114.24549779638672" /><trkpt lat="22.24947678125" lon="114.24555779638672" /><trkpt lat="22.24933878125" lon="114.24547079638671" /><trkpt lat="22.24919678125" lon="114.24526679638672" /><trkpt lat="22.24892378125" lon="114.24510979638671" /><trkpt lat="22.24846878125" lon="114.24506779638672" /><trkpt lat="22.24823378125" lon="114.24510479638671" /><trkpt lat="22.24814878125" lon="114.24511779638672" /><trkpt lat="22.24776878125" lon="114.24505979638671" /><trkpt lat="22.24752378125" lon="114.24506179638672" /><trkpt lat="22.24737978125" lon="114.24508479638672" /><trkpt lat="22.24714078125" lon="114.24518979638673" /><trkpt lat="22.24703478125" lon="114.24519479638671" /><trkpt lat="22.24695678125" lon="114.24524679638672" /><trkpt lat="22.24676378125" lon="114.24543179638673" /><trkpt lat="22.24697678125" lon="114.24576279638671" /><trkpt lat="22.24724478125" lon="114.24599079638672" /><trkpt lat="22.24751878125" lon="114.24649679638672" /><trkpt lat="22.24733578125" lon="114.24661379638673" /><trkpt lat="22.24727278125" lon="114.24655779638672" /><trkpt lat="22.24719378125" lon="114.24661379638673" /><trkpt lat="22.24721078125" lon="114.24671179638672" /><trkpt lat="22.24701678125" lon="114.24677379638672" /><trkpt lat="22.24695378125" lon="114.24666879638671" /><trkpt lat="22.24683178125" lon="114.24669179638671" /><trkpt lat="22.24676978125" lon="114.24672779638672" /><trkpt lat="22.24691478125" lon="114.24702379638671" /><trkpt lat="22.24704978125" lon="114.24734179638672" /><trkpt lat="22.24711078125" lon="114.24761079638672" /><trkpt lat="22.246945781249998" lon="114.24777279638671" /><trkpt lat="22.24700878125" lon="114.24790479638672" /><trkpt lat="22.24688378125" lon="114.24800579638672" /><trkpt lat="22.24680178125" lon="114.24811779638672" /><trkpt lat="22.24656178125" lon="114.24826679638672" /><trkpt lat="22.24641678125" lon="114.24834479638672" /><trkpt lat="22.24636678125" lon="114.24848379638672" /><trkpt lat="22.24636478125" lon="114.24857779638671" /><trkpt lat="22.24630478125" lon="114.24864979638672" /><trkpt lat="22.24623378125" lon="114.24876779638672" /><trkpt lat="22.24620478125" lon="114.24881179638672" /><trkpt lat="22.246156465167644" lon="114.24878581166627" /><trkpt lat="22.2461999828204" lon="114.24875887391886" /><trkpt lat="22.24620125335055" lon="114.24876116506749" /><trkpt lat="22.24622642661516" lon="114.24877895514645" /><trkpt lat="22.24623378125" lon="114.24876779638672" /><trkpt lat="22.24630478125" lon="114.24864979638672" /><trkpt lat="22.24636478125" lon="114.24857779638671" /><trkpt lat="22.24636678125" lon="114.24848379638672" /><trkpt lat="22.24641678125" lon="114.24834479638672" /><trkpt lat="22.24656178125" lon="114.24826679638672" /><trkpt lat="22.24680178125" lon="114.24811779638672" /><trkpt lat="22.24688378125" lon="114.24800579638672" /><trkpt lat="22.24700878125" lon="114.24790479638672" /><trkpt lat="22.246945781249998" lon="114.24777279638671" /><trkpt lat="22.24711078125" lon="114.24761079638672" /><trkpt lat="22.24704978125" lon="114.24734179638672" /><trkpt lat="22.24691478125" lon="114.24702379638671" /><trkpt lat="22.24676978125" lon="114.24672779638672" /><trkpt lat="22.24654378125" lon="114.24626879638672" /><trkpt lat="22.24649678125" lon="114.24624079638672" /><trkpt lat="22.24641378125" lon="114.24618879638672" /><trkpt lat="22.24629678125" lon="114.24599079638672" /><trkpt lat="22.24621778125" lon="114.24577379638671" /><trkpt lat="22.24619678125" lon="114.24571679638672" /><trkpt lat="22.24611378125" lon="114.24555779638672" /><trkpt lat="22.24570278125" lon="114.24548379638672" /><trkpt lat="22.24531778125" lon="114.24551879638672" /><trkpt lat="22.24511478125" lon="114.24549579638672" /><trkpt lat="22.24487978125" lon="114.24561179638673" /><trkpt lat="22.24477678125" lon="114.24562979638672" /><trkpt lat="22.244739549862526" lon="114.24561824181643" /></trkseg></trk></gpx>